{"type":"Feature","properties":{"code":"E63002901","name":"Market Harborough"},"geometry":{"type":"MultiPolygon","coordinates":[[[[-0.893363848919023,52.4818365350314],[-0.893731901345261,52.4818399751929],[-0.893737533075055,52.4816152678463],[-0.894105583676645,52.4816187068929],[-0.894099953846734,52.4818434142078],[-0.894468006423417,52.4818468520759],[-0.894836059075284,52.4818502887974],[-0.895204111802312,52.4818537243722],[-0.895198487596854,52.4820784315847],[-0.895192863316193,52.4823031387899],[-0.895187238960326,52.482527845988],[-0.895181614529251,52.482752553179],[-0.894813554202426,52.4827491177313],[-0.894445493950766,52.4827456811369],[-0.894077433774296,52.4827422433958],[-0.894083063905327,52.4825175361096],[-0.893715005704055,52.48251409719],[-0.893346947578022,52.4825106571237],[-0.892978889527253,52.4825072159107],[-0.892984525282872,52.482282508522],[-0.892616469207347,52.4822790661306],[-0.892622106787539,52.482054358703],[-0.892254052687254,52.4820509151332],[-0.891885998662305,52.4820474704167],[-0.891891639966922,52.4818227629185],[-0.892259692091969,52.4818262076667],[-0.892627744292352,52.4818296512683],[-0.892995796568045,52.4818330937232],[-0.893363848919023,52.4818365350314]]],[[[-0.945154941430102,52.4712962953786],[-0.945149574513689,52.4715210084068],[-0.945144207526245,52.4717457214259],[-0.944776233343322,52.4717424406797],[-0.944408259231382,52.4717391587891],[-0.944040285190451,52.4717358757539],[-0.944034912510934,52.4719605886797],[-0.944029539760311,52.4721853015964],[-0.944024166938579,52.4724100145041],[-0.943656187347572,52.47240673024],[-0.943288207827627,52.4724034448314],[-0.943293584396813,52.4721787319801],[-0.942925606821678,52.4721754454552],[-0.942920228378768,52.4724001582784],[-0.94255224900102,52.4723968705809],[-0.942557629317655,52.4721721577859],[-0.942189651884765,52.4721688689721],[-0.941821674523035,52.4721655790139],[-0.941453697232488,52.4721622879112],[-0.941459083099006,52.4719375751918],[-0.941091107753362,52.4719342829729],[-0.940723132478951,52.4719309896095],[-0.940355157275796,52.4719276951016],[-0.939987182143923,52.4719243994493],[-0.939619207083357,52.4719211026526],[-0.939624602246929,52.4716963900655],[-0.939256629131357,52.4716930921526],[-0.939262026097166,52.4714683795848],[-0.938894054926586,52.4714650805558],[-0.938888656087139,52.4716897930952],[-0.9385206831143,52.4716864928934],[-0.938152710212866,52.4716831915471],[-0.938147307554648,52.471907904021],[-0.937779332850984,52.471904601502],[-0.937411358218774,52.4719012978385],[-0.93740595174169,52.4721260102467],[-0.937037975307279,52.4721227054104],[-0.936669998944374,52.4721193994297],[-0.936664588648328,52.4723441117722],[-0.936659178280678,52.4725688241057],[-0.936653767841423,52.4727935364303],[-0.936648357330563,52.4730182487458],[-0.936280373544229,52.4730149415072],[-0.935912389829456,52.473011633124],[-0.935544406186266,52.4730083235964],[-0.935176422614686,52.4730050129243],[-0.935181840620646,52.4727803007223],[-0.934813858994347,52.4727769889335],[-0.934819278802314,52.4725522767513],[-0.934824698538561,52.47232756456],[-0.934456720730114,52.472324251685],[-0.934088742993336,52.4723209376656],[-0.933720765328254,52.4723176225019],[-0.93335278773489,52.4723143061937],[-0.932984810213272,52.4723109887411],[-0.93297938111001,52.4725357007788],[-0.933347360505029,52.4725390182621],[-0.933341933203348,52.4727637303214],[-0.933336505829849,52.4729884423717],[-0.93333107838453,52.4732131544129],[-0.933699063471648,52.473216470844],[-0.933693637828007,52.4734411829069],[-0.933688212112568,52.4736658949607],[-0.934056201018439,52.4736692103088],[-0.934424189996014,52.4736725245125],[-0.934418767955879,52.4738972366187],[-0.934050777104752,52.4738939223843],[-0.933682786325329,52.4738906070054],[-0.93367736046629,52.4741153190411],[-0.934045353119289,52.4741186344507],[-0.934413345843993,52.4741219487158],[-0.934781338640377,52.4741252618365],[-0.935149331509268,52.4741285737994],[-0.935517324450085,52.4741318846135],[-0.935885317462516,52.474135194283],[-0.936253310546538,52.4741385028079],[-0.936621303702126,52.4741418101883],[-0.936626714571036,52.4739170979178],[-0.936994705924264,52.4739204041253],[-0.937362697349007,52.4739237091883],[-0.937730688845241,52.4739270131068],[-0.938098680412941,52.4739303158807],[-0.938466672052082,52.4739336175101],[-0.938834663762641,52.4739369179949],[-0.938829264137159,52.4741616304354],[-0.938461270552693,52.4741583299223],[-0.938455868981815,52.4743830423254],[-0.938450467339445,52.4746077547196],[-0.9388184646718,52.4746110552894],[-0.938823864440213,52.4743863428669],[-0.939191859970005,52.4743896422638],[-0.939197257793018,52.474164929804],[-0.939565251520245,52.4741682280281],[-0.939570647397907,52.473943515531],[-0.939938639322565,52.4739468125823],[-0.940306631318542,52.473950108489],[-0.940301239188705,52.4741748210426],[-0.940669233129889,52.474178115833],[-0.941037227142342,52.4741814094789],[-0.94140522122604,52.4741847019802],[-0.941773215380957,52.474187993337],[-0.94214120960707,52.4741912835492],[-0.942509203904354,52.4741945726169],[-0.942503822946803,52.474419285331],[-0.942498441918032,52.474643998036],[-0.942493060818041,52.474868710732],[-0.942861060808384,52.4748719987398],[-0.943229060869852,52.4748752856029],[-0.943234438221849,52.4746505728505],[-0.943602436480419,52.4746538585409],[-0.943607811887272,52.4744291457513],[-0.94397580834294,52.474432430269],[-0.943970434810062,52.4746571430867],[-0.944338433210755,52.474660426488],[-0.944333061480756,52.474885139325],[-0.944327689679658,52.4751098521529],[-0.94395968753094,52.4751065686953],[-0.943954313784693,52.4753312814862],[-0.944322317807462,52.4753345649719],[-0.944690321901259,52.4753378473131],[-0.945058326066061,52.4753411285097],[-0.945426330301842,52.4753444085616],[-0.945420963891444,52.4755691199833],[-0.945415597379051,52.4757938308878],[-0.945410230795449,52.476018541783],[-0.945404864140637,52.476243252669],[-0.945399497414613,52.4764679635458],[-0.945767511119511,52.4764712426065],[-0.945772875965204,52.4762465316929],[-0.946140887860885,52.4762498095723],[-0.946508899827657,52.4762530863074],[-0.946876911865494,52.4762563618981],[-0.946871552660801,52.4764810729224],[-0.947239566650014,52.4764843474056],[-0.947607580710244,52.4764876207444],[-0.94760222519516,52.4767123318331],[-0.94759686960901,52.4769370429125],[-0.947591513951794,52.4771617539827],[-0.947586158223511,52.4773864650436],[-0.947580802424158,52.4776111760953],[-0.947212778961872,52.4776079025723],[-0.947218136641685,52.4773831915574],[-0.946850115130881,52.4773799169268],[-0.946855474620035,52.4771552059396],[-0.946487455060712,52.4771519302014],[-0.946119435572459,52.4771486533189],[-0.946124798751313,52.4769239423961],[-0.94575678121456,52.476920664406],[-0.945388763748927,52.4769173852715],[-0.945394130617377,52.4766926744133],[-0.945026115103267,52.4766893941712],[-0.944658099660323,52.4766861127849],[-0.944290084288572,52.4766828302541],[-0.943922068988037,52.4766795465789],[-0.943554053758743,52.4766762617594],[-0.943548677488411,52.476900972433],[-0.94354330114674,52.4771256830975],[-0.943537924733728,52.4773503937526],[-0.943532548249375,52.4775751043986],[-0.943527171693678,52.4777998150352],[-0.943521795066638,52.4780245256627],[-0.943516418368252,52.4782492362808],[-0.943148390047096,52.4782459500583],[-0.943143011396817,52.4784706606303],[-0.94351104159852,52.4784739468898],[-0.943879071871499,52.4784772320048],[-0.943873696910992,52.4787019426414],[-0.943868321879159,52.4789266532688],[-0.943500287845011,52.4789233680798],[-0.943494910861231,52.479148078661],[-0.94312687501774,52.4791447922907],[-0.943121496081964,52.4793695028257],[-0.943116117074809,52.4795942133514],[-0.943484156679615,52.4795974997956],[-0.943852196355704,52.4796007850953],[-0.943857571601517,52.4793760744957],[-0.944225609468191,52.479379358614],[-0.944593647406097,52.4793826415878],[-0.944961685415209,52.4793859234171],[-0.945329723495504,52.4793892041018],[-0.945697761646957,52.4793924836421],[-0.94569239580452,52.4796171944263],[-0.945687029890879,52.4798419052012],[-0.945681663906031,52.4800666159669],[-0.945676297849974,52.4802913267233],[-0.945670931722709,52.4805160374704],[-0.945665565524234,52.4807407482084],[-0.945660199254546,52.480965458937],[-0.945292147937829,52.4809621791385],[-0.944924096692277,52.4809588981954],[-0.944918726589675,52.481183608841],[-0.944550673534466,52.4811803267165],[-0.944545301479727,52.4814050373159],[-0.944177246614862,52.4814017540098],[-0.944171872607936,52.4816264645631],[-0.943803815933418,52.4816231800756],[-0.943798439974255,52.4818478905827],[-0.943430381490087,52.4818446049136],[-0.943425003578638,52.4820693153745],[-0.943419625595821,52.4822940258261],[-0.943051563421037,52.4822907389385],[-0.943046183485859,52.482515449344],[-0.943040803479285,52.4827401597402],[-0.943035423401314,52.4829648701272],[-0.943030043251945,52.4831895805049],[-0.94266197362437,52.4831862923248],[-0.942656591522511,52.4834110026563],[-0.943024663031177,52.4834142908734],[-0.943392734611173,52.4834175779457],[-0.943760806262472,52.4834208638734],[-0.94412887798505,52.4834241486565],[-0.944123503336236,52.4836488591265],[-0.944491577011189,52.4836521428018],[-0.944859650757374,52.4836554253325],[-0.945227724574764,52.4836587067184],[-0.945222355429139,52.4838834168106],[-0.945216986177445,52.4841081266503],[-0.945211616854728,52.4843328364812],[-0.945206247460984,52.4845575463031],[-0.945200877996214,52.4847822561163],[-0.945195508460415,52.4850069659205],[-0.945190138853587,52.4852316757159],[-0.945184769175728,52.4854563855024],[-0.944816680370316,52.4854531039302],[-0.944811308747968,52.4856778136838],[-0.944805937054561,52.4859025234285],[-0.944800565290096,52.4861272331644],[-0.945168659715955,52.4861305148086],[-0.945536754212779,52.4861337953077],[-0.945531386124317,52.4863585050828],[-0.945526017964844,52.4865832148489],[-0.945520649734358,52.4868079246062],[-0.945515281432856,52.4870326343546],[-0.945509913060338,52.4872573440942],[-0.945504544616803,52.4874820538249],[-0.94549917610225,52.4877067635467],[-0.945493807516677,52.4879314732596],[-0.945861917073408,52.4879347528057],[-0.946230026701064,52.4879380312066],[-0.946235391539221,52.4877133214456],[-0.946603499364067,52.4877165986772],[-0.946971607259788,52.4877198747637],[-0.947339715226359,52.4877231497049],[-0.947707823263755,52.4877264235008],[-0.948075931371951,52.4877296961516],[-0.948070575902356,52.4879544060325],[-0.948065220361913,52.4881791159045],[-0.948059864750622,52.4884038257676],[-0.94805450906848,52.4886285356218],[-0.948049153315487,52.4888532454672],[-0.947681035838468,52.4888499726966],[-0.947675678140784,52.4890746825092],[-0.948043797491641,52.4890779553037],[-0.94803844159694,52.4893026651314],[-0.948033085631384,52.4895273749501],[-0.948027729594972,52.48975208476],[-0.948022373487702,52.4899767945611],[-0.948017017309573,52.4902015043533],[-0.948011661060584,52.4904262141365],[-0.948006304740733,52.490650923911],[-0.948000948350019,52.4908756336765],[-0.947995591888441,52.4911003434332],[-0.947990235355998,52.491325053181],[-0.948358373517397,52.4913283250698],[-0.948726511749567,52.4913315958133],[-0.949094650052483,52.4913348654114],[-0.949089299071513,52.4915595752221],[-0.949083948019749,52.4917842850241],[-0.948715805968579,52.4917810153781],[-0.948710452971857,52.4920057251472],[-0.948342309117273,52.492002454332],[-0.94833695420968,52.4922271640515],[-0.947968808552534,52.4922238920635],[-0.947963451715809,52.4924486017381],[-0.947595304257396,52.4924453285756],[-0.947589945477838,52.4926700382119],[-0.947221796218163,52.492666763875],[-0.947216435495721,52.492891473473],[-0.946848284434788,52.4928881979616],[-0.946842921769413,52.4931129075214],[-0.946474768907222,52.4931096308353],[-0.946469404298865,52.4933343403568],[-0.946101249635418,52.4933310624963],[-0.94609588308403,52.4935557719795],[-0.945727726619331,52.4935524929443],[-0.945722358124863,52.4937772023892],[-0.945716989559429,52.4940019118251],[-0.945348829421314,52.4939986315861],[-0.945354199858914,52.4937739221795],[-0.944986041663882,52.4937706408245],[-0.944991413902633,52.4935459314382],[-0.944996786070371,52.4933212220428],[-0.944628631690535,52.4933179396011],[-0.944634005659352,52.493093230226],[-0.944265853222568,52.4930899466683],[-0.944271228992414,52.4928652373136],[-0.943903078498681,52.4928619526399],[-0.943908456069506,52.4926372433055],[-0.943540307518821,52.4926339575159],[-0.943545686890576,52.4924092482017],[-0.943551066191227,52.4921845388785],[-0.943182921455572,52.4921812520024],[-0.94318830259568,52.4919565426518],[-0.943193683704712,52.4917318332429],[-0.943199064742554,52.4915071238251],[-0.943204445709206,52.4912824143984],[-0.942836308541195,52.4912791264745],[-0.942841691310728,52.491054417063],[-0.942473556087927,52.4910511280179],[-0.942478940660293,52.4908264186216],[-0.942110807382701,52.4908231284552],[-0.942116193757849,52.4905984190742],[-0.941748062425461,52.4905951277866],[-0.941379931164286,52.4905918353536],[-0.941011799974347,52.4905885417753],[-0.941017191900208,52.4903638324578],[-0.941022583754738,52.4901391231314],[-0.940654456384013,52.490135828456],[-0.94064906265552,52.4903605377583],[-0.940280933482116,52.4903572419135],[-0.94027553780828,52.4905819511827],[-0.939907406832201,52.4905786541684],[-0.939539275927457,52.4905753560088],[-0.939544675349263,52.4903506467879],[-0.939550074699638,52.4901259375581],[-0.939555473978585,52.4899012283195],[-0.939923599261449,52.4899045264066],[-0.940291724615646,52.4899078233484],[-0.940297120075343,52.4896831140525],[-0.939928996595058,52.4896798171348],[-0.939934393857263,52.4894551078543],[-0.939566272322194,52.4894518098155],[-0.939571671386859,52.4892271005502],[-0.939203551797003,52.4892238013903],[-0.938835432278525,52.4892205010852],[-0.93846731283145,52.4892171996347],[-0.938472717446191,52.4889924904331],[-0.938104599944374,52.4889891878616],[-0.938110006361424,52.4887644786753],[-0.938115412706953,52.4885397694802],[-0.937747299024171,52.4885364658118],[-0.937752707171937,52.488311756632],[-0.938120818980963,52.4883150602761],[-0.938488930861437,52.488318362775],[-0.938494335190197,52.4880936535379],[-0.938862445268359,52.4880969548674],[-0.939230555417919,52.4881002550516],[-0.939235955927768,52.4878755457572],[-0.939604064274988,52.4878788447721],[-0.93960946283971,52.4876541354447],[-0.939977569384587,52.4876574332901],[-0.939982966004231,52.4874327239297],[-0.939614861333016,52.4874294261084],[-0.939620259754909,52.4872047167632],[-0.939625658105388,52.4869800074092],[-0.939631056384456,52.4867552980462],[-0.93926295740542,52.4867519991523],[-0.938894858497748,52.4867486991131],[-0.938900260452529,52.4865239897897],[-0.938532163489806,52.4865206886296],[-0.938537567246663,52.4862959793215],[-0.938542970932039,52.4860712700045],[-0.938911064147717,52.4860745711162],[-0.938916465888125,52.4858498617661],[-0.93892186755708,52.4856251524072],[-0.93892726915458,52.4854004430394],[-0.939295356821256,52.4854037429334],[-0.939300756473891,52.4851790335326],[-0.939306156055099,52.4849543241228],[-0.939311555564883,52.4847296147042],[-0.939679637682747,52.4847329133806],[-0.939685035247767,52.484508203929],[-0.939690432741389,52.4842834944684],[-0.939695830163614,52.484058784999],[-0.939701227514444,52.4838340755207],[-0.94006930221042,52.4838373729554],[-0.940074697620088,52.4836126631498],[-0.940080092961143,52.4833879530866],[-0.940085488230601,52.4831632430141],[-0.940090883428461,52.4829385329323],[-0.940096278554725,52.4827138228413],[-0.939728213260751,52.4827105255781],[-0.939733610196426,52.4824858155149],[-0.939739007060483,52.4822611054424],[-0.939370945600043,52.4822578071087],[-0.939376344273437,52.482033097064],[-0.939381742875191,52.48180838701],[-0.939387141405304,52.4815836769468],[-0.939019085659223,52.4815803775796],[-0.939024485998579,52.4813556675442],[-0.939029886266272,52.4811309574995],[-0.938661834353515,52.4811276570619],[-0.938667236430377,52.480902947045],[-0.938672638435554,52.4806782370189],[-0.938678040369049,52.4804535269836],[-0.938309994170314,52.4804502255125],[-0.938315397912881,52.480225515505],[-0.938320801583741,52.4800008054882],[-0.938326205182899,52.4797760954621],[-0.937958164697981,52.4797727929578],[-0.937590124284719,52.479769489309],[-0.937222083943138,52.4797661845157],[-0.937216674701878,52.4799908944305],[-0.936848632551304,52.4799875884556],[-0.936843221357543,52.480212298324],[-0.93647517739798,52.4802089911674],[-0.936469764251667,52.4804337009895],[-0.936837810091977,52.4804370081832],[-0.936832398754605,52.4806617180331],[-0.936826987345426,52.4808864278738],[-0.937195037019041,52.4808897339971],[-0.937189627418877,52.4811144438657],[-0.937557679045028,52.4811177488816],[-0.937552271253928,52.4813424587779],[-0.937546863391067,52.481567168665],[-0.937541455456443,52.4817918785429],[-0.937909512796907,52.4817951825255],[-0.937904106671444,52.4820198924312],[-0.937898700474241,52.4822446023276],[-0.938266761648248,52.4822479052398],[-0.938261357260279,52.482472615164],[-0.938255952800592,52.482697325079],[-0.938624017808222,52.4827006269207],[-0.938618615157842,52.4829253368636],[-0.938613212435767,52.4831500467971],[-0.938607809641995,52.4833747567214],[-0.938602406776524,52.4835994666365],[-0.938597003854555,52.4838241763463],[-0.938591600883931,52.484048885752],[-0.938223524600133,52.4840455837129],[-0.938218119684754,52.4842702930856],[-0.938212714697879,52.4844950024494],[-0.937844634738909,52.4844916992169],[-0.937839227807202,52.4847164085476],[-0.937833820803972,52.4849411178695],[-0.937828413729218,52.4851658271824],[-0.937460328221623,52.4851625227321],[-0.937092242785507,52.4851592171367],[-0.937086831892414,52.4853839263924],[-0.937081420927744,52.4856086356392],[-0.936713331816296,52.4856053288502],[-0.936345242776379,52.4856020209161],[-0.936339827993224,52.4858267301055],[-0.936334413138441,52.4860514392861],[-0.93596632042315,52.4860481301583],[-0.935960903623236,52.4862728393057],[-0.935592809106027,52.4862695290086],[-0.935587390360933,52.4864942381229],[-0.935581971544157,52.4867189472283],[-0.935576552655699,52.4869436563248],[-0.935208452589453,52.4869403448097],[-0.935203031755713,52.487165053873],[-0.935197610850264,52.4873897629275],[-0.934829507138104,52.4873864502195],[-0.934461403710413,52.4873831363718],[-0.934093300354408,52.4873798213791],[-0.933725197070111,52.4873765052413],[-0.933730625465964,52.487151796293],[-0.933362524126859,52.4871484790374],[-0.933367954324341,52.4869237701074],[-0.932999854930424,52.4869204517339],[-0.932994422859511,52.4871451606366],[-0.932988990716744,52.4873698695303],[-0.932983558502121,52.4875945784151],[-0.932978126215644,52.4878192872909],[-0.933346233103435,52.4878226057735],[-0.933351663516407,52.4875978968704],[-0.933719768602452,52.4876012141806],[-0.933714340062987,52.4878259231109],[-0.934082447094276,52.4878292393032],[-0.934077020356536,52.4880539482518],[-0.934071593547012,52.4882786571915],[-0.934066166665702,52.4885033661221],[-0.93369805401374,52.4885000498481],[-0.933692625187037,52.4887247587425],[-0.933324510733209,52.488721441296],[-0.933319079961062,52.4889461501543],[-0.932950963705371,52.4889428315353],[-0.932945530987731,52.4891675403573],[-0.93257741293018,52.4891642205659],[-0.932571978266997,52.4893889293517],[-0.932203858407587,52.4893856083879],[-0.932198421798813,52.4896103171373],[-0.931830300137548,52.489606995001],[-0.931462178548152,52.4896036717195],[-0.931094057030653,52.4896003472928],[-0.931088614728792,52.4898250559514],[-0.93072049140949,52.4898217303522],[-0.930352368162134,52.4898184036077],[-0.930346922040791,52.4900431122027],[-0.930341475847405,52.4902678207887],[-0.929973348924509,52.4902644928444],[-0.929967900785287,52.490489201394],[-0.929962452573994,52.4907139099348],[-0.929594321975488,52.4907105807905],[-0.929588871818283,52.4909352892949],[-0.92958342158898,52.4911599977903],[-0.929577971287579,52.4913847062768],[-0.92994610750768,52.4913880355031],[-0.929940659008093,52.4916127440079],[-0.930308797174115,52.4916160721163],[-0.930303350476393,52.4918407806395],[-0.92993521043643,52.4918374525038],[-0.929567070468474,52.4918341232228],[-0.929561619950768,52.4920588316823],[-0.92919347818088,52.4920555012286],[-0.929198930572549,52.4918307927964],[-0.92883079074868,52.4918274612248],[-0.928462650996891,52.491824128508],[-0.928468107064305,52.4915994201216],[-0.928099969258557,52.4915960862868],[-0.927731831524937,52.4915927513068],[-0.927737291267994,52.4913680429662],[-0.927369155480434,52.4913647068683],[-0.927001019765052,52.4913613696251],[-0.926995556274182,52.4915860779108],[-0.926627418757097,52.491582739495],[-0.926632884121872,52.4913580312367],[-0.926264748550918,52.491354691703],[-0.925896613052215,52.4913513510241],[-0.925528477625788,52.4913480091999],[-0.925160342271661,52.4913446662304],[-0.924792206989861,52.4913413221157],[-0.924797681651718,52.4911166139857],[-0.924429548316139,52.4911132687532],[-0.924061415052934,52.4911099223755],[-0.924055936643334,52.4913346304504],[-0.924050458161262,52.4915593385165],[-0.924044979606718,52.4917840465735],[-0.923676840794228,52.491780698968],[-0.923308702054164,52.4917773502172],[-0.922940563386553,52.4917740003212],[-0.922572424791417,52.4917706492799],[-0.92257791084163,52.4915459413329],[-0.922583396819272,52.4913212333769],[-0.922588882724344,52.491096525412],[-0.922594368556847,52.4908718174381],[-0.922599854316782,52.4906471094553],[-0.922605340004152,52.4904224014634],[-0.922237212724631,52.4904190494421],[-0.921869085517628,52.4904156962755],[-0.921874574879963,52.4901909883298],[-0.921880064169683,52.4899662803751],[-0.921885553386793,52.4897415724114],[-0.921517431873548,52.4897382181823],[-0.921522922891735,52.4895135102372],[-0.921154803324741,52.4895101548904],[-0.920786683830335,52.4895067983985],[-0.920792178523214,52.4892820904996],[-0.920424060975079,52.4892787328901],[-0.92005594349958,52.4892753741354],[-0.920061441867046,52.4890506662827],[-0.91969332633784,52.4890473064105],[-0.919325210881318,52.4890439453931],[-0.918957095497504,52.4890405832305],[-0.918588980186423,52.4890372199228],[-0.918594485975584,52.4888125121716],[-0.918599991691917,52.4885878044114],[-0.918605497335422,52.4883630966422],[-0.918237387717834,52.4883597322723],[-0.917869278049334,52.4883563668936],[-0.917874787374605,52.4881316591659],[-0.917506679648643,52.4881282926778],[-0.91713857199569,52.4881249250445],[-0.916770464415771,52.488121556266],[-0.916775979306713,52.4878968486035],[-0.916781494124524,52.4876721409322],[-0.916787008869209,52.4874474332519],[-0.916418907000992,52.4874440634025],[-0.916413390376785,52.487668771058],[-0.916407873679425,52.4878934787046],[-0.916402356908911,52.4881181863423],[-0.916034249475134,52.4881148152734],[-0.915666142114465,52.4881114430593],[-0.915671662644121,52.4878867354711],[-0.915303557236154,52.4878833621366],[-0.914935451901345,52.4878799876568],[-0.914567346639717,52.4878766120319],[-0.914572872734797,52.4876519045092],[-0.9145783987566,52.4874271969775],[-0.914583924705127,52.487202489437],[-0.914589450580381,52.4869777818876],[-0.914221352909971,52.4869744052167],[-0.913853255312787,52.4869710274006],[-0.913485157788854,52.4869676484394],[-0.913117060338197,52.486964268333],[-0.913122593657933,52.486739560874],[-0.912754498160012,52.4867361796473],[-0.912386402735414,52.4867327972754],[-0.912018307384166,52.4867294137585],[-0.912012768426126,52.486954121143],[-0.911644671268819,52.486950736456],[-0.911639130357875,52.4871754438067],[-0.911271031394513,52.4871720579497],[-0.911276574184911,52.4869473506239],[-0.910908477174429,52.4869439636465],[-0.910540380237396,52.4869405755241],[-0.910172283373837,52.4869371862565],[-0.909804186583776,52.4869337958438],[-0.90943608986724,52.4869304042858],[-0.909067993224252,52.4869270115828],[-0.909073547217711,52.4867023043975],[-0.908705452527718,52.4866989105742],[-0.908337357911322,52.4866955156058],[-0.907969263368548,52.4866921194923],[-0.90797482292655,52.4864674123729],[-0.907980382410836,52.4862427052446],[-0.907985941821407,52.4860179981074],[-0.907991501158264,52.4857932909613],[-0.907997060421409,52.4855685838064],[-0.908002619610842,52.4853438766425],[-0.908008178726566,52.4851191694697],[-0.908013737768581,52.4848944622881],[-0.908019296736888,52.4846697550975],[-0.908387374366007,52.4846731509864],[-0.908392931381437,52.484448443762],[-0.908398488323188,52.4842237365287],[-0.90840404519126,52.4839990292865],[-0.908409601985653,52.4837743220354],[-0.908415158768501,52.4835496148719],[-0.908420715490993,52.4833249077198],[-0.908426272139944,52.4831002005586],[-0.908431828715358,52.4828754933884],[-0.908437385217234,52.4826507862092],[-0.90880544602841,52.4826541807031],[-0.908811000582217,52.4824294734849],[-0.908442941645575,52.4824260790209],[-0.908448498000381,52.4822013718236],[-0.908080441011708,52.4821979762446],[-0.907712384096522,52.4821945795209],[-0.907344327254849,52.4821911816523],[-0.906976270486712,52.4821877826389],[-0.906970706633888,52.4824124897167],[-0.907338765276527,52.4824158887599],[-0.907333203224597,52.4826405958586],[-0.907701263815303,52.4826439937869],[-0.907695703564317,52.4828687009064],[-0.907690143239743,52.4830934080168],[-0.907684582841582,52.4833181151182],[-0.907679022369831,52.4835428222105],[-0.907673461834116,52.4837675293122],[-0.907667901281529,52.4839922365134],[-0.907662340655216,52.4842169437056],[-0.907294266931703,52.4842135455766],[-0.907288704352518,52.484438252735],[-0.907656779955175,52.484441650889],[-0.907651219181403,52.4846663580635],[-0.907645658333901,52.4848910652291],[-0.907640097412667,52.4851157723858],[-0.907272016172431,52.4851123741568],[-0.907266453298221,52.4853370812797],[-0.907260890350251,52.4855617883936],[-0.90725532732852,52.4857864954986],[-0.906887240524172,52.4857830960496],[-0.90651915379354,52.4857796954555],[-0.906524720573852,52.4855549884004],[-0.906156635796248,52.4855515866862],[-0.905788551092409,52.4855481838269],[-0.905794121557436,52.485323476813],[-0.905426038806647,52.4853200728336],[-0.90505795612967,52.4853166677092],[-0.904689873526531,52.4853132614396],[-0.904695449555405,52.4850885544919],[-0.90432736890536,52.4850851471023],[-0.9039592883292,52.4850817385677],[-0.903591207826951,52.485078328888],[-0.903596789419512,52.4848536220065],[-0.903228710870402,52.4848502112068],[-0.903234294268138,52.4846255043415],[-0.902866217672163,52.4846220924219],[-0.902498141150171,52.4846186793572],[-0.902130064702186,52.4846152651474],[-0.902135653663348,52.4843905583485],[-0.901767579168544,52.4843871430188],[-0.901761988328233,52.4846118497926],[-0.901393911832135,52.4846084339995],[-0.901025835127154,52.4846050180804],[-0.900657758496159,52.4846016010163],[-0.900289681939174,52.484598182807],[-0.899921605456225,52.4845947634527],[-0.899927205682238,52.4843700567753],[-0.899559131148549,52.4843666363004],[-0.899564733175607,52.4841419296385],[-0.899196660591175,52.484138508043],[-0.898828588080851,52.4841350853025],[-0.898834193784052,52.4839103786807],[-0.898466123223006,52.4839069548196],[-0.898460515644659,52.4841316614169],[-0.898092443282623,52.4841282363863],[-0.898086833754878,52.4843529429502],[-0.897718759591855,52.4843495167501],[-0.897713148114664,52.4845742232806],[-0.897707536563193,52.4847989298022],[-0.897339458723969,52.484795502408],[-0.897333845222977,52.4850202088962],[-0.897328231647676,52.4852449153755],[-0.896960150132182,52.4852414867871],[-0.896954534607284,52.4854661932331],[-0.896586451290764,52.485462763475],[-0.896580833816219,52.4856874698875],[-0.896575216267314,52.4859121762911],[-0.896207129274433,52.4859087453389],[-0.896201509775805,52.4861334517091],[-0.895833420981881,52.4861300195871],[-0.89582779953348,52.4863547259239],[-0.895459708938514,52.4863512926322],[-0.895091618417915,52.4863478581955],[-0.895097243617081,52.4861231519079],[-0.895465332262298,52.4861265863201],[-0.895470955511644,52.485901879999],[-0.895476578686555,52.4856771736691],[-0.895482201787031,52.4854524673303],[-0.895487824813074,52.4852277609826],[-0.895855906031371,52.4852311941513],[-0.895861527107723,52.4850064877702],[-0.895867148109668,52.4847817813801],[-0.895872769037209,52.4845570749812],[-0.895878389890347,52.4843323685734],[-0.89551031617294,52.4843289355029],[-0.895515938826836,52.4841042291108],[-0.895884010669083,52.4841076621567],[-0.895889631373418,52.4838829557311],[-0.895895252132312,52.4836582490719],[-0.89590087306405,52.4834335419732],[-0.895906493920626,52.4832088348673],[-0.895912114702041,52.4829841277543],[-0.896280177154225,52.48298755973],[-0.896285795960464,52.4827628526416],[-0.89629141469157,52.4825381455461],[-0.896297033347543,52.4823134384434],[-0.896302651928386,52.4820887313336],[-0.896308270434099,52.4818640242166],[-0.896313888864684,52.4816393170924],[-0.896319507220143,52.4814146099611],[-0.896325125500476,52.4811899028226],[-0.896693172828288,52.4811933339061],[-0.89669878913368,52.4809686267923],[-0.896704405363974,52.4807439196714],[-0.896710021519171,52.4805192125432],[-0.896715637599273,52.4802945054079],[-0.896721253604281,52.4800697982655],[-0.896726869534197,52.4798450911159],[-0.896732485389022,52.4796203839591],[-0.896738101168756,52.4793956767952],[-0.896743716873402,52.4791709696241],[-0.896749332502961,52.4789462624459],[-0.896754948057434,52.4787215552604],[-0.896760563536822,52.4784968480679],[-0.896766178941127,52.4782721408682],[-0.89677179427035,52.4780474336613],[-0.896403773537705,52.4780440021323],[-0.896409390691316,52.4778192948864],[-0.896415007769821,52.4775945876334],[-0.896420624773224,52.4773698803732],[-0.896426241701524,52.4771451731059],[-0.896431858554725,52.4769204658314],[-0.896437475332827,52.4766957585498],[-0.896443092035831,52.476471051261],[-0.896075084673961,52.4764676183628],[-0.89608070320116,52.476242911035],[-0.895712697813633,52.4762394769585],[-0.895718318164977,52.4760147695918],[-0.895350314751789,52.4760113343371],[-0.895355936927228,52.4757866269315],[-0.894987935488378,52.4757831904986],[-0.894619934124651,52.4757797529192],[-0.894625560023346,52.4755550454429],[-0.894993559487862,52.475558483054],[-0.89499918364358,52.4753337744234],[-0.894631186091724,52.4753303367268],[-0.894263188615202,52.4753268978842],[-0.89426881702765,52.4751021865562],[-0.894636812599019,52.475105625415],[-0.894642439030917,52.4748809140956],[-0.894274445364676,52.4748774752205],[-0.893906451773791,52.4748740351995],[-0.893912081940498,52.47464932384],[-0.894280073626282,52.4746527638772],[-0.894285701812468,52.4744280525263],[-0.894653691668529,52.4744314914339],[-0.894659317874244,52.4742067800915],[-0.895027305900579,52.4742102178694],[-0.895032930125873,52.4739855065357],[-0.89540091632248,52.4739889431839],[-0.895768902594362,52.4739923786863],[-0.896136888941495,52.4739958130427],[-0.896131270431295,52.4742205243276],[-0.896499258758687,52.4742239575218],[-0.896504875363852,52.4739992462532],[-0.896510491893752,52.473774534977],[-0.896878476486298,52.4737779670579],[-0.897246461154018,52.473781397993],[-0.897614445896886,52.4737848277821],[-0.897620056636561,52.4735601165472],[-0.897625667301048,52.4733354053046],[-0.89763127789035,52.4731106940543],[-0.897263298862372,52.4731072642162],[-0.896895319909538,52.4731038332323],[-0.896900934233479,52.4728791219418],[-0.896532957260725,52.4728756897957],[-0.896164980363164,52.4728722565037],[-0.896170598421642,52.472647545173],[-0.895802623504182,52.4726441107189],[-0.895808243392236,52.4724193993643],[-0.895440270454875,52.4724159637481],[-0.895434648661965,52.472640675119],[-0.895066673895015,52.4726372383732],[-0.89507229759278,52.4724125269861],[-0.894704324805977,52.4724090890782],[-0.89433635209449,52.4724056500245],[-0.893968379458344,52.4724022098249],[-0.893600406897566,52.4723987684795],[-0.893232434412179,52.4723953259883],[-0.89323806755872,52.4721706145124],[-0.892870097053573,52.4721671708591],[-0.89287573202943,52.4719424593594],[-0.892881366929783,52.471717747852],[-0.892887001754634,52.471493036337],[-0.893254966545465,52.4714964800388],[-0.893260599390094,52.4712717685324],[-0.893628562351612,52.4712752111047],[-0.893634193216068,52.4710504996068],[-0.893639824005075,52.4708257881013],[-0.893645454718636,52.4706010765881],[-0.893651085356751,52.4703763650673],[-0.894019040775007,52.4703798065587],[-0.894024669433078,52.4701550950465],[-0.894030298015731,52.4699303835267],[-0.894035926522968,52.4697056719992],[-0.89404155495479,52.4694809604641],[-0.894047183311197,52.4692562489214],[-0.894415129282055,52.4692596893481],[-0.894420755658574,52.469034977814],[-0.894426381959708,52.4688102662722],[-0.894432008185456,52.4685855547228],[-0.894437634335821,52.4683608431658],[-0.894443260410804,52.4681361316011],[-0.89481119693485,52.4681395709633],[-0.8948168210301,52.4679148594073],[-0.894822445049996,52.4676901478436],[-0.894828068994538,52.4674654362722],[-0.894833692863728,52.4672407246932],[-0.895201621845803,52.4672441629748],[-0.895569550903138,52.4672476001107],[-0.895937480035709,52.467251036101],[-0.895931861879356,52.4674757476313],[-0.896299792991419,52.4674791824597],[-0.896294176664098,52.467703893966],[-0.896662109755656,52.4677073276325],[-0.897030042922376,52.4677107601533],[-0.89702443032847,52.4679354716194],[-0.897392365474664,52.4679389029783],[-0.897760300695972,52.4679423331916],[-0.897754691835585,52.4681670446175],[-0.898122629036345,52.4681704736688],[-0.89849056631217,52.4681739015744],[-0.898858503663034,52.4681773283344],[-0.898852900440662,52.4684020397036],[-0.899220839770933,52.4684054653016],[-0.899588779176195,52.4684088897539],[-0.899583179687577,52.4686336010828],[-0.899951121072225,52.4686370243731],[-0.900319062531814,52.4686404465177],[-0.900324658211588,52.4684157352215],[-0.90069259784167,52.4684191562369],[-0.900687004066318,52.4686438675166],[-0.900681410216008,52.4688685787887],[-0.901049353729853,52.4688719986256],[-0.901417297318565,52.4688754173168],[-0.901411707202247,52.4691001285485],[-0.901779653249031,52.4691035455444],[-0.902147599638243,52.4691069610965],[-0.902142013227475,52.4693316723152],[-0.902509961585101,52.4693350867146],[-0.902877910017175,52.4693384999685],[-0.902872327319803,52.4695632111646],[-0.90324027772027,52.4695666232658],[-0.903234696842402,52.4697913344467],[-0.903602649211264,52.4697947453951],[-0.903970601654502,52.469798155198],[-0.903965024490209,52.4700228663562],[-0.904332978901821,52.4700262750063],[-0.904327403557158,52.4702509861492],[-0.904695359937146,52.4702543936465],[-0.904689786412163,52.4704791047742],[-0.90505774476053,52.4704825111186],[-0.905052173055276,52.4707072222309],[-0.904684212812806,52.4707038158938],[-0.904678639139076,52.4709285270056],[-0.904673065390971,52.4711532381095],[-0.904667491568489,52.4713779492054],[-0.904299525717876,52.4713745417451],[-0.904293949926817,52.4715992528405],[-0.90466191767163,52.4716026602935],[-0.905029885490754,52.4716060666009],[-0.905397853384164,52.4716094717629],[-0.905765821351834,52.4716128757793],[-0.905760253063278,52.4718375868372],[-0.906128222999414,52.4718409897007],[-0.906122656530807,52.4720657007433],[-0.906490628435411,52.4720691024538],[-0.906485063786803,52.4722938134811],[-0.906479499063938,52.4725185245004],[-0.906847474831319,52.4725219250505],[-0.906841911928526,52.4727466360544],[-0.907209889664407,52.4727500354515],[-0.907204328581737,52.4729747464401],[-0.907198767424854,52.4731994574208],[-0.907566749023621,52.4732028556574],[-0.907572308286119,52.4729781446842],[-0.90757786747443,52.4727534337031],[-0.907945845358569,52.4727568308091],[-0.907951402578357,52.4725321198275],[-0.907583426588554,52.4725287227141],[-0.907588985628494,52.4723040117171],[-0.907594544594249,52.4720793007122],[-0.907226572467157,52.4720759024383],[-0.907232133252991,52.471851191418],[-0.907600103485823,52.4718545896994],[-0.907605662303216,52.4716298786787],[-0.907973630715924,52.4716332758221],[-0.908341599202717,52.4716366718199],[-0.908347154157505,52.4714119608062],[-0.908352709038166,52.4711872497846],[-0.908720673810615,52.4711906446518],[-0.908726226722984,52.4709659336298],[-0.908731779561253,52.4707412225999],[-0.909099740619428,52.4707446163366],[-0.90910529148948,52.4705199053063],[-0.90911084228546,52.470295194268],[-0.909478799629432,52.4702985868743],[-0.90984675704738,52.4703019783351],[-0.909852303981152,52.4700772673039],[-0.910220259578983,52.4700806576268],[-0.91058821525074,52.4700840468042],[-0.910593758322399,52.4698593357802],[-0.910599301320088,52.4696346247483],[-0.910604844243809,52.4694099137084],[-0.9109727943074,52.469413301763],[-0.910978335263181,52.4691885907228],[-0.910983876145021,52.4689638796746],[-0.910615929869351,52.4689604916049],[-0.910621472571175,52.4687357805413],[-0.910627015199035,52.4685110694698],[-0.910632557752934,52.4682863583903],[-0.910638100232872,52.468061647303],[-0.91064364263885,52.4678369362077],[-0.910649184970871,52.4676122251045],[-0.911017119883376,52.4676156132194],[-0.911022660247667,52.4673909021158],[-0.910654727228934,52.4673875139934],[-0.910660269413043,52.4671628028743],[-0.910665812023212,52.4669380906277],[-0.910671354910158,52.4667133775879],[-0.911039282224953,52.4667167657872],[-0.911044823137776,52.4664920527637],[-0.911050363976484,52.4662673397328],[-0.911055904741077,52.4660426266944],[-0.911061445431557,52.4658179136486],[-0.911066986047926,52.4655932005954],[-0.910699068232787,52.4655898122775],[-0.910704610674901,52.4653650991931],[-0.910710153042881,52.4651403861013],[-0.911078067058332,52.4651437744666],[-0.911445981147825,52.4651471616862],[-0.911813895311334,52.4651505477601],[-0.911808358642852,52.4653752607807],[-0.912176274780189,52.4653786456851],[-0.912544190991493,52.4653820294437],[-0.912549723860303,52.4651573164706],[-0.912917638245713,52.4651606991072],[-0.912923169140701,52.4649359861504],[-0.912928699961709,52.4647112731862],[-0.913296610621432,52.4647146547247],[-0.913302139468694,52.4644899417768],[-0.913670048302539,52.4644933221933],[-0.913675575176107,52.4642686092618],[-0.913681101975747,52.4640438963229],[-0.914049007083996,52.4640472756412],[-0.914054531910018,52.4638225627187],[-0.914060056662139,52.4635978497887],[-0.914427958044861,52.463601228009],[-0.91443348082344,52.4633765150953],[-0.914439003528146,52.4631518021743],[-0.914806901185411,52.4631551792965],[-0.914812421916651,52.4629304663918],[-0.914817942574046,52.4627057534797],[-0.914823463157598,52.4624810405602],[-0.914828983667307,52.4622563276332],[-0.915196873800116,52.462259703705],[-0.915564764006674,52.4622630786312],[-0.915932654286955,52.4622664524118],[-0.915927139475814,52.4624911652673],[-0.916295031729319,52.4624945378784],[-0.916662924056499,52.4624979093439],[-0.91665741297069,52.4627226221442],[-0.916651901811163,52.4629473349372],[-0.916646390577915,52.4631720477226],[-0.916278492552006,52.4631686763287],[-0.916272979345412,52.4633933891306],[-0.916267466065069,52.4636181019251],[-0.915899564313564,52.4636147294332],[-0.915894049059797,52.4638394422441],[-0.915888533732255,52.4640641550476],[-0.915520628255085,52.4640607814577],[-0.915515110954043,52.4642854942776],[-0.915509593579197,52.46451020709],[-0.915504076130548,52.464734919895],[-0.915871987306964,52.4647382934133],[-0.916239898557092,52.4647416657859],[-0.916607809880908,52.4647450370128],[-0.916602298057852,52.4649697497388],[-0.916970211355133,52.4649731197961],[-0.916964701358173,52.4651978324909],[-0.917332616628921,52.4652012013785],[-0.917700531973284,52.4652045691205],[-0.917706038170586,52.4649798564735],[-0.917711544294232,52.4647551438191],[-0.918079455912547,52.4647585104631],[-0.918084960062756,52.4645337978252],[-0.918090464139335,52.4643090851799],[-0.918458372647257,52.4643124495432],[-0.918463874771776,52.4640877368782],[-0.918831781754262,52.4640910995487],[-0.919199688809923,52.4640944610739],[-0.919194190462649,52.4643191737197],[-0.919562099480084,52.46432253409],[-0.919556602948239,52.4645472467183],[-0.919551106343197,52.4647719593388],[-0.919183193548438,52.4647685989876],[-0.9191776949815,52.4649933116098],[-0.919172196341337,52.4652180242241],[-0.919166697627949,52.4654427368306],[-0.918798779240177,52.4654393753629],[-0.91879327856479,52.4656640879711],[-0.91878777781615,52.4658888005714],[-0.918782276994256,52.4661135131638],[-0.918776776099107,52.4663382257484],[-0.919144702042117,52.4663415871778],[-0.919139202962583,52.4665662997449],[-0.918771275130702,52.4665629383251],[-0.918765774089038,52.466787650894],[-0.91839784444145,52.4667842883384],[-0.918029915247137,52.4667809238699],[-0.917661986529666,52.466777557441],[-0.917667493242603,52.466552844846],[-0.917672999881874,52.4663281322437],[-0.91767850644748,52.4661034196339],[-0.917684012939423,52.4658787070167],[-0.91731609189542,52.4658753393464],[-0.917310583503548,52.4661000519875],[-0.916942660633235,52.4660966831954],[-0.916574737836568,52.4660933132574],[-0.916206815113571,52.4660899421737],[-0.916212329205225,52.465865229461],[-0.915844408455849,52.4658618572076],[-0.91583889246427,52.4660865699442],[-0.915833376398903,52.4663112826733],[-0.916201300948153,52.466314654879],[-0.916569225571101,52.4663180259388],[-0.91693715026772,52.4663213958529],[-0.916931639828491,52.466546108503],[-0.917299566498735,52.4665494772474],[-0.917294057885794,52.4667741898663],[-0.916926129315546,52.4667708211457],[-0.916920618728883,52.466995533781],[-0.916552688332257,52.4669921639385],[-0.916547176261841,52.4672168755145],[-0.9161792440316,52.4672135045645],[-0.915811311874869,52.4672101324691],[-0.915805796203358,52.4674348434817],[-0.915437862226395,52.4674314702487],[-0.915443379791671,52.4672067592284],[-0.915075447782031,52.4672033848424],[-0.914707515845976,52.4672000093111],[-0.914339583983529,52.4671966326344],[-0.91434510750057,52.4669719208216],[-0.913977177620201,52.4669685429584],[-0.913982703407044,52.4667438301324],[-0.914350631387395,52.4667472080194],[-0.914356155200328,52.4665224952098],[-0.91436167893937,52.4662977823928],[-0.914729603193583,52.4663011591816],[-0.915097527521592,52.4663045348247],[-0.915103047386854,52.4660798220478],[-0.914735124958791,52.466076446381],[-0.914740646650135,52.4658517335729],[-0.914746168267618,52.4656270207574],[-0.914378249713164,52.4656236438972],[-0.914372726195787,52.4658483567365],[-0.914004805815258,52.4658449787542],[-0.913999280324076,52.4660696916099],[-0.913631358117475,52.4660663125057],[-0.913263435984746,52.4660629322558],[-0.913257906619768,52.4662876451516],[-0.913625830652438,52.4662910253778],[-0.91399375475898,52.4662944044582],[-0.91398822911997,52.466519117299],[-0.913620303113461,52.4665157382424],[-0.913614775500543,52.4667404510996],[-0.913246847667918,52.466737070921],[-0.913241318081042,52.4669617837945],[-0.912873388422304,52.4669584024939],[-0.912867857270328,52.4671831144744],[-0.91286232644873,52.467407825548],[-0.912856795553327,52.4676325366137],[-0.912488860271763,52.4676291542256],[-0.912483327408748,52.467853865291],[-0.912477794471899,52.4680785763485],[-0.912845733541097,52.4680819587215],[-0.912840202424267,52.4683066697634],[-0.912472261461215,52.468303287398],[-0.912104320571928,52.4682999038873],[-0.912109855476465,52.4680751928301],[-0.911741916554821,52.4680718081664],[-0.911736379756431,52.4682965192311],[-0.911730842884156,52.4685212302879],[-0.911725305937994,52.4687459413368],[-0.912093250541269,52.4687493259778],[-0.91209878559353,52.4685246149365],[-0.912466728376695,52.4685279984397],[-0.912461195218338,52.4687527094734],[-0.912829139969174,52.4687560918237],[-0.912834671233627,52.4685313807975],[-0.913202614164301,52.4685347620099],[-0.913197084793754,52.4687594730285],[-0.913565029692051,52.4687628530879],[-0.913559502141648,52.468987564091],[-0.913553974517479,52.4692122750861],[-0.913921923277361,52.4692156539849],[-0.913916397473409,52.4694403649645],[-0.913910871595715,52.4696650759361],[-0.913905345644276,52.4698897868999],[-0.914273300159857,52.4698931646304],[-0.914641254749087,52.4698965412155],[-0.915009209411942,52.4698999166551],[-0.915377164148396,52.4699032909493],[-0.915371645699456,52.4701280018745],[-0.915739602403549,52.4701313750156],[-0.915745118958423,52.469906664098],[-0.915750635439677,52.4696819531725],[-0.915756151847312,52.469457242239],[-0.915388200825338,52.469453869075],[-0.915393719053344,52.469229158126],[-0.915399237207708,52.469004447169],[-0.915404755288432,52.4687797362041],[-0.915410273295516,52.4685550252314],[-0.915415791228962,52.4683303142507],[-0.915783732781237,52.468333687453],[-0.916151674407052,52.46833705951],[-0.91615718847913,52.4681123485368],[-0.916525128284592,52.4681157194561],[-0.916519616106381,52.4683404304217],[-0.916887557879201,52.4683438001879],[-0.917255499725486,52.4683471688087],[-0.917249991261502,52.468571879751],[-0.917617935075124,52.4685752472188],[-0.917985878962162,52.4685786135412],[-0.918353823170583,52.4685819782039],[-0.918359325970888,52.4683572672493],[-0.918364828698384,52.4681325562856],[-0.917996888241078,52.4681291916795],[-0.918002392770343,52.4679044807368],[-0.918370331353073,52.4679078453128],[-0.9187382703957,52.4679112079495],[-0.919106209511035,52.467914569442],[-0.919474148699053,52.4679179297903],[-0.919842087959732,52.4679212889944],[-0.919847583050186,52.4676965778882],[-0.920215520510639,52.467699935917],[-0.9205834580437,52.4677032928017],[-0.920951395649344,52.4677066485422],[-0.921319333327549,52.4677100031384],[-0.921687271078287,52.4677133565905],[-0.922055208901536,52.4677167088984],[-0.922060692682251,52.4674919975968],[-0.922428628705141,52.4674953487294],[-0.922434110540482,52.4672706373877],[-0.922439592360626,52.4670459259186],[-0.922445074586277,52.4668212134539],[-0.922450556738917,52.4665965009813],[-0.922456038818548,52.4663717885008],[-0.922461520825172,52.4661470760125],[-0.922829445609829,52.4661504259979],[-0.922834925654611,52.4659257135114],[-0.922840405626412,52.4657010010171],[-0.922845885525234,52.4654762885148],[-0.922851365351078,52.4652515760047],[-0.923219282653453,52.4652549248836],[-0.923224760517584,52.4650302123753],[-0.923230238308764,52.4648054998591],[-0.923235716026995,52.4645807873351],[-0.923603627736113,52.4645841350977],[-0.923609103492733,52.4643594225756],[-0.923614579176431,52.4641347100455],[-0.923982487181097,52.4641380566822],[-0.923977013386039,52.4643627692026],[-0.924344923352173,52.4643661146843],[-0.924712833391108,52.4643694590208],[-0.925080743502821,52.464372802212],[-0.925075275300867,52.4645975146953],[-0.925443187374002,52.4646008567315],[-0.925811099519865,52.4646041976224],[-0.925805635022478,52.4648289100784],[-0.926173549129742,52.4648322498143],[-0.926541463309686,52.4648355884048],[-0.926909377562285,52.4648389258501],[-0.926903918658292,52.4650636382689],[-0.927271834872248,52.4650669745591],[-0.927266377784304,52.4652916869602],[-0.927634295959617,52.4652950220953],[-0.928002214207514,52.4652983560851],[-0.927996760824447,52.4655230684587],[-0.92836468103368,52.4655264012934],[-0.928732601315447,52.4655297329827],[-0.929100521669724,52.4655330635268],[-0.929468442096484,52.4655363929255],[-0.929462996196013,52.4657611052519],[-0.929830918584042,52.4657644334955],[-0.930198841044507,52.4657677605936],[-0.930566763577383,52.4657710865465],[-0.930561323270886,52.4659957988355],[-0.930929247764986,52.4659991236332],[-0.931297172331447,52.4660024472855],[-0.931665096970246,52.4660057697925],[-0.932033021681356,52.4660090911541],[-0.932027588857861,52.4662338033957],[-0.932395515530127,52.4662371236021],[-0.932763442274656,52.4662404426631],[-0.933131369091424,52.4662437605788],[-0.933125941862252,52.4664684727827],[-0.93349387064013,52.4664717895431],[-0.933861799490198,52.4664751051581],[-0.934229728412431,52.4664784196278],[-0.934597657406804,52.4664817329521],[-0.934592237661039,52.4667064451083],[-0.9349601686205,52.4667097572757],[-0.93532809966484,52.4667130682931],[-0.93569603078077,52.4667163781662],[-0.936063961968264,52.4667196868952],[-0.9360585496538,52.4669443991278],[-0.936053137263431,52.4671691114704],[-0.935685202330338,52.4671658026805],[-0.93531726746882,52.4671624927464],[-0.935311851255105,52.4673872051734],[-0.935306434969715,52.4676119175915],[-0.934938496433467,52.4676086064563],[-0.934933078203199,52.467833318837],[-0.934565137858922,52.4678300065685],[-0.93455971768388,52.4680547189105],[-0.934554297437119,52.4682794312434],[-0.934186353417392,52.4682761177769],[-0.934180931225952,52.4685008300701],[-0.934175508962766,52.4687255423541],[-0.934543456728436,52.468728855882],[-0.934548877118638,52.4685041435673],[-0.934916823082175,52.4685074559249],[-0.934922241527554,52.4682827435713],[-0.934927659901228,52.4680580312086],[-0.935295602183907,52.4680613424006],[-0.93530101861265,52.4678366300005],[-0.935668959093706,52.4678399400198],[-0.935674373577567,52.4676152275824],[-0.935679787989778,52.467390515136],[-0.936047724796028,52.4673938239542],[-0.93641566167383,52.4673971316282],[-0.936783598623162,52.467400438158],[-0.937151535643997,52.4674037435434],[-0.937146128724518,52.4676284561033],[-0.937514067690018,52.4676317603728],[-0.937519472736311,52.4674070477846],[-0.937887409900079,52.4674103508816],[-0.938255347135276,52.4674136528343],[-0.938249945835359,52.4676383654791],[-0.938617885015151,52.4676416663158],[-0.938623284441878,52.4674169536427],[-0.938991221819861,52.4674202533068],[-0.939359159269199,52.4674235518267],[-0.939353763588855,52.4676482645564],[-0.939721702982717,52.4676515619603],[-0.940089642447886,52.4676548582199],[-0.940084250442576,52.4678795709971],[-0.940452191852248,52.4678828661407],[-0.940457581984338,52.4676581533352],[-0.940825521592047,52.4676614473062],[-0.941193461270989,52.467664740133],[-0.94156140102114,52.4676680318155],[-0.941929340842474,52.4676713223537],[-0.942297280734968,52.4676746117477],[-0.942291899969001,52.4678993246943],[-0.942659841805857,52.4679026129722],[-0.942654462841936,52.4681273259381],[-0.942649083806831,52.468352038895],[-0.942643704700541,52.4685767518429],[-0.942638325523064,52.4688014647818],[-0.942632946274399,52.4690261777117],[-0.942627566954544,52.4692508906326],[-0.9422596138778,52.4692476021855],[-0.942254232613354,52.4694723150692],[-0.942248851277692,52.4696970279439],[-0.942243469870812,52.4699217408097],[-0.942238088392713,52.4701464536664],[-0.942232706843394,52.4703711665141],[-0.942600669287392,52.4703744551022],[-0.942968631802515,52.4703777425459],[-0.942963253929025,52.4706024554411],[-0.943331218388775,52.4706057417686],[-0.943699182919602,52.4706090269517],[-0.944067147521479,52.4706123109904],[-0.944435112194384,52.4706155938847],[-0.944803076938291,52.4706188756346],[-0.945171041753175,52.4706221562401],[-0.945165675049845,52.4708468692953],[-0.945160308275487,52.4710715823414],[-0.945154941430102,52.4712962953786]]],[[[-0.93717856913744,52.4662801815533],[-0.936810641480917,52.4662768763141],[-0.936805233055163,52.4665015886217],[-0.936437303597383,52.4664982822097],[-0.936069374211116,52.4664949746536],[-0.935701444896389,52.4664916659531],[-0.935706858940373,52.466266953731],[-0.935712272912721,52.4660422414999],[-0.935717686813437,52.4658175292598],[-0.935723100642522,52.4655928170107],[-0.936091022466429,52.465596125597],[-0.93645894436187,52.4655994330391],[-0.936453534278123,52.4658241453453],[-0.936821458117744,52.4658274516717],[-0.93718938202885,52.465830756854],[-0.937183975618912,52.4660554692082],[-0.93717856913744,52.4662801815533]]],[[[-0.940903947715845,52.4950827245196],[-0.940898554384609,52.4953074335198],[-0.940530383936945,52.4953041382152],[-0.940162213560528,52.4953008417653],[-0.940156816413352,52.4955255506976],[-0.939788644235887,52.4955222530729],[-0.93942047212972,52.4955189543027],[-0.93941507116651,52.4957436631672],[-0.939046897259323,52.4957403632222],[-0.938678723423484,52.4957370621319],[-0.938310549659019,52.4957337598962],[-0.938315956239253,52.4955090511201],[-0.938684128131378,52.4955123533263],[-0.938689532767828,52.4952876445118],[-0.938694937332835,52.4950629356881],[-0.938700341826401,52.4948382268555],[-0.938705746248526,52.4946135180138],[-0.939073910722904,52.4946168189569],[-0.939442075268626,52.4946201187546],[-0.939810239885664,52.494623417407],[-0.939815638619694,52.494398708468],[-0.940183801435804,52.4944020059456],[-0.940189198226273,52.4941772969681],[-0.940194594945404,52.4939525879815],[-0.939826435873663,52.4939492905628],[-0.939831834393606,52.4937245815967],[-0.939837232842189,52.4934998726215],[-0.939469077586005,52.4934965741163],[-0.939100922401132,52.4934932744658],[-0.939095520208307,52.4937179833821],[-0.938727363222652,52.4937146825569],[-0.938359206308358,52.4937113805864],[-0.938364612245419,52.493486671729],[-0.937996457274629,52.4934833686426],[-0.938001865012325,52.4932586598057],[-0.93800727267854,52.4930339509598],[-0.938375423905171,52.4930372539872],[-0.938380829627864,52.4928125451028],[-0.938012680273275,52.4928092421048],[-0.938018087796532,52.4925845332408],[-0.937649940385366,52.4925812291271],[-0.937644530990093,52.4928059379616],[-0.937276381778341,52.4928026326732],[-0.937270970439525,52.4930273414692],[-0.93726555902918,52.4932520502561],[-0.936897406144782,52.4932487437634],[-0.936891992790819,52.4934734525118],[-0.936523838105818,52.4934701448443],[-0.936529253331868,52.4932454361254],[-0.936534668486338,52.4930207273974],[-0.936166517616992,52.4930174186437],[-0.93617193457192,52.4927927099362],[-0.93654008356923,52.4927960186605],[-0.936545498580545,52.4925713099144],[-0.936550913520284,52.4923466011594],[-0.936919058845099,52.4923499086794],[-0.9369244718413,52.4921251998858],[-0.937292615365628,52.492128506231],[-0.937298026501096,52.4919037972672],[-0.937303437596282,52.4916790882448],[-0.936935297821334,52.4916757819467],[-0.936940710719031,52.4914510729396],[-0.936572572889721,52.4914477655204],[-0.936204435131974,52.4914444569558],[-0.936199018486082,52.4916691659145],[-0.935830878925828,52.4916658561803],[-0.935836297445815,52.4914411472459],[-0.935841715894119,52.4912164383027],[-0.93584713427074,52.4909917293506],[-0.935479000404308,52.4909884185439],[-0.935484420583267,52.4907637096072],[-0.93548984069052,52.4905390006616],[-0.93549526072607,52.4903142917071],[-0.935863388970516,52.490317602441],[-0.936231517286569,52.4903209120296],[-0.936236933502523,52.4900962030178],[-0.93660506001621,52.4900995114368],[-0.936610474286589,52.4898748023918],[-0.936978598997907,52.4898781096413],[-0.937346723780755,52.4898814157455],[-0.937341313258226,52.490106124839],[-0.93733590266412,52.4903308339236],[-0.937330491998435,52.4905555429993],[-0.937698622474644,52.4905588480309],[-0.937693213611381,52.4907835571219],[-0.938061346033076,52.4907868610324],[-0.938429478526233,52.4907901637975],[-0.938797611090825,52.4907934654173],[-0.939165743726829,52.4907967658918],[-0.939160342288126,52.4910214750708],[-0.93952847686955,52.491024774424],[-0.939523077233444,52.4912494836183],[-0.939517677525903,52.4914741928038],[-0.939512277746926,52.4916989019803],[-0.93950687789651,52.491923611148],[-0.939875020045679,52.4919269094526],[-0.939869622035203,52.4921516185809],[-0.939864224014751,52.4923763276103],[-0.939858825922948,52.4926010366306],[-0.940226973762175,52.4926043338728],[-0.94059512167266,52.4926076299697],[-0.940600516020463,52.4923829208905],[-0.940968662130178,52.4923862158128],[-0.941336808311099,52.4923895095898],[-0.941704954563202,52.4923928022216],[-0.941699565831407,52.4926175113889],[-0.941694177028382,52.4928422205473],[-0.941688788154126,52.4930669296966],[-0.942056940093476,52.4930702212712],[-0.942051553020067,52.4932949304409],[-0.94204616587545,52.4935196396015],[-0.942040778659622,52.4937443487531],[-0.942408936286425,52.4937476392706],[-0.94240355087154,52.4939723484425],[-0.942398165385468,52.4941970576054],[-0.942392779828207,52.4944217667593],[-0.942760943142668,52.4944250562196],[-0.942755559386447,52.4946497653938],[-0.942387394199756,52.4946464759041],[-0.942019229084184,52.4946431852691],[-0.942013841512288,52.4948678943756],[-0.941645674595609,52.4948646025659],[-0.941640285080217,52.4950893116339],[-0.941272116362433,52.4950860186494],[-0.940903947715845,52.4950827245196]]]]}}