{"type":"Feature","properties":{"code":"E63004115","name":"Hare Green"},"geometry":{"type":"MultiPolygon","coordinates":[[[[1.04990572610914,51.8831062083443],[1.04989052607612,51.8828817519962],[1.04952782820825,51.8828911553324],[1.04916513014386,51.8829005575525],[1.04880243188298,51.8829099586564],[1.04843973342563,51.8829193586441],[1.04807703669522,51.8829287589182],[1.04809222768271,51.8831532155823],[1.04810741886519,51.8833776722325],[1.0477447200353,51.8833870727809],[1.04775990964945,51.8836115295201],[1.04777509947078,51.8838359862506],[1.04813780181511,51.8838265854904],[1.04815299416112,51.8840510423534],[1.04851570045313,51.8840416421456],[1.04887840773914,51.8840322417061],[1.04886321182023,51.8838077849688],[1.04922591720595,51.8837983835335],[1.04921072014558,51.8835739270568],[1.04957342355355,51.8835645245881],[1.04955822490853,51.8833400681819],[1.04992092633877,51.88333066468],[1.04990572610914,51.8831062083443]]],[[[1.03677284841086,51.8823218117185],[1.03678798395865,51.8825462716337],[1.03642528791411,51.8825556371183],[1.03644042189287,51.8827800971223],[1.03645555606586,51.8830045571124],[1.03609285630052,51.8830139216882],[1.03610798890441,51.8832383817671],[1.03612312170252,51.883462841832],[1.03613825469486,51.8836873018828],[1.03615338791281,51.8839117619199],[1.03579068089731,51.8839211257897],[1.03580581258757,51.884145585909],[1.03582094447332,51.8843700460148],[1.03583607655455,51.8845945061073],[1.03619878890603,51.8845851419522],[1.03618365504611,51.8843606819548],[1.03654636542346,51.8843513167796],[1.0365312299804,51.8841268568639],[1.03689393838362,51.8841174906686],[1.03687880135746,51.8838930308346],[1.03724150778656,51.8838836636191],[1.03722636927858,51.8836592038854],[1.03758907375138,51.8836498356572],[1.0379517780299,51.8836404663145],[1.03793663622065,51.8834160067784],[1.03829933854152,51.8834066364241],[1.03866204066808,51.8833972649554],[1.03864689552646,51.8831728056111],[1.03900959569535,51.8831634331308],[1.03902474260031,51.8833878923721],[1.0393874443382,51.8833785186743],[1.03940259320093,51.8836029777986],[1.0397652965078,51.8835936028834],[1.03978044732835,51.8838180618906],[1.0401431522042,51.8838086857579],[1.04015830521247,51.884033144727],[1.04052101165969,51.8840237673798],[1.04053616666773,51.884248226249],[1.04089887469783,51.8842388476914],[1.04091403168029,51.884463306452],[1.04092918885856,51.8846877651992],[1.04056647727116,51.8846971439472],[1.04058163286657,51.8849216027762],[1.04059678865777,51.8851460615917],[1.04095950380256,51.8851366826534],[1.04132221875159,51.8851273025999],[1.04168493350483,51.8851179214311],[1.04204764806225,51.8851085391471],[1.04241036242384,51.8850991557479],[1.04277307658957,51.8850897712335],[1.04313579055941,51.8850803856038],[1.04349850433336,51.885070998859],[1.04351367455011,51.8852954568994],[1.04387638990682,51.885286068944],[1.04423910506759,51.8852766798735],[1.04422393129344,51.8850522220237],[1.04386121791137,51.8850616109989],[1.04384604611193,51.8848371530404],[1.04420875771532,51.8848277641604],[1.04457146912273,51.8848183741652],[1.04493418033416,51.8848089830549],[1.04491900339477,51.8845845253688],[1.04528171263153,51.8845751332385],[1.0452665341096,51.8843506756343],[1.04490382665145,51.8843600676692],[1.0448886501042,51.8841356099563],[1.04487347375302,51.8839111522299],[1.04485829788916,51.883686694612],[1.04484312238158,51.8834622370475],[1.04520582277006,51.8834528454149],[1.04522100004097,51.8836773028762],[1.04558370199803,51.8836679100259],[1.04556852296379,51.8834434526677],[1.04593122296275,51.8834340588061],[1.04629392276693,51.88342466383],[1.04665662237629,51.8834152677394],[1.04701932179082,51.8834058705344],[1.0473820210105,51.8833964722149],[1.04736683335459,51.8831720153584],[1.0477295306161,51.8831626160276],[1.04771434139187,51.8829381592602],[1.0476991523626,51.8827137024787],[1.04733645862759,51.8827231016032],[1.04697376469772,51.8827324996132],[1.046611070573,51.8827418965087],[1.04659588702835,51.8825174394036],[1.04658070367857,51.8822929822845],[1.04656552052368,51.8820685251513],[1.04655033756366,51.881844068004],[1.04653515479851,51.8816196108426],[1.04651997222822,51.8813951536671],[1.04615728848771,51.8814045488293],[1.04579460455241,51.8814139428771],[1.04580978359646,51.8816384002588],[1.04544709770329,51.8816477932954],[1.04546227517902,51.8818722507662],[1.04547745284955,51.8820967082229],[1.04511476323532,51.8821061003513],[1.04475207342637,51.8821154913652],[1.04473689928218,51.8818910337023],[1.04472172533274,51.8816665760252],[1.04435903885542,51.8816759657185],[1.04399635218343,51.8816853542974],[1.04363366531679,51.8816947417619],[1.04361849685151,51.8814702837615],[1.04325581155339,51.8814796700085],[1.04327097825553,51.881704128112],[1.04328614515233,51.8819285862014],[1.0429234561333,51.8819379715401],[1.04293862146157,51.8821624297185],[1.04257593048477,51.8821718140459],[1.04256076691968,51.8819473557644],[1.04254560354922,51.8817228974688],[1.04290829099966,51.8817135133476],[1.04289312606067,51.8814890551411],[1.04253044037337,51.8814984391592],[1.04216775449152,51.881507822063],[1.04180506841514,51.8815172038523],[1.04144238214426,51.8815265845272],[1.04145754003064,51.881751043146],[1.04109485180211,51.8817604228095],[1.04073216337912,51.8817698013586],[1.04071700901905,51.8815453425338],[1.04035432216478,51.8815547198655],[1.0399916351161,51.8815640960827],[1.04000678594982,51.8817885551135],[1.03964409694357,51.8817979303193],[1.03928140774295,51.8818073044107],[1.03926626043557,51.8815828451739],[1.0392511133226,51.8813583859231],[1.03888842745396,51.8813677586941],[1.038525741391,51.8813771303507],[1.03854088497765,51.8816015898074],[1.03855602875867,51.8818260492501],[1.03857117273404,51.8820505086787],[1.03893386408655,51.8820411367133],[1.03894901001952,51.8822655960249],[1.03858631690378,51.8822749680933],[1.03822362359373,51.8822843390473],[1.03786093008939,51.8822937088868],[1.03784578944612,51.8820692492663],[1.03748309751075,51.8820786178884],[1.03712040538114,51.882087985396],[1.03713554249793,51.8823124452224],[1.03677284841086,51.8823218117185]]],[[[1.04467620465295,51.8809932029096],[1.04466103148251,51.8807687451763],[1.04429835205757,51.8807781344572],[1.04393567243797,51.8807875226237],[1.04392050298835,51.8805630646701],[1.04355782493717,51.8805724516191],[1.04357299262374,51.8807969096758],[1.0432103126149,51.8808062956136],[1.04284763241147,51.880815680437],[1.04248495201348,51.880825064146],[1.0425001146055,51.8810495224978],[1.04286279676658,51.8810401386857],[1.04322547873308,51.8810307537593],[1.04358816050499,51.8810213677185],[1.04360332858091,51.881245825747],[1.0439660119213,51.8812364384887],[1.04432869506705,51.881227050116],[1.04431352346495,51.8810025922936],[1.04467620465295,51.8809932029096]]]]}}