{"type":"Feature","properties":{"code":"E63005095","name":"Southfleet"},"geometry":{"type":"MultiPolygon","coordinates":[[[[0.326343670177972,51.4128895533763],[0.326355077732864,51.4131141596675],[0.326714258586308,51.4131070267667],[0.32707343928996,51.4130998927668],[0.327062028150557,51.4128752866194],[0.327050617160998,51.4126506804605],[0.326691440041831,51.4126578143167],[0.326332262772876,51.4126649470738],[0.326343670177972,51.4128895533763]]],[[[0.327050617160998,51.4126506804605],[0.327409794130356,51.4126435455053],[0.327421206912143,51.4128681515923],[0.327432619843796,51.4130927576679],[0.32707343928996,51.4130998927668],[0.327084850579206,51.4133244989029],[0.327096262018299,51.4135491050275],[0.327107673607242,51.4137737111408],[0.327119085346038,51.4139983172427],[0.32675989747314,51.41400545153],[0.326400709450441,51.4140125847182],[0.326412117754351,51.4142371909524],[0.326423526208073,51.4144617971753],[0.326434934811608,51.4146864033867],[0.32679412821149,51.414679269983],[0.327153321461563,51.4146721354801],[0.327512514561802,51.4146649998781],[0.327501100581022,51.4144403938822],[0.327489686750125,51.414215787875],[0.327848876115712,51.4142086513176],[0.328208065331425,51.4142015136612],[0.328567254397241,51.4141943749056],[0.328578673605289,51.4144189806972],[0.328937864313563,51.4144118407707],[0.329297054871891,51.414404699745],[0.329285632079087,51.4141800940972],[0.32964482069507,51.4141729520444],[0.329633396259911,51.4139483464571],[0.329992582933556,51.4139412033771],[0.329981156856088,51.4137165978504],[0.329621971974767,51.4137237408585],[0.329610547839636,51.4134991352484],[0.329251364600635,51.4135062770855],[0.329239942407797,51.4132816713922],[0.329228520364944,51.4130570656874],[0.329217098472074,51.4128324599713],[0.329205676729184,51.4126078542438],[0.329194255136271,51.4123832485049],[0.329553429414093,51.4123761070274],[0.329542006178988,51.412151501349],[0.329530583093879,51.4119268956592],[0.329889753637426,51.4119197532266],[0.329878328910191,51.4116951475973],[0.329866904332969,51.4114705419567],[0.329507737373636,51.4114776842455],[0.329148570264344,51.4114848254354],[0.328789403005115,51.4114919655262],[0.328430235595974,51.4114991045181],[0.328418818337067,51.4112744985784],[0.328059652570118,51.4112816363994],[0.327700486653305,51.4112887731214],[0.327341320586651,51.4112959087444],[0.327352732469303,51.4115205148997],[0.327364144501804,51.4117451210436],[0.327004974701129,51.4117522557113],[0.327016385091346,51.4119768619157],[0.327027795631395,51.4122014681087],[0.327039206321278,51.4124260742903],[0.327050617160998,51.4126506804605]]],[[[0.315420643154874,51.4101831163926],[0.315431995002706,51.4104077249828],[0.315072832815781,51.4104148228816],[0.315084183020629,51.410639431532],[0.315095533374532,51.4108640401711],[0.314736366803487,51.4108711373978],[0.314377199974677,51.4108782335729],[0.314365853103262,51.4106536248346],[0.314006687879045,51.4106607198558],[0.31364752250848,51.4106678137768],[0.313636179285363,51.4104432049207],[0.313277015519421,51.4104502976878],[0.31326567419359,51.4102256887677],[0.312906512032277,51.4102327803809],[0.312895172603686,51.4100081713969],[0.312536012047006,51.4100152618562],[0.31252467451561,51.4097906528081],[0.312165515563568,51.4097977421135],[0.311806356465301,51.4098048303189],[0.311447197220831,51.4098119174242],[0.311458529499551,51.4100365266335],[0.31146986192449,51.4102611358327],[0.311829024670772,51.4102540486199],[0.31184035899287,51.410478657755],[0.311851693461214,51.4107032668799],[0.311863028075807,51.4109278759946],[0.31187436283665,51.411152485099],[0.311515193086476,51.4111595725268],[0.311526526242543,51.4113841816747],[0.311537859544843,51.4116087908124],[0.311549192993378,51.4118333999399],[0.311560526588151,51.4120580090571],[0.31191970334258,51.4120509214144],[0.312278879950781,51.4120438326715],[0.312638056412731,51.4120367428284],[0.312997232728407,51.4120296518852],[0.313356408897787,51.4120225598417],[0.31371558492085,51.4120154666981],[0.313726929168548,51.4122400754825],[0.314086106796374,51.4122329811849],[0.314445284277835,51.4122258857871],[0.31443393652793,51.4120012771103],[0.314793112111903,51.4119941806662],[0.314804461612907,51.4122187892891],[0.31481581126036,51.4124433979019],[0.314827161054259,51.4126680065044],[0.314838510994611,51.4128926150966],[0.314849861081417,51.4131172236786],[0.31486121131468,51.4133418322504],[0.315220397105818,51.4133347344509],[0.315579582591311,51.4133276356216],[0.315938767927732,51.4133205356933],[0.316297953115057,51.4133134346658],[0.316657138153262,51.4133063325392],[0.317016323042324,51.4132992293136],[0.317027684146852,51.4135238374583],[0.317039045400584,51.4137484455917],[0.31705040680352,51.4139730537137],[0.317061768355665,51.4141976618243],[0.317420960265083,51.4141905572131],[0.317432323758876,51.4144151652407],[0.317443687401906,51.414639773257],[0.317802882747018,51.4146326674034],[0.317814248331767,51.4148572753366],[0.317455051194174,51.4148643812619],[0.317095853907374,51.414871486088],[0.31673665647139,51.414878589815],[0.316377458886244,51.4148856924428],[0.316018261151962,51.4148927939714],[0.316029617923428,51.4151174022514],[0.316040974844047,51.41534201052],[0.31605233191382,51.4155666187773],[0.316411535025716,51.4155595170339],[0.316422894037229,51.4157841252082],[0.316434253197925,51.4160087333711],[0.316445612507806,51.4162333415226],[0.316804820848369,51.4162262384652],[0.316816182100087,51.4164508465337],[0.316827543501019,51.416675454591],[0.317186755277724,51.416668350291],[0.317198118620565,51.4168929582653],[0.317209482112648,51.4171175662281],[0.316850266750533,51.4171246706713],[0.316861628043843,51.4173492784719],[0.316872989235489,51.4175738861622],[0.316884350573809,51.417798493842],[0.316895712058803,51.4180231015112],[0.316907073690477,51.41824770917],[0.317266297854241,51.4182406044413],[0.317277661385162,51.4184652120313],[0.317289025062788,51.4186898196108],[0.316929797393867,51.4186969244559],[0.31694115946559,51.4189215320831],[0.31658192989741,51.4189286358863],[0.3162227001826,51.4189357385893],[0.316234058895737,51.4191603463224],[0.316245417755518,51.419384954045],[0.316256776761947,51.419609561757],[0.31661601173474,51.4196024588794],[0.316975246560899,51.4195953549015],[0.3173344812404,51.4195882498235],[0.317323116975925,51.4193636422861],[0.31768234975607,51.4193565361661],[0.318041582389515,51.4193494289459],[0.318030214766451,51.4191248215145],[0.317670983885657,51.4191319286764],[0.317659618161981,51.4189073211762],[0.317648252585039,51.4186827136655],[0.317636887154826,51.4184581061443],[0.317625521871343,51.4182334986125],[0.317614156734585,51.4180088910702],[0.317602791744551,51.4177842835175],[0.317591426901237,51.4175596759541],[0.317950645514103,51.4175525692],[0.317939279065038,51.4173279616844],[0.317927912389226,51.4171033540441],[0.317916545311718,51.4168787462245],[0.318275758433425,51.4168716385553],[0.318287127303642,51.4170962463032],[0.31864634206878,51.4170891374631],[0.319005556684615,51.4170820275237],[0.319364771151126,51.4170749164851],[0.319723985468288,51.4170678043473],[0.319735361166062,51.4172924117032],[0.319746736377442,51.4175170189274],[0.320105954109753,51.4175099055726],[0.320465171695227,51.4175027911177],[0.320476550558416,51.4177273982148],[0.320835769749501,51.4177202826014],[0.321194988793702,51.417713165888],[0.321183606425569,51.4174885589075],[0.321542823570392,51.4174814411523],[0.321531439596759,51.4172568342197],[0.321520054813056,51.4170322271696],[0.321508669808574,51.4168076200669],[0.321497284953608,51.4165830129528],[0.321856494788848,51.416575894363],[0.32184510829076,51.4163512873093],[0.321833721942209,51.4161266802442],[0.32182233574319,51.4159020731677],[0.321810949693701,51.4156774660799],[0.321451747028873,51.4156845843827],[0.321440362921457,51.4154599772117],[0.321428978963543,51.4152353700294],[0.321069779734314,51.4152424870896],[0.320710580355643,51.4152496030507],[0.320699200132234,51.4150249957135],[0.320687820058276,51.414800388365],[0.320676440133768,51.4145757810051],[0.320665060358706,51.4143511736338],[0.320653680733085,51.4141265662512],[0.321012871149466,51.4141194506487],[0.321001489880898,51.4138948433264],[0.32136067835546,51.4138877266965],[0.321349295443988,51.4136631194345],[0.321708481976738,51.4136560017773],[0.32169709742241,51.4134313945757],[0.322056282013351,51.4134242758911],[0.322415466454799,51.4134171561074],[0.322774650746731,51.4134100352246],[0.323133834889123,51.4134029132427],[0.323145226612778,51.4136275201573],[0.323156618486029,51.4138521270606],[0.323515806063533,51.4138450038361],[0.323504412397933,51.4136203970046],[0.3238635980335,51.4136132727528],[0.323852202725196,51.4133886659817],[0.324211386418831,51.4133815407026],[0.324199989467871,51.4131569339919],[0.324559171219579,51.4131498076855],[0.324918352821634,51.41314268028],[0.325277534274013,51.4131355517755],[0.325266132095907,51.4129109452688],[0.325625311606323,51.4129038157371],[0.325984490967019,51.4128966851062],[0.32597308535416,51.4126720787318],[0.32596167989107,51.4124474723461],[0.325602504114828,51.4124546028333],[0.3255911005937,51.4122299963643],[0.325231926459938,51.4122371256806],[0.325220524880723,51.4120125191285],[0.325209123451225,51.4117879125649],[0.325197722171441,51.41156330599],[0.32518632104137,51.4113386994037],[0.325174920061008,51.4111140928059],[0.324815754738199,51.4111212206642],[0.324456589265738,51.4111283474235],[0.324097423643648,51.4111354730837],[0.324086028189178,51.4109108662593],[0.324074632884344,51.4106862594234],[0.324063237729141,51.4104616525762],[0.323704077333577,51.4104687769221],[0.323344916788437,51.4104759001691],[0.322985756093745,51.4104830223171],[0.322997145872875,51.4107076293797],[0.32300853580157,51.4109322364308],[0.32301992587983,51.4111568434706],[0.323031316107659,51.411381450499],[0.323042706485058,51.4116060575161],[0.323054097012032,51.4118306645217],[0.323065487688581,51.412055271516],[0.32307687851471,51.4122798784989],[0.32308826949042,51.4125044854704],[0.322729092517109,51.4125116071652],[0.32236991539427,51.412518727761],[0.322010738121924,51.4125258472578],[0.321999352522861,51.412301240071],[0.321640176893253,51.412308358397],[0.321281001114189,51.4123154756239],[0.32092182518569,51.4123225917517],[0.320562649107779,51.4123297067806],[0.320203472880482,51.4123368207103],[0.320214849518417,51.4125614282557],[0.320226226305751,51.4127860357896],[0.3198670463446,51.4127931487637],[0.319507866234102,51.4128002606388],[0.319148685974281,51.4128073714147],[0.31878950556516,51.4128144810916],[0.318430325006762,51.4128215896694],[0.318071144299111,51.4128286971482],[0.317711963442229,51.4128358035279],[0.317700599200743,51.4126111954923],[0.317689235108496,51.4123865874453],[0.317677871165486,51.412161979387],[0.317666507371709,51.4119373713173],[0.317655143727163,51.4117127632362],[0.318014315622917,51.4117056572147],[0.318373487369452,51.4116985500942],[0.318362120289824,51.411473942145],[0.318350753359469,51.4112493341845],[0.318339386578382,51.4110247262126],[0.318328019946563,51.4108001182293],[0.318316653464008,51.4105755102347],[0.317957490678014,51.410582616997],[0.31794612613676,51.4103580089193],[0.317934761744743,51.4101334008303],[0.317575602393604,51.4101405063504],[0.317564239942816,51.4099158981784],[0.317205082234499,51.4099230025279],[0.316845924377031,51.4099301057785],[0.316486766370435,51.40993720793],[0.31647540944479,51.4097125995318],[0.316834565659405,51.4097054974519],[0.316823207090938,51.4094808891139],[0.31646405266828,51.4094879911223],[0.316452696040905,51.4092633827013],[0.316811848671628,51.4092562807645],[0.316800490401474,51.4090316724038],[0.316441339562662,51.409038774269],[0.316429982928038,51.4088141659487],[0.316070833778248,51.4088212666253],[0.316082188574754,51.4090458750352],[0.316093543261084,51.4092704835391],[0.316104898096522,51.4094950920317],[0.316116253081072,51.4097197005128],[0.315757096568276,51.4097268003949],[0.315768449909954,51.4099514089363],[0.315409291456114,51.409958507791],[0.315420643154874,51.4101831163926]]]]}}