{"type":"Feature","properties":{"code":"E63005155","name":"Longfield, New Ash Green and Hartley"},"geometry":{"type":"MultiPolygon","coordinates":[[[[0.342374844063394,51.3959325048016],[0.342015804553877,51.3959396829338],[0.342027284406372,51.3961642865629],[0.342038764406793,51.3963888901817],[0.342397807411602,51.3963817119392],[0.342756850268476,51.3963745325973],[0.343115892977397,51.3963673521559],[0.343104407734012,51.3961427487025],[0.343463448547305,51.3961355672169],[0.3438224892126,51.3961283846317],[0.34383397795128,51.3963529879748],[0.343474935538339,51.3963601706151],[0.343486422677391,51.396584774003],[0.343497909964463,51.3968093773805],[0.343856955872766,51.3968021946299],[0.343845466838001,51.3965775913075],[0.344204510850587,51.3965704075126],[0.344216001633041,51.3967950107799],[0.344575047245265,51.3967878258304],[0.344563554715124,51.3965632226183],[0.344552062333072,51.3963386193959],[0.344193020216199,51.3963458042351],[0.344181529729874,51.3961212009471],[0.344540570099104,51.3961140161631],[0.34489961032027,51.3961068302797],[0.345258650393347,51.3960996432968],[0.345617690318314,51.3960924552144],[0.345606192989587,51.395867852137],[0.345594695809009,51.3956432490492],[0.345953732090647,51.3956360599778],[0.345965231018811,51.3958606630104],[0.345976730095147,51.3960852660327],[0.345988229319656,51.3963098690446],[0.346347270695963,51.3963026787082],[0.346706311924089,51.3962954872723],[0.347065353004013,51.396288294737],[0.347053848536624,51.3960636918907],[0.347042344217475,51.3958390890341],[0.347030840046565,51.3956144861672],[0.347019336023891,51.3953898832899],[0.347378369965238,51.3953826898762],[0.347366864343265,51.3951580870438],[0.347355358869548,51.3949334842011],[0.346996328423242,51.3949406775044],[0.346637297828726,51.3949478697084],[0.346625795998234,51.3947232667449],[0.346266767003021,51.3947304577942],[0.346255267068201,51.3945058547651],[0.345896239672298,51.3945130446599],[0.345907737859646,51.3947376477441],[0.345919236195152,51.394962250818],[0.34593073467882,51.3951868538816],[0.34594223331065,51.3954114569349],[0.345583198776577,51.395418645951],[0.345224164094377,51.3954258338678],[0.344865129264076,51.3954330206851],[0.344853635874877,51.3952084174662],[0.345212668957632,51.3952012307041],[0.345201173969006,51.3949766275301],[0.345189679128495,51.3947520243458],[0.344830649540765,51.3947592109976],[0.344819156595846,51.3945346077477],[0.344460128607524,51.3945417932449],[0.344448637558152,51.3943171899296],[0.344089611169245,51.3943243742723],[0.344101100471156,51.3945489776428],[0.344112589921109,51.3947735810029],[0.344124079519107,51.3949981843528],[0.343765047739717,51.3950053677616],[0.343776535738233,51.3952299711562],[0.343417502063301,51.3952371535207],[0.343406015812319,51.3950125500709],[0.343046983736935,51.3950197312809],[0.342687951513589,51.3950269113914],[0.342699434269495,51.3952515149515],[0.34305846824038,51.3952443347858],[0.343069952891808,51.3954689382805],[0.34308143769122,51.3956935417648],[0.342722400225189,51.3957007220408],[0.342363362611209,51.3957079012173],[0.342374844063394,51.3959325048016]]],[[[0.346255267068201,51.3945058547651],[0.346614294315946,51.3944986637711],[0.346973321415506,51.3944914716776],[0.347332348366861,51.3944842784848],[0.347691375169989,51.3944770841926],[0.348050401824866,51.394469888801],[0.348038893301019,51.3942452860378],[0.348027384925459,51.3940206832643],[0.348015876698186,51.3937960804805],[0.34765685528555,51.3938032757063],[0.347645348953929,51.3935786728569],[0.347286329140422,51.3935858669281],[0.347297833724671,51.3938104698328],[0.34730933845716,51.3940350727271],[0.34732084333789,51.3942596756111],[0.346961818133975,51.3942668687487],[0.346602792781858,51.3942740607869],[0.34624376728156,51.3942812517258],[0.346255267068201,51.3945058547651]]],[[[0.291782389194754,51.3976076683471],[0.291423321715654,51.3976146928264],[0.291434552129551,51.3978393051556],[0.291445782689187,51.3980639174745],[0.291457013394566,51.3982885297831],[0.291816086165193,51.3982815051387],[0.292175158790082,51.3982744793948],[0.29253423126921,51.3982674525513],[0.292893303602554,51.3982604246083],[0.292882065841731,51.3980358125198],[0.293241136265413,51.3980287835322],[0.293600206543269,51.3980217534451],[0.293588965400617,51.3977971414564],[0.29357772440384,51.3975725294573],[0.293566483552938,51.397347917448],[0.293207418566503,51.39735494737],[0.292848353434249,51.3973619761924],[0.292489288156198,51.3973690039153],[0.29250052371574,51.3975936160898],[0.29285959075758,51.3975865883119],[0.29287082822674,51.397811200421],[0.292511759421088,51.397818228254],[0.292152690469657,51.3978252549874],[0.292141456528124,51.3976006427682],[0.291782389194754,51.3976076683471]]],[[[0.293566483552938,51.397347917448],[0.29392554839353,51.3973408864264],[0.294284613088258,51.3973338543054],[0.294643677637098,51.3973268210848],[0.295002742040028,51.3973197867647],[0.294991494279974,51.3970951749653],[0.294980246665881,51.3968705631556],[0.294968999197745,51.3966459513355],[0.295328058163562,51.3966389160812],[0.295339307395402,51.3968635278461],[0.295698367978973,51.3968564914372],[0.295687116983431,51.3966318797273],[0.295675866133889,51.3964072680071],[0.29603492304411,51.3964002306089],[0.296023670576913,51.3961756189335],[0.296382725577492,51.3961685804909],[0.296393979808341,51.3963931921111],[0.296753036426558,51.3963861525139],[0.29676429256712,51.3966107640687],[0.29677554885375,51.3968353756133],[0.296416488708169,51.3968424153207],[0.296427743377153,51.39706702691],[0.296786805286451,51.3970599871474],[0.296798061865225,51.3972845986713],[0.296438998192188,51.397291638489],[0.296079934373127,51.3972986772072],[0.29609118757045,51.397523288831],[0.295732121841622,51.3975303265048],[0.295373055966811,51.397537363079],[0.295384305782585,51.3977619748027],[0.295025237998022,51.3977690103325],[0.294666170067521,51.3977760447628],[0.294307101991105,51.3977830780935],[0.294318346661409,51.3980076899721],[0.293959276675275,51.3980147222584],[0.293970519727656,51.3982393341817],[0.29398176292594,51.3984639460947],[0.29399300627013,51.3986885579974],[0.294352081547875,51.398681525546],[0.294711156679717,51.3986744919949],[0.294722403697645,51.3988991037772],[0.29473365086153,51.3991237155491],[0.294744898171373,51.3993483273106],[0.29510397844909,51.3993412924948],[0.295115227668874,51.3995659041909],[0.295126477034646,51.3997905158768],[0.295485560694382,51.3997834798511],[0.295496811970164,51.4000080914715],[0.295137726546405,51.4000151275523],[0.295148976204157,51.4002397392175],[0.29550806339196,51.4002327030816],[0.295867150433775,51.4002256658461],[0.296226237329578,51.400218627511],[0.2962149823797,51.3999940160111],[0.296574067365433,51.3999869766314],[0.296585324079348,51.4002115880762],[0.296596580939348,51.4004361995106],[0.296607837270123,51.4006608111011],[0.296619093270427,51.4008854227997],[0.296630349415245,51.4011100344897],[0.296989443047174,51.4011029937963],[0.297000701075524,51.4013276054502],[0.297011959248416,51.4015522170954],[0.297371056213885,51.4015451752455],[0.297382316270379,51.4017697868546],[0.297741414830372,51.4017627438757],[0.298100513245807,51.4017556997954],[0.298089249711207,51.4015310882414],[0.298077986321218,51.4013064766789],[0.298437081160825,51.4012994315792],[0.298425816161485,51.4010748200358],[0.29841455130961,51.4008502084812],[0.298773642674117,51.4008431625532],[0.298762376185629,51.4006185510545],[0.299121465618613,51.4006115040945],[0.299480554904127,51.4006044560355],[0.299839644042146,51.4005974068777],[0.299828371432346,51.4003727958738],[0.300187458589637,51.4003657457012],[0.300546545598712,51.40035869443],[0.300905632459547,51.4003516420603],[0.300894354212581,51.4001270313936],[0.30125343913046,51.4001199779969],[0.301612523900056,51.4001129235016],[0.301601242212037,51.3998883129669],[0.301960325038661,51.3998812574447],[0.302319407716958,51.399874200824],[0.302308122587986,51.3996495904213],[0.301949041704329,51.3996566469703],[0.301937758518349,51.3994320364846],[0.301926475480717,51.3992074259875],[0.301915192591431,51.3989828154791],[0.302274268091305,51.3989757591452],[0.302633343442838,51.3989687017127],[0.302992418646009,51.3989616431817],[0.303351493700793,51.3989545835522],[0.303710568607167,51.3989475228241],[0.303699276893509,51.3987229126629],[0.304058349856915,51.3987158509081],[0.3040470564972,51.3984912408073],[0.304406127517642,51.3984841780257],[0.30476519838961,51.3984771141455],[0.3047539015894,51.3982525041769],[0.30511297051839,51.39824543927],[0.30547203929886,51.3982383732647],[0.305460739058255,51.3980137634282],[0.30581980589573,51.3980066963961],[0.306178872584643,51.3979996282655],[0.306167568903743,51.3977750185613],[0.306526633649646,51.397767949404],[0.306885698246944,51.3977608791483],[0.306874391125847,51.3975362695763],[0.307233453780117,51.3975291982939],[0.307592516285738,51.3975221259131],[0.307951578642686,51.3975150524338],[0.307940266287123,51.3972904430659],[0.308299326701008,51.3972833685599],[0.308658386966177,51.3972762929555],[0.308647071170646,51.39705168372],[0.309006129492736,51.397044607089],[0.309365187666064,51.3970375293596],[0.309353868430665,51.3968129202564],[0.309712924660899,51.3968058415004],[0.309701603780017,51.3965812324577],[0.310060658067161,51.3965741526752],[0.31041971220548,51.3965670717943],[0.310408387884901,51.396342462884],[0.310767440080114,51.3963353809766],[0.31112649212646,51.3963282979707],[0.311485544023912,51.3963212138664],[0.311474214469506,51.3960966051605],[0.311833264423816,51.3960895200297],[0.312192314229191,51.3960824338006],[0.312551363885607,51.396075346473],[0.312540029097533,51.3958507379716],[0.31289907681077,51.3958436496176],[0.312910413393039,51.3960682580471],[0.313269462751467,51.3960611685227],[0.313628511960865,51.3960540779],[0.313987561021211,51.3960469861789],[0.314346609932483,51.3960398933593],[0.314705658694655,51.3960327994414],[0.314694313141445,51.3958081913719],[0.31505335993294,51.3958010964359],[0.315412405606775,51.3957940006975],[0.315401056670013,51.3955693927387],[0.315042012762087,51.3955764884186],[0.314682967737374,51.3955835832909],[0.31467162248244,51.3953589751986],[0.314312579102747,51.3953660689005],[0.313953535573963,51.395373161504],[0.313594491896112,51.3953802530092],[0.313235448069216,51.395387343416],[0.312876404093299,51.3953944327244],[0.312865067958093,51.3951698242608],[0.313224110139885,51.3951627350243],[0.313212772359594,51.3949381266212],[0.313571812598271,51.3949310363584],[0.31358315217266,51.3951556446895],[0.313942194056392,51.3951485532563],[0.31430123579106,51.3951414607247],[0.314660277376639,51.3951343670948],[0.315019318813107,51.3951272723666],[0.315378359239435,51.3951201767894],[0.315737399455883,51.3951130801311],[0.316096439524685,51.3951059823736],[0.316085087491121,51.3948813745026],[0.316444125642385,51.3948742757058],[0.316803163645957,51.3948671758099],[0.317162201501814,51.3948600748149],[0.317150844306415,51.3946354671126],[0.317509880244699,51.3946283650783],[0.317521239209936,51.3948529727208],[0.317880276770298,51.3948458695276],[0.31789163765317,51.3950704770996],[0.317902998683847,51.395295084661],[0.318262039636157,51.395287980249],[0.318273402584541,51.39551258774],[0.318284765680755,51.3957371952203],[0.318643810025073,51.3957300895895],[0.318655175039066,51.3959546969994],[0.318666540200917,51.3961793043986],[0.319025587937301,51.3961721975489],[0.319036955017001,51.3963968048777],[0.318677905510631,51.3964039117872],[0.318689270968209,51.3966285191652],[0.318700636573655,51.3968531265326],[0.318712002326971,51.3970777338893],[0.318723368228158,51.3973023412355],[0.3190824248147,51.3972952340865],[0.319093792633862,51.3975198413622],[0.319105160600924,51.3977444486272],[0.319464220579804,51.3977373402593],[0.319475590464912,51.3979619474539],[0.319486960497948,51.3981865546378],[0.319498330678914,51.3984111618111],[0.319857395820377,51.3984040521644],[0.319868767919485,51.3986286592671],[0.319880140166551,51.3988532663593],[0.320239208700512,51.3988461554936],[0.320250582865791,51.3990707625152],[0.320261957179055,51.3992953695262],[0.320621029105573,51.3992882574415],[0.320632405337121,51.399512864382],[0.320643781716682,51.3997374713118],[0.321002857035815,51.399730358008],[0.321014235333731,51.3999549648673],[0.321373312275178,51.3999478504042],[0.321732389068578,51.3999407348418],[0.32209146571391,51.3999336181801],[0.322450542211149,51.3999265004191],[0.322439156831908,51.3997018937995],[0.322798231410707,51.3996947749992],[0.323157305841372,51.3996876550995],[0.323516380123879,51.3996805341006],[0.323875454258205,51.3996734120024],[0.324234528244327,51.3996662888049],[0.324593602082224,51.3996591645081],[0.32495267577187,51.399652039112],[0.325311749313245,51.3996449126166],[0.325670822706324,51.399637785022],[0.325682224018403,51.3998623911018],[0.326041299033467,51.3998552623478],[0.326052702264207,51.4000798683569],[0.326411778901251,51.4000727384436],[0.3264231840507,51.400297344382],[0.326782262309719,51.4002902133094],[0.327141340420342,51.4002830811375],[0.327500418382549,51.4002759478662],[0.327859496196317,51.4002688134957],[0.328218573861621,51.4002616780259],[0.328229988011262,51.4004862836533],[0.327870908575602,51.4004934191833],[0.327882320327841,51.4007180251081],[0.327893732081769,51.4009426310692],[0.328252815130389,51.4009354953925],[0.328264228828406,51.4011601012727],[0.328275642676441,51.4013847071416],[0.3282870566745,51.4016093129993],[0.328646144955474,51.401602176015],[0.328657560897719,51.4018267817919],[0.328668976990013,51.4020513875575],[0.328680393232362,51.4022759933118],[0.329039486745855,51.4022688550198],[0.329050904932488,51.4024934606933],[0.3290623232692,51.4027180663555],[0.329073741755997,51.4029426720065],[0.328714642859747,51.4029498105074],[0.328726059702332,51.4031744162167],[0.328366958861741,51.4031815536884],[0.328007857871129,51.4031886900613],[0.327648756730519,51.4031958253354],[0.327660168340192,51.4034204312424],[0.327671580099864,51.4036450371381],[0.328030684829153,51.4036379017248],[0.328042098533201,51.4038625075397],[0.32840120490686,51.4038553709579],[0.328760311130489,51.4038482332773],[0.329119417204066,51.4038410944979],[0.329478523127569,51.4038339546196],[0.329489944159208,51.4040585601447],[0.329501365340968,51.4042831656585],[0.329512786672852,51.4045077711611],[0.329524208154866,51.4047323766525],[0.329535629787007,51.4049569821326],[0.32917651489134,51.4049641223591],[0.329187934879112,51.4051887278976],[0.329547051569282,51.4051815876014],[0.32955847350169,51.405406193059],[0.329917591836268,51.4053990515943],[0.330276710020706,51.4053919090307],[0.330288135692341,51.4056165143377],[0.330647255521157,51.4056093706055],[0.331006375199784,51.4056022257744],[0.331365494728199,51.4055950798444],[0.331354063672951,51.4053704747465],[0.331713181235304,51.4053633277957],[0.331701748557093,51.4051387227478],[0.33169031600786,51.4049141176971],[0.331678883608897,51.4046895126351],[0.331667451360203,51.4044649075618],[0.331308340954456,51.4044720542422],[0.331296910650443,51.404247449088],[0.331285480496671,51.4040228439225],[0.331274050493136,51.4037982387458],[0.330914945320358,51.4038053841182],[0.330903517261409,51.4035807788606],[0.330892089352667,51.4033561735917],[0.330880661594132,51.4031315683116],[0.331239761383924,51.4031244231482],[0.33122833198131,51.4028998179265],[0.331216902728921,51.4026752126935],[0.331205473626753,51.4024506074493],[0.331194044674804,51.4022260021939],[0.331553137137411,51.4022188562105],[0.33154170654149,51.4019942510135],[0.331530276095807,51.4017696458053],[0.331518845800358,51.4015450405857],[0.331507415655141,51.401320435355],[0.331495985660153,51.401095830113],[0.331484555815392,51.4008712248597],[0.331125474117566,51.4008783704248],[0.331114046217079,51.4006537650906],[0.331102618149056,51.4004291598389],[0.331091189836662,51.4002045546924],[0.330732113359881,51.4002116989566],[0.330720686966483,51.3999870937393],[0.330709260721745,51.3997624885114],[0.330350187636926,51.399769631556],[0.330338763311114,51.3995450262573],[0.330327339133934,51.399320420948],[0.330686408678236,51.3993132780236],[0.331045478073904,51.399306134],[0.331034050504908,51.3990815288003],[0.331393117981698,51.3990743837376],[0.33175218522834,51.3990672376122],[0.332111251739927,51.3990600906509],[0.332099819054528,51.3988354856057],[0.332458883670832,51.3988283375997],[0.332817948139808,51.398821188494],[0.333177012461435,51.3988140382889],[0.333165574679505,51.3985894333981],[0.333524637105814,51.3985822821482],[0.33388369938473,51.3985751297988],[0.333872258254343,51.3983505250075],[0.334231318637925,51.3983433716134],[0.334242761516231,51.3985679763498],[0.334601823500294,51.3985608218013],[0.334960885336896,51.3985536661532],[0.334972331858529,51.3987782707694],[0.334983778527663,51.3990028753753],[0.334995225344301,51.3992274799709],[0.335354292277288,51.3992203230584],[0.335713359062763,51.3992131650464],[0.3360724257007,51.3992060059347],[0.336431492191082,51.3991988457235],[0.336420038382546,51.3989742413478],[0.336779102977379,51.3989670800919],[0.336790558533883,51.3991916844127],[0.33714962472908,51.3991845220023],[0.337161082181191,51.3994091262577],[0.337172539780947,51.3996337305028],[0.337531609324513,51.3996265668828],[0.337543068819946,51.3998511710627],[0.337902139963888,51.399844006288],[0.338261210960151,51.3998368404139],[0.338620281808714,51.3998296734401],[0.338608817069203,51.3996050694253],[0.338967886022022,51.399597901407],[0.338956419682251,51.399373297437],[0.338944953490237,51.3991486934567],[0.338933487445979,51.398924089466],[0.338922021549473,51.3986994854651],[0.338910555800717,51.3984748814538],[0.338899090199709,51.3982502774322],[0.338887624746445,51.3980256734003],[0.338876159440924,51.3978010693581],[0.339235214262667,51.3977939006805],[0.339246681316026,51.3980185046677],[0.33960573773786,51.3980113348356],[0.339964794011922,51.3980041639039],[0.340323850138192,51.3979969918727],[0.340312377841336,51.3977723880507],[0.340671432071963,51.3977652149751],[0.340659958175132,51.3975406111979],[0.340648484426151,51.3973160074103],[0.340637010825018,51.3970914036124],[0.34099605966447,51.3970842296026],[0.341355108356071,51.3970770544932],[0.341343631407316,51.3968524507952],[0.341702678203315,51.3968452746414],[0.34169119965474,51.3966206709882],[0.341679721254074,51.3963960673247],[0.341668243001313,51.3961714636508],[0.341656764896454,51.3959468599666],[0.341297725091149,51.3959540359],[0.341286248881808,51.3957294321503],[0.341274772820342,51.3955048283904],[0.341633809130436,51.3954976525673],[0.34162233146927,51.3952730488521],[0.341263296906748,51.3952802246202],[0.341251821141024,51.3950556208396],[0.341240345523169,51.3948310170487],[0.340881314307874,51.3948381916071],[0.34086984058539,51.3946135877508],[0.340510810969781,51.3946207611548],[0.34015178120637,51.3946279334594],[0.340163251433833,51.3948525374258],[0.340174721809094,51.395077141382],[0.340186192332154,51.3953017453278],[0.340197663003018,51.3955263492633],[0.340209133821685,51.3957509531885],[0.340220604788161,51.3959755571033],[0.34057964503698,51.3959683844683],[0.340591117898912,51.3961929883178],[0.340232075902446,51.3962001610079],[0.339873033758185,51.3962073325985],[0.33951399146615,51.3962145030897],[0.339154949026366,51.3962216724814],[0.338795906438853,51.3962288407737],[0.338784442315181,51.3960042366489],[0.338772978339229,51.3957796325138],[0.338761514510994,51.3955550283684],[0.338750050830473,51.3953304242127],[0.338738587297666,51.3951058200467],[0.338727123912567,51.3948812158704],[0.338715660675176,51.3946566116837],[0.338704197585489,51.3944320074867],[0.338692734643505,51.3942074032794],[0.338333707636412,51.394214569977],[0.338322246589584,51.3939899657043],[0.33831078569043,51.3937653614214],[0.338299324938949,51.3935407571281],[0.338287864335137,51.3933161528246],[0.338276403878993,51.3930915485107],[0.338264943570512,51.3928669441864],[0.338253483409694,51.3926423398519],[0.338242023396536,51.3924177355071],[0.337883010220824,51.3924249006651],[0.337523996897495,51.3924320647238],[0.337535453416048,51.3926566691787],[0.337176438197818,51.3926638321931],[0.336817422832012,51.3926709941081],[0.336458407318654,51.3926781549239],[0.336099391657766,51.3926853146403],[0.335740375849371,51.3926924732574],[0.33538135989349,51.3926996307752],[0.335369913858813,51.3924750259905],[0.335010899502791,51.392482182354],[0.334651884999333,51.3924893376182],[0.334292870348459,51.3924964917831],[0.333933855550192,51.3925036448486],[0.333574840604557,51.3925107968148],[0.333215825511573,51.3925179476817],[0.333204390108201,51.3922933425572],[0.333192954842154,51.3920687375175],[0.333181519716321,51.3918441325388],[0.333170084738312,51.3916195275497],[0.332811076507202,51.3916266770871],[0.332822509730281,51.3918512821332],[0.332463499596455,51.3918584306284],[0.332104489314868,51.3918655780245],[0.332115919175835,51.3920901831741],[0.331756906991548,51.3920973295279],[0.331397894670378,51.3921044749005],[0.331038882203038,51.3921116191925],[0.330679869587853,51.3921187623854],[0.330320856824844,51.3921259044795],[0.329961843914035,51.3921330454745],[0.329602830855449,51.3921401853706],[0.329243817649108,51.3921473241678],[0.328884804295034,51.3921544618659],[0.328873390250438,51.3919298561817],[0.328514378506327,51.3919369927206],[0.328155366614531,51.3919441281606],[0.327796354575074,51.3919512625016],[0.327784945951157,51.391726656626],[0.327425935521717,51.3917337898078],[0.327414528803087,51.3915091838613],[0.327055519983671,51.3915163158839],[0.327066924944663,51.3917409218906],[0.326707914220018,51.3917480528745],[0.326348903347804,51.3917551827594],[0.326360304941078,51.3919797888759],[0.326001292163651,51.3919869177221],[0.326012692135584,51.3922115238982],[0.325653677446282,51.3922186517105],[0.325294662608724,51.3922257784238],[0.325283266166243,51.3920011721175],[0.324924252946307,51.3920082976668],[0.324565239578912,51.3920154221171],[0.324576632488927,51.3922400285534],[0.324935647622932,51.3922329040381],[0.324947042271725,51.3924575105288],[0.324958437068753,51.3926821170089],[0.324599418395614,51.3926892416442],[0.324240399574281,51.3926963651805],[0.324229008316415,51.3924717585804],[0.324217617206734,51.3922471519698],[0.324206226064083,51.3920225454684],[0.324194835016849,51.3917979389908],[0.324553846773999,51.3917908156997],[0.324912858383716,51.3917836913095],[0.324901463968598,51.3915590849416],[0.325260473673207,51.3915519595127],[0.325249077647929,51.3913273531944],[0.325608085447436,51.3913202267267],[0.325596687812044,51.3910956204578],[0.32558529032416,51.3908710141784],[0.325573892983783,51.3906464078882],[0.325214890457021,51.3906535341754],[0.325203495021684,51.3904289278144],[0.324844494104994,51.3904360529425],[0.324485493040866,51.3904431769717],[0.324496884961121,51.3906677834529],[0.324137881992029,51.3906749064433],[0.323778878875541,51.3906820283348],[0.323767490470375,51.3904574217332],[0.32340848896406,51.3904645424656],[0.32339710246381,51.3902399357933],[0.323038102567674,51.3902470553666],[0.323026717972293,51.3900224486235],[0.32301533352425,51.3897978418698],[0.322656336995784,51.389804960224],[0.322667719686341,51.3900295670379],[0.32230872125309,51.3900366843533],[0.322320102333452,51.3902612912166],[0.322331483561108,51.3904858980693],[0.322342864936064,51.3907105049114],[0.322701868641916,51.3907033874156],[0.322713251921751,51.3909279941869],[0.322354246458321,51.3909351117428],[0.321995240847603,51.3909422281997],[0.322006620759558,51.3911668350806],[0.321647613243969,51.3911739504987],[0.321658991545579,51.391398557429],[0.321299982125116,51.3914056718082],[0.320940972557429,51.3914127850885],[0.32095234749099,51.3916373921283],[0.320593336018441,51.3916445043697],[0.320604709341541,51.3918691114589],[0.320245695964128,51.3918762226614],[0.320257067676719,51.3921008298001],[0.319898052394435,51.3921079399636],[0.319539036965011,51.3921150490281],[0.319527668767841,51.3918904417694],[0.319168654949014,51.3918975496749],[0.319180021388469,51.3921221569937],[0.318821005664832,51.3921292638602],[0.318832370206733,51.3923538713345],[0.318473352556627,51.3923609771668],[0.318484715353029,51.392585584736],[0.318496078297251,51.3928101922946],[0.318507441389298,51.3930347998425],[0.31814841828252,51.3930419047553],[0.31813705696012,51.3928172971475],[0.318125695785522,51.3925926895291],[0.318114334758722,51.3923680819],[0.317755316813039,51.3923751855342],[0.317396298719601,51.3923822880695],[0.317037280478432,51.3923893895057],[0.316678262089553,51.3923964898428],[0.316689616037921,51.3926210977111],[0.316700970133997,51.3928457055688],[0.317059992062122,51.392838605112],[0.317071348075566,51.3930632128993],[0.317082704236745,51.3932878206759],[0.317094060545663,51.3935124284419],[0.316735033308499,51.3935195290781],[0.316723678769284,51.3932949212523],[0.316364653154125,51.3933020207296],[0.316376005923636,51.3935266286152],[0.316016978391098,51.3935337270532],[0.316028329538572,51.393758334988],[0.315669300088647,51.3937654323868],[0.31531027049109,51.3937725286865],[0.315321618246726,51.3939971367301],[0.314962586550808,51.3940042320371],[0.314603554084551,51.3940113264053],[0.314244521469197,51.3940184196752],[0.31423317905212,51.3937938114311],[0.314221836784138,51.3935692031756],[0.313862807607641,51.3935762952032],[0.313503778282097,51.3935833861325],[0.31314474880753,51.3935904759635],[0.312785719183961,51.3935975646962],[0.312426689411415,51.3936046523306],[0.312067659489914,51.3936117388668],[0.312078990994127,51.393836347554],[0.311719959129724,51.3938434330638],[0.311708629419483,51.3936188243046],[0.311697299858171,51.393394215534],[0.311685970445785,51.393169606752],[0.311326943814322,51.3931766909476],[0.311315616344766,51.3929520820823],[0.311674641182324,51.3929449979586],[0.312033665870981,51.3929379127366],[0.312022334962563,51.3927133040037],[0.312381357708421,51.3927062177554],[0.312740380305334,51.3926991304088],[0.312729045958155,51.3924745218085],[0.313088066612253,51.3924674334356],[0.313447087117364,51.3924603439644],[0.313806107473463,51.392453253395],[0.314165127680527,51.3924461617273],[0.314153786307049,51.3922215534035],[0.314512804571241,51.3922144607096],[0.314871822686354,51.3922073669174],[0.315230840335121,51.3922002720833],[0.315219493238781,51.3919756641024],[0.315578508674381,51.3919685682858],[0.315567159959095,51.3917439603565],[0.315926173490112,51.3917368635008],[0.316285186874243,51.3917297655461],[0.31627383479045,51.3915051577261],[0.316632846269983,51.3914980587324],[0.316621492575447,51.3912734509617],[0.316610139027854,51.3910488431804],[0.316251131063632,51.3910559420542],[0.315892122952509,51.391063039829],[0.315880773067102,51.3908384319172],[0.315869423328589,51.3906138239947],[0.315858073736966,51.3903892160615],[0.315846724292231,51.3901646081178],[0.315835374994383,51.3899400001634],[0.315476375524286,51.3899470965396],[0.315465028130834,51.3897224885146],[0.315106030271412,51.389729583732],[0.315094684782309,51.3895049756365],[0.31508333944004,51.3892803675303],[0.315071994244601,51.3890557594136],[0.315060649195991,51.3888311512862],[0.315419640025577,51.3888240563086],[0.315778630708331,51.3888169602321],[0.316137621244233,51.3888098630568],[0.316126271070247,51.3885852550986],[0.316114921043152,51.3883606471297],[0.315755934022023,51.3883677441852],[0.315744585899167,51.3881431361458],[0.316103571162945,51.3881360391503],[0.316092221429623,51.3879114311602],[0.315733237923176,51.3879185280957],[0.315721890094044,51.3876939200351],[0.315710542411771,51.3874693119638],[0.315699194876353,51.3872447038819],[0.315687847487788,51.3870200957893],[0.316046823965142,51.3870129990935],[0.316405800295642,51.3870059012989],[0.316764776479262,51.3869988024055],[0.316753423965906,51.3867741944822],[0.316742071599465,51.3865495865482],[0.316383098930245,51.3865566853217],[0.316371748467885,51.3863320773171],[0.316730719379939,51.3863249786036],[0.317089690145097,51.3863178787913],[0.317078336315341,51.386093270896],[0.317066982632515,51.3858686629901],[0.317055629096618,51.3856440550736],[0.316696663602814,51.385651154706],[0.316685311970915,51.3854265467189],[0.316673960485919,51.3852019387211],[0.31666260914782,51.3849773307128],[0.316303648778288,51.3849844290666],[0.316292299344092,51.3847598209876],[0.316280950056767,51.384535212898],[0.315921993054376,51.3845423100332],[0.315910645670886,51.384317701873],[0.315899298434237,51.3840930937023],[0.31554034479893,51.3841001896189],[0.315528999466044,51.3838755813775],[0.315517655261677,51.383650972921],[0.315158704967453,51.3836580676247],[0.315147362725748,51.3834334590856],[0.315506311255794,51.3834263644431],[0.31586525963859,51.3834192687019],[0.315853914015827,51.3831946602745],[0.316212860487198,51.383187563496],[0.3162015132476,51.3829629551191],[0.316190166155315,51.3827383467314],[0.316178819210341,51.3825137383331],[0.316537760242111,51.3825066406396],[0.316896701126573,51.3824995418477],[0.316908051599705,51.3827241501236],[0.317266994100911,51.3827170501718],[0.317278346485495,51.3829416583758],[0.31763729060344,51.3829345572643],[0.317996234574001,51.3829274550542],[0.317984878661228,51.3827028469727],[0.317973522895881,51.3824782388805],[0.317962167277953,51.3822536307776],[0.318321105808909,51.3822465276527],[0.31833246319088,51.3824711356944],[0.318343820720296,51.3826957437253],[0.318702762631937,51.3826886393794],[0.319061704396131,51.3826815339349],[0.319420646012856,51.3826744273919],[0.319409283191254,51.3824498195448],[0.319768222896426,51.3824427119645],[0.320127162454086,51.3824356032857],[0.3201385288038,51.3826602110102],[0.320497469977975,51.3826531011716],[0.320508838239324,51.3828777088241],[0.32086778103001,51.3828705978256],[0.32122672367311,51.3828634857286],[0.321238095610232,51.3830880932477],[0.321597039869811,51.3830809799908],[0.321955983981756,51.3830738656353],[0.322314927946044,51.3830667501813],[0.322303550716661,51.3828421428462],[0.322292173634975,51.3826175355004],[0.321933233198835,51.3826246508317],[0.321921858028886,51.3824000434138],[0.321910483006608,51.3821754359852],[0.321551545950876,51.3821825500953],[0.32119260874752,51.3821896631069],[0.321181237400906,51.3819650555449],[0.32082230181395,51.3819721673966],[0.320810932378936,51.3817475597626],[0.320451998408384,51.3817546704545],[0.320440630884925,51.3815300627484],[0.320081698530783,51.3815371722805],[0.320070332918832,51.3813125645024],[0.320058967454426,51.3810879567136],[0.319700038480617,51.3810950650246],[0.31968867492765,51.3808704571637],[0.31932974757024,51.380877564315],[0.31934110935931,51.3811021722371],[0.319352471295876,51.3813267801485],[0.31899354026317,51.3813338863238],[0.318634609083008,51.3813409914006],[0.318275677755414,51.381348095379],[0.317916746280409,51.3813551982588],[0.317905391399551,51.3811305901023],[0.3178940366661,51.3809059819351],[0.317882682080051,51.3806813737573],[0.317523755749392,51.3806884753549],[0.317164829271376,51.380695575854],[0.316805902646025,51.3807026752547],[0.316817251940401,51.3809272836163],[0.316458323403845,51.3809343819797],[0.316446975873364,51.3807097735569],[0.316435628490193,51.3804851651234],[0.316076703334118,51.3804922622659],[0.316065357862109,51.3802676537604],[0.315706434322626,51.3802747497433],[0.31571777803078,51.38049935831],[0.315358852580201,51.3805064532556],[0.314999927009818,51.3805135470992],[0.314641001489204,51.3805206398189],[0.314652340042191,51.380745248558],[0.314293412606924,51.3807523402391],[0.313934485024291,51.3807594308216],[0.313945820190107,51.3809840396698],[0.31395715550329,51.3812086485074],[0.31431608662053,51.381201557805],[0.314327423848421,51.3814261665721],[0.314686356585626,51.3814190747113],[0.315045289176346,51.3814119817517],[0.31540422182981,51.3814048876599],[0.31539287929654,51.3811802790749],[0.315751810038828,51.3811731839457],[0.316110740633868,51.381166087718],[0.316469671081637,51.3811589903918],[0.316481018906747,51.3813835987933],[0.316122086695033,51.3813906961806],[0.315763154336048,51.3813977924695],[0.315774498780539,51.3816224009826],[0.315415564510331,51.3816294962342],[0.315056630092893,51.3816365903872],[0.31469769572827,51.3816436834078],[0.314709035018336,51.3818682920937],[0.314350098746392,51.3818753840743],[0.314361436416478,51.3820999928094],[0.31400249822975,51.3821070837513],[0.313643559895664,51.3821141735946],[0.313632225760394,51.3818895647397],[0.313273289046384,51.3818966534245],[0.313261956825856,51.381672044499],[0.313250624752659,51.381447435563],[0.312891691426098,51.3814545230295],[0.312880361267573,51.3812299140229],[0.312521429561078,51.3812370003309],[0.31251010131718,51.3810123912539],[0.312498773220559,51.3807877821662],[0.31213984490144,51.380794867256],[0.312128518719375,51.3805702580979],[0.312487445271213,51.380563173068],[0.312476117469138,51.3803385639591],[0.312835042106469,51.3803314778905],[0.3128463716758,51.3805560869395],[0.313205297933117,51.3805489997125],[0.313564224043138,51.3805419113869],[0.313923150005841,51.3805348219628],[0.314282075821204,51.3805277314401],[0.31427073918287,51.3803031226306],[0.314629663083625,51.3802960310693],[0.314618324825452,51.380071422309],[0.314606986714683,51.3798468135381],[0.314965906933639,51.3798397209981],[0.314954567203097,51.3796151122764],[0.315313485686429,51.3796080186799],[0.315672404081714,51.3796009239791],[0.315661060962584,51.3793763153696],[0.315649717990706,51.3791517067494],[0.315638375166074,51.3789270981185],[0.315627032488686,51.3787024894769],[0.315615689958542,51.3784778808245],[0.315974599388002,51.3784707853312],[0.316333508670219,51.3784636887396],[0.316322162760016,51.3782390801989],[0.316310816997096,51.3780144716476],[0.316299471381455,51.3777898630855],[0.316658375225541,51.3777827655791],[0.3166470279936,51.3775581570675],[0.316635680908958,51.3773335485453],[0.316994581078637,51.3773264500629],[0.317353481101019,51.3773193504822],[0.317342130636615,51.3770947420717],[0.317701028748153,51.3770876414539],[0.317689676667586,51.3768630330939],[0.31733078031955,51.3768701336504],[0.316971883824199,51.3768772331087],[0.316960535417952,51.3766526246155],[0.316949187159014,51.3764280161116],[0.316937839047385,51.376203407597],[0.317296730252358,51.3761963083224],[0.317655621310024,51.3761892079495],[0.317644269818876,51.3759645995467],[0.318003158965803,51.3759574981367],[0.317991805858618,51.3757328897844],[0.317632918475076,51.3757399911331],[0.317621567393746,51.3755153826846],[0.317610217894225,51.3752907739249],[0.317969101803413,51.3752836726811],[0.318327985565457,51.3752765703387],[0.318316632692442,51.375051961678],[0.318305279966623,51.374827353007],[0.317946399725197,51.3748344552401],[0.317587519336632,51.3748415563745],[0.317228638800949,51.3748486564103],[0.317239986245869,51.3750732652453],[0.316881103802787,51.3750803642371],[0.316869758118173,51.3748557553475],[0.316858412580659,51.3746311464476],[0.316847067190244,51.3744065375374],[0.317205944352479,51.3743994387095],[0.317564821367624,51.374392338783],[0.317553472603833,51.3741677299718],[0.317912347711635,51.3741606290013],[0.317923698235657,51.3743852377578],[0.318282574956556,51.374378135634],[0.318271222672304,51.3741535269321],[0.318259870535235,51.3739289182199],[0.318248518545349,51.3737043094974],[0.318237166702642,51.3734797007646],[0.31822581500711,51.3732550920215],[0.318214463458753,51.3730304832681],[0.317855597298892,51.373037585064],[0.3178442476578,51.3728129762457],[0.317832898163855,51.372588367417],[0.317474035377043,51.372595468005],[0.317115172443141,51.3726025674944],[0.316756309362167,51.3726096658853],[0.316744965295526,51.3723850568824],[0.316733621375958,51.3721604478693],[0.31672227760346,51.3719358388459],[0.316710933978031,51.3717112298121],[0.31635207779011,51.3717183268859],[0.316340736071714,51.3714937177873],[0.315981881496748,51.3715008137079],[0.315623026774795,51.37150790853],[0.315611688723337,51.3712832993119],[0.315600350818873,51.3710586900835],[0.315589013061398,51.3708340808448],[0.31594786250357,51.3708269861865],[0.31630671179876,51.3708198904296],[0.316318053076043,51.3710444995592],[0.316676903984129,51.3710374026492],[0.316688247168368,51.3712620117138],[0.316699590499667,51.3714866207681],[0.317058444780588,51.3714795226504],[0.317069790018916,51.3717041316398],[0.317428645912743,51.3716970323689],[0.317787501659487,51.3716899319995],[0.317776152901236,51.3714653231194],[0.318135006740918,51.3714582217061],[0.318123656369863,51.3712336128704],[0.318482508302488,51.3712265104132],[0.318471156318675,51.3710019016218],[0.318830006344249,51.3709947981208],[0.319188856222656,51.3709876935213],[0.319177500866247,51.370763084829],[0.319166145657054,51.3705384761263],[0.318807299298388,51.3705455806165],[0.318795945996243,51.3703209718489],[0.318437101250255,51.3703280751859],[0.318078256357134,51.3703351774244],[0.318089606139598,51.3705597863013],[0.31773075933952,51.370566887496],[0.317371912392349,51.3705739875922],[0.317360566129577,51.370349378606],[0.317001720795186,51.3703564775491],[0.316642875313752,51.3703635753936],[0.316284029685296,51.3703706721397],[0.315925183909842,51.3703777677873],[0.315913844833487,51.3701531585724],[0.315555000670893,51.3701602530669],[0.315543663501355,51.369935643787],[0.315184820951627,51.3699427371285],[0.315173485688861,51.3697181277837],[0.315162150573048,51.3694935184287],[0.315150815604185,51.3692689090633],[0.315139480782269,51.3690442996877],[0.315498316292957,51.3690372065645],[0.315486979858285,51.3688125972332],[0.315128146107299,51.3688196903017],[0.314769312273501,51.368826782187],[0.314410478312843,51.368833872948],[0.314051644205772,51.3688409626108],[0.314062973618716,51.369065572174],[0.313704137612764,51.3690726607969],[0.313692809952314,51.3688480511754],[0.313681482438258,51.3686234415434],[0.313322649790906,51.3686305289516],[0.312963816997215,51.3686376152616],[0.312975141006321,51.36886222501],[0.312986465161777,51.3690868347479],[0.312627628716788,51.3690939200762],[0.312638951266074,51.3693185298617],[0.312650273961693,51.3695431396368],[0.312291433865328,51.3695502239832],[0.311932593622681,51.3695573072314],[0.311573753233773,51.3695643893813],[0.311214912698627,51.3695714704331],[0.311203597013216,51.3693468604253],[0.310844758084414,51.3693539403206],[0.310833444297782,51.3691293302441],[0.310474606975327,51.369136408983],[0.310463295087429,51.3689117988378],[0.310104459371327,51.3689188764204],[0.310115769506707,51.3691434866237],[0.309756931891945,51.3691505631663],[0.309745623509085,51.3689259529048],[0.309734315272371,51.3687013426328],[0.309375481016513,51.3687084179608],[0.309364174678422,51.3684838076202],[0.309005342028952,51.3684908817919],[0.308646509233414,51.3684979548654],[0.308287676291831,51.3685050268407],[0.308276375357242,51.3682804163153],[0.307917544022102,51.3682874871343],[0.307906244986004,51.3680628765402],[0.307894946095931,51.3678382659356],[0.307536118119662,51.3678453355403],[0.307524821128011,51.3676207248671],[0.307165994758175,51.3676277933155],[0.3071546996649,51.3674031825738],[0.307143404703313,51.3671785718184],[0.307502227563576,51.3671715034844],[0.307490930856376,51.3669468927414],[0.307132109748449,51.3669539610226],[0.30712081493955,51.3667293502167],[0.306761995437999,51.3667364173466],[0.306750702527358,51.3665118064777],[0.306739409762654,51.3662871955987],[0.306728117143889,51.3660625847094],[0.306369302753241,51.3660696505827],[0.306358012032635,51.3658450396305],[0.306346721457938,51.3656204286682],[0.305987910425845,51.3656274933374],[0.305976621749238,51.3654028823122],[0.305617812323477,51.3654099458303],[0.305259002751884,51.36541700825],[0.30524771772549,51.3651923971091],[0.30523643284493,51.3649677859581],[0.305595238912211,51.3649607236438],[0.305606525544915,51.3651853347421],[0.305965333218514,51.3651782712767],[0.306324140746263,51.3651712067129],[0.306682948128138,51.3651641410507],[0.307041755364118,51.3651570742901],[0.30705304915132,51.3653816851673],[0.307064343084471,51.3656062960343],[0.307075637163574,51.3658309068911],[0.307434449510166,51.3658238388738],[0.307793261710811,51.365816769758],[0.307804559440309,51.3660413804991],[0.308163373247199,51.3660343102321],[0.308174672874939,51.3662589209103],[0.308533488288072,51.3662518494921],[0.308892303555183,51.3662447769754],[0.309251118676252,51.3662377033603],[0.30926242370679,51.3664623138698],[0.309621240434044,51.3664552391035],[0.309632547362953,51.36667984955],[0.30999136569639,51.3666727736323],[0.310002674523716,51.3668973840159],[0.310361494463329,51.3668903069469],[0.3107203142568,51.3668832287795],[0.310731626734901,51.3671078390471],[0.311090448134519,51.3671007597284],[0.311449269387948,51.3670936793112],[0.311808090495166,51.3670865977955],[0.31216691145615,51.3670795151813],[0.312525732270877,51.3670724314687],[0.312884552939326,51.3670653466576],[0.313243373461473,51.3670582607481],[0.313232048717255,51.3668336508506],[0.313590867340785,51.3668265638955],[0.313579540990647,51.3666019540408],[0.31356821478688,51.3663773441759],[0.313556888729481,51.3661527343009],[0.313545562818447,51.3659281244156],[0.313904374286699,51.3659210365738],[0.314263185608595,51.3659139476335],[0.314621996784109,51.3659068575948],[0.314610665762916,51.3656822478582],[0.314251856339572,51.3656893378439],[0.313893046769851,51.3656964267312],[0.313534237053777,51.3657035145201],[0.313522911435467,51.3654789046145],[0.313511585963515,51.3652542946987],[0.3131527796054,51.3652613812833],[0.313141456031916,51.3650367713044],[0.312782651279612,51.3650438567378],[0.312423846381028,51.3650509410728],[0.312065041336187,51.3650580243093],[0.31207635965332,51.3652826344469],[0.311717552710123,51.365289716638],[0.311706236145112,51.3650651064475],[0.31169491972634,51.3648404962468],[0.312053723165316,51.3648334141615],[0.31241252645806,51.3648263309778],[0.31277132960455,51.3648192466957],[0.313130132604762,51.3648121613153],[0.313488935458677,51.3648050748365],[0.313847738166269,51.3647979872593],[0.313836411381312,51.3645733773658],[0.313825084742727,51.3643487674622],[0.313813758250509,51.3641241575483],[0.313802431904656,51.3638995476243],[0.313791105705168,51.3636749376901],[0.313432311757672,51.3636820250027],[0.313420987456495,51.3634574150053],[0.313062195114643,51.3634645011667],[0.313050872711733,51.3632398911063],[0.31269208197553,51.3632469761164],[0.312333291093068,51.3632540600282],[0.312344609992107,51.3634786701944],[0.312355929037415,51.3637032803504],[0.311997134504817,51.3637103632697],[0.311985817211469,51.3634857530607],[0.311974500064368,51.3632611428416],[0.311963183063511,51.3630365326123],[0.311604393640517,51.3630436142746],[0.311593078537795,51.3628190039822],[0.31123429072051,51.3628260844933],[0.31122297751588,51.3626014741379],[0.311581763581289,51.3625943936797],[0.311940549500513,51.3625873121232],[0.311929232938369,51.3623627018633],[0.311917916522458,51.3621380915933],[0.311906600252776,51.3619134813131],[0.311895284129323,51.3616888710227],[0.312254062895083,51.3616817885794],[0.312612841514624,51.3616747050379],[0.312601522033883,51.3614500948431],[0.31259020269941,51.3612254846381],[0.312948977669225,51.3612184001041],[0.312960298755429,51.3614430102562],[0.312971619987924,51.3616676203981],[0.313330398314958,51.36166053466],[0.313341721445519,51.3618851447389],[0.313700501378037,51.3618780578496],[0.31371182640671,51.3621026678654],[0.313723151581725,51.3623272778709],[0.313734476903087,51.3625518878662],[0.314093261944733,51.36254479972],[0.314104589164302,51.3627694096522],[0.314115916530243,51.3629940195742],[0.314474704929282,51.3629869302238],[0.314486034193501,51.3632115400827],[0.314497363604121,51.3634361499314],[0.31485615536061,51.3634290593768],[0.314867486669577,51.3636536691623],[0.314878818124972,51.3638782789377],[0.314520022864572,51.3638853695983],[0.31453135271441,51.3641099794164],[0.314890149726799,51.3641028887029],[0.31524894665131,51.3640957968444],[0.315260280151717,51.3643204065414],[0.315271613798257,51.364545016228],[0.315630414114358,51.3645379231222],[0.31564174965394,51.3647625327414],[0.315653085339682,51.3649871423501],[0.315664421171589,51.3652117519483],[0.31602322658234,51.3652046575734],[0.316382031846933,51.3651975621003],[0.316740836965343,51.3651904655291],[0.316729495892596,51.3649658561019],[0.316718154966081,51.3647412466643],[0.317076956444426,51.364734149109],[0.317088299117861,51.3649587584896],[0.317447102196901,51.3649516597792],[0.317805905129696,51.3649445599706],[0.318164707916221,51.364937459064],[0.318153360002042,51.3647128498545],[0.318142012234181,51.3644882406347],[0.318130664612637,51.3642636314043],[0.318119317137404,51.3640390221635],[0.318107969808483,51.3638144129123],[0.318096622625871,51.3635898036506],[0.318085275589564,51.3633651943785],[0.31772648503095,51.3633722948857],[0.317715139887701,51.3631476855461],[0.317356350929592,51.3631547848982],[0.317345007679355,51.3629301754911],[0.317333664575371,51.3627055660735],[0.317322321617638,51.3624809566454],[0.317310978806154,51.3622563472069],[0.317299636140915,51.362031737758],[0.316940855770038,51.3620388357269],[0.316929514997666,51.3618142262105],[0.316918174371513,51.3615896166836],[0.316906833891576,51.3613650071463],[0.316548058614319,51.3613721038461],[0.316536720027153,51.3611474942413],[0.316177946350296,51.361154589786],[0.316166609655858,51.3609299801138],[0.315807837579406,51.3609370745036],[0.31579650277765,51.3607124647639],[0.316155273107585,51.3607053704311],[0.316143936705471,51.3604807607379],[0.316132600449515,51.3602561510343],[0.315773833612551,51.3602632452531],[0.315762499249203,51.3600386354821],[0.315403734012589,51.3600457285459],[0.315044968629895,51.3600528205118],[0.314686203295829,51.3600599113704],[0.314327437815789,51.3600670011309],[0.313968672189411,51.3600740897931],[0.313609906416718,51.3600811773572],[0.313251140497733,51.3600882638231],[0.312892374432479,51.3600953491908],[0.312533608220979,51.3601024334603],[0.312544926824148,51.3603270437162],[0.312556245573574,51.3605516539619],[0.312567564469257,51.3607762641975],[0.312208792856604,51.3607833475275],[0.311850021097741,51.3607904297592],[0.311491249192691,51.3607975108927],[0.311132477141477,51.360804590928],[0.310773704944121,51.3608116698651],[0.310785015227602,51.3610362803548],[0.310426241132427,51.3610433582465],[0.310067466891153,51.3610504350399],[0.309708692503803,51.3610575107352],[0.309719997678257,51.3612821213732],[0.309731302998797,51.3615067320011],[0.309372524961909,51.3615138067037],[0.309383828676761,51.3617384173743],[0.309395132537679,51.3619630280346],[0.309036350851177,51.3619701017446],[0.309025048742059,51.3617454910314],[0.308666268661342,51.3617525635903],[0.308307488434631,51.361759635051],[0.30831878704014,51.3619842458697],[0.30796000491565,51.3619913162849],[0.307948708061949,51.3617667054134],[0.307937411354224,51.3615420945316],[0.307578632587382,51.3615491637429],[0.307219853674617,51.361556231856],[0.307208560616401,51.3613316208585],[0.306849783309505,51.3613386878206],[0.306838492148963,51.3611140767602],[0.306479716447942,51.3611211425712],[0.30612094060107,51.361128207284],[0.306109653089888,51.3609035961079],[0.30575087884892,51.3609106596697],[0.305739593235303,51.3606860484308],[0.305380820600245,51.3606931108416],[0.305022047819409,51.3607001721542],[0.304663274892819,51.3607072323686],[0.304304501820495,51.3607142914847],[0.30394572860246,51.3607213495026],[0.303586955238739,51.3607284064223],[0.303228181729351,51.3607354622437],[0.302869408074322,51.3607425169669],[0.302510634273672,51.3607495705919],[0.302521904121787,51.360974182305],[0.30253317411553,51.361198794008],[0.302544444254905,51.3614234057008],[0.302555714539912,51.3616480173835],[0.302566984970557,51.361872629056],[0.302925767530094,51.3618655751678],[0.303284549944,51.3618585201813],[0.30329582402397,51.3620831317382],[0.303307098249626,51.3623077432851],[0.302948312332014,51.3623147983769],[0.302589526268763,51.3623218523704],[0.30260079713633,51.3625464640124],[0.302242009175573,51.3625535169603],[0.30188322106922,51.3625605688098],[0.301894488578599,51.362785180547],[0.301535698574754,51.3627922313508],[0.301546964477794,51.3630168431304],[0.301188172576451,51.3630238928885],[0.301199436873106,51.3632485047106],[0.30084064307426,51.363255553423],[0.300851905764486,51.3634801652875],[0.300863168600254,51.3637047771418],[0.300504371151882,51.3637118248611],[0.300493110068133,51.3634872129542],[0.300134314226289,51.3634942595226],[0.300123055040057,51.3632696475529],[0.300481849129904,51.3632626010372],[0.300470588337192,51.3630379891099],[0.300829380529576,51.3630309415484],[0.30081811813043,51.3628063296636],[0.301176908425356,51.3627992810564],[0.30116564441982,51.362574669214],[0.30115438055984,51.3623500573615],[0.301513167205413,51.3623430077612],[0.301501901739109,51.3621183959512],[0.301143116845412,51.3621254454989],[0.300784331806194,51.3621324939483],[0.300425546621476,51.3621395412994],[0.300436806832141,51.3623641532673],[0.300078019750061,51.3623711995726],[0.299719232522525,51.3623782447797],[0.29973048937488,51.3626028568426],[0.299741746372699,51.3628274688954],[0.299753003515987,51.363052080938],[0.299764260804745,51.3632766929704],[0.299405466423988,51.3632837372895],[0.299394210887211,51.3630591252045],[0.299035418113015,51.3630661683727],[0.298676625193423,51.3630732104425],[0.298317832123915,51.3630802513742],[0.298306581988482,51.3628556391127],[0.29794779050759,51.3628626786944],[0.297588998881113,51.3628697171782],[0.297577752403506,51.3626451047875],[0.29721896238756,51.3626521421141],[0.297207717811617,51.3624275296535],[0.29719647338124,51.3622029171824],[0.297185229096425,51.3619783047007],[0.296826444203105,51.3619853407515],[0.29681520181986,51.3617607281999],[0.29680395958215,51.3615361156378],[0.296445178055321,51.3615431504722],[0.29643393771911,51.3613185378402],[0.296792717489972,51.361311503065],[0.296781475543325,51.3610868904816],[0.297140253412742,51.3610798546679],[0.297499031136639,51.3610728177562],[0.297487785823684,51.3608482052808],[0.297846561646123,51.3608411673307],[0.298205337322998,51.3608341282827],[0.298194088643834,51.3606095159153],[0.297835314722847,51.360616554904],[0.297824067945162,51.3603919424667],[0.297465295634483,51.3603989802983],[0.2974765406563,51.3606235927949],[0.297117766444213,51.3606306295879],[0.296758992086609,51.3606376652832],[0.296400217583512,51.3606446998806],[0.296041442934943,51.3606517333802],[0.295682668140925,51.3606587657819],[0.295671431898489,51.3604341529891],[0.295660195801506,51.3602095401856],[0.296018967083784,51.3602025079023],[0.296007729376414,51.3599778951475],[0.296366498757414,51.3599708618257],[0.296725267992952,51.3599638274061],[0.296714026919433,51.3597392147592],[0.296355259439704,51.3597462491196],[0.296344020267484,51.3595216364028],[0.295985254398082,51.3595286696062],[0.295626488383244,51.3595357017117],[0.295637724043886,51.359760314547],[0.29527895612784,51.359767345614],[0.295267722222991,51.3595427327195],[0.294908955917348,51.3595497626295],[0.294550189466337,51.3595567914417],[0.294561419859592,51.3597814044546],[0.294202651507434,51.3597884322282],[0.293843883009951,51.3597954589041],[0.293832656128299,51.3595708457728],[0.293821429391977,51.3593462326309],[0.294180194377878,51.3593392060735],[0.294168966031124,51.3591145929802],[0.294157737829719,51.3588899798764],[0.293798976355312,51.3588970063154],[0.293440214735612,51.3589040316567],[0.293451439425544,51.3591286448789],[0.293092675904834,51.3591356691816],[0.293103898984306,51.3593602824524],[0.29274513356258,51.3593673057165],[0.292386367995624,51.3593743278828],[0.292027602283461,51.3593813489514],[0.292038820240844,51.3596059623891],[0.2916800526277,51.359612982419],[0.291691268974482,51.3598375959052],[0.29170248546646,51.3600622093809],[0.292061256591262,51.3600551892328],[0.292072474984301,51.3602798026387],[0.292083693522565,51.3605044160341],[0.292442468013919,51.3604973946698],[0.292453688453314,51.3607220079955],[0.292464909037962,51.3609466213106],[0.292476129767862,51.3611712346151],[0.292487350643019,51.361395847909],[0.292498571663435,51.3616204611923],[0.292857354789311,51.3616134384344],[0.292868577711005,51.361838051648],[0.292879800777984,51.362062664851],[0.292521014140053,51.3620696877272],[0.292162227356884,51.3620767095056],[0.292173447057027,51.3623013228164],[0.292184666902415,51.3625259361166],[0.292543457197735,51.3625189142198],[0.292554678944482,51.3627435274503],[0.292913470850666,51.3627365043965],[0.292924694498816,51.3629611175572],[0.292935918292265,51.3631857307073],[0.293294713565459,51.3631787064372],[0.293653508693358,51.3631716810693],[0.294012303675939,51.3631646546033],[0.294023532883198,51.3633892675653],[0.294382329476604,51.3633822399423],[0.294393560585422,51.3636068528344],[0.294404791839637,51.363831465716],[0.294416023239251,51.364056078587],[0.294774824955915,51.3640490496884],[0.294786058257183,51.3642736624896],[0.294797291703878,51.3644982752802],[0.295156096787669,51.3644912451651],[0.295514901726038,51.3644842139521],[0.295873706518961,51.3644771816411],[0.296232511166417,51.3644701482321],[0.296243751783708,51.3646947607752],[0.296602558041958,51.364687726209],[0.29661380056108,51.3649123386822],[0.296254992546521,51.3649193733077],[0.296266233454859,51.3651439858296],[0.295907423538473,51.3651510194163],[0.295548613476609,51.3651580519051],[0.295189803269293,51.3651650832958],[0.295201039054082,51.3653896959848],[0.295212274984334,51.3656143086633],[0.295571088704395,51.3656072771541],[0.295929902278997,51.3656002445469],[0.296288715708119,51.3655932108416],[0.296647528991739,51.3655861760384],[0.297006342129832,51.3655791401371],[0.297365155122376,51.3655721031378],[0.297376401736492,51.3657967154501],[0.297387648496209,51.3660213277518],[0.297746464855988,51.366014289536],[0.297757713517748,51.3662389017678],[0.297398895401532,51.366245940043],[0.297410142452463,51.3664705523236],[0.297421389649003,51.3666951645935],[0.297432636991154,51.3669197768529],[0.297443884478922,51.3671443891017],[0.297455131998104,51.3673690014081],[0.2974663796259,51.3675936137261],[0.297107550821905,51.3676006512575],[0.29711879683959,51.367825263622],[0.297477627399262,51.3678182260337],[0.297836457813397,51.3678111873471],[0.297847707488021,51.3680357995873],[0.297858957308238,51.3682604118171],[0.297870207274048,51.3684850240364],[0.297881457385456,51.3687096362453],[0.297522619948402,51.3687166751596],[0.297533868449622,51.3689412874149],[0.297892707642463,51.3689342484438],[0.297903958045071,51.3691588606318],[0.298262798848146,51.3691518205054],[0.298274051152188,51.369376432626],[0.29828530360186,51.3696010447363],[0.298296556197164,51.369825656836],[0.298655402014124,51.3698186153488],[0.298666656503965,51.3700432273767],[0.299025503895874,51.3700361847059],[0.29903676028386,51.3702607966654],[0.299395609283005,51.3702537528385],[0.299754458136675,51.3702467079132],[0.299765718175556,51.3704713197465],[0.300124568636432,51.3704642736651],[0.300135830573569,51.37068888543],[0.300494682641644,51.3706818381924],[0.300505946477083,51.3709064498889],[0.300864800152354,51.370899401495],[0.300876065886137,51.3711240131231],[0.3012349211686,51.371116963573],[0.301593776305465,51.3711099129246],[0.301605045690422,51.3713345244263],[0.301963902434449,51.3713274726217],[0.302322759032829,51.3713204197187],[0.302681615485541,51.3713133657175],[0.302692890274555,51.3715379770348],[0.302334032069043,51.371545031094],[0.301975173717862,51.371552084055],[0.301616315221033,51.3715591359175],[0.301627584897297,51.3717837473982],[0.301638854719219,51.3720083588684],[0.3016501246868,51.3722329703281],[0.301291260785791,51.3722400212662],[0.301302529146138,51.3724646327733],[0.30094366334662,51.3724716826709],[0.300954930099688,51.3726962942254],[0.300966196998378,51.3729209057695],[0.301325066303762,51.372913855756],[0.301683935463529,51.3729068046441],[0.302042804477656,51.3728997524339],[0.302054076780864,51.3731243637936],[0.301695206013775,51.3731314160618],[0.301336335101044,51.3731384672316],[0.300977464042692,51.373145517303],[0.300988731232634,51.373370128826],[0.301347604043975,51.3733630786967],[0.301706476709693,51.373356027469],[0.302065349229766,51.3733489751428],[0.302424221604171,51.3733419217183],[0.302435495951775,51.373566532999],[0.302446770445102,51.3737911442693],[0.302087894564665,51.3737981978098],[0.301729018538555,51.3738052502518],[0.301740289671505,51.3740298616274],[0.301751560950136,51.3742544729926],[0.301762832374452,51.3744790843473],[0.301774103944456,51.3747036956914],[0.302132986982911,51.3746966430176],[0.302144260451746,51.3749212542932],[0.302503145097658,51.374914200463],[0.302514420465371,51.3751388116702],[0.302873306718736,51.3751317566835],[0.303232192826367,51.3751247005984],[0.303243471846184,51.3753493116791],[0.302884583985371,51.3753563678223],[0.302525695978824,51.3753634228669],[0.302536971901813,51.3755880339979],[0.302178082025636,51.3755950879956],[0.301819192002907,51.3756021408949],[0.301460301833647,51.3756091926958],[0.301471573392508,51.3758338038295],[0.301482845097905,51.3760584149526],[0.301494116949839,51.3762830260651],[0.301853012419663,51.3762759740855],[0.301864286185037,51.3765005851279],[0.302223183275221,51.3764935319902],[0.30223445895408,51.3767181429624],[0.302245734779529,51.3769427539239],[0.301886834155481,51.3769498071807],[0.301898108360557,51.3771744181913],[0.301539205822996,51.3771814704092],[0.301550478407653,51.3774060814687],[0.301561751138862,51.3776306925176],[0.301202844920766,51.3776377437562],[0.301191573956573,51.3774131326478],[0.301180303138909,51.3771885215287],[0.301169032467773,51.376963910399],[0.300810131404158,51.3769709603605],[0.300798862646496,51.3767463491607],[0.300439963203357,51.3767533979642],[0.300081063613766,51.3767604456692],[0.300092328837519,51.3769850569881],[0.299733427334541,51.3769921036543],[0.299744690937769,51.3772167150222],[0.300103594207728,51.3772096682965],[0.300114859724396,51.3774342795942],[0.300473764614922,51.3774272317105],[0.300485032045074,51.3776518429381],[0.300843938556162,51.3776447938964],[0.300855207899845,51.3778694050538],[0.30086647739004,51.3780940162007],[0.30087774702675,51.3783186273369],[0.300889016809975,51.3785432384625],[0.301247930242881,51.378536188084],[0.301236658692546,51.378311577018],[0.301595570211827,51.3783045256006],[0.301584297040947,51.3780799145836],[0.301573024016626,51.3778553035559],[0.301931931855228,51.3778482511592],[0.301920657210428,51.3776236401805],[0.302279563135441,51.3776165867449],[0.302638468913879,51.3776095322109],[0.302997374545717,51.3776024765784],[0.302986094746468,51.3773778657679],[0.303344998464681,51.3773708090965],[0.303356280030935,51.3775954198474],[0.303367561743856,51.3778200305877],[0.303008654491612,51.3778270873783],[0.303019934584155,51.3780516981676],[0.303378843603449,51.3780446413174],[0.303390125609714,51.3782692520364],[0.303401407762655,51.3784938627449],[0.303412690062275,51.3787184734428],[0.303423972508575,51.37894308413],[0.303435255101559,51.3791676948066],[0.303794172809777,51.3791606365598],[0.30380545731663,51.3793852471662],[0.303816741970194,51.379609857762],[0.303457820727586,51.3796169161281],[0.303098899338311,51.3796239733956],[0.303110180604128,51.3798485841],[0.303121462016617,51.3800731947939],[0.303132743575778,51.3802978054771],[0.303144025281614,51.3805224161497],[0.302785096676625,51.3805294725571],[0.30277381673809,51.3803048618249],[0.302414889753774,51.3803119170742],[0.302055962622852,51.3803189712249],[0.301697035345347,51.380326024277],[0.301708309981961,51.3805506351881],[0.301349380790584,51.3805576872012],[0.30136065380645,51.3807822981612],[0.301371926968884,51.3810069091106],[0.301383200277887,51.3812315200494],[0.301024265637891,51.3812385711426],[0.301012994096271,51.3810139601443],[0.300654061077135,51.3810210100794],[0.3002951279115,51.3810280589159],[0.300283860051153,51.3808034477878],[0.299924928506409,51.3808104954662],[0.299913662559906,51.380585884268],[0.299554732636058,51.3805929307882],[0.299543468603352,51.3803683195198],[0.299184540300405,51.3803753648819],[0.299195802565784,51.3805999762099],[0.29920706497759,51.3808245875271],[0.298848132993561,51.3808316319097],[0.298859393784423,51.3810562432759],[0.299218327535827,51.3810491988338],[0.299229590240497,51.3812738101299],[0.299588525612888,51.3812667645297],[0.299947460838845,51.3812597178308],[0.299958727224783,51.3814843289973],[0.299599790231411,51.3814913757556],[0.299611054996395,51.381715986971],[0.299622319907842,51.3819405981757],[0.299263379233129,51.3819476439546],[0.299274642523555,51.3821722552082],[0.298915699934936,51.382179299948],[0.298904438411998,51.3819546886348],[0.298545497444472,51.3819617322163],[0.298186556059159,51.381968774796],[0.298197814058015,51.3821933862283],[0.298209072203871,51.3824179976492],[0.298568017101766,51.3824109549511],[0.298579277150015,51.3826355663027],[0.298590537344668,51.3828601776436],[0.298601797685731,51.3830847889739],[0.298960747490939,51.3830777450947],[0.29931969714974,51.383070700117],[0.29967864666211,51.3830636540404],[0.299689912452389,51.3832882651816],[0.299330961172419,51.3832953113176],[0.298972009746015,51.3833023563549],[0.298983272147527,51.3835269676045],[0.298624318807086,51.3835340116027],[0.298635579587385,51.3837586229012],[0.298994534695476,51.3837515788435],[0.299353489657152,51.3837445336871],[0.299364754394517,51.3839691448402],[0.299723710963454,51.3839620985248],[0.299734977939607,51.3841867095853],[0.299746245062902,51.3844113206349],[0.300105205040864,51.3844042730936],[0.300464164871679,51.3843972244538],[0.300823124555325,51.3843901747155],[0.300811852097787,51.3841655638571],[0.301170809856166,51.3841585130842],[0.301159535767787,51.3839339022786],[0.301518491600902,51.383926850471],[0.301877447286784,51.3839197975649],[0.30223640282541,51.3839127435603],[0.302247682247933,51.3841373541745],[0.302258961817757,51.3843619647778],[0.302270241534887,51.3845865753703],[0.302281521399325,51.3848111859518],[0.301922558748381,51.3848182402115],[0.301563595950171,51.3848252933728],[0.301204633004717,51.3848323454355],[0.301215907682047,51.3850569561976],[0.301227182506622,51.3852815669487],[0.301238457478443,51.385506177689],[0.30159742575839,51.385499125435],[0.301608702655669,51.3857237361007],[0.301967672566574,51.3857166826843],[0.302326642330202,51.3857096281694],[0.302337922931215,51.3859342386967],[0.302349203679551,51.386158849213],[0.301990230359444,51.3861659038555],[0.301631256892056,51.3861729573994],[0.301619979700224,51.3859483467555],[0.301261007863834,51.3859553991371],[0.30090203588021,51.3859624504201],[0.300543063749378,51.3859695006047],[0.300554335606434,51.3861941114399],[0.300565607610702,51.3864187222643],[0.300924583298079,51.3864116719522],[0.300935857227866,51.3866362827019],[0.300576879762183,51.3866433330777],[0.300217902149303,51.386650382355],[0.300206631776132,51.3864257714778],[0.299847655794393,51.3864328195927],[0.299836387346701,51.3862082086409],[0.299477412996108,51.3862152555936],[0.299118438498395,51.3862223014477],[0.298759463853584,51.3862293462033],[0.29874820088787,51.3860047350494],[0.29838922787426,51.3860117786428],[0.298030254035789,51.3860188215647],[0.298041513456315,51.3862434328482],[0.297682537660112,51.3862504747663],[0.29767128002909,51.386025863402],[0.297312305874683,51.3860329041419],[0.297301050180873,51.3858082926849],[0.297289794634769,51.385583681216],[0.296930823911623,51.3855907206969],[0.296571853040821,51.3855977590804],[0.296212882022385,51.3856047963664],[0.296224132200097,51.3858294080775],[0.295865159244582,51.3858364443468],[0.295876407780439,51.3860610561267],[0.295887656463911,51.3862856678947],[0.295528679781794,51.3862927032279],[0.295539926823344,51.3865173150647],[0.295180948204113,51.3865243493811],[0.295169702952106,51.3862997374636],[0.295158457847671,51.3860751255342],[0.294799482659957,51.3860821585918],[0.29444050732472,51.3860891905519],[0.294081531841983,51.3860962214145],[0.294092771577842,51.386320833586],[0.293733794158098,51.3863278634318],[0.293745032251908,51.386552475672],[0.293386052895153,51.3865595045009],[0.293397289346866,51.3867841168099],[0.293038308053095,51.386791144622],[0.293049542862667,51.3870157569997],[0.292690559631873,51.3870227837949],[0.292701792799258,51.3872473962413],[0.29234280763144,51.3872544220197],[0.29235403915659,51.3874790345348],[0.292365270829142,51.387703647038],[0.292376502649099,51.3879282595292],[0.292017511964864,51.3879352844519],[0.291658521133272,51.3879423082771],[0.291669749521178,51.3881669209177],[0.291310756752521,51.3881739437259],[0.290951763836547,51.3881809654366],[0.290962988792305,51.3884055782264],[0.290974213895383,51.3886301910044],[0.291333210390893,51.3886231691326],[0.291344437431095,51.388847781818],[0.291703435569086,51.3888407587679],[0.292062433559732,51.3888337346202],[0.29242143140301,51.388826709375],[0.292432663960022,51.3890513218066],[0.292791663445725,51.3890442953831],[0.293150662784011,51.389037267862],[0.293509661974857,51.3890302392433],[0.293520900048797,51.3892548514211],[0.293532138270227,51.3894794635869],[0.293891140893296,51.3894724337093],[0.293902381052096,51.3896970457825],[0.293913621358414,51.3899216578438],[0.294272627413763,51.3899146267072],[0.294283869657523,51.3901392386759],[0.294295112048829,51.3903638506326],[0.294654121536518,51.390356818237],[0.294665365865336,51.3905814301011],[0.294676610341729,51.3908060419533],[0.294687854965699,51.3910306537936],[0.294328840108049,51.3910376864313],[0.293969825102867,51.3910447179713],[0.293610809950176,51.3910517484137],[0.293622049351619,51.3912763604841],[0.293633288900574,51.3915009725426],[0.293274270020294,51.3915080020486],[0.293285507926678,51.3917326141758],[0.292926487108842,51.3917396426648],[0.292937723372609,51.3919642548608],[0.293296745980558,51.3919572262911],[0.293307984181935,51.3921818383945],[0.293319221734043,51.3924064506311],[0.293678247777183,51.3923994208207],[0.294037273674512,51.392392389911],[0.294396299426009,51.3923853579019],[0.294407542358162,51.3926099699731],[0.294048514843389,51.3926170020373],[0.294059756158129,51.3928416141533],[0.294418785436203,51.3928345820341],[0.294430028660133,51.3930591940846],[0.294441272029954,51.3932838061249],[0.29480030468883,51.3932767727962],[0.294811549967913,51.3935013847711],[0.295170584244263,51.3934943502879],[0.295159337201818,51.3932697383682],[0.295148090305313,51.393045126438],[0.295507120909053,51.3930380909657],[0.29549587239517,51.3928134790804],[0.295136843554746,51.3928205144976],[0.295125596950114,51.3925959025468],[0.295484624027245,51.3925888671847],[0.295473375805276,51.3923642552787],[0.295832400973213,51.3923572188723],[0.295821150837919,51.3921326071062],[0.295462127472648,51.3921396434405],[0.295450878530514,51.3919150318213],[0.295439629736016,51.3916904201902],[0.295428381089152,51.3914658085471],[0.295417132589917,51.3912411968921],[0.295776148794857,51.3912341608806],[0.295764898653225,51.3910095492945],[0.29575364865924,51.3907849376963],[0.295742398812902,51.3905603260862],[0.296101409500216,51.3905532892193],[0.296090158011566,51.390328677678],[0.296078906670581,51.3901040661248],[0.296437913630371,51.3900970283217],[0.296796920442502,51.390089989421],[0.297155927106949,51.3900829494226],[0.297144670543915,51.3898583380997],[0.297503675270756,51.3898512970845],[0.297492417065576,51.3896266858304],[0.297481159008143,51.3894020745644],[0.297469901098456,51.3891774632864],[0.297458643336511,51.3889528519965],[0.297447385722307,51.3887282406947],[0.29708838994461,51.3887352813061],[0.296729394019221,51.38874232082],[0.296718140132278,51.3885177093447],[0.296706886393023,51.3882930978575],[0.296695632801456,51.3880684863584],[0.297054623357625,51.3880614470868],[0.297043368124049,51.3878368356565],[0.297402356742843,51.3878297953681],[0.297391099867303,51.3876051840066],[0.297750086548726,51.3875981427014],[0.298109073082424,51.3875911002987],[0.298468059274963,51.3875840569377],[0.298456797205045,51.3873594457853],[0.298815780888653,51.3873524018097],[0.299174764425175,51.3873453567355],[0.299533747814586,51.3873383105628],[0.299892731056865,51.3873312632914],[0.300251714151986,51.3873242149215],[0.300610697099931,51.387317165453],[0.300969679900672,51.3873101148859],[0.300980954419429,51.3875347255922],[0.300992229085435,51.3877593362876],[0.301003503898694,51.3879839469721],[0.301014778859206,51.3882085576457],[0.301373768626442,51.388201505725],[0.301385045512697,51.388426116324],[0.301396322546234,51.3886507269121],[0.301407599727055,51.3888753374894],[0.301418877055163,51.3890999480558],[0.30143015453056,51.3893245586113],[0.30144143215325,51.389549169156],[0.301800432444477,51.3895421157539],[0.301811711993083,51.389766726224],[0.301822991689007,51.3899913366831],[0.301834271532255,51.3902159471314],[0.301845551522826,51.3904405575688],[0.301856831660725,51.3906651679953],[0.301868111945954,51.3908897784109],[0.301879392378515,51.3911143888157],[0.30189067295841,51.3913389992097],[0.301901953685643,51.3915636095927],[0.301913234560217,51.3917882199649],[0.301924515582132,51.3920128303262],[0.301935796554579,51.3922374407563],[0.301947076788546,51.3924620515341],[0.301958357170806,51.3926866623005],[0.302317382283761,51.3926796068759],[0.302676407248422,51.3926725503529],[0.303035432064769,51.3926654927317],[0.30304671797709,51.3928901032716],[0.303058004037778,51.3931147138002],[0.303417032293642,51.3931076549372],[0.303776060401139,51.3931005949759],[0.304135088360247,51.3930935339164],[0.304146379951185,51.3933181442183],[0.304157671690564,51.393542754509],[0.304168963578387,51.3937673647882],[0.303809930237338,51.3937744260631],[0.30382122047958,51.3939990364027],[0.303462185196103,51.3940060966509],[0.30310314976425,51.3940131558008],[0.303114436566812,51.3942377662725],[0.302755399192547,51.3942448243958],[0.302744114184043,51.3940202138523],[0.302732829323895,51.3937956032975],[0.302373795389395,51.393802660179],[0.302014761306589,51.3938097159621],[0.302003480182826,51.3935851052526],[0.301644447745757,51.3935921598657],[0.301655727075502,51.3938167706469],[0.301667006553531,51.3940413814168],[0.301678286179847,51.3942659921754],[0.301319248212389,51.3942730459052],[0.300960210096691,51.3942800985367],[0.300601171832776,51.3942871500698],[0.300242133420666,51.3942942005046],[0.299883094860385,51.394301249841],[0.299894365664514,51.3945258609465],[0.299535325161983,51.3945329092562],[0.299546594320164,51.3947575204219],[0.299187551875378,51.3947645677049],[0.299198819387563,51.3949891789309],[0.299210087047886,51.3952137901456],[0.298851040866662,51.3952208364734],[0.29849199453735,51.3952278817029],[0.298132947655014,51.3952349263041],[0.297773900439046,51.3952419700235],[0.297785161139963,51.3954665814645],[0.297426112014353,51.3954736241396],[0.29706706274267,51.3954806657152],[0.297055805568856,51.3952560541639],[0.297044548541117,51.3950314426022],[0.297033291659452,51.3948068310302],[0.297022034923857,51.394582219448],[0.29701077833433,51.3943576078553],[0.29699952189087,51.3941329962524],[0.296640483054126,51.3941400363978],[0.296629228520148,51.3939154247294],[0.296270191300813,51.3939224637203],[0.296281444071371,51.3941470754438],[0.295922404942627,51.3941541133904],[0.295563365667916,51.3941611502376],[0.295552116424208,51.3939365384039],[0.295540867326471,51.3937119265598],[0.29518183143265,51.3937189621974],[0.294822795392914,51.3937259967357],[0.294463759207284,51.3937330301745],[0.294104722875784,51.3937400625139],[0.293745686398435,51.393747093754],[0.293386649775262,51.3937541238947],[0.293397888292527,51.3939787360692],[0.293409126955626,51.3942033482333],[0.293768167105658,51.3941963179826],[0.29412720710986,51.3941892866324],[0.29448624696821,51.3941822541828],[0.294497491067529,51.3944068661715],[0.294138449445721,51.3944138986761],[0.293779407678056,51.3944209300813],[0.293790648396316,51.3946455421698],[0.29380188926044,51.394870154248],[0.29381313027043,51.3950947663158],[0.29382437142629,51.3953193783733],[0.294183420248026,51.3953123467478],[0.294542468923896,51.3953053140229],[0.294901517453879,51.3952982801985],[0.295260565837952,51.3952912452747],[0.295619614076091,51.3952842092514],[0.29563086419567,51.3955088210232],[0.295642114461238,51.3957334327847],[0.295283062695946,51.3957404689181],[0.294924010784717,51.3957475039521],[0.294564958727571,51.3957545378867],[0.294205906524532,51.3957615707217],[0.293846854175624,51.3957686024573],[0.293858095769105,51.3959932144839],[0.293869337508464,51.3962178265001],[0.294228393384636,51.3962107946544],[0.294239637033542,51.3964354066052],[0.293880579393705,51.396442438506],[0.293891821424829,51.3966670505016],[0.293532761875446,51.396674081358],[0.293544002288743,51.3968986933983],[0.293555242847906,51.3971233054283],[0.293566483552938,51.397347917448]]],[[[0.303098899338311,51.3796239733956],[0.303087618219162,51.3793993626806],[0.303446537841228,51.3793923054727],[0.303435255101559,51.3791676948066],[0.303076337246678,51.3791747519549],[0.302717419245159,51.3791818080047],[0.302358501097023,51.379188862956],[0.301999582802294,51.3791959168087],[0.302010858473206,51.3794205277131],[0.301651938264712,51.3794275805269],[0.301663212315002,51.3796521914804],[0.30167448651187,51.3798768024232],[0.302033410254824,51.3798697494902],[0.302044686365536,51.3800943603629],[0.302403611729173,51.3800873062718],[0.302392333851201,51.3798626954587],[0.302751257300977,51.3798556403286],[0.302739977802393,51.3796310295646],[0.303098899338311,51.3796239733956]]],[[[0.303019934584155,51.3780516981676],[0.302661025418235,51.3780587539193],[0.302302116105713,51.3780658085725],[0.301943206646608,51.3780728621273],[0.301954481584571,51.3782974730848],[0.301965756669118,51.3785220840317],[0.302324669662404,51.3785150303577],[0.302683582509104,51.3785079755853],[0.303042495209195,51.3785009197143],[0.303031214823349,51.3782763089463],[0.303019934584155,51.3780516981676]]],[[[0.305739593235303,51.3606860484308],[0.306098365724561,51.3606789849217],[0.306457138067995,51.3606719203144],[0.30646842718503,51.3608965314479],[0.306827201134323,51.3608894656896],[0.306838492148963,51.3611140767602],[0.307197267704111,51.3611070098509],[0.307556043113364,51.3610999418434],[0.307567337777398,51.3613245527983],[0.307926114792475,51.3613174836397],[0.307937411354224,51.3615420945316],[0.308296189975121,51.361535024222],[0.308654968450049,51.3615279528142],[0.309013746778986,51.3615208803081],[0.309372524961909,51.3615138067037],[0.309361221393123,51.361289196023],[0.309349917970399,51.3610645853321],[0.309338614693736,51.3608399746311],[0.309697387475432,51.3608329000869],[0.30968608259314,51.3606082894285],[0.309674777856926,51.3603836787599],[0.309663473266787,51.3601590680811],[0.309304705740079,51.3601661424668],[0.309293403047631,51.359941531725],[0.30928210050123,51.359716920973],[0.308923336331717,51.3597239941548],[0.308564572016212,51.3597310662385],[0.308205807554736,51.359738137224],[0.307847042947309,51.3597452071113],[0.307858338487306,51.3599698180745],[0.307499571982348,51.3599768869164],[0.307140805331483,51.3599839546601],[0.306782038534736,51.3599910213056],[0.306423271592127,51.3599980868528],[0.306434560271546,51.3602226980169],[0.306075791431459,51.3602297625187],[0.305717022445554,51.3602368259223],[0.305728307767516,51.3604614371816],[0.305739593235303,51.3606860484308]]],[[[0.338207643990802,51.3917439228054],[0.338196184444038,51.3915193186146],[0.337837178284257,51.3915264835402],[0.337478171976376,51.3915336473666],[0.337466716087498,51.3913090430512],[0.337107711386417,51.3913162057214],[0.336748706537287,51.3913233672924],[0.336389701540126,51.3913305277643],[0.33603069639496,51.3913376871371],[0.336042145264315,51.3915622916807],[0.336053594281672,51.3917868962138],[0.336065043447035,51.3920115007364],[0.336076492746661,51.3922361052804],[0.336435504912944,51.3922289456739],[0.336794516931702,51.3922217849681],[0.337153528802913,51.392214623163],[0.337512540526553,51.3922074602586],[0.3378715521026,51.3922002962549],[0.338230563528752,51.3921931311555],[0.338219103685705,51.3919685269857],[0.338207643990802,51.3917439228054]]],[[[0.318468768915054,51.3851664301715],[0.318480129185278,51.3853910378693],[0.318491489602516,51.3856156455565],[0.318132524696485,51.3856227495839],[0.318143883503654,51.3858473573205],[0.317784916693558,51.3858544603091],[0.317425949736504,51.385861562199],[0.317437305176445,51.3860861700449],[0.31744866076334,51.3863107778802],[0.317460016497192,51.3865353857049],[0.317471372378002,51.3867599935189],[0.317830346363644,51.3867528913891],[0.31784170414862,51.3869774991325],[0.317853062080582,51.3872021068653],[0.318212039433683,51.3871950035167],[0.31857101663979,51.3871878990693],[0.31892999369888,51.3871807935232],[0.319288970610928,51.3871736868782],[0.319647947375915,51.3871665791344],[0.320006923993816,51.3871594702919],[0.319995555518548,51.3869348629192],[0.319984187190402,51.3867102555358],[0.319972819009376,51.3864856481419],[0.32033179020861,51.3864785383806],[0.320320420417559,51.3862539310361],[0.320309050773646,51.3860293236809],[0.319950083088672,51.386036433322],[0.31993871534899,51.3858118258962],[0.319927347756418,51.3855872184597],[0.319915980310952,51.3853626110125],[0.319904613012591,51.3851380035548],[0.319893245861333,51.3849133960863],[0.319534286814528,51.3849205043286],[0.319522921567355,51.3846958967895],[0.319163964130477,51.384703003873],[0.319152600787343,51.3844783962632],[0.318793644960397,51.384485502188],[0.318782283521258,51.3842608945076],[0.318423329304249,51.3842679992737],[0.318411969769058,51.3840433915227],[0.318053017161992,51.3840504951301],[0.318064374940256,51.3842751029411],[0.318075732865499,51.3844997107415],[0.317716776597591,51.3845068133702],[0.31772813291284,51.3847314212199],[0.317739489375051,51.384956029059],[0.318098449156931,51.3849489263104],[0.318087090937723,51.3847243185312],[0.318446048815639,51.3847172147439],[0.318805006546564,51.3847101098578],[0.31881636827976,51.3849347175169],[0.318457408791842,51.384941822463],[0.318468768915054,51.3851664301715]]],[[[0.316838794082345,51.360017349703],[0.316827454625849,51.3597927400926],[0.316468691574031,51.3597998363932],[0.316480029284104,51.3600244460606],[0.316491367140352,51.3602490557177],[0.31685013368504,51.360241959303],[0.316861473433935,51.3604665688926],[0.317220241578917,51.360459471323],[0.317208900083555,51.3602348617904],[0.317197558734416,51.3600102522475],[0.316838794082345,51.360017349703]]],[[[0.317312404523547,51.3836154829235],[0.317671353933912,51.3836083816282],[0.317659999343013,51.3833837735176],[0.317648644899523,51.3831591653963],[0.317289699017462,51.3831662665691],[0.317301051696812,51.3833908747516],[0.316942103903246,51.3833979748871],[0.316583155962338,51.3834050739239],[0.31659450526074,51.3836296822182],[0.316953454965816,51.3836225831201],[0.317312404523547,51.3836154829235]]],[[[0.299231094030258,51.3884684117517],[0.299242360392698,51.3886930227224],[0.299253626902285,51.3889176336821],[0.299612622741033,51.3889105870633],[0.299623891176338,51.3891351979485],[0.299982888646502,51.3891281501673],[0.300341885969489,51.3891211012874],[0.300330613977055,51.3888964905297],[0.300689609374282,51.3888894406149],[0.30104860462429,51.3888823896015],[0.301037329222001,51.3886577789604],[0.301026053966974,51.3884331683085],[0.300667062274013,51.3884402191944],[0.300308070433838,51.3884472689817],[0.300296798883051,51.3882226581914],[0.300655788944735,51.3882156084679],[0.300644515762689,51.3879909977304],[0.300285527479476,51.3879980473902],[0.300274256223108,51.3877734365782],[0.300262985113947,51.3875488257553],[0.299904000240421,51.387555874189],[0.299545015219737,51.387562921524],[0.299186030051917,51.3875699677605],[0.299197295825794,51.3877945787746],[0.299208561746808,51.3880191897779],[0.299219827814962,51.3882438007702],[0.299231094030258,51.3884684117517]]],[[[0.300556075745651,51.3933887061073],[0.300915106833414,51.3933816548609],[0.300903831388186,51.3931570439135],[0.30089255609119,51.3929324329548],[0.300533528591365,51.3929394840579],[0.300522255236532,51.3927148730162],[0.300163229382465,51.3927219229493],[0.299804203380246,51.3927289717842],[0.299815473147201,51.3929535829692],[0.299456445202909,51.3929606307774],[0.299097417110509,51.3929676774873],[0.299108683437692,51.3931922888043],[0.299119949912992,51.3934169001099],[0.299131216536411,51.3936415114041],[0.299142483307951,51.393866122687],[0.298783447891445,51.393873168585],[0.298424412326866,51.3938802133847],[0.298065375937163,51.393887257772],[0.298076637524801,51.3941118692198],[0.29808789925857,51.3943364806573],[0.298099161138474,51.3945610920845],[0.298458202765723,51.3945540475949],[0.298817243712565,51.3945470025804],[0.299176284511326,51.3945399564674],[0.299165017295406,51.3943153452187],[0.299524056151958,51.394308298079],[0.299512787290084,51.3940836868905],[0.299871824204432,51.3940766387241],[0.299860553696651,51.3938520275958],[0.300219588668798,51.3938449784028],[0.300208316515156,51.3936203673348],[0.300567349545109,51.393613317115],[0.300556075745651,51.3933887061073]]],[[[0.295795871095925,51.370099528339],[0.29580711169101,51.3703241408162],[0.296165962146641,51.3703171069952],[0.296524812456797,51.370310072076],[0.296513568349845,51.3700854597125],[0.296502324388417,51.3698608473386],[0.29686117104124,51.3698538114348],[0.296849925469449,51.3696291991073],[0.297208770220876,51.369622162162],[0.297567614826769,51.3696151241184],[0.297556365888804,51.3693905118944],[0.297545117096422,51.3691658996599],[0.297186276002221,51.3691729375897],[0.296827434762489,51.3691799744211],[0.296468593377251,51.3691870101543],[0.296457349997893,51.3689623977387],[0.296446106764047,51.3687377853126],[0.296434863675709,51.3685131728761],[0.296423620732879,51.3682885604291],[0.296412377935551,51.3680639479717],[0.296401135283726,51.3678393355039],[0.296042304287578,51.3678463697975],[0.296053545183698,51.3680709823222],[0.295694712286395,51.3680780155744],[0.295705951572262,51.3683026281455],[0.295347116773799,51.3683096603563],[0.295335879243665,51.3680850477283],[0.294977046055531,51.368092078784],[0.294618212722016,51.3680991087413],[0.294629446740676,51.368323721483],[0.294640680904727,51.3685483342143],[0.294999517749741,51.3685413041432],[0.295010753814969,51.3687659168072],[0.294651915214171,51.3687729469352],[0.294663149669011,51.3689975596456],[0.294674384269249,51.3692221723455],[0.294685619014888,51.3694467850351],[0.295044462883173,51.3694397547366],[0.295055699530089,51.3696643673588],[0.295414545008849,51.3696573359052],[0.295425783557088,51.3698819484601],[0.295784630646318,51.3698749158513],[0.295795871095925,51.370099528339]]]]}}