{"type":"Feature","properties":{"code":"E63004858","name":"Camden"},"geometry":{"type":"MultiPolygon","coordinates":[[[[-0.180658740524259,51.5648412428772],[-0.180667706633923,51.5646165697853],[-0.18030721683193,51.5646109789561],[-0.18031618460806,51.5643863059321],[-0.180325152267322,51.5641616328967],[-0.179964666148745,51.5641560411211],[-0.179604180147004,51.5641504482403],[-0.179243694262121,51.5641448542543],[-0.17888320849412,51.5641392591631],[-0.178522722843023,51.5641336629667],[-0.178531699301725,51.563908990317],[-0.178540675643446,51.5636843176558],[-0.17890115772805,51.5636899136933],[-0.178910132169582,51.5634652409411],[-0.179270612587874,51.563470835794],[-0.179631093123042,51.5634764295418],[-0.179640063881238,51.5632517566193],[-0.179279585129262,51.563246162951],[-0.179288557553722,51.5630214900965],[-0.179297529861256,51.5627968172306],[-0.179306502051865,51.5625721443532],[-0.179666975454402,51.5625777377832],[-0.179675945744989,51.5623530648149],[-0.17968491591868,51.5621283918351],[-0.179693885975475,51.5619037188439],[-0.179702855915377,51.5616790458412],[-0.180063322302489,51.5616846378484],[-0.18005435414562,51.5619093109306],[-0.180045385871881,51.5621339840012],[-0.180405855941898,51.5621395750622],[-0.18076632612871,51.562145165018],[-0.181126796432292,51.5621507538687],[-0.181117833390931,51.5623754271661],[-0.181108870232763,51.562600100452],[-0.181469344219291,51.5626056883563],[-0.18146038272745,51.5628303617102],[-0.181099906957789,51.5628247737264],[-0.181090943566006,51.5630494469894],[-0.180730466129945,51.5630438578211],[-0.180369988810663,51.5630382675477],[-0.180009511608183,51.5630326761691],[-0.180000542750063,51.5632573491825],[-0.179991573775062,51.5634820221843],[-0.180352054543912,51.5634876137217],[-0.180343087235245,51.5637122867915],[-0.180334119809716,51.5639369598498],[-0.180694604261837,51.5639425504409],[-0.181055088830745,51.5639481399267],[-0.181415573516418,51.5639537283073],[-0.181424535592208,51.5637290550108],[-0.18178501861137,51.5637346422069],[-0.182145501747249,51.5637402282978],[-0.182136543237961,51.563964901753],[-0.182497028273787,51.5639704868181],[-0.182488071431027,51.5641951603412],[-0.182479114471539,51.5644198338529],[-0.18247015739532,51.5646445073531],[-0.182830647897726,51.564650091551],[-0.182821692488122,51.5648747651191],[-0.182812736961809,51.5650994386758],[-0.183173231147591,51.5651050219272],[-0.18353372545001,51.5651106040733],[-0.183894219869041,51.5651161851142],[-0.18388526957621,51.5653408588974],[-0.183524773373778,51.5653352777772],[-0.183515821180877,51.5655599514696],[-0.183506868871304,51.5657846251505],[-0.183497916445059,51.56600929882],[-0.183137415008906,51.5660037163566],[-0.182776913689397,51.5659981327878],[-0.182785869682577,51.565773459277],[-0.182425370263199,51.5657678746823],[-0.1824343279231,51.5655432012394],[-0.182073830403849,51.5655376156188],[-0.181713333001305,51.565532028893],[-0.181352835715493,51.5655264410619],[-0.180992338546436,51.5655208521256],[-0.181001303223249,51.5652961789887],[-0.180640807954378,51.5652905890265],[-0.180649774297744,51.5650659159576],[-0.180658740524259,51.5648412428772]]],[[[-0.180063322302489,51.5616846378484],[-0.18007229034249,51.5614599647549],[-0.180081258265625,51.5612352916498],[-0.180090226071896,51.5610106185333],[-0.179729765033744,51.5610050267643],[-0.17972079544451,51.5612296998014],[-0.179360332740226,51.5612241068479],[-0.179351361251121,51.5614487797941],[-0.179342389645102,51.5616734527288],[-0.178981923491685,51.5616678585114],[-0.178621457455152,51.5616622631889],[-0.178260991535524,51.5616566667612],[-0.177900525732825,51.5616510692285],[-0.177909504470854,51.5614263966115],[-0.177549040568105,51.5614207980532],[-0.177558020972104,51.5611961255042],[-0.1771975589693,51.5611905259202],[-0.17683709708349,51.5611849252312],[-0.176846080936362,51.5609602528297],[-0.176485620950515,51.5609546511151],[-0.176125161081705,51.5609490482954],[-0.175764701329958,51.5609434443707],[-0.175404241695295,51.5609378393409],[-0.175043782177739,51.560932233206],[-0.174683322777314,51.5609266259661],[-0.174322863494042,51.5609210176212],[-0.17433185971026,51.5606963457648],[-0.173971402327074,51.5606907363944],[-0.173610945061085,51.5606851259189],[-0.173250487912318,51.5606795143384],[-0.173259489359956,51.5604548427091],[-0.172899034111313,51.5604492301032],[-0.172538578979935,51.5604436163921],[-0.172547583875988,51.5602189449106],[-0.17218713064475,51.5602133301742],[-0.172178123965845,51.5604380015761],[-0.171817669069066,51.560432385655],[-0.171457214289622,51.5604267686289],[-0.171096759627536,51.5604211504978],[-0.171105771654985,51.5601964793347],[-0.170745318893124,51.5601908601782],[-0.170754332585963,51.5599661890832],[-0.170393881724322,51.5599605689013],[-0.170402897082503,51.5597358978745],[-0.170763346161348,51.5597415179768],[-0.170772359619282,51.5595168468588],[-0.170781372959766,51.5592921757294],[-0.170420927446444,51.5592865557864],[-0.170429942452207,51.5590618847252],[-0.170438957354291,51.5588372136416],[-0.170447973463857,51.558612541504],[-0.170808413543644,51.5586181612408],[-0.170817427697803,51.5583934890189],[-0.171177866062314,51.5583991075774],[-0.171538304546831,51.5584047250305],[-0.171547314910344,51.5581800526511],[-0.171907751679557,51.5581856689259],[-0.171916760087778,51.5579609964622],[-0.171925768375996,51.5577363239874],[-0.171565335277288,51.557730707859],[-0.171574345280723,51.5575060354461],[-0.171213914137206,51.5575004182855],[-0.170853483113685,51.5574948000198],[-0.170493052210187,51.5574891806487],[-0.170132621426734,51.5574835601725],[-0.169772190763349,51.557477938591],[-0.169411760220059,51.5574723159042],[-0.169051329796885,51.5574666921123],[-0.169042306946991,51.5576913640129],[-0.168681874808757,51.5576857390425],[-0.16832144279069,51.5576801129669],[-0.168312416150162,51.55790478471],[-0.168672850003451,51.5579104108588],[-0.16866382507793,51.5581350826639],[-0.168654800032193,51.5583597544579],[-0.168645774866237,51.5585844262406],[-0.168285335507142,51.5585787998722],[-0.168294362508391,51.5583541281626],[-0.167933926357005,51.5583485031942],[-0.16757349052253,51.5583428775032],[-0.167582520971118,51.5581182057517],[-0.167222087054121,51.5581125789677],[-0.167231119183268,51.5578879072232],[-0.167240151193923,51.5576632354704],[-0.167600581512887,51.5576688622238],[-0.167609611606073,51.5574441904475],[-0.167618641580795,51.557219518663],[-0.167627671437055,51.5569948468702],[-0.167267246514965,51.5569892201625],[-0.166906821711312,51.5569835923467],[-0.166915855046934,51.5567589205762],[-0.16655543216065,51.5567532916676],[-0.166564467176653,51.556528619904],[-0.166573502074131,51.5563039481322],[-0.166582536853086,51.5560792763522],[-0.16659157151352,51.5558546045639],[-0.166600606055436,51.5556299327673],[-0.166240192281814,51.555624302827],[-0.166231155941109,51.5558489746083],[-0.166222119481863,51.5560736463813],[-0.166213082904072,51.5562983181461],[-0.165852663852513,51.5562926870518],[-0.165843625357319,51.556517358793],[-0.165834586743553,51.556742030526],[-0.165474164212787,51.556736398293],[-0.165465123681546,51.5569610700024],[-0.165104699470433,51.5569554366461],[-0.165095657021671,51.5571801083319],[-0.165086614454284,51.5574047800095],[-0.165077571768273,51.5576294516788],[-0.164717142278905,51.5576238171684],[-0.164708097675275,51.5578484888142],[-0.164699052952991,51.5580731604516],[-0.164690008112053,51.5582978320809],[-0.164680963152455,51.5585225037018],[-0.1646719180742,51.5587471753146],[-0.164662873988663,51.5589718460617],[-0.164653830562716,51.5591965161995],[-0.164644787019257,51.5594211863272],[-0.164284343267269,51.5594155505288],[-0.163923899632767,51.559409913624],[-0.163563456115771,51.5594042756128],[-0.163554407126063,51.5596289455746],[-0.163193961950358,51.5596233064051],[-0.162833516892209,51.5596176661293],[-0.162473071951638,51.559612024747],[-0.162482126270062,51.5593873549412],[-0.162121683223327,51.5593817125046],[-0.16213073920031,51.5591570427407],[-0.162139795059618,51.5589323729666],[-0.161779355682902,51.5589267295276],[-0.161418916423828,51.5589210849824],[-0.161058477282418,51.5589154393307],[-0.1610675397565,51.5586907684944],[-0.161076602825475,51.5584660970353],[-0.160716167446061,51.5584604502737],[-0.160725232195182,51.5582357788218],[-0.160734296825391,51.5580111073617],[-0.160373865162896,51.5580054595228],[-0.160382931473183,51.5577807880698],[-0.160022501728567,51.5577751391381],[-0.160031569718885,51.5575504676923],[-0.160040637590251,51.5573257962383],[-0.159680211562448,51.5573201462294],[-0.159689281113778,51.5570954747825],[-0.159698350546136,51.5568708033273],[-0.159337928235067,51.5568651522412],[-0.159346999347322,51.5566404807932],[-0.15898657895407,51.5566348286144],[-0.158626158679791,51.5566291753276],[-0.158617083969808,51.5568538467446],[-0.158256662015664,51.5568481923342],[-0.15789624018054,51.5568425368156],[-0.157887161753753,51.5570672081934],[-0.157526738238794,51.5570615515513],[-0.157166314842905,51.557055893801],[-0.157157232699225,51.5572805651396],[-0.156796807623531,51.5572749062657],[-0.156436382666956,51.5572692462837],[-0.156075957829522,51.5572635851935],[-0.156085045369892,51.5570389139015],[-0.155724622450517,51.5570332517188],[-0.155733711670552,51.5568085804341],[-0.155373290669231,51.5568029171588],[-0.155012869787118,51.5567972527754],[-0.155003776969349,51.5570219240291],[-0.154643354407603,51.557016258522],[-0.154652449024236,51.556791587284],[-0.154292028380607,51.5567859206844],[-0.154301124676783,51.5565612494537],[-0.153940705951269,51.5565555817615],[-0.153580287345055,51.5565499129613],[-0.153589387119538,51.5563252417535],[-0.153949803926942,51.5563309105381],[-0.154310220853643,51.5563365782146],[-0.154319316911189,51.5561119069674],[-0.153958901783278,51.5561062393064],[-0.153598486774661,51.5561005705375],[-0.153238071885364,51.5560949006603],[-0.152877657115407,51.5560892296752],[-0.152886760248695,51.5558645584821],[-0.152526347396862,51.5558588864044],[-0.152165934664416,51.5558532132188],[-0.151805522051379,51.555847538925],[-0.151796413521824,51.5560722100713],[-0.152156827933614,51.5560778843806],[-0.152147721083361,51.5563025555343],[-0.152138614113655,51.5565272266796],[-0.152129507024493,51.5567518978167],[-0.151769087216301,51.5567462234605],[-0.151408667583716,51.5567405478874],[-0.151399556780355,51.5569652189753],[-0.151039135530325,51.556959542151],[-0.150678714399787,51.5569538642191],[-0.150669599879033,51.5571785352513],[-0.151030022808511,51.5571842132068],[-0.151020909967163,51.5574088842539],[-0.151381334815103,51.557414561125],[-0.151372223653207,51.5576392321869],[-0.15173265046953,51.5576449078637],[-0.15172354098412,51.5578695789438],[-0.152083969786779,51.5578752533783],[-0.152444398708868,51.5578809267046],[-0.152435292701895,51.5581055978077],[-0.152795723542355,51.5581112700416],[-0.152786619214926,51.5583359411521],[-0.153147051973761,51.5583416122933],[-0.153137949325923,51.5585662834112],[-0.153128846558679,51.5587909545208],[-0.153119745723748,51.5590156235651],[-0.153480184046855,51.5590212936081],[-0.153471085441402,51.5592459621217],[-0.153110645342135,51.5592402920264],[-0.15310154484227,51.5594649604776],[-0.152741103085018,51.5594592892239],[-0.152380661445989,51.5594536168637],[-0.152020219925206,51.5594479433973],[-0.15201111397848,51.5596726116817],[-0.151650670799767,51.5596669370566],[-0.151641562958495,51.5598916052787],[-0.15200200791343,51.5598972799559],[-0.151992901730054,51.5601219482201],[-0.151632454998874,51.5601162734906],[-0.151623346920903,51.5603409416923],[-0.151262898643725,51.5603352656178],[-0.151253788675659,51.560559933764],[-0.150893338757173,51.5605542565182],[-0.150884226895962,51.5607789246163],[-0.150523775320908,51.5607732462246],[-0.150514661566506,51.5609979142744],[-0.15050554769375,51.5612225823147],[-0.150866002818553,51.561228260784],[-0.151226458061635,51.5612339381462],[-0.151235568384617,51.5610092700282],[-0.151596021976864,51.561014946237],[-0.151956475813253,51.5610206211755],[-0.151947369038219,51.5612452893891],[-0.151938262144845,51.5614699575926],[-0.152298719652264,51.5614756315292],[-0.152659177277947,51.5614813043594],[-0.153019635021871,51.5614869760832],[-0.153380092884013,51.5614926467006],[-0.15374055086435,51.5614983162115],[-0.154101008962858,51.561503984616],[-0.154461467179516,51.5615096519141],[-0.154452372602701,51.561734320473],[-0.154091912609623,51.5617286531227],[-0.154082816138184,51.5619533216192],[-0.154073719548538,51.5621779901057],[-0.154064622840684,51.562402658582],[-0.154425088163159,51.5624083260889],[-0.154415993113607,51.5626329946073],[-0.154776460330731,51.5626386610599],[-0.155136927665968,51.562644326406],[-0.155497395119295,51.5626499906456],[-0.155506484839299,51.5624253219707],[-0.155866950634173,51.5624309850517],[-0.155876038459561,51.5622063163145],[-0.156236502595978,51.5622119782369],[-0.156596966850412,51.5622176390529],[-0.15695743122284,51.5622232987623],[-0.156948348726954,51.562447967656],[-0.157308814993858,51.5624536263111],[-0.157299734156475,51.5626782952467],[-0.157660202317859,51.5626839528476],[-0.157651123139024,51.5629086218252],[-0.158011593194892,51.5629142783716],[-0.158002515674651,51.5631389473913],[-0.158362987625008,51.5631446028833],[-0.158353911763406,51.5633692719449],[-0.158344835783862,51.5635939409964],[-0.157984360280277,51.5635882854002],[-0.157975282406139,51.5638129543895],[-0.157614805243821,51.5638072976347],[-0.15725432819944,51.5638016397733],[-0.156893851273023,51.5637959808054],[-0.15653337446459,51.563790320731],[-0.156172897774165,51.5637846595501],[-0.156181984531518,51.5635599908214],[-0.155821509735761,51.5635543285861],[-0.155461035058057,51.5635486652442],[-0.155451944747432,51.5637733338686],[-0.155812421201772,51.5637789972626],[-0.155803332549674,51.564003665929],[-0.156163810898728,51.5640093282686],[-0.156154723905205,51.5642339969771],[-0.156145636793592,51.5644586656755],[-0.156136549563891,51.5646833343637],[-0.156127462216096,51.5649080030418],[-0.155766976760172,51.5649023404936],[-0.155757887517508,51.5651270091095],[-0.155748798156725,51.5653516777153],[-0.156109287166222,51.5653573403678],[-0.156469776293765,51.5653630019137],[-0.156460690368504,51.5655876706137],[-0.156821181390894,51.5655933311052],[-0.156812097124404,51.5658179998472],[-0.157172590041645,51.5658236592842],[-0.157533083076867,51.5658293176146],[-0.157524002246069,51.5660539864507],[-0.157514921297258,51.5662786552768],[-0.157875418004215,51.5662843126048],[-0.157866338714313,51.5665089814729],[-0.157857259306418,51.5667336503308],[-0.157848179780527,51.5669583191786],[-0.157839100129109,51.5671829880223],[-0.158199604058383,51.5671886444553],[-0.158208681936267,51.5669639755563],[-0.158569184209928,51.5669696308274],[-0.158929686601487,51.5669752849919],[-0.159290189110921,51.5669809380497],[-0.159299261528916,51.5667562689935],[-0.159659762379224,51.5667619208926],[-0.159668832902357,51.5665372517743],[-0.160029332093534,51.5665429025147],[-0.160038400721854,51.5663182333342],[-0.160398898253895,51.5663238829159],[-0.160759395903714,51.5663295313909],[-0.160750330829271,51.5665542006755],[-0.160741265637018,51.56677886995],[-0.161101766958498,51.5667845174226],[-0.161092703425421,51.567009186739],[-0.161083639748241,51.5672338560757],[-0.161074575883584,51.5674585254827],[-0.161065511900791,51.5676831948796],[-0.161056447799858,51.5679078642666],[-0.160695937573543,51.5679022165369],[-0.160335427465338,51.5678965677005],[-0.160326359678473,51.5681212369769],[-0.160317291773418,51.5683459062434],[-0.159956778215539,51.5683402561996],[-0.159947708408353,51.5685649254058],[-0.1595871931847,51.568559274205],[-0.159226678079232,51.5685536218974],[-0.159217604585912,51.568778290993],[-0.158857087814698,51.5687726375283],[-0.158848012419134,51.5689973065636],[-0.158487493982178,51.5689916519418],[-0.158496571161719,51.5687669829568],[-0.158505648222948,51.5685423139618],[-0.15814513347218,51.5685366583338],[-0.158154212199031,51.5683119893791],[-0.157793699350468,51.5683063326946],[-0.15778461883969,51.568531001599],[-0.157424104325502,51.5685253437574],[-0.157415021912421,51.5687500126014],[-0.157405939380961,51.5689746814355],[-0.157045421417184,51.5689690223864],[-0.156684903571758,51.5689633622305],[-0.156675817353934,51.5691880309538],[-0.15666673101768,51.5694126996672],[-0.156657644562993,51.5696373683705],[-0.15629712148391,51.5696317069567],[-0.156288033126732,51.5698563755996],[-0.155927508382,51.5698507130287],[-0.155918418122284,51.5700753816112],[-0.155909327744085,51.5703000501838],[-0.155900237247398,51.5705247187463],[-0.155891146632224,51.5707493872988],[-0.155530614869477,51.5707437234195],[-0.155170083225191,51.5707380584333],[-0.154809551699389,51.5707323923403],[-0.154800455613225,51.5709570607316],[-0.155160988923191,51.5709627268751],[-0.155151894502652,51.5711873953067],[-0.155142799963574,51.5714120637284],[-0.154782263085209,51.5714063974842],[-0.154773166643354,51.5716310658455],[-0.155133705305952,51.5716367321401],[-0.155124610529786,51.5718614005417],[-0.15476407008293,51.5718557341967],[-0.154403529754592,51.5718500667448],[-0.154412628099271,51.5716253984439],[-0.154052089673726,51.5716197299355],[-0.153691551366744,51.5716140603201],[-0.153331013178346,51.5716083895979],[-0.152970475108558,51.5716027177687],[-0.1526099371574,51.5715970448326],[-0.152249399324896,51.5715913707896],[-0.151888861611071,51.5715856956396],[-0.151528324138571,51.5715800193959],[-0.151167787506136,51.5715743421224],[-0.15080725099071,51.5715686637422],[-0.150446714592318,51.5715629842555],[-0.150455832316468,51.5713383165145],[-0.150095297785051,51.5713326359772],[-0.150104417141991,51.5711079682819],[-0.149743884477545,51.571102286694],[-0.149383351930195,51.5710966039994],[-0.149392474669753,51.570871936406],[-0.149031943989391,51.5708662526609],[-0.148671413426168,51.5708605678092],[-0.148310882980107,51.5708548818509],[-0.148320010852028,51.5706302144153],[-0.147959482272991,51.5706245274065],[-0.147598953811161,51.5706188392911],[-0.147238425466559,51.5706131500692],[-0.147247558470689,51.5703884827915],[-0.146887031993147,51.5703827925191],[-0.146526505632879,51.5703771011401],[-0.146165979389903,51.5703714086545],[-0.146175117526089,51.5701467415349],[-0.146184255544907,51.569922074405],[-0.146544778288337,51.5699277667783],[-0.146905301149057,51.5699334580451],[-0.146914435551028,51.5697087907927],[-0.146923569835683,51.5694841235299],[-0.14693270400302,51.5692594562568],[-0.146941838053042,51.5690347889734],[-0.146950971985752,51.5688101216797],[-0.147311486215253,51.5688158115595],[-0.147302354032195,51.5690404789093],[-0.147662870128583,51.5690461677386],[-0.147653739577912,51.5692708351342],[-0.147644608909972,51.5694955025194],[-0.148005128622955,51.5695011903544],[-0.148014257541194,51.569276522913],[-0.148374775621669,51.5692822095854],[-0.148735293819315,51.5692878951512],[-0.148744419120945,51.5690632275874],[-0.149104935686054,51.5690689119906],[-0.149465452368288,51.5690745952873],[-0.149474574053393,51.5688499276011],[-0.149114059120823,51.5688442443605],[-0.149123182438419,51.56861957672],[-0.149132305638841,51.5683949090692],[-0.149492817072151,51.5684005921978],[-0.149853328622556,51.5684062742198],[-0.149862448206616,51.5681816064466],[-0.150222958124494,51.5681872873062],[-0.150232075841853,51.5679626194667],[-0.150241193442115,51.5677379516168],[-0.150250310925281,51.5675132837567],[-0.149889806256066,51.5675076030652],[-0.149898925371647,51.5672829352508],[-0.149908044291775,51.5670582674658],[-0.149917163017918,51.5668335997096],[-0.149556663750216,51.5668279180554],[-0.149565784133387,51.5666032503286],[-0.149574904398107,51.5663785825924],[-0.149214408799692,51.5663728999086],[-0.148853913319694,51.5663672161175],[-0.148493417958138,51.5663615312191],[-0.148132922715046,51.5663558452133],[-0.147772427590441,51.5663501581004],[-0.147411932584346,51.5663444698801],[-0.147402801667065,51.5665691373831],[-0.147042305004083,51.5665634480166],[-0.147033172192771,51.5667881154713],[-0.147393670631196,51.5667938048767],[-0.147384539476736,51.5670184723608],[-0.147375408212711,51.5672431398221],[-0.147014906230136,51.567237450335],[-0.146654404364806,51.5672317597415],[-0.146645269503737,51.5674564270513],[-0.146284766006183,51.5674507352953],[-0.14629390261674,51.5672260680416],[-0.146303039190776,51.5670014007061],[-0.145942539332642,51.5669957079399],[-0.145951677588953,51.5667710406114],[-0.145960815726581,51.5665463732735],[-0.146321312033818,51.5665520659618],[-0.146330448277353,51.5663273985755],[-0.146339584402232,51.5661027311798],[-0.146700077277266,51.566108422683],[-0.147060570270876,51.566114113079],[-0.147069702726361,51.565889445596],[-0.146709211508122,51.5658837552389],[-0.146348720408458,51.5658780637746],[-0.146357856296033,51.56565339636],[-0.146366992064959,51.5654287289359],[-0.146376127715239,51.5652040615024],[-0.146736613488931,51.56520975285],[-0.146745747245287,51.5649850853681],[-0.146385263246872,51.5649793940595],[-0.146394398659863,51.5647547266071],[-0.146403533954214,51.5645300591453],[-0.146412669129925,51.564305391674],[-0.146421804187,51.5640807241933],[-0.14643093912544,51.5638560567032],[-0.146440073945246,51.5636313892036],[-0.146449208646422,51.5634067216945],[-0.146088737192883,51.5634010295511],[-0.146097873550522,51.5631763620716],[-0.145737403990671,51.5631706688599],[-0.145728265857942,51.5633953363005],[-0.145367794641624,51.5633896419427],[-0.14535865461511,51.5636143093349],[-0.144998181742326,51.5636086138311],[-0.144989039821981,51.5638332811749],[-0.144628565292739,51.5638275845249],[-0.144619421478515,51.5640522518203],[-0.144258945292817,51.5640465540242],[-0.144249799584671,51.5642712212712],[-0.14388932174252,51.5642655223289],[-0.143880174140405,51.5644901895275],[-0.143519694641806,51.564484489439],[-0.143159215261978,51.5644787882433],[-0.143150063990634,51.5647034553545],[-0.142789582954387,51.5646977530126],[-0.142780429788961,51.5649224200754],[-0.143140912600442,51.5649281224563],[-0.1431317610914,51.5651527895486],[-0.143122609463506,51.5653774566315],[-0.142762123101487,51.5653717541726],[-0.142752969579436,51.5655964212071],[-0.142743815938506,51.5658210882321],[-0.143104305851155,51.565826790769],[-0.143095153866693,51.5660514578235],[-0.143455645673498,51.5660571592922],[-0.143446495345551,51.5662818263763],[-0.143437344898765,51.566506493451],[-0.143797840375129,51.5665121938903],[-0.143788691584924,51.5667368609946],[-0.1437795426759,51.5669615280893],[-0.143419043648667,51.566955827572],[-0.143409892856501,51.5671804946101],[-0.143049392164846,51.5671747929522],[-0.143040239808982,51.5673994597004],[-0.14267973748535,51.5673937568799],[-0.142319235279235,51.5673880529529],[-0.142310079306841,51.5676127195784],[-0.141949575468778,51.5676070144887],[-0.141589071748279,51.5676013082926],[-0.141228568145366,51.5675956009901],[-0.141237729366216,51.5673709345332],[-0.141246890524629,51.5671462680268],[-0.141256051980712,51.5669216012146],[-0.141265213317812,51.5666969343929],[-0.141274374535931,51.5664722675618],[-0.141283535635071,51.5662476007212],[-0.140923042766091,51.5662418925699],[-0.140932205521616,51.5660172257589],[-0.140941368158143,51.5657925589385],[-0.140950530675674,51.5655678921087],[-0.14095969307421,51.5653432252694],[-0.140968855353756,51.5651185584206],[-0.140608371480294,51.5651128493573],[-0.140617535416094,51.5648881825382],[-0.140626699232884,51.5646635157096],[-0.140266219028845,51.5646578056172],[-0.140275384501823,51.5644331388182],[-0.140284549855772,51.5642084720098],[-0.140293715090693,51.5639838051919],[-0.14065418996921,51.5639895151672],[-0.140663353309978,51.5637648483008],[-0.140672516531745,51.563540181425],[-0.140681679634513,51.5633155145397],[-0.140321210081312,51.5633098046816],[-0.140330374840143,51.563085137826],[-0.140339539479956,51.5628604709609],[-0.140348704000756,51.5626358040863],[-0.140357868402541,51.5624111372023],[-0.140367032685314,51.5621864703089],[-0.14072749336345,51.5621921799717],[-0.140736655752271,51.5619675130297],[-0.140745818022106,51.5617428460783],[-0.14075498017296,51.5615181791175],[-0.140764142204834,51.5612935121472],[-0.141124595902256,51.5612992205466],[-0.141133756040297,51.5610745535279],[-0.141142916059385,51.5608498864996],[-0.141152075959522,51.560625219462],[-0.140791627586595,51.5606195111797],[-0.140800789142569,51.5603948441716],[-0.140809950579573,51.5601701771541],[-0.140449505875109,51.5601644678428],[-0.140458668967882,51.5599398008549],[-0.140098226157092,51.5599340904757],[-0.140107390905589,51.5597094235174],[-0.140116555535076,51.5594847565497],[-0.139756116392642,51.5594790451416],[-0.139765282677787,51.5592543782035],[-0.139774448843902,51.5590297112559],[-0.139783615442525,51.558805043784],[-0.139423181837143,51.5587993312996],[-0.13943235308632,51.5585746610683],[-0.139441524215205,51.5583499908284],[-0.139450695223798,51.5581253205797],[-0.139090267135788,51.5581196070588],[-0.139099439823085,51.5578949368253],[-0.138739013654339,51.5578892222204],[-0.138748188020292,51.5576645520019],[-0.138757362265914,51.5574398817748],[-0.13839693981537,51.5574341661097],[-0.13840611573958,51.5572094958977],[-0.138415291543442,51.556984825677],[-0.138054872811022,51.5569791089517],[-0.138064050293403,51.5567544387461],[-0.138073227655417,51.5565297685319],[-0.137712812641042,51.5565240507464],[-0.137721991681508,51.5562993805473],[-0.137731170601588,51.5560747103394],[-0.137370759305181,51.5560689914939],[-0.137379939903645,51.5558443213012],[-0.137019530526383,51.5558386013718],[-0.137028712803187,51.5556139311942],[-0.137037894959563,51.555389261008],[-0.136677489300162,51.5553835400185],[-0.136686673134809,51.5551588698474],[-0.136326269394518,51.5551531477741],[-0.135965865774663,51.5551474245932],[-0.135975053086207,51.5549227544611],[-0.13561465138548,51.5549170301964],[-0.135254249805233,51.554911304824],[-0.135263440593574,51.5546866347309],[-0.134903040955163,51.5546809081951],[-0.134912233403613,51.5544562381795],[-0.134921425744762,51.5542315681103],[-0.134561030384123,51.5542258383174],[-0.134570224347134,51.5540011683552],[-0.134209830866201,51.5539954374914],[-0.134219026461841,51.553770767594],[-0.134228221939326,51.5535460976852],[-0.133867832078021,51.5535403658688],[-0.13387702918807,51.5533156960248],[-0.133516641195623,51.5533099631796],[-0.133525839938191,51.5530852934004],[-0.133165453814597,51.5530795595265],[-0.133174654189639,51.5528548898121],[-0.132814269934895,51.5528491549095],[-0.132823471942364,51.55262448526],[-0.132832673831596,51.5523998155991],[-0.132472293196316,51.5523940797439],[-0.13248149671791,51.5521694101479],[-0.132121117951448,51.552163673264],[-0.131760739303227,51.5521579352754],[-0.131769946207706,51.5519332658203],[-0.13140956942832,51.5519275268031],[-0.131049192767219,51.5519217866809],[-0.131058403054487,51.551697117367],[-0.130698028262236,51.5516913762162],[-0.130707240181679,51.5514667069671],[-0.13071645198276,51.5512420377066],[-0.13072566366548,51.5510173684348],[-0.130365294243038,51.5510116264079],[-0.130374507557847,51.550786957201],[-0.130383720754276,51.5505622879827],[-0.130392934996712,51.5503376179091],[-0.130402149491896,51.5501129475546],[-0.130041787274058,51.5501072046881],[-0.130051003425313,51.5498825343925],[-0.130060219456874,51.5496578640859],[-0.129699860910167,51.5496521202542],[-0.129709078597732,51.5494274500065],[-0.129348721946408,51.5494217051398],[-0.129357941289932,51.549197034951],[-0.128997586533986,51.5491912890492],[-0.129006807533423,51.5489666189193],[-0.12864645467285,51.5489608719824],[-0.128655677328154,51.5487362019115],[-0.128295326362953,51.5487304539395],[-0.128304550674077,51.5485057839275],[-0.127944201604241,51.5485000349205],[-0.127583852654197,51.5484942848085],[-0.127593080396666,51.5482696149255],[-0.127232733342005,51.5482638637785],[-0.127241962740178,51.5480391939544],[-0.12725119201849,51.5478145241193],[-0.126890848634727,51.5478087720073],[-0.126900079568675,51.5475841022312],[-0.126909310382743,51.547359432444],[-0.126548970669802,51.5473536793671],[-0.126558203139439,51.5471290096389],[-0.126567435489178,51.5469043398997],[-0.126576667719019,51.5466796701495],[-0.126585899828965,51.5464550003882],[-0.126595131819017,51.5462303306159],[-0.126604363689178,51.5460056608325],[-0.126244034748446,51.5459999070708],[-0.126253268274027,51.5457752373464],[-0.126262501679697,51.545550567611],[-0.126271734965461,51.5453258978645],[-0.126280968131318,51.5451012281071],[-0.126290201177271,51.5448765583386],[-0.125929881232727,51.544870803822],[-0.12593911593397,51.5446461341125],[-0.125948350515291,51.544421464392],[-0.12595758497669,51.5441967946604],[-0.125966819318172,51.5439721249178],[-0.125976053539736,51.5437474551641],[-0.125615742590809,51.5437416998929],[-0.125624978467533,51.5435170301982],[-0.125634214224323,51.5432923604925],[-0.125643449861179,51.5430676907758],[-0.125652685378104,51.542843021048],[-0.125661920775099,51.5426183513092],[-0.125671156052167,51.5423936815593],[-0.125310855873242,51.5423879256035],[-0.125320092812589,51.5421632558793],[-0.125329329759359,51.5419385855603],[-0.125338566586201,51.5417139152309],[-0.124978271854738,51.5417081583356],[-0.124987510336209,51.541483488052],[-0.124996748697735,51.5412588177581],[-0.125357039880109,51.5412645745412],[-0.12536627634718,51.5410399041808],[-0.125005986939314,51.5410341474539],[-0.125015225060951,51.5408094771393],[-0.124654937547485,51.5408037193631],[-0.124664177323644,51.5405790490944],[-0.125024463062647,51.5405848068145],[-0.125033700944404,51.5403601364793],[-0.125393985028879,51.5403658930379],[-0.12575426923324,51.5403716484911],[-0.126114553557467,51.5403774028389],[-0.126123785996027,51.5401527323251],[-0.126484068665671,51.5401584855114],[-0.126493299209966,51.5399338149312],[-0.126853580225022,51.539939566956],[-0.12721386135987,51.5399453178755],[-0.127223088235562,51.5397206471729],[-0.127583367715794,51.5397263969309],[-0.127943647315769,51.5397321455836],[-0.127952870522944,51.5395074747585],[-0.127962093610373,51.5392828039231],[-0.127601817559101,51.5392770553825],[-0.127611042301105,51.5390523845928],[-0.127250768143889,51.5390466350029],[-0.127241541627569,51.5392713057366],[-0.126881265815798,51.5392655549853],[-0.126872037405354,51.5394902256525],[-0.126511759939034,51.5394844737398],[-0.126151482592525,51.5394787207217],[-0.125791205365848,51.5394729665983],[-0.125781971512525,51.5396976370869],[-0.125421692631353,51.539691881802],[-0.125412456883772,51.5399165522243],[-0.125052176348109,51.5399107957779],[-0.125042938706224,51.5401354661338],[-0.124682656516075,51.5401297085259],[-0.124673416979838,51.5403543788153],[-0.124313133135207,51.5403486200459],[-0.124322374445856,51.5401239498126],[-0.123962092495592,51.540118189994],[-0.123971335460649,51.5398935198065],[-0.123980578305705,51.5396688496088],[-0.123620300024168,51.539663088797],[-0.123629544523564,51.5394384186451],[-0.123638788902941,51.5392137484828],[-0.123278514290053,51.539207986678],[-0.123287760323704,51.5389833165615],[-0.122927487605122,51.5389775537076],[-0.122936735293001,51.5387528836369],[-0.12294598286082,51.538528213556],[-0.122585713810781,51.538522449709],[-0.122594963032762,51.5382977796739],[-0.122604212134664,51.5380731096285],[-0.122613461116489,51.5378484395727],[-0.122253197509088,51.537842674789],[-0.122262448144986,51.5376180047791],[-0.12227169866079,51.5373933347588],[-0.1222809490565,51.5371686647283],[-0.122290199332117,51.5369439946874],[-0.122299449487645,51.5367193246362],[-0.122308699523085,51.5364946545747],[-0.122317949438441,51.5362699845028],[-0.121957698369655,51.536264219007],[-0.121966949938913,51.536039548981],[-0.121976201388067,51.5358148789447],[-0.121985452717118,51.535590208898],[-0.121994703926069,51.535365538841],[-0.122003955014922,51.5351408687737],[-0.122013205983679,51.5349161986961],[-0.122022456832342,51.5346915286081],[-0.122031707560913,51.5344668585098],[-0.122040958169394,51.5342421884012],[-0.122050208657787,51.5340175182822],[-0.122059459014057,51.5337928481026],[-0.122068709208371,51.5335681777371],[-0.122077959282861,51.5333435073619],[-0.12208720923753,51.533118836977],[-0.122096459072379,51.5328941665825],[-0.12210570878741,51.5326694961783],[-0.122114958382625,51.5324448257644],[-0.122124207858027,51.5322201553408],[-0.122484427036054,51.532225919922],[-0.122493674623086,51.5320012494452],[-0.122502922090331,51.5317765789587],[-0.122512169437791,51.5315519084626],[-0.12252141666547,51.5313272379567],[-0.122530663773368,51.5311025674412],[-0.122539910761487,51.530877896916],[-0.122179702194469,51.5308721325961],[-0.121819493747223,51.5308663671705],[-0.121459285419773,51.5308606006393],[-0.121099077212141,51.5308548330024],[-0.121089823150257,51.5310795033533],[-0.12072961329403,51.5310737345672],[-0.120369403557668,51.5310679646754],[-0.120009193941195,51.5310621936779],[-0.119648984444634,51.5310564215748],[-0.119288775068008,51.531050648366],[-0.118928565811339,51.5310448740515],[-0.118937830483808,51.5308202039622],[-0.118577623115543,51.5308144285857],[-0.118217415828352,51.5308086519561],[-0.117857208260637,51.5308028727025],[-0.11786647814996,51.5305782028211],[-0.117506272490807,51.5305724225488],[-0.117146066952707,51.5305666411729],[-0.117155340295979,51.5303419714492],[-0.116795136666457,51.5303361890546],[-0.116434933158035,51.5303304055565],[-0.116444209955159,51.5301057359907],[-0.11608400835533,51.5300999514738],[-0.115723806876644,51.5300941658535],[-0.115733087127521,51.5298694964455],[-0.115742367257207,51.5296448270256],[-0.115751647265705,51.529420157594],[-0.115760927153017,51.5291954881505],[-0.115400732945144,51.529189701766],[-0.115410014498626,51.5289650323956],[-0.115419295930903,51.5287403630133],[-0.115428577241978,51.5285156936193],[-0.115437858431851,51.5282910242135],[-0.115447139500526,51.5280663547958],[-0.115456420448004,51.5278416853663],[-0.115096237085077,51.5278358983873],[-0.115105519698574,51.5276112290309],[-0.114745338244049,51.5276054410332],[-0.114754622523519,51.5273807717498],[-0.114394442977392,51.5273749827337],[-0.114403728922788,51.5271503135233],[-0.114043551285057,51.5271445234886],[-0.114052838896333,51.5269198543512],[-0.113692663166992,51.526914063298],[-0.113701952444103,51.5266893942337],[-0.113341778623148,51.526683602162],[-0.11298160492349,51.5266778089869],[-0.112990897653475,51.5264531400805],[-0.112630725862219,51.526447345887],[-0.112640020257921,51.5262226770537],[-0.113000190262116,51.5262284711623],[-0.113009482749415,51.5260038022324],[-0.113369651087886,51.5260095951528],[-0.11337894166683,51.5257849261261],[-0.113739108339573,51.5257907178584],[-0.113748397010207,51.5255660487351],[-0.114108562017218,51.5255718392792],[-0.114117848793347,51.5253471699111],[-0.113757685565437,51.5253413794312],[-0.113766974001818,51.5251167100609],[-0.113776262317489,51.5248920406799],[-0.113416102761926,51.5248862492246],[-0.113425392732683,51.5246615798972],[-0.11343468258271,51.5244369105592],[-0.11307452669942,51.5244311181284],[-0.113083818204467,51.524206448844],[-0.112723664217648,51.5242006553735],[-0.11273295737767,51.5239759861428],[-0.112372805287319,51.5239701916324],[-0.112382100102269,51.5237455224554],[-0.112021949908381,51.5237397269052],[-0.111661799835281,51.5237339302507],[-0.111301649882992,51.5237281324919],[-0.111310949904164,51.5235034634977],[-0.110950801848377,51.5234976646991],[-0.110590653913444,51.5234918647963],[-0.110599957365045,51.5232671959203],[-0.11023981132663,51.5232613949777],[-0.109879665409113,51.5232555929308],[-0.109519519612518,51.5232497897797],[-0.109159373936868,51.5232439855243],[-0.108799228382186,51.5232381801646],[-0.10880854059095,51.5230135116006],[-0.108448396932865,51.5230077052013],[-0.108457710796198,51.5227830366911],[-0.108467024538497,51.5225583681703],[-0.108106884552564,51.5225525607958],[-0.108116199949365,51.5223278923287],[-0.107756061859996,51.5223220839146],[-0.107395923891678,51.5223162743963],[-0.107035786044434,51.5223104637737],[-0.106675648318288,51.5223046520469],[-0.106684970696066,51.5220799838275],[-0.1066942929527,51.5218553155973],[-0.106334158898656,51.5218495028955],[-0.106343482809605,51.5216248347192],[-0.106352806599392,51.5214001665321],[-0.105992676217373,51.5213943528554],[-0.106002001661407,51.5211696847221],[-0.106011326984262,51.5209450165781],[-0.106020652185936,51.5207203484233],[-0.105660527251224,51.5207145338364],[-0.105669854107059,51.5204898657355],[-0.105679180841697,51.5202651976238],[-0.105688507455138,51.5200405295013],[-0.105697833947385,51.5198158613681],[-0.105337716235054,51.5198100459356],[-0.105347044381353,51.5195853778562],[-0.10535637240644,51.5193607097661],[-0.105365700310316,51.5191360416652],[-0.105375028092984,51.5189113735535],[-0.10501491760267,51.5189055572755],[-0.104654807233561,51.5188997398933],[-0.104294696985678,51.5188939214071],[-0.104285363877498,51.5191185893248],[-0.103925251975699,51.5191127696699],[-0.103565140195175,51.5191069489108],[-0.103555803415341,51.5193316166884],[-0.10319568998093,51.5193257947605],[-0.103186351304561,51.5195504624626],[-0.102826236216267,51.5195446393659],[-0.10246612124932,51.5195388151652],[-0.102456778901145,51.5197634827271],[-0.102096662280345,51.5197576573575],[-0.10173654578094,51.5197518308838],[-0.101727199760874,51.5199764983054],[-0.101367080657778,51.5199706683144],[-0.10100696104964,51.5199648356704],[-0.100997611303197,51.5201895028123],[-0.100637490033432,51.5201836689772],[-0.10027736888559,51.5201778340392],[-0.100268015450134,51.5204025009926],[-0.0999078926406949,51.5203966648634],[-0.0995477699532264,51.5203908276313],[-0.0991876473877506,51.5203849892963],[-0.0991970061738239,51.5201603226077],[-0.0995571269557623,51.5201661608545],[-0.0999172478596917,51.5201719979983],[-0.0999266029566963,51.5199473311212],[-0.100286722199076,51.5199531670738],[-0.100646841563397,51.5199590019236],[-0.100656192971418,51.5197343348579],[-0.101016310674162,51.5197401685165],[-0.101376428498799,51.5197460010723],[-0.101385776217922,51.5195213338182],[-0.101745891679563,51.5195271634514],[-0.102106006403744,51.5195329898603],[-0.102115350405725,51.5193083223524],[-0.102475463476099,51.5193141475925],[-0.102835576667841,51.5193199717286],[-0.102844916998044,51.5190953040804],[-0.103205028535948,51.5191011270477],[-0.103214366969622,51.5188764593241],[-0.103574476853686,51.5188822811225],[-0.103934586859046,51.5188881018169],[-0.103943921621094,51.5186634339531],[-0.104304029972582,51.5186692534787],[-0.104664138445319,51.5186750719002],[-0.104673469535828,51.5184504038963],[-0.105033576354665,51.5184562211491],[-0.105393683294702,51.5184620372979],[-0.105403010713756,51.5182373691539],[-0.105763115999865,51.5182431841339],[-0.106123221407124,51.5182489980098],[-0.10613254515481,51.5180243297258],[-0.106492648908111,51.5180301424331],[-0.106852752782516,51.5180359540363],[-0.10686207285892,51.5178112856123],[-0.107222175079337,51.5178170960468],[-0.10758227742081,51.5178229053773],[-0.107591593826016,51.5175982368133],[-0.107951694513473,51.5176040449752],[-0.108311795321936,51.517609852033],[-0.108671896251385,51.5176156579868],[-0.108662585171334,51.5178403267445],[-0.1090226879968,51.5178461316589],[-0.109382790943208,51.5178519354691],[-0.109742894010534,51.5178577381753],[-0.110102997198754,51.5178635397774],[-0.110463100507846,51.5178693402755],[-0.110823203937787,51.5178751396695],[-0.110813903387251,51.5180998088037],[-0.111174008713109,51.5181056071582],[-0.111534114159774,51.5181114044086],[-0.11189421972722,51.5181172005549],[-0.112254325415424,51.5181229955972],[-0.112614431224367,51.5181287895354],[-0.112974537154022,51.5181345823695],[-0.113334643204367,51.5181403740995],[-0.113343931329221,51.5179157045139],[-0.113353219333385,51.5176910349176],[-0.112993116833224,51.5176852433165],[-0.113002406491757,51.5174605737738],[-0.113011696029578,51.5172359042204],[-0.112651597200193,51.5172301116442],[-0.112660888519005,51.5170054421306],[-0.112300791575757,51.5169996484916],[-0.112310084570565,51.5167749790002],[-0.112319377445525,51.5165503094996],[-0.111959284137188,51.5165445148269],[-0.11196857864981,51.5163198453528],[-0.111977873042563,51.5160951758695],[-0.111617783369061,51.5160893801631],[-0.11162707939941,51.5158647107064],[-0.111636375309872,51.5156400412404],[-0.111276289271128,51.5156342445003],[-0.11128558681912,51.5154095750609],[-0.111294884247206,51.5151849056123],[-0.111304181555389,51.5149602361543],[-0.111313478743671,51.5147355666871],[-0.110953399854318,51.5147297689852],[-0.110962698680022,51.5145050995446],[-0.110971997385806,51.5142804300947],[-0.110981295971672,51.5140557606356],[-0.110990594437623,51.5138310911671],[-0.11099989278366,51.5136064216894],[-0.111359962886638,51.5136122192118],[-0.111720033109482,51.5136180156287],[-0.111729327821193,51.5133933460699],[-0.111369259355558,51.5133875496889],[-0.111378555704592,51.5131628801567],[-0.11173862241304,51.5131686765018],[-0.111747916885025,51.5129440069244],[-0.112107981956146,51.5129498021284],[-0.112117274551129,51.5127251325058],[-0.112126567026277,51.512500462874],[-0.111766505469419,51.5124946677418],[-0.11177579958183,51.5122699981366],[-0.111785093574389,51.5120453285221],[-0.111425035651527,51.5120395323564],[-0.111434331281283,51.5118148627686],[-0.111443626791167,51.5115901931714],[-0.111452922181181,51.5113655235649],[-0.111812974832963,51.5113713196229],[-0.111803681199953,51.5115959892653],[-0.111794387447096,51.5118206588983],[-0.112154443732733,51.5118264539228],[-0.112145151617078,51.5120511235825],[-0.112505209779569,51.5120569175375],[-0.112495919301161,51.5122815872238],[-0.112486628702944,51.5125062569008],[-0.112846690499396,51.5125120498223],[-0.112837401538492,51.5127367195259],[-0.112828112457799,51.5129613892202],[-0.112468047147077,51.5129555962269],[-0.112458756189425,51.5131802658761],[-0.112098689241325,51.5131744717416],[-0.112089396406666,51.5133991413456],[-0.112080103452165,51.5136238109403],[-0.112070810377822,51.5138484805257],[-0.111710738277905,51.5138426851783],[-0.111350666297831,51.5138368887254],[-0.111341369589132,51.5140615582297],[-0.11133207276054,51.5142862277248],[-0.111322775812054,51.5145108972106],[-0.111682853063959,51.5145166937712],[-0.111673557752898,51.5147413632836],[-0.111664262321961,51.5149660327867],[-0.111654966771145,51.5151907022805],[-0.11201504941494,51.5151964978434],[-0.112024343208385,51.5149718283136],[-0.11238442421464,51.5149776227352],[-0.112744505340703,51.5149834160513],[-0.112753795499592,51.5147587464405],[-0.113113874988086,51.5147645386153],[-0.113473954596341,51.5147703296846],[-0.113834034324332,51.5147761196486],[-0.114194114172038,51.5147819085071],[-0.114184831042573,51.5150065782613],[-0.114175547793391,51.5152312480062],[-0.114535631275534,51.515237035831],[-0.114526349664037,51.5154617056025],[-0.11451706793284,51.5156863753647],[-0.114877155049498,51.5156921621557],[-0.115237242285811,51.5156979478412],[-0.115227963949823,51.5159226176657],[-0.115218685494176,51.516147287481],[-0.114858594742927,51.5161415017238],[-0.114849314410118,51.516366171494],[-0.115209406918868,51.516371957287],[-0.115200128223898,51.5165966270837],[-0.115190849409263,51.5168212968711],[-0.115550945552729,51.5168270816302],[-0.115541668375999,51.5170517514442],[-0.115901766396659,51.5170575351336],[-0.116261864536917,51.5170633177175],[-0.116621962796752,51.5170690991958],[-0.116631234700752,51.5168444292745],[-0.116991331322559,51.5168502096116],[-0.117351428063896,51.5168559888432],[-0.117711524924736,51.5168617669692],[-0.117720791436481,51.5166370969313],[-0.118080886659242,51.5166428739161],[-0.118090151293939,51.5164182038332],[-0.118099415809156,51.516193533741],[-0.118108680204894,51.5159688636396],[-0.117748590254688,51.515963086762],[-0.117388500423958,51.5159573087789],[-0.11737923251323,51.5161819788089],[-0.117019141044506,51.5161761996846],[-0.117028410712725,51.5159515296904],[-0.116668321121013,51.5159457494964],[-0.116677592427154,51.5157210795287],[-0.11668686361373,51.5154964095517],[-0.116696134680742,51.5152717395654],[-0.117056219000122,51.5152775196521],[-0.117416303439016,51.5152832986334],[-0.117425570871668,51.5150586285663],[-0.117785653672652,51.5150644064063],[-0.118145736593102,51.5150701831409],[-0.118155000391479,51.5148455129931],[-0.118515082116185,51.5148512888815],[-0.118524344051654,51.5146266186984],[-0.118884424292581,51.514632393549],[-0.118893684349238,51.51440772332],[-0.119253762950387,51.5144134970288],[-0.119613841671006,51.5144192696322],[-0.11997392051107,51.5144250411303],[-0.120333999470559,51.5144308115229],[-0.120694078549449,51.5144365808102],[-0.12068482728918,51.5146612512216],[-0.121044908246732,51.5146670194399],[-0.121404989323642,51.5146727865529],[-0.121765070519886,51.5146785525605],[-0.121774316502299,51.5144538820398],[-0.122134396058566,51.5144596469056],[-0.12249447573412,51.514465410666],[-0.122485233270288,51.5146900812594],[-0.122845314824401,51.5146958439509],[-0.123205396497758,51.5147016055369],[-0.123214635443001,51.5144769348706],[-0.123574715476281,51.5144826953149],[-0.123583952543006,51.5142580246029],[-0.123944030936205,51.5142637839054],[-0.123953266124459,51.5140391131478],[-0.124313342877574,51.5140448713085],[-0.124673419749836,51.5140506283639],[-0.124682651300427,51.5138259575242],[-0.125042726532576,51.5138317134379],[-0.125051956204807,51.5136070425525],[-0.125412029796839,51.5136127973245],[-0.125421257590755,51.5133881263936],[-0.125781329542665,51.5133938800238],[-0.125790555458313,51.5131692090472],[-0.126150625770098,51.5131749615359],[-0.126510696200908,51.5131807129192],[-0.126519918479178,51.5129560418606],[-0.126879987269834,51.5129617921023],[-0.126889207669947,51.5127371209981],[-0.126898427951062,51.5125124498846],[-0.127258493342446,51.5125181989484],[-0.127618558852781,51.5125239469069],[-0.127978624482045,51.51252969376],[-0.127969409478275,51.5127543649823],[-0.128329476985563,51.5127601107664],[-0.128320263622005,51.5129847820157],[-0.128680333007321,51.5129905267307],[-0.12867112128402,51.5132151980069],[-0.12903119254737,51.5132209416529],[-0.129021982464372,51.513445612956],[-0.129382055605758,51.5134513555329],[-0.129742128865965,51.5134570970044],[-0.129732922182535,51.5136817683707],[-0.12972371538028,51.5139064397277],[-0.129714508459198,51.5141311110754],[-0.130074587115936,51.5141368515503],[-0.130065381835315,51.5143615229249],[-0.130056176435886,51.5145861942902],[-0.130046970917648,51.5148108656463],[-0.130407054971109,51.5148166051243],[-0.130397851093419,51.5150412765073],[-0.130388647096938,51.5152659478809],[-0.130379442981664,51.5154906192453],[-0.130370238747595,51.5157152906003],[-0.130730329957403,51.5157210291178],[-0.13072112736399,51.5159457004998],[-0.130711924651801,51.5161703718724],[-0.130702721820832,51.5163950432357],[-0.130693518871084,51.5166197145898],[-0.130684315802554,51.5168443859345],[-0.131044415928614,51.5168501235276],[-0.131404516173414,51.5168558600151],[-0.13176461653693,51.5168615953972],[-0.131773814326817,51.5166369239439],[-0.132133913049476,51.5166426581843],[-0.132494011890803,51.5166483913193],[-0.132854110850776,51.5166541233487],[-0.132844918339549,51.5168787949105],[-0.132835725709675,51.517103466463],[-0.13319582830741,51.5171091974593],[-0.133186637597237,51.5173338692794],[-0.133546742082795,51.5173395992137],[-0.133537553134559,51.5175642711639],[-0.133897659497438,51.5175700000269],[-0.133906846686893,51.5173453280425],[-0.134266951409506,51.5173510557656],[-0.134257765978836,51.5175757277842],[-0.134617872578728,51.5175814544359],[-0.134608688788347,51.5178061264795],[-0.134599504879468,51.5180307985139],[-0.134590320852088,51.5182554705391],[-0.134950432889645,51.5182611962403],[-0.134941250491942,51.5184858682774],[-0.135301364786994,51.518491593378],[-0.13529218403052,51.5187162654432],[-0.135652300203807,51.5187219894757],[-0.135661479200525,51.5184973173731],[-0.136021593732512,51.5185030402627],[-0.136012416495553,51.5187277124027],[-0.136372532905733,51.5187334342241],[-0.136363357310098,51.5189581063921],[-0.136723475598476,51.5189638271455],[-0.136732649434326,51.5187391549401],[-0.137092766081309,51.5187448745506],[-0.137083594005246,51.5189695467933],[-0.137443712530385,51.5189752653357],[-0.137434542095743,51.5191999376064],[-0.137794662499042,51.5192056550806],[-0.137785493705865,51.5194303273793],[-0.138145615987329,51.5194360437853],[-0.138136448835662,51.519660716112],[-0.138127281565666,51.5198853884293],[-0.138487407485184,51.5198911038044],[-0.138478241856766,51.5201157761498],[-0.138838369654482,51.5201214904566],[-0.138829205667686,51.5203461628299],[-0.1388200415626,51.5205708351938],[-0.139180172998477,51.5205765484698],[-0.13917101053508,51.5208012208617],[-0.139531143849187,51.5208069330694],[-0.139521983027526,51.5210316054892],[-0.139882118219868,51.5210373166286],[-0.139872959039986,51.5212619890763],[-0.140233096110567,51.5212676991474],[-0.140223938572512,51.5214923716231],[-0.140214780916248,51.5217170440895],[-0.140574921625152,51.5217227531295],[-0.14056576561078,51.5219474256238],[-0.140925908197957,51.5219531335955],[-0.140916753825523,51.5221778061176],[-0.141276898290975,51.522183513021],[-0.141267745560525,51.522408185571],[-0.141627891904257,51.522413891406],[-0.141618740815836,51.522638563984],[-0.141978889037853,51.5226442687505],[-0.141969739591507,51.5228689413564],[-0.141960590027054,51.5230936139529],[-0.142320741887586,51.5230993176883],[-0.142311593965275,51.5233239903126],[-0.142671747704124,51.5233296929796],[-0.142662601423999,51.5235543656318],[-0.14302275704117,51.5235600672303],[-0.143013612403278,51.5237847399104],[-0.143373769898773,51.5237904404404],[-0.14373392751227,51.5237961398646],[-0.143724786276984,51.5240208126098],[-0.143715644923694,51.5242454853456],[-0.1437065034524,51.5244701580721],[-0.144066666464932,51.5244758565023],[-0.144075806175852,51.5242511837386],[-0.144084945768789,51.5240265109655],[-0.144094085243746,51.5238018381832],[-0.144454243093178,51.523807535396],[-0.144445105378554,51.5240322082156],[-0.144805265106253,51.5240379043599],[-0.144814401060544,51.5238132315031],[-0.145174559145821,51.5238189265045],[-0.145534717348986,51.5238246204002],[-0.145525584915367,51.5240492933313],[-0.145516452363859,51.524273966253],[-0.145507319694459,51.5244986391654],[-0.145498186907166,51.5247233120684],[-0.145489054001978,51.5249479849621],[-0.145849221124934,51.5249536779379],[-0.1458400898623,51.5251783508593],[-0.146200258863565,51.5251840427665],[-0.146191129243533,51.5254087157158],[-0.145830958481791,51.5254030237715],[-0.145821827213508,51.5256276968407],[-0.145812696035995,51.5258523700516],[-0.145803564740757,51.5260770432534],[-0.14579443332779,51.5263017164461],[-0.145785301797094,51.5265263896296],[-0.145776170148665,51.526751062804],[-0.145767038382501,51.5269757359693],[-0.145757906498602,51.5272004091254],[-0.145748774496964,51.5274250822724],[-0.145739642377586,51.5276497554103],[-0.145730510140466,51.527874428539],[-0.145721377785601,51.5280991016586],[-0.145361186038575,51.528093408205],[-0.145352051808277,51.5283180812827],[-0.145342917460208,51.5285427543512],[-0.145333782994365,51.5287674274106],[-0.145693980014522,51.5287731209627],[-0.145703112722631,51.5285484478705],[-0.146063308102781,51.5285541402836],[-0.146054177152406,51.5287788134086],[-0.146045046084302,51.5290034865244],[-0.146035914898466,51.5292281596311],[-0.146026783594897,51.5294528327287],[-0.146017652173592,51.5296775058172],[-0.146008520634549,51.5299021788965],[-0.145999388977767,51.5301268519667],[-0.145990257203243,51.5303515250278],[-0.145981125310976,51.5305761980797],[-0.14634133662928,51.5305818896816],[-0.146332206377209,51.5308065627572],[-0.146323076007413,51.5310312358236],[-0.145962861173202,51.5310255441562],[-0.145953728927692,51.5312502171807],[-0.145944596564429,51.5314748901961],[-0.145935464083413,51.5316995632024],[-0.146295684191655,51.5317052549681],[-0.14628655335094,51.531929927998],[-0.146277422392489,51.5321546010188],[-0.146268291316301,51.5323792740305],[-0.146628516816494,51.5323849647882],[-0.146619387380694,51.5326096378235],[-0.146610257827176,51.5328343108497],[-0.146601128155937,51.5330589838667],[-0.146961359048275,51.5330646736165],[-0.147321590058288,51.5330703622599],[-0.147312463785722,51.5332950353333],[-0.147303337395478,51.5335197083976],[-0.147663572039569,51.5335253960002],[-0.147654447289891,51.5337500690881],[-0.147645322594255,51.5339747424037],[-0.147636197900492,51.5341994158752],[-0.147627073088826,51.5344240893374],[-0.147617948159255,51.5346487627902],[-0.147978191736848,51.5346544494785],[-0.147969068452439,51.5348791229597],[-0.147959945050145,51.5351037964314],[-0.14832019227176,51.5351094820892],[-0.148311070514695,51.5353341555893],[-0.148301948639763,51.53555882908],[-0.148662199505477,51.5355645137071],[-0.14865307927584,51.5357891872262],[-0.148643958928354,51.536013860736],[-0.149004213438245,51.5360195443324],[-0.149364468065936,51.5360252268226],[-0.149355351127027,51.5362499003984],[-0.149715607635715,51.5362555818203],[-0.15007586426216,51.5362612621359],[-0.150066750731923,51.5364859357777],[-0.150427009239348,51.5364916150249],[-0.150787267864488,51.5364972931659],[-0.151147526607319,51.5365029702006],[-0.151138418249122,51.5367276439462],[-0.151498678872894,51.5367333199124],[-0.15185893994284,51.5367389951112],[-0.151868044785756,51.5365143213048],[-0.152228304305599,51.5365199954616],[-0.152219201225268,51.5367446693013],[-0.152579462625263,51.536750342385],[-0.152570361189948,51.5369750162487],[-0.15256125963706,51.5371996901033],[-0.152921524679844,51.537205362147],[-0.152912424772038,51.5374300360257],[-0.153272691695006,51.5374357069963],[-0.15363295873548,51.5374413768604],[-0.153642055117967,51.5372167029152],[-0.154002320513262,51.5372223716397],[-0.154362586026014,51.5372280392577],[-0.154722851656201,51.5372337057692],[-0.154713760561706,51.537458379814],[-0.154704669349771,51.5376830538496],[-0.154695578020394,51.5379077278761],[-0.155055849056067,51.5379133933807],[-0.155046759371985,51.5381380674312],[-0.15503766957048,51.5383627414726],[-0.155397944249048,51.5383684059372],[-0.155388856092904,51.5385930800026],[-0.155749132651634,51.5385987433938],[-0.155740046140897,51.5388234174832],[-0.156100324579794,51.5388290798012],[-0.156460603136027,51.5388347410126],[-0.156451520033576,51.5390594151592],[-0.15681180046996,51.5390650752972],[-0.156802719013031,51.5392897494678],[-0.157163001329568,51.5392954085325],[-0.157153921518207,51.5395200827271],[-0.157144841589549,51.5397447569125],[-0.157505127549156,51.5397504149369],[-0.157496049266132,51.5399750891463],[-0.157486970865829,51.5401997633466],[-0.157847260468582,51.5402054203307],[-0.157838183713981,51.540430094555],[-0.158198475196949,51.5404357504656],[-0.15855876679713,51.5404414052698],[-0.158919058514501,51.5404470589673],[-0.158928129980147,51.5402223846437],[-0.159288420051695,51.5402280372015],[-0.159648710240385,51.5402336886528],[-0.160009000546195,51.5402393389975],[-0.160369290969101,51.5402449882356],[-0.160360226555424,51.5404696626915],[-0.1607205188584,51.5404753108561],[-0.160711456090643,51.5406999853359],[-0.161071750273695,51.540705632427],[-0.161062689151903,51.5409303069307],[-0.161422985215033,51.5409359529482],[-0.161413925739254,51.5411606274758],[-0.161404866146438,51.5413853019943],[-0.161765165852745,51.5413909469713],[-0.161756107906007,51.5416156215136],[-0.162116409492427,51.541621265417],[-0.162125465676045,51.5413965908416],[-0.162485765616315,51.5414022336054],[-0.162494819919842,51.5411775589878],[-0.162855118213958,51.541183200612],[-0.163215416624996,51.5411888411295],[-0.163224467285397,51.5409641664368],[-0.163584764050253,51.5409698058147],[-0.163593812830674,51.5407451310799],[-0.163954107949344,51.5407507693182],[-0.164314403184862,51.5407564064499],[-0.16432344832231,51.54053173164],[-0.164683741911614,51.5405373676321],[-0.164692785169194,51.5403126927801],[-0.165053077112279,51.5403183276327],[-0.165062118490038,51.5400936527386],[-0.1654224087869,51.5400992864517],[-0.165782699200513,51.5401049190582],[-0.165791736935518,51.539880244089],[-0.16615202570288,51.539885875556],[-0.166161061558174,51.5396612005448],[-0.166521348679281,51.5396668308723],[-0.166881635917067,51.5396724600933],[-0.166890668129759,51.5394477850071],[-0.167250953721261,51.5394534130886],[-0.167259984054355,51.5392287379604],[-0.167620267999569,51.5392343649025],[-0.167980552061389,51.539239990738],[-0.167989578752033,51.5390153155348],[-0.167629296453112,51.5390096897322],[-0.167269014270796,51.539004062823],[-0.167278044370587,51.5387793876765],[-0.166917764067773,51.5387737596937],[-0.166557483881608,51.5387681306044],[-0.166566517390447,51.5385434555145],[-0.166575550782594,51.5383187804155],[-0.166584584058048,51.5380941053074],[-0.166224309277026,51.5380884752103],[-0.16621527423877,51.5383131502855],[-0.165854997811639,51.538307519049],[-0.165864034612692,51.5380828440067],[-0.165503760065071,51.5380772116966],[-0.165143485634183,51.5380715782799],[-0.164783211320053,51.5380659437569],[-0.164422937122703,51.5380603081273],[-0.164062663042156,51.5380546713912],[-0.163702389078433,51.5380490335486],[-0.163711436339366,51.5378243586949],[-0.163351164255254,51.5378187197788],[-0.163360213162055,51.5375940449489],[-0.163369261951965,51.5373693701099],[-0.163008993510174,51.5373637301533],[-0.163018043945888,51.5371390553381],[-0.162657777383673,51.537133414308],[-0.162297510938368,51.5371277721715],[-0.161937244609994,51.5371221289286],[-0.161928188886219,51.5373468036448],[-0.162288456977278,51.5373524469207],[-0.162279402899231,51.5375771216608],[-0.161919133045464,51.5375714783518],[-0.161558863308655,51.5375658339363],[-0.161198593688828,51.5375601884144],[-0.161189534205635,51.5377848630462],[-0.160829262940087,51.5377792163847],[-0.160468991791567,51.5377735686168],[-0.160478054800208,51.5375488940511],[-0.160487117691775,51.5373242194763],[-0.160126850185726,51.537318570668],[-0.160135914722897,51.537093896117],[-0.159775649096591,51.5370882462354],[-0.15978471527932,51.5368635717084],[-0.159793781344936,51.5366388971722],[-0.160154043445964,51.5366445469877],[-0.160144979142975,51.5368692215569],[-0.160505243123697,51.5368748702991],[-0.160496180466271,51.5370995448922],[-0.16085644632669,51.537105192561],[-0.160865507221462,51.5368805179348],[-0.161225771436248,51.5368861644641],[-0.161586035768031,51.5368918098869],[-0.16159509302049,51.5366671351854],[-0.161955355706611,51.5366727794688],[-0.162315618509683,51.5366784226457],[-0.162324672119914,51.5364537478691],[-0.162684933277294,51.5364593899066],[-0.163045194551578,51.5364650308376],[-0.163054244519665,51.5362403559858],[-0.163414504148228,51.5362459957774],[-0.163423552236837,51.5360213208835],[-0.163783810219677,51.5360269595357],[-0.164144068319348,51.5360325970815],[-0.164153112765965,51.5358079221125],[-0.164513369219883,51.5358135585189],[-0.164522411787134,51.5355888835078],[-0.164882666595295,51.5355945187748],[-0.165242921520215,51.5356001529355],[-0.165233882478044,51.5358248280126],[-0.165594139282242,51.5358304610998],[-0.165585101885877,51.5360551362006],[-0.165945360569357,51.5360607682144],[-0.165936324818844,51.536285443339],[-0.166296585381611,51.5362910742792],[-0.166287551276994,51.5365157494276],[-0.16627851705568,51.5367404245668],[-0.166638781260379,51.5367460544665],[-0.166629748685028,51.5369707296295],[-0.166990014769046,51.5369763584556],[-0.166980983839705,51.5372010336424],[-0.167341251803047,51.5372066613949],[-0.16733222251976,51.5374313366054],[-0.167692492362429,51.5374369632844],[-0.167683464725243,51.5376616385187],[-0.168043736447244,51.537667264124],[-0.168034710456205,51.537891939382],[-0.168394984213464,51.5378975640701],[-0.16875525830445,51.5379031878698],[-0.168746235710463,51.5381278631858],[-0.169106511678826,51.5381334859201],[-0.169097490729343,51.5383581612672],[-0.169457768575086,51.538363782936],[-0.169818046537222,51.5383694034986],[-0.169827063964769,51.5381447280702],[-0.170187340282305,51.538150347486],[-0.170196355832514,51.5379256720075],[-0.170556630505445,51.5379312902766],[-0.170565644178362,51.5377066147479],[-0.170925917206685,51.5377122318703],[-0.171286190351305,51.5377178478867],[-0.171277180200248,51.5379425234966],[-0.171637455222072,51.5379481384474],[-0.171628446715674,51.5381728140884],[-0.171988723614709,51.5381784279738],[-0.172349000629975,51.538184040753],[-0.172358005614457,51.5379593650308],[-0.17271828098497,51.5379649766633],[-0.172727284092284,51.5377403008911],[-0.173087557818041,51.537745911377],[-0.173096559048232,51.5375212355546],[-0.173456831129228,51.5375268448939],[-0.173817103326359,51.537532453127],[-0.173808105618009,51.5377571290304],[-0.174168379692176,51.5377627361979],[-0.174159383628637,51.5379874121323],[-0.174150387448983,51.5382120880571],[-0.174141391153213,51.5384367639724],[-0.174132394741324,51.5386614398782],[-0.174123398213313,51.5388861157745],[-0.17411440156918,51.5391107916612],[-0.174105404808923,51.5393354675384],[-0.174465691326301,51.5393410738834],[-0.174825977959759,51.5393466791223],[-0.175186264709278,51.5393522832551],[-0.175546551574833,51.5393578862816],[-0.175537561742894,51.5395825623113],[-0.17589785048558,51.5395881642721],[-0.175888862298743,51.5398128403328],[-0.176249152918562,51.5398184412279],[-0.176258139344258,51.5395937651268],[-0.176618428318907,51.5395993648753],[-0.176978717409502,51.5396049635177],[-0.177339006616022,51.5396105610538],[-0.177699295938445,51.5396161574837],[-0.178059585376746,51.5396217528075],[-0.178419874930904,51.5396273470251],[-0.178780164600895,51.5396329401365],[-0.179140454386696,51.5396385321417],[-0.179500744288287,51.5396441230408],[-0.179509714747835,51.5394194465663],[-0.179870003004052,51.5394250363188],[-0.180230291376009,51.539430624965],[-0.180239258197542,51.5392059484003],[-0.180599544924097,51.5392115359],[-0.180959831766346,51.5392171222936],[-0.180968794949946,51.5389924456386],[-0.181329080146764,51.5389980308856],[-0.181689365459228,51.5390036150265],[-0.181698325004982,51.5387789382813],[-0.182058608671987,51.5387845212757],[-0.182418892454589,51.5387901031639],[-0.182427848362583,51.5385654263286],[-0.182788130499697,51.5385710070703],[-0.183148412752362,51.5385765867059],[-0.18315736502268,51.5383519097804],[-0.18351764562983,51.5383574882696],[-0.183508695120555,51.5385821652354],[-0.183868977604253,51.5385877426587],[-0.184229260203432,51.5385933189759],[-0.184238207190612,51.5383686419295],[-0.184598488144201,51.5383742171003],[-0.184607433254878,51.5381495400041],[-0.184967712501897,51.5381551140518],[-0.184976655726127,51.5379304369085],[-0.184985598834764,51.5377057597556],[-0.185345874352396,51.5377113327282],[-0.185354815581163,51.5374866555205],[-0.185363756694365,51.5372619783031],[-0.185724028799006,51.53726755008],[-0.185732968032409,51.537042872808],[-0.186093238488334,51.5370484434341],[-0.186102175841985,51.5368237661074],[-0.186111113080121,51.536599088771],[-0.186471380123134,51.5366046582015],[-0.186480315481587,51.5363799808104],[-0.186840580875897,51.5363855490902],[-0.186849514354714,51.5361608716445],[-0.186858447718068,51.535936194189],[-0.187218709699543,51.5359417612732],[-0.187227641183331,51.5357170837632],[-0.187587901516116,51.5357226496967],[-0.187596831120384,51.535497972132],[-0.18760576060924,51.5352732945576],[-0.187966017529268,51.5352788592956],[-0.187974945138675,51.5350541816666],[-0.188335200410027,51.535059745254],[-0.18834412614003,51.5348350675704],[-0.1887043797627,51.5348406300071],[-0.189064633500689,51.5348461913381],[-0.189055711298732,51.5350708691113],[-0.18941596691604,51.5350764293813],[-0.189407046362816,51.5353011071896],[-0.189767303859448,51.5353066663986],[-0.189758384955003,51.535531344242],[-0.190118644330962,51.53553690239],[-0.190109727075342,51.5357615802684],[-0.190469988330633,51.5357671373554],[-0.190461072723883,51.5359918152689],[-0.19082133585851,51.5359973712949],[-0.190812421900676,51.5362220492434],[-0.191172686914642,51.5362276042083],[-0.19116377460577,51.5364522821918],[-0.19152404149908,51.5364578360956],[-0.191515130839215,51.5366825141142],[-0.191875399611873,51.5366880669569],[-0.191866490601061,51.5369127450105],[-0.191857581475101,51.5371374230543],[-0.192217853891358,51.5371429748807],[-0.192208946414518,51.5373676529596],[-0.192569220710154,51.5373732037248],[-0.192560314882479,51.5375978818386],[-0.192920591057501,51.5376034315427],[-0.192911686879037,51.5378281096916],[-0.192902782585486,51.5380527878307],[-0.19326306240424,51.5380583365183],[-0.193254159759967,51.5382830146924],[-0.193614441458138,51.5382885623188],[-0.193605540463188,51.5385132405279],[-0.193965824040781,51.5385187870931],[-0.1939569246952,51.5387434653371],[-0.193948025234592,51.5389681435714],[-0.194308312456052,51.5389736891201],[-0.19429941464488,51.5391983673893],[-0.194659703745793,51.5392039118767],[-0.194650807584103,51.5394285901809],[-0.195011098564475,51.5394341336071],[-0.195002204052312,51.5396588119462],[-0.194993309425182,51.5398834902756],[-0.195353604049556,51.5398890326851],[-0.19534471107202,51.5401137110495],[-0.195705007575884,51.5401192523977],[-0.195696116247988,51.540343930797],[-0.196056414631346,51.5403494710838],[-0.196047524953136,51.540574149518],[-0.19603863516002,51.5407988279425],[-0.196398937187514,51.5408043672126],[-0.19639004904415,51.541029045672],[-0.196750352951172,51.5410345838807],[-0.196741466457606,51.541259262375],[-0.197101772244158,51.5412647995223],[-0.197092887400436,51.5414894780515],[-0.197453195066524,51.5414950141374],[-0.197444311872691,51.5417196927015],[-0.197435428564034,51.5419443712559],[-0.19779573987442,51.5419499063249],[-0.197786858219792,51.5421745849148],[-0.198147171451294,51.5421801189292],[-0.198138293126902,51.5424047978276],[-0.198498608243232,51.5424103307942],[-0.198489731573656,51.5426350097398],[-0.198850048574818,51.5426405416585],[-0.198841173560105,51.5428652206513],[-0.198832298430402,51.5430898996338],[-0.199192619086298,51.5430954305621],[-0.199183745611524,51.5433201095918],[-0.199544068152283,51.5433256394722],[-0.199535196332484,51.543550318549],[-0.199895520758113,51.5435558473815],[-0.199886650593335,51.5437805265055],[-0.200246976903836,51.54378605429],[-0.200238108394124,51.5440107334612],[-0.200229239769505,51.5442354126221],[-0.200589569734902,51.5442409394161],[-0.200580702765416,51.5444656186241],[-0.200941034615719,51.5444711443701],[-0.200932169301413,51.5446958236253],[-0.201292503036626,51.5447013483233],[-0.201283639377543,51.5449260276256],[-0.201274775603615,51.5451507069176],[-0.201635112929559,51.5451562306255],[-0.201626250818811,51.5453809099628],[-0.201986589699903,51.5453864326123],[-0.201977729234292,51.5456111119847],[-0.201968868654401,51.5458357913474],[-0.202329211168643,51.5458413129807],[-0.202320352233956,51.5460659923786],[-0.202680696621913,51.5460715129507],[-0.202671839332475,51.5462961923839],[-0.202662981928797,51.5465208718073],[-0.203023329950009,51.5465263913631],[-0.203014474191647,51.5467510708217],[-0.203374824086608,51.5467565893162],[-0.203365969973606,51.5469812688101],[-0.20372632174232,51.5469867862433],[-0.203717469274725,51.5472114657724],[-0.203708616692951,51.5474361452917],[-0.204068972095053,51.5474416617085],[-0.204060121158752,51.5476663412631],[-0.204420478434641,51.5476718566185],[-0.204411629143859,51.5478965362083],[-0.204402779738937,51.5481212157883],[-0.204763140648319,51.5481267301273],[-0.204754292888982,51.5483514097425],[-0.205114655672183,51.5483569230202],[-0.205105809558477,51.5485816026706],[-0.205096963330674,51.5488062823112],[-0.205457329747472,51.5488117945723],[-0.205448485165365,51.5490364742481],[-0.205808853456014,51.5490419854479],[-0.205800010519651,51.5492666651588],[-0.206160380684155,51.5492721752971],[-0.20615153939358,51.5494968550432],[-0.206142697988967,51.5497215347796],[-0.206503071787203,51.5497270439013],[-0.206494232028444,51.5499517236728],[-0.20685460770057,51.5499572317331],[-0.206845769587712,51.5501819115397],[-0.206836931360856,51.5504065913366],[-0.207197310666818,51.5504120983802],[-0.207188479781382,51.5506367795489],[-0.207548861203677,51.5506422855979],[-0.207540036089766,51.550866967786],[-0.207900419388611,51.5508724727914],[-0.207891595923182,51.5510971550309],[-0.208251981098583,51.5511026589927],[-0.208243159281682,51.5513273412836],[-0.208603546333641,51.5513328442019],[-0.208594726165313,51.5515575265443],[-0.208955115093835,51.551563028419],[-0.208946296574127,51.5517877108127],[-0.209306687379215,51.5517932116438],[-0.209297870508173,51.552017894089],[-0.20965826318983,51.5520233938764],[-0.209649447967499,51.552248076373],[-0.210009842525732,51.5522535751168],[-0.210001028952157,51.5524782576648],[-0.209992215264644,51.5527029402022],[-0.210352613462195,51.5527084379643],[-0.210343801423505,51.5529331205531],[-0.210704201497663,51.5529386172715],[-0.210695391107843,51.5531632999116],[-0.211055793058612,51.5531687955863],[-0.211046984317706,51.5533934782779],[-0.21140738814509,51.5533989729088],[-0.211398581053144,51.5536236556517],[-0.211758986757147,51.5536291492389],[-0.211750181314208,51.5538538320332],[-0.211741375757433,51.5540785148169],[-0.212101785100946,51.5540840074223],[-0.212092981193244,51.5543086902574],[-0.212453392413409,51.5543141818189],[-0.212444590154825,51.5545388647053],[-0.212435787782447,51.5547635475811],[-0.212796202642226,51.5547690381608],[-0.212787401919033,51.554993721088],[-0.213147818655497,51.5549992106238],[-0.213139019581534,51.5552238936023],[-0.212778601082063,51.5552184040046],[-0.212769800131315,51.5554430869106],[-0.21240937998252,51.5554375961452],[-0.212400577154941,51.5556622789787],[-0.212040155356826,51.5556567870455],[-0.212031350652371,51.5558814698066],[-0.211670927204941,51.5558759767057],[-0.211662120623563,51.5561006593942],[-0.211301695526821,51.5560951651255],[-0.210941270543882,51.5560896697511],[-0.210950080651439,51.5558649871865],[-0.210589657545411,51.5558594907683],[-0.210598469302134,51.5556348082551],[-0.210238048073016,51.555629310793],[-0.210246861478859,51.5554046283312],[-0.210255674770761,51.5551799458588],[-0.209895257181563,51.5551744474149],[-0.209904072122518,51.554949764994],[-0.209543656410196,51.5549442655063],[-0.209552473000158,51.5547195831367],[-0.209192059164707,51.5547140826053],[-0.20918324081178,51.5549387649129],[-0.209174422344848,51.5551634472099],[-0.20953483970625,51.5551689478653],[-0.209526022888322,51.5553936302137],[-0.209517205956407,51.5556183125515],[-0.209877626957767,51.5556238122251],[-0.209868811674922,51.5558484946144],[-0.210229234553232,51.5558539932442],[-0.210220420919504,51.5560786756848],[-0.210211607171829,51.5563033581149],[-0.210572033690202,51.5563088557629],[-0.21056322159171,51.5565335382443],[-0.210202793310207,51.5565280405343],[-0.20984236514258,51.5565225417185],[-0.209851180767331,51.5562978593611],[-0.209490754476729,51.5562923595014],[-0.209499571750613,51.5560676771954],[-0.209508388910505,51.5558429948787],[-0.209147966260003,51.5558374940373],[-0.209156785068961,51.5556128117721],[-0.208796364295451,51.5556073098869],[-0.208435943635901,51.5556018068959],[-0.208427121300836,51.5558264890371],[-0.208066698992218,51.5558209848783],[-0.207706276797604,51.5558154796137],[-0.207345854717021,51.5558099732433],[-0.207337026978685,51.5560346551878],[-0.206976603249087,51.5560291476496],[-0.206616179633566,51.5560236390056],[-0.206607348254923,51.5562483208153],[-0.206246922990415,51.5562428110035],[-0.206255756132145,51.5560181292558],[-0.205895332744846,51.5560126184002],[-0.205534909471692,51.5560071064389],[-0.205543746025345,51.5557824248047],[-0.205552582464757,51.55555774316],[-0.205192162831864,51.5555522302171],[-0.204831743313157,51.5555467161683],[-0.204471323908661,51.5555412010138],[-0.204462482180152,51.5557658824722],[-0.204102061126859,51.5557603661499],[-0.203741640187825,51.5557548487217],[-0.20375048544239,51.5555301673876],[-0.203759330582601,51.5553054860429],[-0.203398913283874,51.5552999676332],[-0.203407760072713,51.5550752863401],[-0.203047344651261,51.5550697668868],[-0.203056193088681,51.5548450856452],[-0.203065041411708,51.554620404393],[-0.202704629630459,51.5546148839584],[-0.202713479602001,51.5543902027577],[-0.202353069697995,51.5543846812795],[-0.202361921318007,51.5541600001305],[-0.20200151329124,51.5541544776087],[-0.201992659908349,51.5543791586956],[-0.201632250233086,51.5543736350059],[-0.201271838941104,51.5543681090653],[-0.200911427440502,51.5543625818057],[-0.200551016058421,51.5543570534434],[-0.20054215522227,51.5545817340596],[-0.200181742113307,51.5545762044704],[-0.199821329122913,51.5545706737786],[-0.199812464477252,51.5547953541327],[-0.199452049760009,51.5547898222139],[-0.199091635161383,51.5547842891925],[-0.198731220681402,51.5547787550684],[-0.19872235038068,51.5550034350361],[-0.198713479961218,51.55522811499],[-0.198353061908958,51.5552225795147],[-0.198344189525245,51.5554472593308],[-0.197983769746175,51.5554417226285],[-0.197974895398164,51.5556664023066],[-0.197614473892288,51.5556608643773],[-0.19725405250516,51.5556553253454],[-0.197245174347255,51.5558800047612],[-0.196884751233352,51.5558744645023],[-0.196875871111032,51.5560991437801],[-0.196866990869842,51.5563238230443],[-0.19685811050978,51.5565485022947],[-0.196849230030844,51.5567731815315],[-0.197209660527169,51.5567787222878],[-0.197570091142276,51.5567842619413],[-0.197561214235795,51.5570089414131],[-0.197921646815327,51.5570144800882],[-0.198282079513595,51.5570200176606],[-0.19827320617967,51.5572446973673],[-0.198633640842346,51.5572502339612],[-0.198994075623711,51.5572557694523],[-0.198985205862443,51.557480449394],[-0.198976335982433,51.557705129322],[-0.198615897509601,51.5576995935823],[-0.19860702566508,51.5579242733723],[-0.198246585465173,51.5579187364055],[-0.198237711656093,51.5581434160576],[-0.198228837728219,51.558368095696],[-0.198219963681549,51.5585927753208],[-0.198211089516081,51.5588174549319],[-0.197850642051594,51.5588119163651],[-0.197490194705859,51.5588063766955],[-0.197129747478899,51.5588008359231],[-0.197120865178634,51.5590255127963],[-0.196760416350931,51.5590199709152],[-0.196399967638844,51.5590144279284],[-0.196391081150956,51.5592391041781],[-0.196382194547372,51.5594637804172],[-0.196742646820657,51.5594693235323],[-0.196733761882009,51.5596939998247],[-0.196724876827684,51.5599186761065],[-0.196715991657681,51.5601433523776],[-0.196707106371997,51.560368028638],[-0.196698220970629,51.5605927048877],[-0.19633775979395,51.560587161452],[-0.195977298732923,51.5605816169105],[-0.195986187695738,51.560356940789],[-0.195625728531106,51.5603513952058],[-0.19526526948217,51.5603458485168],[-0.194904810548952,51.560340300722],[-0.194544351731476,51.5603347518213],[-0.194535455645789,51.5605594276862],[-0.194174995163365,51.5605538776155],[-0.194166097181118,51.5607785534055],[-0.19380563503375,51.5607730021648],[-0.193445173002196,51.5607674498183],[-0.19343627134259,51.5609921254693],[-0.193075807646121,51.5609865719527],[-0.192715344065515,51.5609810173303],[-0.192706438728463,51.5612056928422],[-0.192345973482971,51.5612001370497],[-0.192337066249179,51.5614248124866],[-0.191976599338804,51.5614192555241],[-0.191616132544366,51.5614136974557],[-0.191255665865887,51.5614081382814],[-0.19089519930339,51.5614025780013],[-0.190886284830376,51.5616272531706],[-0.190525816603077,51.5616216917204],[-0.190516900233168,51.5618463668147],[-0.190507983747171,51.5620710418983],[-0.190499067145084,51.5622957169713],[-0.190138593691257,51.5622901542224],[-0.190129675192179,51.5625148292203],[-0.190120756576984,51.5627395042075],[-0.189760279677401,51.5627339402242],[-0.189399802893904,51.5627283751349],[-0.189039326226517,51.5627228089398],[-0.189048250184465,51.5624981341454],[-0.188687775414125,51.5624925669086],[-0.188327300759937,51.562486998566],[-0.187966826221927,51.5624814291174],[-0.187606351800117,51.562475858563],[-0.18724587749453,51.5624702869027],[-0.186885403305188,51.5624647141364],[-0.186524929232116,51.5624591402643],[-0.186164455275336,51.5624535652863],[-0.185803981434872,51.5624479892024],[-0.185443507710745,51.5624424120127],[-0.185083034102981,51.562436833717],[-0.184722560675041,51.5624312556848],[-0.184731505885445,51.562206581594],[-0.184371034415422,51.5622010037946],[-0.184379981292335,51.5619763297717],[-0.184019511721932,51.5619707509464],[-0.184028460265309,51.5617460769913],[-0.183667992594522,51.5617404971403],[-0.183676942804316,51.5615158232531],[-0.183685892897474,51.5612911493544],[-0.183325428909307,51.5612855685569],[-0.183334380668814,51.5610608947261],[-0.18297391858023,51.5610553129027],[-0.182982872006043,51.5608306391398],[-0.18299182531518,51.5606059653654],[-0.182631366909107,51.5606003825957],[-0.182640321884481,51.5603757088892],[-0.18264927674316,51.5601510351713],[-0.182288822019523,51.5601454514551],[-0.182279865377958,51.5603701250938],[-0.181919408988099,51.5603645401933],[-0.181558952714924,51.5603589541877],[-0.181549992390831,51.5605836276562],[-0.181189534451463,51.5605780404662],[-0.181180572227678,51.5608027138438],[-0.181171609887102,51.5610273872099],[-0.181162647429734,51.5612520605646],[-0.180802184258261,51.5612464720314],[-0.18044172120355,51.5612408823932],[-0.180432755063403,51.5614655555776],[-0.180423788806414,51.5616902287506],[-0.180063322302489,51.5616846378484]]],[[[-0.154643354407603,51.557016258522],[-0.154634259671673,51.5572409297518],[-0.154625164816444,51.5574656009733],[-0.154616069841914,51.5576902721866],[-0.154255642002701,51.5576846055247],[-0.154264738776162,51.557459934327],[-0.153904312855164,51.5574542665725],[-0.153913411308207,51.5572295953822],[-0.154273835430299,51.557235263121],[-0.154282931965114,51.5570105919068],[-0.154643354407603,51.557016258522]]],[[[-0.14832019227176,51.5351094820892],[-0.148329313910961,51.5348848085796],[-0.148338435432298,51.5346601350607],[-0.148698679245584,51.5346658195368],[-0.14870779888601,51.5344411459708],[-0.149068041054057,51.5344468293031],[-0.149077158813617,51.5342221556899],[-0.149437399336422,51.5342278378783],[-0.149428283339892,51.5344525115292],[-0.149419167225571,51.5346771851707],[-0.149410050993458,51.5349018588028],[-0.149400934643551,51.5351265324255],[-0.149040687068485,51.5351208500862],[-0.148680439611215,51.5351151666408],[-0.14832019227176,51.5351094820892]]],[[[-0.154616069841914,51.5576902721866],[-0.154976497800389,51.5576959377403],[-0.154985590975986,51.5574712665115],[-0.155346017254766,51.5574769309415],[-0.15570644365276,51.5574825942635],[-0.155697354075035,51.5577072655234],[-0.155336925878104,51.5577016021859],[-0.155327834382185,51.557926273422],[-0.154967404505512,51.5579206089609],[-0.15460697474808,51.5579149433915],[-0.154616069841914,51.5576902721866]]],[[[-0.143318381503654,51.5694271621902],[-0.14295786331627,51.5694214599703],[-0.142967016730145,51.569196793315],[-0.143327533167854,51.5692024954786],[-0.143336684714511,51.5689778287567],[-0.143697199520053,51.5689835297577],[-0.14368804972305,51.5692081965358],[-0.143678899808528,51.5694328633036],[-0.144039418230868,51.5694385633104],[-0.144399936770652,51.5694442622107],[-0.144409083185814,51.5692195953306],[-0.144769600093337,51.5692252930682],[-0.144778744641365,51.5690006261216],[-0.145139259916622,51.5690063226965],[-0.145499775309252,51.5690120181649],[-0.145860290819232,51.5690177125268],[-0.145851151520197,51.5692423796418],[-0.14584201210378,51.5694670467466],[-0.145832872569979,51.569691713841],[-0.14582373291879,51.5699163809251],[-0.145814593150212,51.5701410479989],[-0.145454068891673,51.5701353533563],[-0.145093544750493,51.5701296576071],[-0.144733020726696,51.5701239607514],[-0.14474216574454,51.5698992938461],[-0.144381643587899,51.56989359594],[-0.144021121548684,51.5698878969273],[-0.144030269948526,51.569663230124],[-0.143669749776484,51.569657530061],[-0.143309229721911,51.5696518288915],[-0.143318381503654,51.5694271621902]]]]}}