{"type":"Feature","properties":{"code":"E63005115","name":"South Darenth and Sutton at Hone"},"geometry":{"type":"MultiPolygon","coordinates":[[[[0.232255879260049,51.4151703056291],[0.232615098801642,51.4151634549483],[0.232974318200383,51.4151566031762],[0.232985268580103,51.4153812285637],[0.233344489614001,51.4153743754961],[0.233703710504999,51.4153675213373],[0.23371466458373,51.4155921462966],[0.233725618805419,51.4158167712364],[0.233736573170067,51.4160413961567],[0.234095799252355,51.4160345402934],[0.234106755538082,51.4162591649899],[0.234117711966796,51.4164837896669],[0.233758482328252,51.4164906459391],[0.233769437121793,51.4167152708011],[0.233780392058303,51.4169398956437],[0.233421158720472,51.4169467512335],[0.233432112021743,51.4171713762611],[0.233443065984756,51.4173959962909],[0.233802302855165,51.4173891405112],[0.234161539583066,51.4173822836368],[0.23452077616844,51.4173754256676],[0.234880012611261,51.4173685666037],[0.23523924891151,51.417361706445],[0.235228286172301,51.4171370863774],[0.235587520573403,51.417130225127],[0.235576556602905,51.4169056013262],[0.235935789082754,51.416898739189],[0.23592482347717,51.4166741155732],[0.23628405403577,51.4166672525494],[0.236643284451273,51.4166603884343],[0.237002514723654,51.416653523228],[0.237361744852893,51.4166466569306],[0.237350772277838,51.4164220341134],[0.237339799845979,51.4161974112767],[0.236980573272999,51.4162042771651],[0.236969602762428,51.4159796541045],[0.236958632395024,51.4157550310244],[0.236947662170785,51.4155304079248],[0.236936692089709,51.4153057848058],[0.237295911550448,51.4152989197355],[0.237284939834529,51.4150742968015],[0.237273968261792,51.414849673848],[0.237262996832233,51.4146250508751],[0.236903782705434,51.414631915332],[0.236892813196985,51.4144072921351],[0.236533600705002,51.4144141552963],[0.236174388069921,51.4144210173664],[0.235815175291768,51.4144278783454],[0.23580421126022,51.4142032545156],[0.235445000116937,51.414210114199],[0.23508578883063,51.4142169727914],[0.235096749306333,51.4144415970301],[0.235107709925073,51.4146662212493],[0.234748494939888,51.4146730791594],[0.234759453923695,51.4148977035637],[0.234400237017551,51.4149045605871],[0.234041019968444,51.4149114165194],[0.234030064540588,51.4146867917062],[0.234019109255703,51.4144621668736],[0.233659895619591,51.4144690213059],[0.233648942255607,51.4142443962494],[0.233637989034565,51.4140197711735],[0.233278778811389,51.4140266241058],[0.233267827511178,51.413801998806],[0.233256876353881,51.4135773734868],[0.233245925339496,51.4133527481481],[0.233605130229069,51.4133458958291],[0.233964334975742,51.4133390424189],[0.233953380548625,51.4131144174697],[0.234312583374559,51.4131075631728],[0.234671786057547,51.413100707785],[0.234682744040294,51.4133253323254],[0.235041948358127,51.413318475642],[0.235401152532969,51.4133116178675],[0.235390190994599,51.413086993736],[0.235379229599275,51.412862369585],[0.235368268346993,51.4126377454146],[0.23535730723775,51.4124131212247],[0.235716504158485,51.4124062631769],[0.235727467045466,51.4126308871624],[0.236086665600908,51.4126240278191],[0.236445864013296,51.4126171673848],[0.236434897570845,51.4123925438083],[0.236794094062425,51.4123856824875],[0.237153290410909,51.4123788200756],[0.237164260408819,51.4126034432432],[0.237523458391908,51.4125965795358],[0.237534430310721,51.4128212024793],[0.23789362992841,51.4128143374764],[0.23788265623185,51.4125897147373],[0.23787168267849,51.4123650919788],[0.238230878597543,51.4123582262938],[0.238219903409681,51.4121336037204],[0.238579097407848,51.4121267371489],[0.238568120585531,51.4119021147605],[0.238208928365037,51.4119089811274],[0.237849736001358,51.4119158464033],[0.237490543494518,51.4119227105882],[0.23713135084454,51.4119295736822],[0.236772158051445,51.4119364356851],[0.236761190260641,51.4117118122547],[0.23675022261296,51.4114871888048],[0.236739255108397,51.4112625653355],[0.236728287746949,51.4110379418467],[0.236717320528616,51.4108133183385],[0.236706353453394,51.4105886948108],[0.236347171182839,51.4105955544959],[0.235987988769229,51.41060241309],[0.235977025392169,51.410377789134],[0.236336206028252,51.4103709307443],[0.236325241016748,51.4101463069732],[0.236314276148326,51.4099216831827],[0.236673453086374,51.409914824111],[0.236662486583574,51.4096902005054],[0.236651520223872,51.4094655768804],[0.237010693463963,51.4094587171267],[0.236999725469951,51.4092340936867],[0.236988757619055,51.4090094702273],[0.237347927161269,51.4090026097916],[0.237707096560375,51.4089957482649],[0.238066265816353,51.4089888856475],[0.238425434929178,51.4089820219391],[0.238784603898826,51.4089751571398],[0.238795580636614,51.4091997795768],[0.239154751240435,51.4091929134822],[0.239513921701033,51.4091860462966],[0.239873092018383,51.4091791780202],[0.240232262192463,51.4091723086529],[0.240221278345208,51.4089476870339],[0.240210294847071,51.4087230633024],[0.240199311620672,51.4084984382418],[0.239840146745466,51.4085053072191],[0.239480981727884,51.4085121751009],[0.239470002169601,51.408287549767],[0.239829165424339,51.4082806820144],[0.239818184245618,51.4080560567949],[0.239807203209299,51.4078314315604],[0.240166362796049,51.4078245629708],[0.240155380139357,51.4075999378507],[0.240144397625086,51.4073753127158],[0.23978524156386,51.407382181047],[0.239774260954735,51.4071575557681],[0.239415106513876,51.4071644228747],[0.239404127809851,51.4069397974517],[0.239763280488003,51.4069329304742],[0.239752300163662,51.4067083051655],[0.240111450936772,51.4067014372218],[0.24010046899216,51.4064768120274],[0.240459617860234,51.4064699431175],[0.240470601567504,51.4066945681827],[0.240829752055834,51.4066876980482],[0.240818766585909,51.4064630731122],[0.241177915169162,51.4064562020116],[0.241166928079062,51.4062315771899],[0.240807781258438,51.4062384481614],[0.240448634295395,51.4062453180375],[0.240437650872985,51.4060206929426],[0.240426667593002,51.4057960678328],[0.240067524012762,51.4058029363551],[0.240056542637769,51.4055783111013],[0.240045561405175,51.4053536858326],[0.240404701460304,51.4053468175687],[0.240393718607584,51.4051221924143],[0.240752856757807,51.4051153231843],[0.241111994765622,51.4051084528589],[0.241471132631008,51.4051015814382],[0.241830270353939,51.4050947089221],[0.241819280593667,51.4048700842697],[0.241808290975902,51.4046454596025],[0.241797301500638,51.4044208349204],[0.242156433793703,51.4044139616967],[0.242515565944279,51.4044070873777],[0.24287469795234,51.4044002119633],[0.243233829817863,51.4043933354537],[0.243244826342875,51.4046179596188],[0.243255823010481,51.404842583769],[0.24361495825833,51.4048357059055],[0.243974093363593,51.4048288269467],[0.243985093698744,51.4050534508235],[0.244344230423868,51.4050465706401],[0.244703367006357,51.4050396893613],[0.244714371009138,51.4052643129646],[0.245073509211459,51.4052574304613],[0.245084515119444,51.4054820539204],[0.245095521170146,51.4057066773647],[0.245106527363567,51.4059313007941],[0.244747383873642,51.4059381836854],[0.244758388447205,51.4061628072292],[0.24511753369971,51.4061559242086],[0.245476678809523,51.4061490400926],[0.245487687050991,51.4063736633629],[0.245498695435207,51.4065982866183],[0.245857843927523,51.4065914011483],[0.245868854217135,51.4068160242595],[0.245879864649524,51.4070406473558],[0.245890875224692,51.4072652704373],[0.245901885942641,51.4074898935038],[0.245912896803376,51.4077145165555],[0.245553739497615,51.4077214026722],[0.245564748738379,51.4079460258384],[0.245205589527126,51.407952910989],[0.244846430173161,51.4079597950442],[0.244857436031124,51.4081844184541],[0.245216597147874,51.4081775342696],[0.245575758121908,51.4081706489896],[0.245934918953206,51.4081637626142],[0.246294079641744,51.4081568751434],[0.246653240187499,51.4081499865771],[0.246642225515637,51.4079253638139],[0.246631210986609,51.4077007410358],[0.246620196600414,51.4074761182429],[0.246609182357049,51.407251495435],[0.246968335709044,51.4072446062908],[0.247327488918221,51.4072377160511],[0.247686641984557,51.4072308247161],[0.248045794908028,51.4072239322857],[0.248034773756778,51.4069993099804],[0.248393924793928,51.4069924164253],[0.24875307630468,51.4069855166881],[0.248742051743908,51.4067608948265],[0.249101201341004,51.4067539941643],[0.249112227672034,51.4069786158579],[0.249123254146516,51.4072032375343],[0.249134280764453,51.4074278591934],[0.249493435528966,51.4074209569342],[0.249482407140728,51.4071963354431],[0.249841559991493,51.4071894322589],[0.250200712698789,51.4071825279817],[0.250189680913478,51.4069579068094],[0.250178649271688,51.4067332856199],[0.250537798294973,51.4067263805857],[0.250526765026474,51.406501759547],[0.250515731901515,51.406277138491],[0.250874877240865,51.4062702327],[0.250863842489264,51.4060456117947],[0.250852807881219,51.4058209908722],[0.251211949536714,51.4058140843243],[0.251200913302092,51.4055894635526],[0.251189877211046,51.4053648427636],[0.251549015182763,51.4053579354589],[0.251537977465205,51.4051333148207],[0.251526939891241,51.4049086941651],[0.251515902460865,51.4046840734923],[0.25187503497885,51.404677165599],[0.251863995922051,51.4044525450769],[0.251852957008858,51.4042279245377],[0.251841918239271,51.4040033039811],[0.252201045303719,51.403996395499],[0.252190004907796,51.4037717750933],[0.252178964655493,51.4035471546702],[0.252167924546812,51.4033225342299],[0.252156884581748,51.4030979137722],[0.2521458447603,51.4028732932973],[0.252134805082466,51.4026486728052],[0.252493921384037,51.4026417642387],[0.252482880080012,51.4024171438973],[0.252841994468181,51.4024102344061],[0.252830951538012,51.4021856142155],[0.253190064012784,51.4021787037995],[0.253179019456515,51.4019540837597],[0.253538130017897,51.4019471724191],[0.253527083835574,51.4017225525301],[0.253167975043918,51.4017294637026],[0.252808866108622,51.4017363737824],[0.252449757029712,51.4017432827694],[0.252438716300195,51.4015186623589],[0.2520796088474,51.401525570085],[0.251720501251038,51.4015324767184],[0.251361393511131,51.4015393822591],[0.251002285627701,51.4015462867069],[0.250643177600772,51.401553190062],[0.250284069430367,51.4015600923242],[0.249924961116508,51.4015669934937],[0.249565852659219,51.4015738935704],[0.249206744058521,51.4015807925543],[0.248847635314439,51.4015876904455],[0.248488526426994,51.4015945872438],[0.248129417716431,51.4016014798966],[0.247770308995829,51.4016083701879],[0.247411200132401,51.4016152593839],[0.247052091126171,51.4016221474849],[0.24669298197716,51.4016290344906],[0.246333872685391,51.4016359204011],[0.245974763250886,51.4016428052165],[0.24561565367367,51.4016496889367],[0.245604646667254,51.4014250654832],[0.245593639803555,51.4012004420148],[0.245582633082573,51.4009758185316],[0.245941737373502,51.4009689351993],[0.246300841521724,51.4009620507719],[0.24665994552722,51.4009551652494],[0.246670957534415,51.4011797883447],[0.247030063159226,51.4011729015976],[0.247389168641261,51.4011660137554],[0.247378153109937,51.4009413909188],[0.247737256687113,51.4009345021108],[0.247726239536578,51.4007098793887],[0.24736713772144,51.4007167680674],[0.24735612254001,51.4004921447554],[0.246997022331273,51.4004990323011],[0.247008035763509,51.4007236556509],[0.246648933662807,51.4007305421392],[0.246637921980081,51.4005059187483],[0.246626910786992,51.4002812929728],[0.246615899736366,51.4000566671858],[0.2466048888282,51.3998320413873],[0.246963983908686,51.3998251551633],[0.24695297138612,51.3996005294277],[0.246941959006034,51.3993759036806],[0.246582867439239,51.3993827897558],[0.246571856958439,51.3991581639228],[0.246212767006038,51.3991650488252],[0.246223775730024,51.3993896747326],[0.245864683878413,51.3993965586108],[0.24587569098799,51.3996211845811],[0.245886698239977,51.3998458105399],[0.245527602732286,51.3998526934684],[0.245516597237162,51.3996280674353],[0.24515750334398,51.3996349491909],[0.245168507082237,51.3998595752984],[0.245179510962862,51.4000842013944],[0.245538608369798,51.40007731949],[0.245549614149705,51.4003019455001],[0.245560620072005,51.4005265714988],[0.24520151915922,51.4005334534989],[0.244842418107038,51.4005403343823],[0.244483316912225,51.4005472141704],[0.244494318061685,51.4007718380713],[0.244505319353787,51.4009964619573],[0.244516320788535,51.4012210858284],[0.244875427269522,51.4012142056524],[0.244886430609021,51.4014388293794],[0.244897434091193,51.4016634530914],[0.244538324085977,51.401670333526],[0.24417921393814,51.4016772128654],[0.243820103647704,51.4016840911097],[0.243809105451917,51.4014594670097],[0.243449996781038,51.4014663440295],[0.24309088796761,51.4014732199541],[0.242731779011653,51.4014800947834],[0.242372669913191,51.4014869685176],[0.242013560672246,51.4014938411566],[0.241654451288843,51.4015007127003],[0.241295341763002,51.4015075831489],[0.240936232094747,51.4015144525023],[0.240577122284101,51.4015213207604],[0.240218012331086,51.4015281879234],[0.239858902235725,51.4015350539911],[0.239499791998041,51.4015419189637],[0.239140681618057,51.401548782841],[0.238781571095794,51.4015556456231],[0.238792544621494,51.4017802715319],[0.238803518289482,51.4020048974258],[0.238814492099763,51.4022295233049],[0.238455376148677,51.4022363853792],[0.238466348339016,51.4024610113726],[0.238825466052339,51.4024541491691],[0.23883644014721,51.4026787750185],[0.23847732067163,51.4026856373511],[0.238488293146519,51.4029102633147],[0.238129171766411,51.4029171246812],[0.238140142621273,51.4031417507592],[0.237781019336633,51.4031486111595],[0.237421895909787,51.4031554704645],[0.237062772340761,51.4031623286743],[0.237073738050882,51.4033869551247],[0.237084703903196,51.4036115815603],[0.237095669897705,51.4038362079811],[0.23710663603441,51.404060834387],[0.237117602313316,51.4042854607781],[0.237128568734425,51.4045100871543],[0.237139535297738,51.4047347135156],[0.236780399249709,51.4047415715339],[0.236791364192732,51.4049661980095],[0.236802329277942,51.4051908244703],[0.236813294505343,51.4054154509162],[0.236454153027593,51.4054223082264],[0.236095011407705,51.4054291644412],[0.235735869645703,51.4054360195606],[0.23537672774161,51.4054428735847],[0.235387686060916,51.4056675005321],[0.235028542252176,51.4056743535899],[0.234669398301389,51.4056812055522],[0.234310254208574,51.4056880564191],[0.233951109973757,51.4056949061907],[0.233940158704776,51.405470278727],[0.233581016090567,51.4054771272741],[0.233221873334402,51.4054839747257],[0.232862730436304,51.405490821082],[0.232851784597036,51.4052661932164],[0.2324926433196,51.4052730383483],[0.232503587396298,51.4054976663429],[0.232144444214404,51.4055045105084],[0.232155386670423,51.4057291386172],[0.232166329268341,51.4059537667112],[0.231807182419362,51.4059606100393],[0.231818123396536,51.4061852382475],[0.231829064515592,51.4064098664408],[0.232188214889884,51.4064030228547],[0.232547365122302,51.4063961781732],[0.232906515212824,51.4063893323962],[0.232917461761827,51.4066139601877],[0.233276613473113,51.4066071131863],[0.233635765042454,51.4066002650894],[0.233646715258821,51.406824892608],[0.234005868448896,51.4068180432866],[0.234016820569988,51.4070426706613],[0.234027772833107,51.4072672980211],[0.234038725238256,51.4074919253661],[0.234397883574571,51.4074850745621],[0.23440883788454,51.4077097017632],[0.234419792336568,51.4079343289494],[0.234430746930655,51.4081589561208],[0.234441701666803,51.4083835832774],[0.234452656545016,51.4086082104191],[0.234463611565297,51.4088328375459],[0.234104442651905,51.4088396891243],[0.234115396132262,51.4090643144404],[0.234126349764004,51.4092889395353],[0.234137303538681,51.4095135646107],[0.234148257456294,51.4097381896667],[0.234159211516846,51.4099628147032],[0.234170165720339,51.4101874397203],[0.233810986003944,51.4101942913598],[0.233451806144659,51.4102011419083],[0.233462756936056,51.4104257673147],[0.233473707870353,51.4106503927017],[0.233484658947553,51.4108750180692],[0.233125473612761,51.4108818681399],[0.233136423055274,51.4111064936924],[0.233147372640672,51.4113311192255],[0.233506561530674,51.411324268746],[0.233865750277797,51.4113174171755],[0.233876703561358,51.4115420422803],[0.234235893943212,51.4115351894144],[0.234246849147366,51.4117598142954],[0.234606041163948,51.4117529601341],[0.234616998288741,51.4119775847912],[0.234257804494481,51.4119844391569],[0.23389861055729,51.4119912924317],[0.233909564269665,51.4122159174781],[0.233920518124985,51.4124405425052],[0.233561320489451,51.4124473950977],[0.233202122711028,51.4124542465991],[0.233213073153789,51.4126788720155],[0.232853873454742,51.4126857226303],[0.232494673612848,51.412692572154],[0.2324837267256,51.4124679463288],[0.232124528518642,51.4124747945571],[0.231765330168885,51.4124816416942],[0.231776273500609,51.4127062679282],[0.231417073369815,51.412713109977],[0.231057873123595,51.4127199501132],[0.23069867273491,51.412726789152],[0.230339472203783,51.4127336270936],[0.230350408578765,51.4129582538877],[0.2303613450962,51.4131828806687],[0.230372281756092,51.4134075074366],[0.230731487607523,51.4134006691899],[0.231090693316505,51.4133938298458],[0.231101633665815,51.4136184563969],[0.231460841005799,51.4136116158537],[0.231820048255639,51.4136047726696],[0.231830992301442,51.4138293988063],[0.232190201318119,51.4138225504429],[0.232549410191983,51.4138157009884],[0.232560357936407,51.414040326697],[0.232201147284646,51.4140471763559],[0.23221209339402,51.4142718022494],[0.232223039646245,51.4144964281235],[0.232233986041323,51.4147210539781],[0.232244932579257,51.4149456798133],[0.231885714672851,51.4149525291987],[0.231896659575629,51.4151771552188],[0.232255879260049,51.4151703056291]]],[[[0.253527083835574,51.4017225525301],[0.25388619248357,51.4017156402648],[0.25424530098788,51.4017087269067],[0.254604409348483,51.4017018124559],[0.254963517565356,51.4016948969123],[0.255322625638475,51.4016879802759],[0.255681733567819,51.4016810625468],[0.255670676911026,51.4014564436492],[0.255659620398059,51.4012318247343],[0.256018724644257,51.4012249062487],[0.256377828746638,51.4012179866704],[0.256366768838218,51.4009933680746],[0.256725871027125,51.4009864475717],[0.257084973072171,51.4009795259761],[0.257444074973337,51.4009726032878],[0.257803176730594,51.4009656795067],[0.257792109887609,51.4007410615663],[0.258151209731337,51.4007341368607],[0.258510309431116,51.4007272110625],[0.258869408986923,51.4007202841715],[0.258858337039461,51.4004956662246],[0.258847265586339,51.4002710453927],[0.258836194277235,51.4000464245445],[0.258477100017416,51.4000533510677],[0.258118005613634,51.4000602764972],[0.258129073383678,51.4002848976505],[0.258140141297696,51.4005095187875],[0.257781043210885,51.4005164434284],[0.257769977066424,51.4002918221389],[0.257410880605251,51.4002987455336],[0.257399816374277,51.4000741240752],[0.257040721538746,51.4000810462238],[0.257029659221214,51.3998564245966],[0.256670566011331,51.3998633454989],[0.256659505607194,51.3996387237029],[0.256648445346932,51.3994141018905],[0.256289355532177,51.3994210213942],[0.255930265573603,51.3994279398043],[0.255571175471235,51.3994348571207],[0.255212085225094,51.3994417733435],[0.254852994835204,51.3994486884727],[0.254493904301587,51.3994556025081],[0.254134813624268,51.39946251545],[0.254145861498151,51.3996871383296],[0.253786768907658,51.3996940503302],[0.253427676173504,51.3997009612371],[0.253438720652069,51.3999255844053],[0.253079626004758,51.399932494371],[0.253090668857453,51.4001571176752],[0.252731572296978,51.4001640266996],[0.252372475592907,51.4001709346303],[0.252383515050116,51.400395558223],[0.252394554818317,51.400620180544],[0.252405594973363,51.4008448010237],[0.252764696973583,51.4008378927089],[0.252775739041881,51.4010625130032],[0.25278678125382,51.4012871332802],[0.2527978236094,51.40151175354],[0.253156930774989,51.4015048436283],[0.253516037796944,51.4014979326238],[0.253527083835574,51.4017225525301]]],[[[0.240580446598635,51.4089408167803],[0.240591432223252,51.4091654381947],[0.240602417991215,51.4093900595896],[0.240961589656068,51.409383187836],[0.241320761177581,51.4093763149915],[0.241309771854858,51.4091516940057],[0.241298782675525,51.4089270730004],[0.240939614708748,51.4089339454358],[0.240580446598635,51.4089408167803]]],[[[0.238389545994256,51.400888629107],[0.238400517331003,51.4011132551895],[0.238411488810009,51.4013378812572],[0.238770597712381,51.4013310196994],[0.239129706472502,51.4013241570465],[0.239118731469254,51.4010995312371],[0.239477838324982,51.4010926676181],[0.239466861701945,51.400868041923],[0.239107756608311,51.4008749054129],[0.239096781889671,51.4006502795738],[0.23873767841584,51.4006571418393],[0.238378574799766,51.4006640030097],[0.238389545994256,51.400888629107]]],[[[0.238312752067482,51.399316238761],[0.238301782135945,51.399091611208],[0.237942690671045,51.3990984707709],[0.237583599064273,51.3991053292354],[0.237594565482116,51.3993299569368],[0.237953658845735,51.3993230983981],[0.237964627162333,51.3995477260139],[0.23797559562084,51.3997723536182],[0.237986564221259,51.399996981211],[0.237997532963592,51.4002216087922],[0.238008501847842,51.400446236362],[0.238367603854163,51.400439376354],[0.238356633212954,51.4002147488584],[0.238345662713683,51.3999901213513],[0.238704761064203,51.3999832603931],[0.238693788949957,51.3997586329487],[0.23833469235635,51.3997654938327],[0.23832372214095,51.3995408663026],[0.238312752067482,51.399316238761]]],[[[0.235157591193494,51.4009503315182],[0.234798484394116,51.4009571818656],[0.234439377452739,51.4009640311178],[0.234080270369389,51.4009708792747],[0.233721163144086,51.4009777263365],[0.233362055776854,51.400984572303],[0.233002948267715,51.4009914171744],[0.232643840616691,51.4009982609505],[0.232284732823807,51.4010051036313],[0.231925624889085,51.401011945217],[0.231566516861342,51.4010187853356],[0.231577454713952,51.4012434138702],[0.231588392708432,51.4014680423941],[0.231599330844785,51.4016926709074],[0.231610269123012,51.4019172994099],[0.231969384214387,51.4019104587499],[0.232328499197817,51.4019036166483],[0.232687614039398,51.4018967734515],[0.23304672873911,51.4018899291594],[0.233405843296928,51.4018830837721],[0.233764957712828,51.4018762372895],[0.234124071986791,51.4018693897116],[0.234483186118791,51.4018625410385],[0.234842300108807,51.4018556912701],[0.234831345967081,51.4016310639412],[0.235190458052897,51.4016242132067],[0.235201413956815,51.4018488404065],[0.235560527662793,51.4018419884476],[0.235919641226719,51.4018351353935],[0.236278754648569,51.4018282812441],[0.236637867928321,51.4018214259995],[0.236996981065951,51.4018145696596],[0.237356094061438,51.4018077122246],[0.237715206914759,51.4018008536942],[0.23807431962589,51.4017939940687],[0.238063349624527,51.4015693679016],[0.238052379765406,51.4013447417197],[0.237693270578596,51.401351601087],[0.237334161249603,51.4013584593591],[0.236975051778446,51.401365316536],[0.236615942165152,51.4013721726176],[0.236256832409742,51.4013790276041],[0.235897722512237,51.4013858814953],[0.235538612472662,51.4013927342912],[0.23517950229104,51.401399585992],[0.235168546671239,51.4011749587625],[0.235157591193494,51.4009503315182]]],[[[0.231382403217869,51.4046196800951],[0.231371465000134,51.4043950516597],[0.231360526924279,51.4041704232137],[0.231349588990304,51.403945794757],[0.230990457826931,51.4039526329623],[0.230979521797946,51.403728004434],[0.230620392255869,51.4037348414789],[0.230631326521737,51.4039594700682],[0.230642260929437,51.4041840986468],[0.230653195478971,51.4044087272147],[0.230294060505673,51.404415563343],[0.230304993433855,51.4046401919612],[0.23066413017034,51.404633355772],[0.231023266765019,51.4046265184833],[0.231034203361433,51.4048511469689],[0.231045140099711,51.4050757754439],[0.231056076979854,51.4053004039081],[0.231415218722387,51.405293565337],[0.2317743603391,51.4052867253258],[0.232133501900281,51.4052798823847],[0.232122559728053,51.4050552542462],[0.232111617697716,51.4048306260929],[0.23175247966162,51.404837468776],[0.231741539535681,51.4046128404789],[0.231382403217869,51.4046196800951]]],[[[0.229785078090572,51.4161167032665],[0.229796013055108,51.4163413300667],[0.229436783719346,51.4163481663436],[0.229447717052544,51.4165727932323],[0.229458650528167,51.4167974201079],[0.229817883411521,51.4167905836275],[0.230177116152458,51.4167837460496],[0.230188053318165,51.4170083727085],[0.230547287690488,51.4170015339313],[0.230558226841209,51.4172261596825],[0.230569166541403,51.4174507807371],[0.230928404351574,51.4174439407114],[0.231287642016676,51.4174370995944],[0.231276698684313,51.4172124789485],[0.231265756007713,51.4169878530844],[0.231624989952569,51.4169810110147],[0.231984223940211,51.4169741626805],[0.231973277894664,51.4167495368158],[0.232332510025825,51.4167426857953],[0.232321562344959,51.4165180601156],[0.231962331991971,51.4165249109317],[0.231951386232131,51.4163002850281],[0.23194044061514,51.4160756591051],[0.231929495140997,51.4158510331627],[0.231570270073217,51.4158578796236],[0.231581213763969,51.4160825059282],[0.231221986914246,51.4160893475908],[0.231211044997221,51.4158647211845],[0.231200103222728,51.415640094765],[0.231189161590765,51.4154154683323],[0.231178220101327,51.4151908418865],[0.23153743985628,51.415184000631],[0.231526496735731,51.4149593742737],[0.231167278754415,51.4149662154275],[0.231156337550023,51.4147415889553],[0.230797121199832,51.4147484289099],[0.230437904707176,51.4147552677671],[0.230426967192491,51.4145306410783],[0.230067752330992,51.4145374787363],[0.229708537327076,51.4145443152969],[0.229349322180768,51.4145511507601],[0.228990106892089,51.4145579851258],[0.228979176614188,51.4143333580169],[0.228619962956746,51.4143401911835],[0.228630891461064,51.4145648183941],[0.228271675887715,51.414571650565],[0.228282602760781,51.4147962778641],[0.228293529776185,51.4150209051501],[0.227934310513288,51.4150277364269],[0.227945235897373,51.4152523638014],[0.227956161423778,51.4154769911627],[0.228315384234012,51.4154701596825],[0.22832631167644,51.415694786929],[0.228685536118063,51.4156879542496],[0.229044760417351,51.4156811204728],[0.229033829427524,51.4154564934297],[0.229022898580086,51.4152318663735],[0.229011967875037,51.4150072393041],[0.229371186710946,51.4150004047349],[0.229382119189646,51.4152250317026],[0.229741339656828,51.4152181959343],[0.23010055998161,51.4152113590685],[0.230111496150058,51.4154359858196],[0.230122432460965,51.4156606125575],[0.230133368914332,51.4158852392823],[0.230144305510163,51.4161098659938],[0.229785078090572,51.4161167032665]]],[[[0.230623867218591,51.4185738857187],[0.230612926792982,51.4183492647612],[0.23097217186773,51.4183424239181],[0.23096122977103,51.4181178031455],[0.230950287819439,51.4178931823536],[0.230939346012955,51.4176685615422],[0.230580106386674,51.4176754017723],[0.230220866615343,51.4176822409111],[0.23023180478956,51.4179068621312],[0.229872563057065,51.4179137003831],[0.229883499560182,51.4181383217881],[0.229894436208338,51.4183629431736],[0.229905373001536,51.4185875645397],[0.230264620182581,51.4185807256748],[0.230275558937054,51.4188053468172],[0.230634807789291,51.4187985066567],[0.230623867218591,51.4185738857187]]]]}}