{"type":"Feature","properties":{"code":"E63006170","name":"Haywards Heath"},"geometry":{"type":"MultiPolygon","coordinates":[[[[-0.119901458510972,51.0067704166954],[-0.1195453332307,51.0067646832107],[-0.119536246862015,51.0069893692763],[-0.11918011995142,51.0069836346672],[-0.118823993159094,51.0069778989727],[-0.118814903174945,51.0072025849508],[-0.118458774752324,51.0071968481318],[-0.118449682901232,51.0074215340616],[-0.118440590931782,51.0076462199818],[-0.11879672285164,51.0076519568787],[-0.118787632512481,51.0078766428284],[-0.118778542054981,51.0081013287686],[-0.118769451479138,51.0083260146994],[-0.118760360784952,51.0085507006206],[-0.118404221870352,51.0085449635678],[-0.118395129309077,51.0087696494406],[-0.118038992096345,51.0087639110007],[-0.11768285800306,51.0087581712366],[-0.117326724032573,51.0087524303839],[-0.117317627215177,51.0089771155865],[-0.116961491484221,51.0089713736945],[-0.116952394956476,51.0091960575906],[-0.116596257618122,51.0091903145682],[-0.116240120396958,51.0091845704606],[-0.116231020302816,51.0094092542566],[-0.115874881474282,51.0094035090187],[-0.115518742762984,51.0093977626955],[-0.115162604168945,51.0093920152871],[-0.114806465692187,51.0093862667935],[-0.114450327332732,51.0093805172147],[-0.114441218498312,51.0096052007752],[-0.114085078531587,51.009599450066],[-0.114075967855167,51.0098241335715],[-0.114066857061338,51.0100488170671],[-0.1140577461501,51.010273500553],[-0.114048635121452,51.0104981840291],[-0.11403952397539,51.0107228674954],[-0.114030412711913,51.0109475509518],[-0.114386563026675,51.0109533019322],[-0.11437745337053,51.011177985424],[-0.114368343596989,51.0114026689061],[-0.114359233706048,51.0116273523783],[-0.114350123697707,51.0118520358408],[-0.113993966483812,51.0118462846797],[-0.113637809387287,51.0118405324333],[-0.113281652408152,51.0118347791016],[-0.113272537107898,51.0120594624186],[-0.112916378521344,51.0120537079564],[-0.112907261378765,51.0122783912185],[-0.112551101184796,51.0122726356257],[-0.112194941108289,51.0122668789476],[-0.112204061700571,51.012042195776],[-0.111847903466396,51.0120364380579],[-0.111857025665969,51.0118117549218],[-0.111500869274122,51.0118059961636],[-0.111509993080939,51.0115813130629],[-0.111153838531417,51.0115755532646],[-0.110797684099439,51.0115697923811],[-0.110441529785027,51.0115640304123],[-0.110085375588204,51.0115582673581],[-0.110076244882197,51.0117829502777],[-0.110067114058521,51.0120076331875],[-0.110057983117176,51.0122323160875],[-0.110414142488449,51.0122380792775],[-0.110405013154292,51.0124627622129],[-0.110395883702484,51.0126874451386],[-0.110752046641099,51.0126932073338],[-0.110742918796543,51.0129178902949],[-0.111099083577645,51.0129236514501],[-0.111455248476301,51.0129294115199],[-0.111811413492492,51.0129351705044],[-0.111802290705102,51.0131598535915],[-0.112158457563741,51.0131656115358],[-0.112149336383741,51.0133902946584],[-0.112505505084832,51.0133960515627],[-0.112514624539872,51.0131713683949],[-0.112870791633472,51.0131771241685],[-0.112861673903396,51.0134018073816],[-0.113217842839409,51.0134075621151],[-0.113208726716816,51.0136322453635],[-0.113199610476736,51.0138569286021],[-0.113555782980177,51.0138626823407],[-0.113546668347644,51.0140873656148],[-0.113902842693529,51.0140931183132],[-0.114259017156803,51.0140988699262],[-0.114268128339263,51.0138741865618],[-0.114277239404303,51.0136495031875],[-0.113921068391082,51.0136437516649],[-0.113930181063695,51.0134190683261],[-0.11357401189285,51.0134133157633],[-0.113583126172994,51.0131886324598],[-0.11322695884452,51.0131828788568],[-0.11323607473215,51.0129581955888],[-0.112879909246045,51.0129524409457],[-0.112889026741117,51.0127277577131],[-0.112898144118689,51.0125030744707],[-0.113254306154974,51.0125088290233],[-0.113263421690173,51.0122841457259],[-0.113619582118999,51.012289899148],[-0.11397574266522,51.0122956514848],[-0.11396663057978,51.0125203348727],[-0.114322792968258,51.0125260861693],[-0.114313682490292,51.0127507695926],[-0.114304571894917,51.012975453006],[-0.114660737850582,51.0129812033077],[-0.114651628862744,51.0132058867565],[-0.114642519757513,51.0134305701956],[-0.114998689280442,51.0134363195023],[-0.115354858920686,51.0134420677236],[-0.115363964575966,51.0132173841942],[-0.115007796660697,51.0132116360181],[-0.115016903923582,51.0129869525241],[-0.115026011069099,51.0127622690203],[-0.115382175534479,51.0127680171061],[-0.115738340117147,51.0127737641066],[-0.115747443695473,51.0125490805026],[-0.115756547156479,51.0123243968889],[-0.116112708406608,51.0123301427138],[-0.116468869773975,51.0123358874533],[-0.116825031258562,51.0123416311075],[-0.116815932972241,51.0125663148566],[-0.116459769762758,51.0125605711573],[-0.116450669634262,51.0127852548515],[-0.116806834568664,51.012790998596],[-0.117162999620266,51.0127967412551],[-0.117153902824376,51.0130214250298],[-0.11714480591125,51.0132461087946],[-0.117135708880886,51.0134707925497],[-0.117126611733282,51.013695476295],[-0.117117514468436,51.0139201600305],[-0.117473688262161,51.0139259018298],[-0.11782986217305,51.0139316425438],[-0.117820768241072,51.0141563263597],[-0.117811674191892,51.0143810101658],[-0.117802580025509,51.0146056939621],[-0.117793485741919,51.0148303777486],[-0.117784391341122,51.0150550615253],[-0.118140573994672,51.0150608013794],[-0.118131481201834,51.0152854851914],[-0.118487669504248,51.0152912238435],[-0.118478578159713,51.0155159077025],[-0.11846948669995,51.0157405915512],[-0.118113295264588,51.0157348527861],[-0.117757107435463,51.0157291127967],[-0.117400919723497,51.0157233717219],[-0.117044732128713,51.0157176295616],[-0.116688544651132,51.0157118863158],[-0.116332357290778,51.0157061419847],[-0.115976170047671,51.015700396568],[-0.115985273426142,51.0154757130463],[-0.115629088025508,51.0154699665893],[-0.115638193011836,51.015245283103],[-0.115282009453669,51.0152395356057],[-0.114925826012812,51.015233787023],[-0.114569642689288,51.0152280373549],[-0.114578752733733,51.0150033539943],[-0.114222571252714,51.0149976032859],[-0.113866389889069,51.0149918514921],[-0.113857276394327,51.0152165347624],[-0.113501093422934,51.0152107818379],[-0.113491978085569,51.0154354650531],[-0.11313579350643,51.015429710998],[-0.112779609044737,51.0154239558575],[-0.112770490139519,51.0156486389725],[-0.112414304070109,51.0156428827013],[-0.11205811811819,51.0156371253447],[-0.111701932283785,51.0156313669026],[-0.111711056364548,51.0154066839233],[-0.111354872372857,51.015400924441],[-0.111345746566915,51.015625607375],[-0.11133662064336,51.0158502902992],[-0.110980433318849,51.015844529641],[-0.110971305552457,51.0160692125101],[-0.11061511662031,51.0160634507211],[-0.110258927805769,51.0160576878466],[-0.110268059022596,51.0158330050681],[-0.109911872050898,51.0158272411535],[-0.109921004875234,51.0156025584104],[-0.109564819746375,51.0155967934557],[-0.109555685196847,51.0158214761534],[-0.109199498460468,51.0158157100679],[-0.109190362068004,51.0160403927105],[-0.108834173724109,51.0160346254943],[-0.108825035488665,51.0162593080818],[-0.108815897135447,51.0164839906595],[-0.108459705458788,51.0164782222671],[-0.108103513899872,51.0164724527892],[-0.10811265570359,51.0162477703022],[-0.107756465987685,51.0162419997842],[-0.107400276389566,51.0162362281807],[-0.107391131135357,51.016460910577],[-0.107381985763285,51.0166855929636],[-0.107025792832464,51.0166798201839],[-0.106669600019478,51.0166740463188],[-0.106313407324346,51.0166682713682],[-0.106322557872208,51.0164435891178],[-0.105966367020212,51.016437813127],[-0.10597551917538,51.0162131309122],[-0.105619330166517,51.0162073538814],[-0.105263141275572,51.0162015757652],[-0.105272296763212,51.0159768936313],[-0.105281452132858,51.0157522114877],[-0.104925266810247,51.0157464323768],[-0.104934423787067,51.0155217502688],[-0.104943580645876,51.0152970681509],[-0.104952737386675,51.0150723860232],[-0.104596557357444,51.0150666059632],[-0.104605715705333,51.0148419238711],[-0.104614873935194,51.0146172417692],[-0.104624032047029,51.0143925596575],[-0.104633190040841,51.014167877536],[-0.104642347916633,51.0139431954047],[-0.104651505674405,51.0137185132635],[-0.104295336113381,51.0137127323907],[-0.104304495478097,51.0134880502851],[-0.104313654724775,51.0132633681698],[-0.104322813853418,51.0130386860446],[-0.104331972864028,51.0128140039097],[-0.104341131756606,51.0125893217649],[-0.104350290531154,51.0123646396103],[-0.104359449187676,51.0121399574459],[-0.104368607726171,51.0119152752716],[-0.104377766146643,51.0116905930876],[-0.104386924449093,51.0114659108937],[-0.104030772254657,51.0114601293899],[-0.104039932163827,51.0112354472316],[-0.104049091954956,51.0110107650636],[-0.104058251628049,51.0107860828857],[-0.104067411183106,51.010561400698],[-0.104076570620129,51.0103367185005],[-0.10408572993912,51.0101120362932],[-0.104094889140083,51.0098873540761],[-0.104104048223016,51.0096626718492],[-0.104460186620162,51.0096684529896],[-0.104816325135257,51.0096742330449],[-0.10482548065104,51.0094495507173],[-0.104834636048842,51.0092248683799],[-0.104478500982854,51.0092190884155],[-0.104122366034809,51.0092133073659],[-0.104131524763672,51.0089886251095],[-0.104140687781776,51.0087639402175],[-0.104496819027198,51.0087697213277],[-0.104852950396299,51.0087755013494],[-0.104862112612852,51.0085508147106],[-0.104505983078905,51.0085450346677],[-0.104515147006917,51.0083203480013],[-0.104524310811234,51.0080956613285],[-0.104533474491861,51.0078709746493],[-0.104542638048798,51.0076462879637],[-0.104898760242362,51.0076520680918],[-0.104907921840575,51.0074273814211],[-0.104917083315125,51.0072026947441],[-0.104926244666015,51.0069780080607],[-0.105282361478174,51.0069837871641],[-0.105291520870436,51.0067591004956],[-0.105300680139065,51.0065344138207],[-0.105309839284064,51.0063097271395],[-0.104953727976748,51.0063039479722],[-0.104597616793063,51.0062981677165],[-0.104588453978216,51.0065228544403],[-0.104579291039695,51.0067475411577],[-0.104570127977494,51.0069722278688],[-0.104214011412634,51.0069664465883],[-0.104204846391764,51.0071911333143],[-0.104195681247186,51.0074158200339],[-0.1041865159789,51.0076405067471],[-0.103830394032695,51.0076347244418],[-0.103821226805642,51.0078594111699],[-0.103812059454854,51.0080840978917],[-0.103802891980328,51.008308784607],[-0.103793724382063,51.008533471316],[-0.103784556660055,51.0087581580186],[-0.10377539165811,51.0089828430202],[-0.103766231204732,51.0092075252311],[-0.103757070633309,51.0094322074322],[-0.10374790994384,51.0096568896235],[-0.103738749136324,51.009881571805],[-0.103729588210758,51.0101062539767],[-0.10372042716714,51.0103309361386],[-0.103711266005469,51.0105556182906],[-0.103702104725741,51.0107803004329],[-0.103692943327956,51.0110049825653],[-0.103683781812112,51.0112296646879],[-0.103674620178206,51.0114543468007],[-0.103665458426235,51.0116790289037],[-0.103656296556199,51.0119037109968],[-0.103647134568096,51.0121283930802],[-0.103637972461923,51.0123530751537],[-0.103628810237678,51.0125777572174],[-0.103984970938144,51.0125835400338],[-0.103975810320694,51.0128082221332],[-0.103966649585191,51.0130329042227],[-0.103610485434965,51.0130271213154],[-0.103254321402761,51.0130213373229],[-0.102898157488602,51.0130155522449],[-0.102888991460309,51.0132402341883],[-0.102532825939309,51.0132344479796],[-0.1021766605364,51.0132286606855],[-0.101820495251604,51.0132228723061],[-0.101464329321528,51.0132170830615],[-0.101108161500758,51.013211293311],[-0.101117336278392,51.0129866115706],[-0.100761170345558,51.0129808207771],[-0.100405004533126,51.0129750288982],[-0.100414182725387,51.0127503472332],[-0.100058018800907,51.0127445543112],[-0.100067198640196,51.0125198726791],[-0.100076378358988,51.0122951910373],[-0.0997202180899368,51.0122893971149],[-0.0997293994556898,51.012064715506],[-0.0993732410745599,51.0120589205407],[-0.0993640579413509,51.0122836021071],[-0.0993548746876017,51.0125082836639],[-0.0989987128920265,51.012502487528],[-0.0989895277502352,51.0127271690326],[-0.0989803424878767,51.0129518505274],[-0.0989711571049488,51.0131765320127],[-0.0993273242030876,51.0131823282761],[-0.0996834914217221,51.0131881234541],[-0.0996926732695602,51.0129634418838],[-0.100048838841119,51.0129692359337],[-0.100039658760829,51.0131939175465],[-0.100030478560035,51.0134185991497],[-0.100386647787164,51.0134243921991],[-0.100742817134722,51.0134301841631],[-0.101098986602688,51.0134359750416],[-0.101089811584179,51.0136606567626],[-0.101080636445229,51.0138853384739],[-0.100724463442044,51.0138795475105],[-0.100368290559269,51.0138737554615],[-0.100012117796927,51.0138679623269],[-0.100002937234609,51.0140926439011],[-0.0999937565517795,51.0143173254656],[-0.0999845757484355,51.0145420070204],[-0.099628397803569,51.0145362126728],[-0.0992722199791866,51.0145304172397],[-0.099263035519918,51.0147550986998],[-0.099253850940086,51.0149797801502],[-0.099244666239689,51.015204461591],[-0.0996008493672488,51.0152102571517],[-0.0995916663140549,51.0154349386254],[-0.0999478513298787,51.0154407331431],[-0.0999570326152995,51.0152160516269],[-0.100313215983819,51.0152218450165],[-0.100669399472783,51.0152276373205],[-0.101025583082171,51.015233428539],[-0.101381766811958,51.0152392186719],[-0.101737949105727,51.0152450081267],[-0.102094129915649,51.0152507969155],[-0.102450310843702,51.0152565846189],[-0.102441141908952,51.0154812664186],[-0.102431972856037,51.0157059482085],[-0.102422803684954,51.0159306299886],[-0.102066617581456,51.0159248421488],[-0.10205744656701,51.0161495238736],[-0.102413634395701,51.0161553117589],[-0.102404464988277,51.0163799935194],[-0.102395295462678,51.01660467527],[-0.102386125818904,51.0168293570109],[-0.102029932814502,51.0168235689891],[-0.101673739928247,51.0168177798818],[-0.101317544782612,51.0168119902724],[-0.100961348677883,51.016806199842],[-0.10060515269357,51.016800408326],[-0.100595974100304,51.0170250898596],[-0.100239776468493,51.0170192972154],[-0.0998835789571435,51.0170135034857],[-0.0998927610862763,51.0167888220372],[-0.0995365654633423,51.0167830272643],[-0.0995273815662783,51.0170077086703],[-0.099518197544017,51.0172323900672],[-0.0995090129280436,51.0174570715173],[-0.0994998281898808,51.0176817529578],[-0.099490643329527,51.0179064343888],[-0.0994814583469805,51.0181311158104],[-0.0994722732422381,51.0183557972224],[-0.0994630880152985,51.0185804786249],[-0.099819297959711,51.0185862737201],[-0.100175508026249,51.0185920677294],[-0.100166326276201,51.0188167492011],[-0.0998101144101172,51.0188109551524],[-0.0994539026661604,51.018805160018],[-0.0990976910443529,51.0187993637976],[-0.0987414795447201,51.0187935664914],[-0.098732290474251,51.0190182477964],[-0.0983760772972536,51.019012449365],[-0.0980198642424775,51.0190066498477],[-0.097663651309946,51.0190008492446],[-0.0973074384996834,51.0189950475555],[-0.097316634768384,51.0187703664079],[-0.0969604238799664,51.0187645636723],[-0.0969696218258581,51.0185398825546],[-0.0966134128592799,51.0185340787725],[-0.0962572040150362,51.0185282739046],[-0.0959009952931493,51.0185224679508],[-0.0959101985151911,51.0182977869416],[-0.0955539917151828,51.0182919799414],[-0.0951977850375756,51.0182861718553],[-0.0948415784823927,51.0182803626833],[-0.094485372049658,51.0182745524256],[-0.0941291657393939,51.0182687410819],[-0.0937729595516235,51.0182629286524],[-0.0934167534863708,51.0182571151371],[-0.0930605475436578,51.018251300536],[-0.0927043417235086,51.018245484849],[-0.0923481360259467,51.0182396680761],[-0.0919919304509943,51.0182338502175],[-0.0916357249986751,51.0182280312729],[-0.0912795196690127,51.0182222112426],[-0.0909233144620296,51.0182163901264],[-0.0905671093777497,51.0182105679243],[-0.0905763394692883,51.0179858874973],[-0.0902201363071792,51.017980064249],[-0.0898639332678172,51.0179742399148],[-0.0895077303512249,51.0179684144948],[-0.0891515275574261,51.0179625879889],[-0.0887953248864451,51.0179567603973],[-0.0884391223383029,51.0179509317198],[-0.0880829199130245,51.0179451019565],[-0.0877267176106324,51.0179392711074],[-0.0873705154311498,51.0179334391724],[-0.0873612691446839,51.0181581192435],[-0.0873520227352448,51.0183827993051],[-0.0873427762028313,51.0186074793571],[-0.086986568747935,51.0186016462176],[-0.0866303614160014,51.0185958119922],[-0.0862741542070526,51.0185899766809],[-0.0859179471211124,51.0185841402839],[-0.0855617401582044,51.0185783028009],[-0.085552484505363,51.0188029826454],[-0.0851962758660258,51.018797144037],[-0.0848400665872474,51.0187913046659],[-0.0844838535118737,51.0187854658691],[-0.0841276405560445,51.0187796259872],[-0.0837714277197816,51.01877378502],[-0.0834152150031077,51.0187679429676],[-0.0834244812899738,51.0185432633593],[-0.0834337474571961,51.0183185837409],[-0.083443013504775,51.0180939041123],[-0.0830868060996838,51.0180880611299],[-0.0827305988142188,51.0180822170623],[-0.0823743916484037,51.0180763719095],[-0.0820181846022602,51.0180705256715],[-0.0816619776758101,51.0180646783483],[-0.0816712522567927,51.0178399989683],[-0.0813150471806616,51.0178341506117],[-0.0809588422242661,51.0178283011699],[-0.0806026373876289,51.017822450643],[-0.0802464326707726,51.0178165990309],[-0.080255714054317,51.0175919198479],[-0.0798995111878353,51.0175860672024],[-0.0795433084411766,51.0175802134717],[-0.0795525931659839,51.0173555343822],[-0.0791963922697167,51.0173496796182],[-0.0788401914933152,51.017343823769],[-0.0788309033074184,51.0175685027549],[-0.0788216150015967,51.0177931817306],[-0.0784654108839759,51.0177873246926],[-0.0781092068862689,51.0177814665694],[-0.078099914999351,51.0180061454313],[-0.078090622992461,51.018230824283],[-0.0780813308655961,51.0184555031246],[-0.0780720386187552,51.018680181956],[-0.0777158278185224,51.0186743225402],[-0.0777065337210317,51.0188990013096],[-0.0780627462519357,51.0189048607772],[-0.0780534537651358,51.0191295395884],[-0.0784096681466813,51.0191353980227],[-0.0784003772706169,51.0193600768755],[-0.07839108627459,51.0195847557182],[-0.0783817951585982,51.0198094345507],[-0.0780255755848344,51.0198035759609],[-0.0780348684315874,51.0195788971802],[-0.0776786507085377,51.019573037557],[-0.0776879451660417,51.019348358818],[-0.0773317292937014,51.0193424981614],[-0.0769755135413553,51.0193366364196],[-0.0769848113402774,51.0191119577742],[-0.0769941090191502,51.0188872791187],[-0.0766378968482172,51.0188814163954],[-0.0762816847973196,51.0188755525869],[-0.0759254728664786,51.0188696876932],[-0.0759347756172934,51.0186450091832],[-0.0762909858174734,51.018650874025],[-0.0763002867175378,51.018426195453],[-0.0763095874975154,51.0182015168708],[-0.0766657943564914,51.0182073805236],[-0.0766750932857874,51.0179827018794],[-0.0763188881574083,51.0179768382785],[-0.0759626831490775,51.0179709735924],[-0.0756064782608182,51.0179651078211],[-0.0752502734926523,51.0179592409647],[-0.075259579224172,51.0177345625179],[-0.0749033763066883,51.0177286946283],[-0.0749126836486043,51.0175040162233],[-0.0749219908703538,51.0172793378082],[-0.0749312974222443,51.01705465929],[-0.0749406036998551,51.0168299807365],[-0.0749499098553128,51.0166053021734],[-0.0753061040336876,51.0166111698376],[-0.0753154082984931,51.0163864912242],[-0.0756716008304576,51.016392357762],[-0.0756809032046575,51.0161676790984],[-0.076037094090207,51.0161735445099],[-0.0763932850977981,51.0161794088356],[-0.0764025838129753,51.0159547300812],[-0.0767587731741233,51.0159605932806],[-0.0771149626572657,51.0159664553943],[-0.0771242577135026,51.0157417765491],[-0.0767680699988034,51.015735914476],[-0.0767773667014534,51.0155112356618],[-0.0764211808771648,51.0155053725437],[-0.0760649951748885,51.0154995083399],[-0.0760742952922988,51.0152748295974],[-0.0760835952876376,51.0150501508453],[-0.0764397774531492,51.0150560149679],[-0.0764490755580688,51.0148313361656],[-0.0764583735409445,51.0146066573538],[-0.0768145522917861,51.0146125203094],[-0.0768238483843126,51.0143878414474],[-0.0768331443548211,51.0141631625758],[-0.0768424402033133,51.0139384836947],[-0.0764862667573219,51.013932620861],[-0.0761300934333283,51.0139267569418],[-0.0761393926962805,51.0137020781323],[-0.0757832212625425,51.0136962131681],[-0.0754270499508459,51.0136903471183],[-0.0754363526281617,51.0134656683806],[-0.0750801832067381,51.0134598012858],[-0.0747240139073982,51.0134539331055],[-0.074733319998981,51.0132292544396],[-0.0743771525899309,51.0132233852144],[-0.0743864603275296,51.0129987065796],[-0.0743957679429647,51.0127740279353],[-0.0740396041923318,51.0127681577058],[-0.0740489134537171,51.0125434790927],[-0.073692751593341,51.0125376078184],[-0.0737020625006302,51.0123129292363],[-0.0733459025305068,51.0123070569172],[-0.0733552150836552,51.0120823783663],[-0.0733645275145815,51.0118576998058],[-0.0733738398232863,51.0116330212357],[-0.0737299944892913,51.0116388934328],[-0.0737393049077829,51.0114142148124],[-0.0740954579279516,51.0114200858832],[-0.0741047664562751,51.0111954072127],[-0.0741140748624293,51.0109707285325],[-0.0741233831464164,51.0107460498428],[-0.073767235430103,51.0107401788941],[-0.0737765453598316,51.0105155002355],[-0.0734203995335734,51.0105096282421],[-0.0734297111089977,51.0102849496146],[-0.0730735671727921,51.0102790765764],[-0.073082880393867,51.0100543979801],[-0.0734390225622158,51.0100602709776],[-0.0734483338932293,51.0098355923311],[-0.0738044744159091,51.0098414642024],[-0.0738137838569065,51.0096167855056],[-0.0741699227339129,51.0096226562508],[-0.0741792302849384,51.0093979775037],[-0.0738230931757261,51.0093921067992],[-0.0738324023723701,51.0091674280832],[-0.0738417114468416,51.0089427493577],[-0.0741978450205324,51.0089486199808],[-0.0745539787163365,51.0089544895186],[-0.0749101125342293,51.0089603579709],[-0.0749194186880708,51.0087356767731],[-0.0749287256830377,51.0085109946675],[-0.075284856196963,51.0085168619232],[-0.0756409868267832,51.0085227280971],[-0.0756502904059684,51.0082980457623],[-0.0756595938692593,51.0080733634145],[-0.0760157213151259,51.0080792282904],[-0.0763718488768418,51.0080850920844],[-0.0763811489244752,51.0078604095074],[-0.0767372749521338,51.0078662721115],[-0.0767465732340554,51.0076415894134],[-0.0767558714001553,51.0074169067022],[-0.076399748672206,51.0074110443141],[-0.0764090483723073,51.0071863616979],[-0.0760529274100019,51.007180498336],[-0.0760622286440628,51.0069558158147],[-0.076071529762263,51.0067311332803],[-0.0764276474249917,51.0067369964261],[-0.0767837652035367,51.0067428584901],[-0.0767930629063651,51.0065181757266],[-0.0764369467775776,51.0065123137706],[-0.0760808307646064,51.0065064507328],[-0.0760901316510938,51.0062817681722],[-0.0757340174036914,51.0062759041606],[-0.075743319824037,51.0060512216949],[-0.0757526221285092,51.0058265392162],[-0.0757619243171106,51.0056018567244],[-0.0757712263898421,51.0053771742195],[-0.075780528346707,51.0051524917016],[-0.0757898301877054,51.0049278091705],[-0.0761459345371569,51.0049336725339],[-0.0761552346127086,51.0047089898818],[-0.0757991319128415,51.0047031266263],[-0.0754430293288159,51.0046972622891],[-0.0750869268606532,51.0046913968702],[-0.0750776218363565,51.0049160791983],[-0.0750683166961526,51.0051407615133],[-0.0754244224634961,51.0051466271483],[-0.075415118857007,51.0053713095583],[-0.0754058151346299,51.0055959919551],[-0.0753965112963616,51.0058206743389],[-0.0753872073422005,51.0060453567096],[-0.0753779032721452,51.0062700390672],[-0.0750217892564756,51.0062641728919],[-0.0746656753567026,51.0062583056349],[-0.0743095615728497,51.0062524372961],[-0.074318870592023,51.0060277552627],[-0.0739627585738113,51.0060218859501],[-0.0739720691267069,51.0057972040117],[-0.0739813795636245,51.0055725220601],[-0.0739906898845662,51.0053478400955],[-0.0740000000895337,51.0051231581178],[-0.0740093101785294,51.0048984761269],[-0.0736532065244566,51.004892606273],[-0.0736438947858679,51.0051172881558],[-0.0736345829312855,51.0053419700254],[-0.0732784760939793,51.0053360988735],[-0.0732691624737669,51.005560780622],[-0.072913054102823,51.0055549082803],[-0.0725569458478968,51.0055490348568],[-0.0725662627673716,51.0053243533246],[-0.0722101562781126,51.0053184789274],[-0.0718540499049123,51.0053126034486],[-0.0718633700075393,51.0050879221194],[-0.0715072654000206,51.0050820456669],[-0.0714979436477909,51.0053067268879],[-0.0711418375067688,51.0053008492456],[-0.0711325139887923,51.0055255303453],[-0.0707764063142715,51.0055196515131],[-0.070767081030506,51.0057443324916],[-0.0704109718224892,51.0057384524694],[-0.0704016447728916,51.0059631333267],[-0.0707577556305702,51.005969013457],[-0.0711138666043963,51.0059748925056],[-0.07146997769435,51.0059807704724],[-0.0714792997949569,51.0057560892907],[-0.0718354093513489,51.0057619660676],[-0.072191519023824,51.0057678417627],[-0.0725476288123612,51.005773716376],[-0.0725383116607613,51.0059983978821],[-0.0728944232150123,51.0060042715218],[-0.0728851075970413,51.0062289531229],[-0.0725289943930963,51.0062230793751],[-0.0725196770093635,51.006447760855],[-0.0721635622717495,51.0064418859173],[-0.0721542431222124,51.006666567276],[-0.0721449238565826,51.0068912486215],[-0.0717888059355477,51.0068853723858],[-0.0717794849040472,51.0071100536102],[-0.0714233654493314,51.0071041761845],[-0.071067246110731,51.007098297677],[-0.0707111268882676,51.0070924180877],[-0.0707204528690844,51.0068677371877],[-0.0707297787337205,51.0066430562747],[-0.0707391044821793,51.0064183753486],[-0.070382990325114,51.0064124950019],[-0.0700268762842214,51.0064066135735],[-0.0696707623595235,51.0064007310633],[-0.0696800929409118,51.0061760504486],[-0.0693239807821271,51.0061701669647],[-0.0693333128969541,51.0059454864451],[-0.0689772025040781,51.0059396019877],[-0.0689865361523017,51.0057149215631],[-0.0689958696842486,51.0054902411254],[-0.0693519767778383,51.0054961253665],[-0.0697080839876572,51.0055020085257],[-0.0697174141041042,51.0052773278586],[-0.0697267441043219,51.0050526471783],[-0.0697360739883093,51.004827966485],[-0.0697454037560717,51.0046032857785],[-0.070101504483766,51.0046091674234],[-0.0704576053276394,51.0046150479865],[-0.0704482788589812,51.0048397289093],[-0.0708043814685657,51.0048456084989],[-0.0708137062876697,51.0046209274679],[-0.070823030990613,51.0043962464239],[-0.0711791304172442,51.0044021247154],[-0.0711884533545153,51.0041774435501],[-0.0715445512477443,51.0041833206518],[-0.0715352299599884,51.0044080019253],[-0.0718913296188266,51.0044138780534],[-0.0722474293937345,51.0044197530998],[-0.0726035292846935,51.0044256270645],[-0.0726128456238893,51.0042009454667],[-0.0729689439813541,51.0042068182416],[-0.0729782585549978,51.0039821365227],[-0.0733343553789647,51.0039880081077],[-0.0736904523189143,51.0039938786111],[-0.0736811410442803,51.0042185605462],[-0.0740372397497007,51.0042244300759],[-0.0740465493748265,51.0039997480327],[-0.0740558588839901,51.0037750659764],[-0.073699763477564,51.0037691966629],[-0.073343668187099,51.0037633262676],[-0.0733529808792307,51.0035386444144],[-0.0733622934553604,51.003313962548],[-0.0733716059154913,51.0030892806686],[-0.0733809182596248,51.0028645987761],[-0.0733902304877622,51.0026399168705],[-0.0733995425999072,51.0024152349518],[-0.0737556279939133,51.0024211046986],[-0.0741117135038675,51.0024269733638],[-0.0741210222013479,51.0022022912159],[-0.073764938340731,51.0021964226588],[-0.0737742485715802,51.0019717406058],[-0.0741303307828814,51.0019776090549],[-0.07413963924847,51.0017529268808],[-0.0744957199263994,51.0017587941402],[-0.0745050266267698,51.0015341118449],[-0.0748611057713226,51.0015399779146],[-0.074870410706518,51.0013152954982],[-0.0752264883176921,51.0013211603783],[-0.0752357914877545,51.0010964778408],[-0.0752450945419441,51.0008717952902],[-0.0756011689705178,51.0008776588726],[-0.0756104702596407,51.0006529762009],[-0.0756197721562274,51.0004282925075],[-0.0756290743951047,51.0002036081615],[-0.0759851439073783,51.0002094704322],[-0.0759944443456475,50.9999847859988],[-0.0760037446663269,50.999760101554],[-0.0763598109302133,50.9997659625895],[-0.076715877311653,50.9997718225417],[-0.0767251741488393,50.9995471379336],[-0.077081238964857,50.9995529967266],[-0.0770905340015659,50.9993283120311],[-0.0774465972521572,50.9993341696649],[-0.0774558904884326,50.9991094848821],[-0.0778119521735944,50.9991153413568],[-0.0781680139762179,50.9991211967482],[-0.078158724105775,50.999345881683],[-0.0781494341178779,50.9995705666063],[-0.0785054994038024,50.9995764210663],[-0.0785147877087587,50.9993517360671],[-0.0785240758962815,50.9991270510565],[-0.0785333639663739,50.9989023660345],[-0.0785426519190357,50.998677681001],[-0.0781865933647455,50.9986718268446],[-0.0778305349278917,50.998665971605],[-0.0774744766084958,50.9986601152822],[-0.0771184184065795,50.9986542578762],[-0.0771277129732195,50.998429573135],[-0.0767716565716503,50.9984237147218],[-0.0767809527036034,50.9981990300452],[-0.0764248981023769,50.9981931706247],[-0.0764341957995997,50.9979684860126],[-0.0760781429987127,50.9979626255849],[-0.0757220903153852,50.997956764074],[-0.075731391260608,50.9977320796025],[-0.0753753403776365,50.9977262170844],[-0.0750192896122641,50.9977203534832],[-0.0750285938053962,50.9974956691523],[-0.0746725448403947,50.9974898045439],[-0.0746818505986176,50.9972651202775],[-0.0743258034339818,50.997259254662],[-0.0743351107572537,50.9970345704602],[-0.0739790653929794,50.9970287038376],[-0.0739883742812564,50.9968040197004],[-0.0736323307173396,50.9967981520706],[-0.0732762872711242,50.9967922833577],[-0.0732855994070161,50.9965675993612],[-0.0729295577611723,50.9965617296413],[-0.0725735162330707,50.9965558588382],[-0.0722174748227317,50.996549986952],[-0.0722267918887717,50.9963253031722],[-0.0718707522788403,50.996319430279],[-0.0715147127867128,50.9963135563027],[-0.071158673412411,50.9963076812433],[-0.0708026341559557,50.9963018051008],[-0.0704465950173687,50.9962959278753],[-0.0704559203786012,50.9960712444644],[-0.0704652456219287,50.9958465610422],[-0.0701092099663944,50.9958406828857],[-0.0697531744287677,50.9958348036462],[-0.0697438458203007,50.9960594869162],[-0.0693878087180353,50.9960536065175],[-0.0693971390090688,50.9958289233236],[-0.0694064691821355,50.9956042401183],[-0.0697625029192895,50.9956101203647],[-0.0697718312918668,50.9953854370719],[-0.0701278634644224,50.9953913161592],[-0.070483895754881,50.9953971941634],[-0.0708399281632214,50.9954030710846],[-0.0708492513703416,50.995178387552],[-0.0708585744595865,50.994953704008],[-0.070867897430959,50.9947290204525],[-0.0712239249096968,50.9947348960624],[-0.0715799525062679,50.9947407705892],[-0.0719359802206503,50.994746644033],[-0.0722920080528224,50.9947525163938],[-0.0723013241765344,50.9945278325227],[-0.072657350444023,50.9945337037244],[-0.0726666647675227,50.9943090197657],[-0.073022689470324,50.9943148898084],[-0.0730320019936542,50.9940902057623],[-0.0733880251317636,50.9940960746459],[-0.0737440483875716,50.9941019424464],[-0.0737347392290687,50.9943266266446],[-0.0737254299528726,50.9945513108313],[-0.0740814566912117,50.9945571777009],[-0.0740721489797803,50.9947818619522],[-0.0744281775182409,50.9947877278147],[-0.0744374835472097,50.9945630434874],[-0.0744467894585268,50.9943383591487],[-0.0744560952521941,50.9941136747985],[-0.0741000717610555,50.994107809164],[-0.0741093791194715,50.9938831248784],[-0.0741186863602197,50.9936584405814],[-0.0741279934833025,50.9934337562731],[-0.0744840119273152,50.9934396216796],[-0.0748400304889558,50.9934454860031],[-0.0751960491682008,50.9934513492436],[-0.0752053511266176,50.9932266646959],[-0.0755613682411105,50.9932325267774],[-0.0759173854731647,50.993238387776],[-0.0759266839493492,50.9930137030649],[-0.0762826996166223,50.9930195629045],[-0.0762919962929571,50.992794878106],[-0.0759359823079829,50.9927890183423],[-0.0759452805490662,50.9925643336084],[-0.0763012928517638,50.9925701932961],[-0.0763105892930453,50.9923455084748],[-0.076666600030998,50.9923513670036],[-0.0770226108864389,50.9923572244494],[-0.0770133178096742,50.9925819094227],[-0.0773693304648443,50.9925877658615],[-0.0773786218593473,50.9923630808123],[-0.0777346329497013,50.9923689360923],[-0.0780906441574796,50.9923747902893],[-0.0780999293496283,50.992150103879],[-0.0784559391500945,50.9921559570059],[-0.0788119490731928,50.9921618090491],[-0.0791679591188986,50.9921676600088],[-0.0791772341906764,50.9919429713482],[-0.079186509139822,50.9917182826768],[-0.0788305026610656,50.9917124318454],[-0.0788397792710215,50.9914877432273],[-0.0788490557583273,50.9912630545985],[-0.0788583321229834,50.9910383659588],[-0.0785023311170783,50.9910325142361],[-0.0785116091424591,50.9908078256498],[-0.0788676083649931,50.9908136773084],[-0.0792236077101232,50.9908195278834],[-0.0795796071778248,50.9908253773749],[-0.0795888797304874,50.9906006885855],[-0.0799448775373847,50.9906065369294],[-0.0799541481841189,50.9903818480651],[-0.0799634187082799,50.9901571591901],[-0.0803194130710561,50.9901630063223],[-0.0803286816893591,50.9899383173723],[-0.0803379501851162,50.9897136284116],[-0.0803472185583293,50.9894889394401],[-0.0799912295453502,50.9894830925001],[-0.0796352406548849,50.9894772444767],[-0.0792792518869569,50.9894713953697],[-0.0792885254872839,50.9892467065797],[-0.0789325386251295,50.9892408564533],[-0.078941813886041,50.9890161677166],[-0.0789510890243239,50.9887914789691],[-0.0793070723201175,50.9887973289672],[-0.0793163455526287,50.9885726401448],[-0.0793256186625381,50.9883479513116],[-0.0796815985146109,50.9883538000981],[-0.0796908697188181,50.98812911119],[-0.0800468479103126,50.988134958829],[-0.080402826224307,50.9881408053845],[-0.0803935585863125,50.9883654944208],[-0.0807495388058953,50.9883713399569],[-0.0811055191479359,50.9883771844097],[-0.0811147832197098,50.9881524952453],[-0.0811240471689993,50.9879278060702],[-0.0811333109958074,50.9877031168843],[-0.0811425747001353,50.9874784276876],[-0.0814985480322919,50.9874842708007],[-0.0818545214868512,50.9874901128304],[-0.0818452613486172,50.9877148021552],[-0.0822012367086074,50.9877206431655],[-0.0825572121909563,50.9877264830923],[-0.0829131877956428,50.9877323219358],[-0.0829039328841976,50.9879570114418],[-0.083259910394276,50.9879628492659],[-0.0836158880266473,50.9879686860065],[-0.083971865781288,50.9879745216636],[-0.0839626160967846,50.9881992113509],[-0.08431859575678,50.9882050459885],[-0.0843093477331043,50.988429735729],[-0.0843000995871456,50.9886544254586],[-0.0842908513189029,50.9888791151775],[-0.0842816029283739,50.9891038048856],[-0.0842723544155564,50.9893284945829],[-0.0846283431136655,50.989334328457],[-0.0849843309183102,50.9893401615392],[-0.0849750859308854,50.9895648513252],[-0.0853310723689648,50.9895706843033],[-0.0853403156967525,50.989345994441],[-0.0856963005909312,50.98935182626],[-0.0857055421433108,50.98912713631],[-0.0860615254935848,50.9891329669699],[-0.086417508959552,50.989138796547],[-0.0864267470769658,50.9889141064332],[-0.0864359850786565,50.988689416308],[-0.0864452229646266,50.9884647261714],[-0.0864544607348786,50.9882400360233],[-0.0864636983894129,50.9880153458639],[-0.0864729359282323,50.987790655693],[-0.0868289095525797,50.98779648373],[-0.0871848832925655,50.9878023106843],[-0.0875408571481678,50.9878081365557],[-0.0875316245878385,50.9880328269551],[-0.087887600218537,50.98803865182],[-0.088243575964813,50.988044475602],[-0.0882343466078796,50.9882691661423],[-0.0885903241292363,50.9882749889176],[-0.0889463017661297,50.9882808106101],[-0.0893022795185387,50.9882866312198],[-0.0892930550246422,50.9885113219772],[-0.0892838304152001,50.9887360127231],[-0.0892746056902071,50.9889607034577],[-0.0889186229590803,50.9889548826196],[-0.0889093964589215,50.9891795732666],[-0.0889001698431885,50.9894042639022],[-0.0888909431118781,50.9896289545264],[-0.0892469308219152,50.9896347755929],[-0.0892561558935673,50.9894100848925],[-0.0892653808496639,50.9891853941808],[-0.0896213653559077,50.9891912140122],[-0.0896305885368338,50.9889665232129],[-0.0899865714989383,50.9889723418853],[-0.0899957929047369,50.9887476509985],[-0.0900050141950284,50.9885229601003],[-0.0900142353698163,50.9882982691907],[-0.0903702134686428,50.9883040865519],[-0.0907261916829004,50.9883099028303],[-0.0907354094231127,50.988085211757],[-0.09109138609324,50.9880910268765],[-0.0914473628787528,50.9880968409131],[-0.0918033397796312,50.9881026538669],[-0.0918125524258259,50.987877962554],[-0.0918217649566296,50.9876532712297],[-0.0921777386538255,50.9876590829486],[-0.0921869494097585,50.9874343915368],[-0.0925429215627908,50.9874402020968],[-0.0925521305438965,50.9872155105976],[-0.0929081011527613,50.9872213199987],[-0.0932640718768976,50.9872271283171],[-0.0936200427162863,50.9872329355526],[-0.0939760136709051,50.9872387417054],[-0.0943319847407331,50.9872445467753],[-0.0943227840569627,50.9874692386546],[-0.0939668113276644,50.9874634335087],[-0.0939576088691648,50.9876881253006],[-0.0939484062954042,50.9879128170812],[-0.0939392036063813,50.9881375088503],[-0.0939300008020935,50.9883622006081],[-0.0942859801694907,50.9883680060581],[-0.094276778909515,50.9885926978804],[-0.0942675775342921,50.9888173896914],[-0.094623560336069,50.9888231942106],[-0.09463276005169,50.9885985023236],[-0.0946419596520856,50.9883738104252],[-0.0949979392498576,50.9883796137095],[-0.0953539189627844,50.988385415911],[-0.0957098987908454,50.9883912170296],[-0.0960658787340188,50.9883970170654],[-0.0960750715809365,50.9881723248517],[-0.0964310499796341,50.9881781237287],[-0.0967870284933992,50.9881839215228],[-0.0967962179060861,50.9879592291458],[-0.097152194875348,50.9879650257811],[-0.097161382513414,50.9877403333167],[-0.0975173579381699,50.9877461287933],[-0.0978733334779273,50.987751923187],[-0.0982293091326638,50.9877577164979],[-0.0982384916771269,50.9875330237944],[-0.0978825176819036,50.9875272305594],[-0.0978917017708572,50.9873025379204],[-0.0975357295501021,50.9872967436786],[-0.0975449151835037,50.9870720511041],[-0.0975541007018654,50.9868473585182],[-0.0975632861051878,50.986622665921],[-0.0975724713934743,50.9863979733124],[-0.0975816565667255,50.9861732806923],[-0.0979376204903509,50.9861790745546],[-0.0982935845289433,50.9861848673341],[-0.0982844026744601,50.9864095601059],[-0.0986403684873836,50.9864153518786],[-0.0986311881773165,50.9866400447149],[-0.0989871557645778,50.9866458354807],[-0.0989779769989702,50.9868705283816],[-0.0993339463605714,50.9868763181404],[-0.0996899158370608,50.9868821068164],[-0.0996807402754127,50.9871067998577],[-0.100036711526228,50.9871125875268],[-0.100027537509148,50.9873372806325],[-0.100383510534293,50.9873430672947],[-0.100739483674265,50.987348852874],[-0.101095456929044,50.9873546373705],[-0.101104625967672,50.9871299440372],[-0.101113794891472,50.9869052506925],[-0.101122963700449,50.9866805573364],[-0.100766995424063,50.9866747730674],[-0.10077616577764,50.9864500797758],[-0.100785336016375,50.9862253864728],[-0.100794506140269,50.9860006931584],[-0.100438542956881,50.9859949080342],[-0.100447714625294,50.9857702147843],[-0.100091753216075,50.9857644286531],[-0.100100926428963,50.9855397354677],[-0.100110099526974,50.9853150422708],[-0.0997541415512304,50.9853092552087],[-0.0997633161936536,50.9850845620763],[-0.0997724907211824,50.9848598689326],[-0.0994165361788413,50.9848540809394],[-0.099425712250721,50.9846293878602],[-0.0990697594824907,50.9846235988602],[-0.0987138068291499,50.9846178087775],[-0.098357854290721,50.9846120176121],[-0.0983670352253401,50.9843873247491],[-0.0980110844610561,50.9843815325769],[-0.0980202669398925,50.9841568397784],[-0.0976643179497497,50.9841510465994],[-0.0976735019727614,50.9839263538655],[-0.0973175547567561,50.9839205596797],[-0.0973267380227252,50.9836958727606],[-0.0969707925574474,50.9836900776988],[-0.0969799771763395,50.9834653913953],[-0.0969891616778497,50.9832407050824],[-0.0969983460619787,50.9830160187598],[-0.0970075303287307,50.9827913324277],[-0.0970167144781049,50.982566646086],[-0.0970258985101061,50.9823419597348],[-0.0970350824247348,50.982117273374],[-0.0966791490055557,50.9821114775118],[-0.0963232157037115,50.9821056805653],[-0.0959672825192239,50.9820998825344],[-0.0959580934924674,50.9823245687734],[-0.0956021587213193,50.9823187696174],[-0.0952462240675736,50.982312969377],[-0.0952554165024055,50.9820882832193],[-0.0948994836701185,50.9820824819351],[-0.0945435509552752,50.9820766795666],[-0.0945343551123754,50.982301365643],[-0.0941784208109663,50.9822955621494],[-0.0941692231464883,50.9825202481756],[-0.0938132872585176,50.9825144435569],[-0.0938040877724183,50.9827391295329],[-0.0934481502978909,50.982733323789],[-0.0934389489901248,50.9829580097148],[-0.0930830099290432,50.9829522028459],[-0.0927270709855229,50.9829463948925],[-0.0927178661519378,50.9831710807273],[-0.0923619256218908,50.9831652716488],[-0.0923527189665322,50.9833899574333],[-0.0919967768499638,50.9833841472296],[-0.0916408348510252,50.9833783359416],[-0.0916500449146388,50.9831536502385],[-0.0916592548605433,50.9829289645259],[-0.0916684646887423,50.9827042788037],[-0.0920244015753666,50.9827100899696],[-0.092380338579616,50.9827159000511],[-0.0923895448819864,50.9824912142379],[-0.0923987510666984,50.9822665284151],[-0.0920428174705533,50.9822607184151],[-0.0920520252416273,50.9820360326234],[-0.0920612328950254,50.9818113468222],[-0.0924171630831547,50.9818171567409],[-0.0924263689149034,50.9815924708894],[-0.0924355746290007,50.9813677850283],[-0.0927915015267916,50.9813735937812],[-0.0928007054193067,50.9811489078699],[-0.0928099091941969,50.980924221949],[-0.0928191128514646,50.9806995360185],[-0.0928283163911114,50.9804748500785],[-0.0931842365908606,50.9804806575842],[-0.0931750347550841,50.9807053435649],[-0.0935309567762435,50.980711150027],[-0.0935217565267615,50.9809358360388],[-0.0935125561597007,50.9811605220411],[-0.0935033556750586,50.9813852080338],[-0.0934941550728327,50.9816098940169],[-0.0938500840272263,50.9816156995573],[-0.0942060130991243,50.9816215040134],[-0.0942152102934254,50.9813968179489],[-0.0942244073701866,50.9811721318748],[-0.0942336043294111,50.9809474457912],[-0.0942428011710992,50.980722759698],[-0.0942519978952542,50.9804980735953],[-0.094607918565029,50.9805038767636],[-0.0949638393522546,50.9805096788476],[-0.0953197602569105,50.9805154798473],[-0.0956756812789741,50.9805212797626],[-0.0960316024184247,50.9805270785936],[-0.0960407905057486,50.9803023922781],[-0.0960499784756528,50.980077705953],[-0.0960591663281389,50.9798530196183],[-0.0964150824734215,50.9798588172431],[-0.0964242685046916,50.9796341308583],[-0.0967801830635092,50.9796399273581],[-0.096789367273606,50.9794152409231],[-0.0971452802459539,50.9794210362981],[-0.0975011933355908,50.9794268305887],[-0.0978571065424953,50.9794326237951],[-0.0978479274437518,50.9796573103518],[-0.0982038424716903,50.9796631025144],[-0.0982130198666462,50.9794384159171],[-0.09856893330802,50.9794442069548],[-0.0989248468665957,50.9794499969083],[-0.0992807605423521,50.9794557857774],[-0.0996366743352668,50.9794615735622],[-0.0996275037554829,50.9796862603217],[-0.0999834193693319,50.9796920470627],[-0.100339335100298,50.9796978327194],[-0.100695250948359,50.9797036172918],[-0.100686085362845,50.9799283041633],[-0.101042003031805,50.9799340876918],[-0.101032839033008,50.9801587745943],[-0.101023674917098,50.9803834614872],[-0.100667753840422,50.9803776778776],[-0.100311832880824,50.9803718931837],[-0.0999559120383262,50.9803661074055],[-0.0999467426936345,50.9805907941673],[-0.100302665240019,50.9805965799861],[-0.100658587903507,50.9806023647205],[-0.101014510684075,50.9806081483705],[-0.101005346333936,50.9808328352443],[-0.101361270935478,50.9808386178505],[-0.101717195141487,50.9808444018354],[-0.102073118802077,50.9808501879092],[-0.102063959399279,50.9810748747451],[-0.101708034089718,50.981069088634],[-0.101698872923708,50.9812937754232],[-0.101689711643456,50.981518462203],[-0.101680550248959,50.9817431489735],[-0.101671388740215,50.9819678357345],[-0.102027320645875,50.9819736219948],[-0.102036480505562,50.9817489351964],[-0.102045640251024,50.9815242483887],[-0.102401568972758,50.9815300334899],[-0.102757497808639,50.9815358175064],[-0.103113426758646,50.9815416004385],[-0.103122581442831,50.9813169135095],[-0.103478508857919,50.9813226953197],[-0.103834436387089,50.9813284760453],[-0.103843587659113,50.9811037890324],[-0.104199513653339,50.9811095686363],[-0.104555439761602,50.9811153471556],[-0.104911365983881,50.9811211245903],[-0.104902219658874,50.981345811715],[-0.105258147644158,50.9813515881024],[-0.105614075743418,50.9813573634053],[-0.105604932602425,50.981582050595],[-0.105960862464675,50.9815878248505],[-0.105951720858728,50.981812512068],[-0.106307652483973,50.9818182852762],[-0.106663584223133,50.9818240573998],[-0.106654445801357,50.9820487446822],[-0.107010379303498,50.9820545157584],[-0.107366312919515,50.9820602857501],[-0.107357177682,50.9822849730975],[-0.107348042330577,50.9825096604356],[-0.107703979358688,50.9825154294169],[-0.107694845542504,50.9827401167828],[-0.108050784333607,50.9827458847167],[-0.108041652052707,50.9829705721103],[-0.108397592606806,50.9829763389968],[-0.108388461861231,50.9832010264181],[-0.108379331001804,50.9834257138301],[-0.108735274968123,50.9834314797062],[-0.108744404178329,50.9832067922571],[-0.109100346609209,50.9832125570115],[-0.109456289153848,50.9832183206812],[-0.109812231812228,50.9832240832663],[-0.110168174584324,50.9832298447667],[-0.110524117470118,50.9832356051825],[-0.110880060469588,50.9832413645137],[-0.111236003582713,50.9832471227603],[-0.111591946809472,50.9832528799222],[-0.111601062712182,50.9830281921669],[-0.111957004403337,50.9830339482071],[-0.112312946208082,50.9830397031627],[-0.112668888126396,50.9830454570336],[-0.112659777171343,50.9832701449001],[-0.112650666102693,50.9834948327572],[-0.112641554920444,50.9837195206049],[-0.112632442215276,50.9839442098395],[-0.112623323714001,50.984168904698],[-0.112267373882899,50.9841631504514],[-0.112258253754629,50.9843878452542],[-0.112614205105754,50.9843935995467],[-0.112605086390532,50.9846182943856],[-0.112595967568334,50.9848429892146],[-0.112240013177105,50.9848372348304],[-0.111884058892861,50.9848314793619],[-0.111874936923522,50.9850561740893],[-0.112230892727846,50.9850619296037],[-0.112586848639158,50.9850676840338],[-0.112577729603002,50.9852923788432],[-0.112221772171588,50.9852866243672],[-0.112212651508327,50.9855113191209],[-0.112203530738065,50.9857360138647],[-0.111847570373377,50.9857302582127],[-0.111838447975947,50.9859549529008],[-0.112194409860795,50.9859607085987],[-0.112185288876519,50.9861854033228],[-0.112176167785234,50.9864100980371],[-0.112167046586938,50.9866347927416],[-0.111811080141486,50.9866290369062],[-0.111801957315936,50.9868537315549],[-0.111792834383352,50.9870784261938],[-0.111783711343732,50.9873031208229],[-0.111774588197074,50.9875278154422],[-0.111765464943377,50.9877525100516],[-0.111756341582638,50.9879772046511],[-0.111747218114856,50.9882018992408],[-0.111391241134322,50.9881961419999],[-0.111382116039115,50.9884208365339],[-0.11137299083684,50.9886455310581],[-0.111363865527496,50.9888702255724],[-0.111354740111082,50.9890949200769],[-0.111345614587596,50.9893196145715],[-0.110989630112017,50.9893138560167],[-0.110980502960978,50.9895385504556],[-0.110971375702843,50.9897632448847],[-0.110962248337609,50.989987939304],[-0.110953120865278,50.9902126337134],[-0.110943993285843,50.9904373281129],[-0.110588001314753,50.9904315682441],[-0.110578872107639,50.9906562625879],[-0.110569742793399,50.9908809569219],[-0.110560613372032,50.9911056512461],[-0.110551483843536,50.9913303455604],[-0.110195485897126,50.9913245844234],[-0.110186354740843,50.991549278682],[-0.110177223477409,50.9917739729307],[-0.110168092106821,50.9919986671695],[-0.110158960629076,50.9922233613986],[-0.109802956707056,50.9922175989934],[-0.109793815686775,50.9924422957083],[-0.109784673995758,50.9926669925886],[-0.109775532190796,50.9928916894552],[-0.109766390271886,50.9931163863082],[-0.109757248239028,50.9933410831475],[-0.109401236391261,50.9933353189971],[-0.109392092591924,50.9935600157033],[-0.109382948678613,50.9937847123959],[-0.109373804651327,50.9940094090749],[-0.109364660510061,50.9942341057403],[-0.109008642166058,50.9942283400309],[-0.108999496258201,50.9944530365631],[-0.108990350236341,50.9946777330817],[-0.108981204100477,50.9949024295866],[-0.108972057850604,50.995127126078],[-0.108616033010059,50.9951213588095],[-0.108606884993483,50.9953460551677],[-0.108597736862875,50.9955707515122],[-0.108588588618232,50.9957954478431],[-0.108579440259553,50.9960201441604],[-0.108570291786836,50.9962448404641],[-0.108561143200079,50.9964695367541],[-0.108205108557108,50.9964637676874],[-0.108195958203488,50.9966884638443],[-0.107839922021781,50.996682693577],[-0.107483885954181,50.9966769222289],[-0.107493039613438,50.9964522263112],[-0.107137005312781,50.9964464540017],[-0.106780971126272,50.9964406806112],[-0.10642493705393,50.9964349061398],[-0.106434095557456,50.9962102105673],[-0.106078063252092,50.9962044351345],[-0.105722031060934,50.9961986586209],[-0.105712869251833,50.9964233539542],[-0.105356835522122,50.9964175762399],[-0.105000801906662,50.9964117974448],[-0.10500996702133,50.9961871023508],[-0.104653935172924,50.9961813225943],[-0.10429790343881,50.996175541757],[-0.104288735018583,50.9964002366117],[-0.104644768405476,50.9964060175687],[-0.10463560152375,50.9966307125295],[-0.104626434527746,50.9968554074765],[-0.10461726741746,50.99708010241],[-0.104973305877116,50.997085882645],[-0.104964140305415,50.9973105776845],[-0.104954974619449,50.9975352727104],[-0.104598932854038,50.997529492236],[-0.104589765400898,50.9977541871286],[-0.104233722096885,50.9977484054536],[-0.104224552876528,50.9979731002128],[-0.104580597833469,50.9979788820075],[-0.104571430151749,50.9982035768727],[-0.10492747687595,50.998209357706],[-0.10491831073291,50.9984340526773],[-0.105274359224374,50.9984398325493],[-0.105265194620059,50.9986645276266],[-0.10562124487879,50.9986703065372],[-0.10561208181324,50.9988950017205],[-0.105968133839243,50.9989007796697],[-0.105977295251771,50.9986760843667],[-0.10598645655009,50.9984513890501],[-0.106342505384299,50.9984571656791],[-0.106351664915427,50.9982324702292],[-0.106707712210859,50.9982382456575],[-0.107063759620475,50.9982440200048],[-0.107054603395314,50.9984687156938],[-0.107410652572078,50.9984744890797],[-0.10740149788578,50.9986991848747],[-0.107392343085357,50.9989238806561],[-0.107748395682305,50.9989296532002],[-0.107757548829697,50.9987049572992],[-0.108113599887738,50.9987107286426],[-0.108122751268015,50.9984860326084],[-0.108478800787145,50.9984918027512],[-0.108487950400348,50.9982671065838],[-0.108497099899495,50.9980424104028],[-0.108506249284586,50.9978177142081],[-0.108515398555624,50.9975930179999],[-0.108524547712611,50.997368321778],[-0.108533696755547,50.9971436255424],[-0.108542845684436,50.9969189292933],[-0.108898883747137,50.9969246975181],[-0.108908030909135,50.9967000011358],[-0.108917177957112,50.9964753047398],[-0.108926324891068,50.9962506083302],[-0.108935471711005,50.996025911907],[-0.108944618416924,50.9958012154702],[-0.10895376500883,50.9955765190198],[-0.108962911486722,50.9953518225557],[-0.109318938093994,50.9953575888627],[-0.109328082805179,50.9951328922655],[-0.109684107873763,50.9951386573721],[-0.110040133056335,50.9951444213978],[-0.110049274348176,50.9949197245479],[-0.110405297992034,50.9949254873732],[-0.110414437517272,50.9947007903902],[-0.110423576928592,50.9944760933935],[-0.110432716225993,50.9942513963832],[-0.110441855409478,50.9940266993593],[-0.110450994479049,50.9938020023218],[-0.110460133434709,50.9935773052706],[-0.110816147276863,50.993583066298],[-0.111172161232929,50.9935888262446],[-0.111528175302885,50.9935945851103],[-0.111519041304895,50.9938192825199],[-0.111875057141279,50.9938250404242],[-0.11188418948671,50.9936003428951],[-0.112240203784383,50.9936060995991],[-0.112596218195884,50.9936118552222],[-0.112587089155579,50.9938365529902],[-0.112943105333451,50.993842307652],[-0.112933977831951,50.9940670055258],[-0.112924850216685,50.994291703386],[-0.113280869813545,50.9942974572057],[-0.113271743737144,50.9945221551718],[-0.113262617546998,50.9947468531242],[-0.113618640562916,50.9947526061019],[-0.113609515911698,50.9949773041602],[-0.11360039114675,50.9952020022049],[-0.113956417581798,50.9952077543405],[-0.113947294355841,50.995432452491],[-0.114303322557347,50.9954382036651],[-0.114659350872569,50.9954439537583],[-0.114650230838391,50.995668652134],[-0.115006260920056,50.9956744012657],[-0.114997142424977,50.9958990997472],[-0.114988023816247,50.9961237982151],[-0.114978905093864,50.9963484966694],[-0.115334940247583,50.9963542450783],[-0.115344057317152,50.9961295465046],[-0.115700090931716,50.9961352937131],[-0.115709206234858,50.9959105950064],[-0.115718321424391,50.9956858962862],[-0.115727436500319,50.9954611975523],[-0.116083465270193,50.9954669433217],[-0.116092578579783,50.9952422444548],[-0.116101691775791,50.9950175455744],[-0.116457717353828,50.9950232900241],[-0.116466828783566,50.9947985910107],[-0.11611080485822,50.9947928466803],[-0.115754781046479,50.994787101269],[-0.115763895667999,50.9945624024807],[-0.115407873622551,50.9945566561078],[-0.115416989783119,50.9943319574253],[-0.115060969503959,50.994326210091],[-0.114704949338464,50.9943204616757],[-0.114348929286653,50.9943147121796],[-0.114358050291464,50.9940900138416],[-0.114002032005977,50.994084263384],[-0.113646013834214,50.9940785118455],[-0.113655138030535,50.9938538137328],[-0.113664262113137,50.9936291156065],[-0.11367338608202,50.9934044174665],[-0.113317372981712,50.9933986652054],[-0.113326498489407,50.9931739671713],[-0.113335623883366,50.9929492691236],[-0.113691633678641,50.9929550211459],[-0.113700757306382,50.9927303229651],[-0.113709880820414,50.9925056247707],[-0.114065887424475,50.9925113754733],[-0.114421894142248,50.9925171250951],[-0.114431014237683,50.9922924266483],[-0.1147870194167,50.9922981750699],[-0.114796133066284,50.9920734791446],[-0.115152136965765,50.99207922632],[-0.115161247046435,50.9918545314391],[-0.115517249532063,50.9918602774842],[-0.115873252124539,50.9918660224446],[-0.116229254823844,50.9918717663205],[-0.116220149305345,50.9920964613388],[-0.116576153632186,50.9921022041759],[-0.116567047016387,50.9923269009652],[-0.116557936835663,50.9925516001283],[-0.116548826541402,50.9927762992777],[-0.116904835707051,50.992782041453],[-0.116913944348832,50.9925573421842],[-0.117269951975544,50.9925630831593],[-0.11727905885135,50.9923383837576],[-0.116923052877098,50.9923326429019],[-0.116932158065819,50.9921079459285],[-0.116941260542863,50.9918832508187],[-0.117297263562539,50.991888991441],[-0.117653266688968,50.9918947309786],[-0.117662366017817,50.9916700357676],[-0.118018367730264,50.991675774175],[-0.118374370874831,50.9916815130881],[-0.118730375992637,50.9916872531541],[-0.119086381222083,50.9916929921382],[-0.119077288126887,50.9919176875598],[-0.119433295085836,50.9919234255602],[-0.119424203496927,50.9921481210675],[-0.119068194920073,50.9921423829689],[-0.119059098669573,50.9923670808214],[-0.119415108863337,50.9923728190235],[-0.119771119178837,50.9923785561356],[-0.12012712961605,50.9923842921576],[-0.120118036737752,50.9926089914608],[-0.12010894373779,50.9928336907597],[-0.120464957928225,50.992839425571],[-0.120455866622397,50.9930641248051],[-0.12009985061616,50.9930583900541],[-0.120090757372863,50.9932830893441],[-0.120446775194924,50.9932888240348],[-0.120437683645802,50.99351352326],[-0.120793703405387,50.9935192568003],[-0.120784613550488,50.9937439559608],[-0.120428591975031,50.9937382224809],[-0.120419500182608,50.9939629216973],[-0.12041040826853,50.9941876209093],[-0.120054383182942,50.99418188646],[-0.119698358219059,50.9941761509206],[-0.119689262551449,50.9944008502489],[-0.119333235893361,50.9943951136798],[-0.118977209357028,50.9943893760205],[-0.1189681099358,50.994614075465],[-0.118612081705291,50.994608336776],[-0.118602980346334,50.9948330362764],[-0.118246950421655,50.9948272965576],[-0.117890925620574,50.9948215575229],[-0.117534901241021,50.9948158175162],[-0.11752579476937,50.9950405168877],[-0.117881820801624,50.9950462570137],[-0.118237847124923,50.9950519961139],[-0.11822874370639,50.9952766956658],[-0.118584777263089,50.995282435264],[-0.118940810941597,50.9952881737721],[-0.118931711033348,50.995512873199],[-0.119287746649691,50.9955186105566],[-0.119278648435752,50.9957433099188],[-0.119634685989933,50.9957490461259],[-0.119643782387798,50.9955243468241],[-0.119999818247647,50.9955300820015],[-0.120008912707746,50.9953053827556],[-0.120364946873259,50.9953111169032],[-0.120374039395638,50.9950864177132],[-0.120730071866811,50.995092150831],[-0.120720981160465,50.9953168499606],[-0.12107701556934,50.9953225819279],[-0.121067926557409,50.9955472809927],[-0.121423962903991,50.9955530118095],[-0.121414875586519,50.9957777108095],[-0.121405788147447,50.9960024098052],[-0.121049748168677,50.9959966791091],[-0.121040658791872,50.9962213781607],[-0.120684617118627,50.9962156464348],[-0.120328575567058,50.9962099136188],[-0.120319482436327,50.9964346127867],[-0.120310389183919,50.9966593119502],[-0.119954344121738,50.9966535781647],[-0.119598299181286,50.996647843289],[-0.119589202174817,50.9968725425688],[-0.119580105046621,50.9970972418441],[-0.119571007796697,50.9973219411151],[-0.119214957529367,50.9973162053302],[-0.118858907383816,50.9973104684552],[-0.118502857360072,50.9973047304899],[-0.118146809044753,50.9972989914125],[-0.117790766370809,50.9972932511741],[-0.117799872324571,50.9970685518193],[-0.117808978164844,50.9968438524508],[-0.117452938910225,50.9968381113701],[-0.117096899769145,50.9968323692084],[-0.116740860741622,50.9968266259657],[-0.116749971427013,50.9966019269417],[-0.116759081998853,50.9963772279041],[-0.116768192457146,50.9961525288529],[-0.116412158501734,50.9961467848873],[-0.116403046390619,50.9963714838191],[-0.116393934165936,50.9965961827373],[-0.11638482182768,50.996820881642],[-0.116028783027338,50.9968151362373],[-0.115672744340619,50.9968093897516],[-0.115316705767542,50.9968036421849],[-0.115307588357067,50.9970283407177],[-0.114951548244776,50.9970225919506],[-0.114942429067761,50.9972472903505],[-0.114586387416259,50.997241540383],[-0.114230345878466,50.9972357893344],[-0.113874304454405,50.9972300372049],[-0.113518263144096,50.9972242839944],[-0.113509137241752,50.9974489819029],[-0.113865180204975,50.9974547352329],[-0.114221223281952,50.9974604874819],[-0.114212100571729,50.9976851856157],[-0.114202977747798,50.9979098837359],[-0.114193854810156,50.9981345818425],[-0.1141847317588,50.9983592799355],[-0.114175608593729,50.9985839780149],[-0.114531660049347,50.99858972978],[-0.114522538423606,50.9988144279652],[-0.114878591645993,50.9988201787686],[-0.115234644982083,50.998825928491],[-0.115590698431854,50.9988316771323],[-0.115599815098446,50.9986069785888],[-0.115955867008824,50.9986127260297],[-0.115964981908754,50.9983880273532],[-0.115608931651408,50.9983822800318],[-0.11561804809074,50.9981575814611],[-0.115974096695075,50.9981633286632],[-0.116330145413042,50.9981690747842],[-0.116339258432766,50.9979443759611],[-0.116348371338907,50.9977196771245],[-0.116704416864522,50.9977254219257],[-0.116713528004132,50.9975007229561],[-0.117069571990382,50.9975064665569],[-0.117425616090197,50.9975122090767],[-0.117416508256494,50.997736908285],[-0.117407400309274,50.9979616074797],[-0.117763447828565,50.9979673491571],[-0.118119495461384,50.9979730897535],[-0.118110390706644,50.9981977891733],[-0.11846644534758,50.9982035282534],[-0.118822502636472,50.9982092659774],[-0.11883160400598,50.9979845666035],[-0.119187659600362,50.9979903032975],[-0.119543715316531,50.9979960389014],[-0.119899771154465,50.998001773415],[-0.12025582711414,50.9980075068383],[-0.120246733009935,50.9982322059709],[-0.12060279090766,50.9982379382437],[-0.120593698498116,50.9984626373115],[-0.120237638784039,50.9984569050991],[-0.120228544436446,50.9986816042229],[-0.120219449967157,50.9989063033422],[-0.119863386742027,50.9989005701603],[-0.119854290334616,50.9991252693356],[-0.119498225414817,50.9991195351237],[-0.119142160616792,50.9991137998216],[-0.119133060454775,50.9993384991131],[-0.118776993962111,50.999332762781],[-0.11842092759127,50.9993270253587],[-0.118064865230743,50.9993212860684],[-0.118055759795109,50.9995459854066],[-0.117699700590837,50.9995402439749],[-0.117343641500104,50.999534501462],[-0.116987582522932,50.999528757868],[-0.116978472014362,50.9997534568346],[-0.117334532644681,50.9997592005479],[-0.117690593388563,50.9997649431802],[-0.117681486072775,50.9999896423718],[-0.11803754858337,50.9999953840423],[-0.118393615475679,51.0000011235689],[-0.118384511193502,51.0002258229635],[-0.118375406789499,51.0004505223537],[-0.118019336917659,51.0004447826236],[-0.118010237594827,51.0006694757841],[-0.117654169677182,51.0006637341539],[-0.117645076114059,51.0008884202721],[-0.117289006484767,51.0008826775752],[-0.117279910964437,51.0011073637085],[-0.117270815321292,51.0013320498355],[-0.117626888619441,51.0013377924892],[-0.117982962040344,51.0013435340546],[-0.118339038494867,51.0013492737394],[-0.11832994797238,51.0015739598767],[-0.118686032568801,51.0015796968067],[-0.119042117283488,51.0015854326514],[-0.119398202116417,51.0015911674109],[-0.119389116719751,51.0018158536557],[-0.119380031204819,51.0020405398909],[-0.119023942875765,51.0020348050535],[-0.119014855494472,51.0022594912403],[-0.119005767994888,51.0024841774177],[-0.118996680377011,51.0027088635855],[-0.119352773950422,51.0027145985398],[-0.119708867642062,51.0027203324088],[-0.120064961451911,51.0027260651925],[-0.120421055379946,51.0027317968909],[-0.120411974636439,51.0029564832051],[-0.120768070430808,51.0029622138571],[-0.120758991317287,51.0031869002007],[-0.120749912085579,51.0034115865348],[-0.121106011494504,51.0034173161794],[-0.121462111021552,51.0034230447387],[-0.121453035168138,51.0036477311412],[-0.121443959196577,51.0038724175341],[-0.121434883106868,51.0040971039176],[-0.121425806899008,51.0043217902916],[-0.121416730572995,51.0045464766561],[-0.121407654128829,51.0047711630111],[-0.121398577566506,51.0049958493567],[-0.121389500886024,51.0052205356928],[-0.121380424087383,51.0054452220194],[-0.121371347170578,51.0056699083365],[-0.121362270135609,51.0058945946441],[-0.121353192982474,51.0061192809423],[-0.12134411571117,51.0063439672309],[-0.121335038321697,51.0065686535101],[-0.12132596081405,51.0067933397798],[-0.120969835061027,51.0067876106369],[-0.120960755686629,51.0070122968582],[-0.120604628303185,51.0070065665909],[-0.12024850103792,51.0070008352381],[-0.119892373890856,51.0069951027999],[-0.119901458510972,51.0067704166954]]],[[[-0.115161247046435,50.9918545314391],[-0.114805244667674,50.9918487843095],[-0.114814356162171,50.9916240894646],[-0.114458355410994,50.9916183412963],[-0.114467468319278,50.9913936464874],[-0.114476581120654,50.9911689516686],[-0.114485693815121,50.99094425684],[-0.114841690004324,50.9909500048709],[-0.114850801071269,50.9907253099867],[-0.114494806402683,50.9907195620016],[-0.114503918883341,50.9904948671533],[-0.114513031257099,50.9902701722952],[-0.114157039736581,50.9902644233172],[-0.113801048322976,50.9902586732548],[-0.113810163630942,50.9900339784785],[-0.113819278831969,50.9898092836923],[-0.11346329056638,50.989803532637],[-0.113107302407737,50.9897977804973],[-0.113116420542849,50.989573085793],[-0.113472407180982,50.9895788378869],[-0.11348152368863,50.9893541431269],[-0.113125538570986,50.9893483910788],[-0.11313465649215,50.9891236963549],[-0.113143774306342,50.988899001621],[-0.113152892013564,50.9886743068774],[-0.113508872569858,50.988680058788],[-0.113517988649703,50.9884553639886],[-0.113527104622601,50.9882306691795],[-0.113536220488555,50.9880059743605],[-0.113545336247566,50.9877812795317],[-0.113554451899637,50.987556584693],[-0.113563567444768,50.9873318898445],[-0.113572682882962,50.9871071949861],[-0.113216712969111,50.9871014433964],[-0.113225829820638,50.9868767485741],[-0.112869861534,50.9868709959458],[-0.11287897979882,50.9866463011595],[-0.112888097956667,50.9864216063633],[-0.112897216007544,50.9861969115573],[-0.112906333951453,50.9859722167414],[-0.113262296157226,50.9859779691863],[-0.113271412474001,50.9857532743148],[-0.113280528683831,50.9855285794334],[-0.113289644786719,50.9853038845422],[-0.113645602538984,50.9853096357653],[-0.113654717014822,50.9850849408184],[-0.114010673353889,50.9850906909113],[-0.114019786202719,50.9848659959088],[-0.114375741128586,50.9848717448716],[-0.114384852350447,50.9846470498134],[-0.114740805863112,50.9846527976462],[-0.114749915458044,50.9844281025324],[-0.115105867557504,50.984433849235],[-0.115096759482626,50.9846585443946],[-0.115452713208971,50.9846642900588],[-0.115808667042126,50.9846700346387],[-0.11581777207689,50.9844453393875],[-0.116173724496778,50.9844510828374],[-0.116164620982074,50.9846757781343],[-0.116520575028794,50.9846815205457],[-0.116511472927396,50.9849062158786],[-0.116502370719242,50.9851309112016],[-0.116858327912902,50.9851366526202],[-0.116849227118112,50.9853613479792],[-0.116840126216582,50.9855860433283],[-0.116484165982655,50.9855803018182],[-0.116475063454219,50.9858049971118],[-0.116465960819019,50.9860296923955],[-0.116456858077054,50.9862543876694],[-0.11644775522832,50.9864790829334],[-0.116803721543023,50.9864848246265],[-0.116812822871533,50.9862601293167],[-0.117168787772758,50.9862658698797],[-0.117177887474314,50.9860411745143],[-0.11753385096206,50.9860469139472],[-0.117524752780711,50.9862716093583],[-0.117880717895373,50.9862773477527],[-0.118236683141366,50.9862830851367],[-0.118227587872307,50.9865077805641],[-0.118583555673084,50.9865135194535],[-0.118574461909782,50.9867382149666],[-0.118218492514864,50.9867324760383],[-0.117862524253031,50.9867267386368],[-0.117853427271826,50.9869514340642],[-0.117497457596416,50.9869456955327],[-0.117488358988228,50.9871703909045],[-0.117132387899243,50.9871646512429],[-0.117123287664033,50.9873893465591],[-0.116767315161477,50.9873836057674],[-0.116758213299205,50.987608301028],[-0.11640223938308,50.9876025591061],[-0.116046265573731,50.9875968160999],[-0.116037160564012,50.9878215112591],[-0.115681185341117,50.9878157671227],[-0.11532521022504,50.9878100219019],[-0.114969235215797,50.9878042755966],[-0.114960125538199,50.9880289706087],[-0.114604149115456,50.9880232231733],[-0.11459503781062,50.9882479181297],[-0.1145859263989,50.9884726130763],[-0.114576814880295,50.9886973080131],[-0.114932795864227,50.988703055586],[-0.11492368575917,50.9889277505587],[-0.115279668370402,50.9889334970929],[-0.115270559678934,50.9891581921017],[-0.114914575547244,50.9891524455216],[-0.114905465228446,50.9893771404747],[-0.115261450880616,50.9893828871005],[-0.115617436639633,50.9893886326419],[-0.115973422505479,50.9893943770988],[-0.115982528262836,50.9891696820083],[-0.116338512715008,50.989175425335],[-0.116694497273969,50.9891811675772],[-0.117050481939698,50.9891869087349],[-0.117059583028848,50.9889622134973],[-0.11741556628086,50.9889679535249],[-0.1177715496396,50.988973692468],[-0.118127533105051,50.9889794303266],[-0.118118436577313,50.9892041257014],[-0.118474423146355,50.9892098647844],[-0.11846532804353,50.9894345601474],[-0.118456232829066,50.9896592554977],[-0.118447137502962,50.9898839508356],[-0.118438042065216,50.990108646161],[-0.118428946515823,50.9903333414738],[-0.118419850854785,50.9905580367742],[-0.118410755082099,50.990782732062],[-0.118401659197761,50.9910074273373],[-0.118392563201772,50.9912321226001],[-0.118383467094129,50.9914568178504],[-0.11802746543169,50.9914510789083],[-0.117671465239937,50.9914453405467],[-0.117315465154913,50.9914396011005],[-0.116959465176637,50.9914338605697],[-0.116603465305128,50.9914281189545],[-0.116247465540407,50.9914223762546],[-0.11623836023553,50.9916470712925],[-0.115882359056931,50.9916413274624],[-0.115526357985159,50.9916355825477],[-0.115170357020232,50.9916298365484],[-0.115161247046435,50.9918545314391]]],[[[-0.117059583028848,50.9889622134973],[-0.116703599883585,50.9889564723854],[-0.11634761684509,50.9889507301889],[-0.115991633913382,50.9889449869081],[-0.116000739457119,50.9887202917979],[-0.116356720868383,50.988726035033],[-0.11636582478489,50.9885013398673],[-0.116721804782514,50.9885070819722],[-0.11673090707183,50.9882823867509],[-0.117086885655812,50.9882881277257],[-0.117442864346537,50.988293867616],[-0.117798843143987,50.9882996064219],[-0.118154822048142,50.9883053441433],[-0.118145725840463,50.9885300395476],[-0.117789745415897,50.9885243017804],[-0.117433765098037,50.9885185629288],[-0.117424665742812,50.9887432582318],[-0.117068684011249,50.98873751825],[-0.117059583028848,50.9889622134973]]],[[[-0.0694064691821355,50.9956042401183],[-0.0690504355629301,50.9955983587887],[-0.0686944020616949,50.9955924763761],[-0.0683383686784515,50.9955865928805],[-0.0679823360711614,50.9955807075703],[-0.0676263038590535,50.9955748208694],[-0.0676169653085225,50.9957995036368],[-0.067260931537793,50.9957936157603],[-0.0672515911931377,50.996018298422],[-0.0668955558637908,50.9960124093698],[-0.0665395206522227,50.9960065192356],[-0.0665301768370079,50.9962312016979],[-0.0661741400668497,50.996225310388],[-0.0661647944574043,50.9964499927446],[-0.0665208329039738,50.996455884148],[-0.0665114888531182,50.9966805665857],[-0.0668675290939251,50.9966864570004],[-0.0668581866017013,50.9969111395192],[-0.0668488439916742,50.9971358220257],[-0.0664928003979326,50.9971299314241],[-0.0664834559935996,50.9973546138248],[-0.0668395012638403,50.9973605045199],[-0.0668301584181977,50.9975851870017],[-0.0664741114714364,50.9975792962131],[-0.0661180646424881,50.9975734043423],[-0.0657620179313754,50.9975675113893],[-0.0657526699383006,50.9977921935783],[-0.0653966216685075,50.9977862994496],[-0.0650405735165922,50.9977804042387],[-0.065031222052527,50.9980050862284],[-0.0646751723419589,50.9979991898417],[-0.0646658190833957,50.9982238717255],[-0.0643097678141778,50.9982179741631],[-0.063953716662907,50.9982120755184],[-0.0639630732746166,50.9979873938216],[-0.0639724297683383,50.9977627121125],[-0.0643284775664865,50.9977686105701],[-0.064684525482578,50.9977745079455],[-0.064693878505256,50.997549826037],[-0.0643378322656953,50.9975439287551],[-0.064347186846942,50.9973192469278],[-0.0647032314099937,50.9973251441161],[-0.0647125841967947,50.9971004621829],[-0.0647219368656582,50.9968757802374],[-0.0647312894165891,50.9966510982795],[-0.0650873290681563,50.9966569941051],[-0.065077978193671,50.9968816761565],[-0.0654340196395772,50.9968875709934],[-0.0657900612033546,50.9968934647482],[-0.0657994087249404,50.9966687825098],[-0.0654433688376137,50.9966628888485],[-0.0654527179177614,50.9964382066913],[-0.0658087561286596,50.996444100259],[-0.0658181034145139,50.9962194179959],[-0.0658274505825048,50.9959947357205],[-0.0658367976326355,50.9957700534328],[-0.0661928309322185,50.9957759456379],[-0.0662021761881451,50.9955512632443],[-0.0665582079292003,50.9955571542738],[-0.0669142397880509,50.9955630442211],[-0.0669235815734918,50.9953383616283],[-0.067279611873788,50.9953442504],[-0.0672889518651319,50.9951195677014],[-0.06764498060687,50.9951254552975],[-0.0676543188041594,50.9949007724931],[-0.0680103459873362,50.9949066589137],[-0.068366373632344,50.9949125438812],[-0.0683757083809237,50.9946878608586],[-0.0683850430114803,50.9944631778245],[-0.0687410679823556,50.9944690609394],[-0.0687504008124833,50.9942443778178],[-0.0687597335246145,50.9940196946848],[-0.0691157552486705,50.9940255765644],[-0.0694717770906826,50.9940314573611],[-0.0698277990506294,50.9940373370747],[-0.0698184713856715,50.9942620204361],[-0.0701744951459265,50.9942678991429],[-0.0701651690454531,50.994492582569],[-0.0701558428270685,50.9947172659837],[-0.0697998157019581,50.9947113871247],[-0.0694437886947676,50.9947055071827],[-0.0694344589935506,50.9949301904337],[-0.0694251291743743,50.9951548736733],[-0.0694157992372365,50.9953795569015],[-0.0694064691821355,50.9956042401183]]],[[[-0.0683850430114803,50.9944631778245],[-0.0680290186761749,50.9944572930809],[-0.0676729948455126,50.9944514068472],[-0.0673169711325706,50.9944455195314],[-0.0673263106528602,50.9942208367834],[-0.0673356500553901,50.9939961540231],[-0.0673449893401637,50.9937714712504],[-0.0673543285071826,50.9935467884654],[-0.0677103455153643,50.9935526754075],[-0.0677010080245028,50.9937773582859],[-0.0676916704159087,50.994002041152],[-0.068047690894144,50.9940079271989],[-0.0684037119185354,50.9940138117221],[-0.0683943775240175,50.994238494779],[-0.0683850430114803,50.9944631778245]]],[[[-0.0693878087180353,50.9960536065175],[-0.0693784783090327,50.9962782897],[-0.0690224396421338,50.9962724081421],[-0.0690131074325521,50.996497091237],[-0.0686570672010233,50.9964912085198],[-0.068301027087494,50.9964853247196],[-0.0679449878680704,50.9964794389398],[-0.0679543250954415,50.9962547561159],[-0.0679636622050784,50.9960300732797],[-0.068319698119041,50.9960359588229],[-0.0686757348673845,50.9960418424709],[-0.0690317717337237,50.9960477250357],[-0.0693878087180353,50.9960536065175]]],[[[-0.0790160115588973,50.9872186574343],[-0.0790252857162315,50.9869939686004],[-0.0790345597509558,50.9867692797558],[-0.0790438336630735,50.9865445909004],[-0.0793997991284209,50.9865504402576],[-0.0793905269992466,50.9867751291771],[-0.0793812547474869,50.9869998180858],[-0.0793719823731411,50.9872245069838],[-0.0793627098762063,50.9874491958709],[-0.0797186825960021,50.9874550444011],[-0.0797094117595113,50.9876797333415],[-0.0793534372566808,50.9876738847473],[-0.0793441645145623,50.9878985736128],[-0.0793348916498486,50.9881232624676],[-0.0789789137034269,50.9881174126618],[-0.0786229358795743,50.9881115617725],[-0.0782669581783159,50.9881057097998],[-0.0782762363922588,50.9878810211373],[-0.0782855144835383,50.9876563324641],[-0.0779295404710172,50.9876504795362],[-0.077938820222664,50.9874257909162],[-0.0782947924521575,50.98743164378],[-0.0783040702981179,50.9872069550852],[-0.0779480998516286,50.9872011022855],[-0.0779573793579146,50.986976413644],[-0.0779666587415224,50.9867517249917],[-0.0783226256220706,50.9867575776631],[-0.0786785926252228,50.9867634292512],[-0.0786693168075348,50.9869881180317],[-0.0786600408672152,50.9872128068014],[-0.0790160115588973,50.9872186574343]]],[[[-0.0918586139259687,50.9867545058186],[-0.0918678258798453,50.9865298144373],[-0.0918770377183413,50.9863051230446],[-0.0918862494414598,50.9860804316405],[-0.0922422115227396,50.9860862428269],[-0.0925981737193249,50.9860920529305],[-0.0926073820084049,50.9858673613629],[-0.0926165901821525,50.9856426697839],[-0.0929725491753746,50.9856484786527],[-0.0929817555745018,50.9854237869862],[-0.093337713023689,50.9854295946963],[-0.093693670588112,50.9854354013236],[-0.0940496282677498,50.9854412068682],[-0.0940404268465096,50.9856658987628],[-0.0940312253100262,50.9858905906459],[-0.094022023658297,50.9861152825177],[-0.0936660610007018,50.986109476745],[-0.093656857574364,50.9863341685293],[-0.0936476540327549,50.9865588603023],[-0.0936384503758739,50.9867835520638],[-0.0932824828553556,50.9867777449803],[-0.0929265154500847,50.986771936814],[-0.0929173083590818,50.9869966284121],[-0.09256133940966,50.986990819087],[-0.0922053705755287,50.9869850086791],[-0.0922145809853702,50.9867603172332],[-0.0918586139259687,50.9867545058186]]],[[[-0.0942703909909729,50.9800487013611],[-0.0942795873625391,50.9798240152296],[-0.0942887836165807,50.9795993290886],[-0.0946446974710623,50.9796051320943],[-0.094653891903812,50.9793804459031],[-0.095009804171967,50.9793862477838],[-0.0953657165575421,50.9793920485803],[-0.0953565255323351,50.9796167348528],[-0.0953473343896706,50.9798414211158],[-0.0957032503002149,50.9798472209092],[-0.0956940607439087,50.9800719072032],[-0.095684871070162,50.9802965934877],[-0.0953289517519602,50.980290793613],[-0.0949730325511643,50.980284992654],[-0.0946171134677967,50.9802791906106],[-0.094626308253057,50.9800545044481],[-0.0942703909909729,50.9800487013611]]],[[[-0.0968513519653585,50.9866110746444],[-0.0968421632431897,50.9868357670898],[-0.0968329744059396,50.9870604595238],[-0.0971889447372137,50.9870662558553],[-0.0971797574443449,50.9872909483539],[-0.0971705700364127,50.987515640841],[-0.0968145963861872,50.9875098443576],[-0.096823785453606,50.9872851519464],[-0.0964678135779071,50.9872793544561],[-0.0964770041897033,50.9870546621094],[-0.0964861946863954,50.9868299697514],[-0.096495385067985,50.986605277382],[-0.0965045753344731,50.9863805850012],[-0.0965137654858624,50.9861558926089],[-0.0968697290644601,50.9861616897195],[-0.0968605405724476,50.9863863821877],[-0.0968513519653585,50.9866110746444]]],[[[-0.113099324081277,51.0163284435801],[-0.113455515561301,51.016334197816],[-0.113446399636522,51.0165588809822],[-0.113437283594254,51.0167835641386],[-0.113428167434495,51.0170082472852],[-0.113784364207851,51.0170140005713],[-0.113775249653002,51.0172386837538],[-0.113766134906877,51.0174633669393],[-0.113409934678281,51.0174576135634],[-0.113053734567455,51.0174518591019],[-0.112697534574421,51.0174461035548],[-0.112341334699202,51.0174403469222],[-0.111985134941819,51.017434589204],[-0.111994258337052,51.0172099062417],[-0.112003381515662,51.0169852232858],[-0.112012504576692,51.0167605403201],[-0.112021627520142,51.0165358573446],[-0.11237782037301,51.0165416148823],[-0.112386941473613,51.0163169318517],[-0.112743132718707,51.0163226882586],[-0.113099324081277,51.0163284435801]]],[[[-0.113117559028864,51.0158790773087],[-0.113126676326399,51.0156543941583],[-0.113482862630725,51.0156601482586],[-0.113839049052476,51.0156659012734],[-0.113829935205364,51.0158905845142],[-0.113820821240791,51.0161152677452],[-0.113464631368593,51.01610951464],[-0.113108441613825,51.0161037604492],[-0.113117559028864,51.0158790773087]]]]}}