{"type":"Feature","properties":{"code":"E63003586","name":"Babraham"},"geometry":{"type":"MultiPolygon","coordinates":[[[[0.197741244396818,52.131194721444],[0.197752297641914,52.1314193199549],[0.197387341515047,52.1314261207827],[0.197022385244107,52.1314329204813],[0.197033434996532,52.1316575190796],[0.196668476763125,52.1316643176975],[0.19667952484122,52.1318889163345],[0.196314564645341,52.1318957138718],[0.196325611049058,52.1321203125476],[0.196336657596842,52.1323449112134],[0.196701621429678,52.1323381135789],[0.196712669940046,52.1325627121863],[0.196723718594511,52.1327873107838],[0.196358751124622,52.1327941085156],[0.195993783510716,52.132800905118],[0.196004828672152,52.1330255038028],[0.196369798104623,52.1330187071518],[0.196380845228702,52.1332433057782],[0.196391892496861,52.1334679043948],[0.196756865422508,52.1334611065172],[0.196767914653383,52.1336857050753],[0.196778964024202,52.1339103035988],[0.197143940442958,52.1339035044953],[0.197154991772331,52.1341281029378],[0.197166043245799,52.1343527013703],[0.19753102315649,52.134345901037],[0.197896002923117,52.1343390995744],[0.197907058176721,52.1345636978964],[0.198272039617277,52.1345568952543],[0.198260982545658,52.1343322969826],[0.198249925618206,52.1341076987009],[0.19861490143911,52.1341008956333],[0.198603842921348,52.1338762973652],[0.198968816006845,52.1338694934731],[0.198957755811939,52.1336448952111],[0.199322726939898,52.1336380902376],[0.199333788948555,52.1338626884517],[0.199698761746454,52.133855882301],[0.20006373440052,52.1338490750211],[0.200428706910726,52.1338422666118],[0.200439774488138,52.1340668646341],[0.200804748666385,52.1340600550463],[0.200815818199684,52.1342846530095],[0.201180794045968,52.1342778422432],[0.201191865535204,52.1345024401473],[0.201556843049518,52.1344956282025],[0.201567916494738,52.1347202260474],[0.20157899008398,52.1349448238824],[0.201590063817246,52.1351694217075],[0.201601137694539,52.1353940195227],[0.201612211715859,52.135618617328],[0.201247225141366,52.135625429519],[0.201258297494612,52.1358500273636],[0.200893308964059,52.1358568384744],[0.200904379649182,52.1360814363583],[0.200915450478293,52.1363060342324],[0.200550458179517,52.1363128443122],[0.200185465736831,52.1363196532627],[0.200196533085565,52.1365442512252],[0.199831538686805,52.1365510590955],[0.199842604367272,52.1367756570974],[0.199477608012433,52.1367824638874],[0.199488672024588,52.1370070619285],[0.199499736180647,52.1372316599598],[0.199134736057458,52.1372384657187],[0.199145798545135,52.1374630637893],[0.19878079646583,52.137469868468],[0.198791857285077,52.1376944665777],[0.198426853249652,52.1377012701762],[0.198437912400422,52.1379258683252],[0.198072904279914,52.1379326715305],[0.198083961840182,52.138157269693],[0.197718951164004,52.1381640720106],[0.197730007050036,52.1383886702134],[0.197741063080235,52.1386132684063],[0.197752119254603,52.1388378665892],[0.19738710297897,52.1388446679283],[0.197398157479012,52.1390692661515],[0.197763175573142,52.1390624647622],[0.197774232035857,52.1392870629252],[0.198139251804389,52.1392802603561],[0.198504270325826,52.1392734570116],[0.198493210311963,52.139048858922],[0.198858225221792,52.1390420550286],[0.199223239987799,52.1390352500057],[0.199212176492873,52.1388106520045],[0.199577189302582,52.1388038459013],[0.199566124139124,52.1385792479393],[0.199931134992538,52.1385724407558],[0.199920068160597,52.1383478428331],[0.200285077057722,52.1383410345693],[0.200274008557345,52.138116436686],[0.200262940200933,52.1378918387927],[0.20062794532942,52.1378850294978],[0.200639015498185,52.1381096273419],[0.201004022295096,52.1381028168684],[0.201015094420223,52.1383274146533],[0.201380102885553,52.1383206030011],[0.201391176967088,52.1385452007269],[0.201756187100831,52.1385383878959],[0.201767263138823,52.1387629855626],[0.201778339320882,52.1389875832194],[0.201413325562283,52.1389943961488],[0.201424400075947,52.1392189938449],[0.201059384360895,52.139225805694],[0.201070457206118,52.1394504034294],[0.201081530195367,52.139675001155],[0.201446549535423,52.1396681892074],[0.201457624481238,52.1398927868738],[0.20146869957111,52.1401173845303],[0.201479774805039,52.1403419821769],[0.201844799438777,52.140335168952],[0.201833722392266,52.1401105713547],[0.202198745069399,52.1401037570496],[0.202563767602485,52.1400969416149],[0.202552687074945,52.1398723441061],[0.202187666354412,52.1398791594915],[0.202176587783528,52.1396545619236],[0.202541606691531,52.1396477465875],[0.202530526452241,52.1394231490589],[0.202895543403675,52.1394163326425],[0.202884461496028,52.1391917351533],[0.203249476490898,52.1391849176566],[0.203614491341661,52.1391780990304],[0.203603405953251,52.1389535016299],[0.203968418847434,52.1389466819235],[0.203957331790787,52.1387220845623],[0.204322342728396,52.1387152637757],[0.204311254003559,52.1384906664539],[0.204676262984598,52.1384838445872],[0.204687353521831,52.1387084418597],[0.205052364171068,52.1387016188141],[0.205417374676086,52.1386947946391],[0.205428468982408,52.138919391803],[0.205439563433036,52.139143988957],[0.205804577418658,52.1391371635539],[0.206169591260006,52.1391303370212],[0.206158493184508,52.1389057399659],[0.205793481155593,52.1389125664492],[0.205782385036858,52.1386879693346],[0.205771289062452,52.1384633722101],[0.205406280514068,52.1384701974653],[0.205395186496352,52.1382456002815],[0.205030179616095,52.1382524243579],[0.205019087555022,52.1380278271149],[0.205007995638222,52.137803229862],[0.205372998893817,52.1377964058843],[0.205361905308993,52.1375718086708],[0.205726906608059,52.137564983613],[0.206091907762872,52.1375581574257],[0.2060808106978,52.137333560301],[0.206445809896068,52.1373267330337],[0.206810808950036,52.1373199046369],[0.206799708404822,52.137095307601],[0.207164705502229,52.1370884781242],[0.207153603289186,52.1368638811277],[0.207518598430038,52.1368570505708],[0.207507494549211,52.1366324536139],[0.207872487733514,52.136625621977],[0.207861382184953,52.1364010250595],[0.20822637341271,52.1363941923426],[0.20821526619646,52.1361695954646],[0.208580255467678,52.1361627616677],[0.208945244594468,52.1361559267414],[0.208934133898472,52.1359313299523],[0.209299121068705,52.1359244939461],[0.209288008705143,52.1356998971965],[0.209652993918827,52.1356930601104],[0.209641879887746,52.1354684634003],[0.210006863144884,52.1354616252342],[0.209995747446331,52.1352370285637],[0.210360728746928,52.1352301893177],[0.210349611380952,52.1350055926867],[0.210714590725014,52.1349987523609],[0.210703471691662,52.1347741557694],[0.211068449079195,52.1347673143637],[0.211057328378512,52.1345427178117],[0.21104620782247,52.1343181212499],[0.210681234058808,52.1343249625566],[0.210670115459302,52.1341003659354],[0.210305143362991,52.1341072060633],[0.210294026719973,52.1338826093827],[0.209929056291018,52.133889448332],[0.209917941561695,52.1336648515715],[0.209552972803563,52.133671689343],[0.209541859998015,52.133447092506],[0.209530747337128,52.133222495659],[0.209165782062265,52.1332293322014],[0.209154671359935,52.1330047352946],[0.209519634820897,52.1329978988021],[0.209884598137265,52.1329910611804],[0.209895712467393,52.1332156579874],[0.210260677453037,52.1332088191866],[0.210625642294037,52.1332019792565],[0.210636760396681,52.1334265759537],[0.210647878644057,52.1336511726409],[0.21101284696824,52.1336443314818],[0.211023967144293,52.1338689280963],[0.21138893713961,52.1338620857593],[0.211400059218254,52.1340866822915],[0.211765030880848,52.1340798387756],[0.21213000239882,52.1340729941305],[0.212118876696436,52.1338483976972],[0.212483846257901,52.1338415519723],[0.212472718817767,52.1336169555528],[0.212461591500729,52.1333923591154],[0.212826557287266,52.1333855123601],[0.213191522928991,52.1333786644755],[0.213202653873877,52.1336032608129],[0.213213784946811,52.1338278571347],[0.213224916084785,52.1340524534194],[0.213589887024041,52.1340456042572],[0.21357875407421,52.1338210080219],[0.213943723056873,52.13381415778],[0.214308691894777,52.1338073064087],[0.214297555371689,52.1335827102339],[0.214286418985052,52.1333581140465],[0.213921453777907,52.1333649653187],[0.213556488425879,52.1333718154617],[0.213545355811996,52.1331472191644],[0.213180392129004,52.1331540681281],[0.212815428301178,52.1331609159627],[0.212804299459961,52.1329363195554],[0.212793170763614,52.1327117231382],[0.212428210418709,52.1327185697435],[0.212063249929023,52.1327254152197],[0.211698289294578,52.1327322595666],[0.211687166184595,52.1325076629895],[0.211322207219253,52.1325145061573],[0.211311086067877,52.1322899095203],[0.210946128771643,52.1322967515089],[0.210581171330728,52.1323035923684],[0.210592288854471,52.1325281891053],[0.210227329455077,52.1325350288856],[0.210216213745155,52.1323104320987],[0.209851256014948,52.1323172706998],[0.209840142263522,52.1320926738531],[0.209475186202507,52.1320995112751],[0.209464074409529,52.1318749143684],[0.209099120017709,52.1318817506114],[0.209088010183132,52.1316571536449],[0.209452962761194,52.1316503174519],[0.209441851257498,52.1314257205254],[0.20980680187725,52.1314188832531],[0.209795688704486,52.1311942863666],[0.210160637365932,52.1311874480151],[0.210171752352401,52.1314120448517],[0.210536702682927,52.1314052053211],[0.210547819627808,52.1316298020979],[0.210912771627409,52.1316229613882],[0.210923890530749,52.1318475581051],[0.211288844199421,52.1318407162163],[0.211299965061267,52.1320653128733],[0.211664920399004,52.1320584698054],[0.211676043219405,52.1322830664024],[0.212041000226203,52.1322762221554],[0.212405957088249,52.1322693767792],[0.212394830640278,52.1320447802821],[0.212383704337141,52.1318201837751],[0.212372578178838,52.1315955872581],[0.212737529454832,52.1315887409027],[0.212748657426869,52.1318133373697],[0.212759785543764,52.1320379338267],[0.212770913805518,52.1322625302738],[0.213135870377987,52.1322556826392],[0.213500826805633,52.1322488338755],[0.213489694916322,52.1320242375284],[0.213854649385345,52.1320173876856],[0.21384351582719,52.1317927913785],[0.213832382413963,52.1315681950616],[0.213467431572419,52.1315750448044],[0.21345630011782,52.1313504484275],[0.213445168808122,52.1311258520406],[0.213080221449124,52.1311327005543],[0.213069092097982,52.1309081041075],[0.212704146407834,52.130914951442],[0.212339200572902,52.1309217976475],[0.211974254593208,52.1309286427238],[0.211985378503361,52.1311532393206],[0.211620430565261,52.1311600833178],[0.211609308468777,52.130935486671],[0.211244362199631,52.1309423294891],[0.211233242061568,52.1307177327824],[0.210868297461382,52.1307245744214],[0.210857179281695,52.1304999776548],[0.210846061246731,52.1302753808783],[0.211211002219689,52.1302685393392],[0.211575943047965,52.130261696671],[0.211564821530566,52.1300370999845],[0.211553700157934,52.129812503288],[0.21191863721438,52.1298056595906],[0.211907514172984,52.1295810629341],[0.212272449271182,52.1295742181577],[0.212261324561071,52.1293496215412],[0.212626257701026,52.1293427756857],[0.212615131322247,52.1291181791093],[0.212604005088294,52.1288935825229],[0.212239075575263,52.1289004282785],[0.212250199995766,52.1291250249148],[0.211885268524543,52.1291318695913],[0.211896391276373,52.1293564662677],[0.211531457846954,52.1293633098651],[0.211542578930064,52.1295879065815],[0.211177643542444,52.1295947490999],[0.21081270801015,52.1296015904891],[0.210447772333203,52.1296084307493],[0.210458888120481,52.1298330276056],[0.21009395048537,52.1298398667866],[0.209729012705654,52.1298467048386],[0.209717900545451,52.1296221078824],[0.209706788529888,52.1293975109164],[0.210071722682552,52.1293906729642],[0.210436656690615,52.1293838338831],[0.210425541192713,52.1291592370069],[0.210414425839495,52.1289346401208],[0.210403310630958,52.1287100432247],[0.21003838206329,52.1287168821561],[0.210027268812849,52.1284922852002],[0.209662341914006,52.1284991229526],[0.209673453351027,52.1287237199585],[0.209308524494193,52.1287305566318],[0.208943595492813,52.1287373921761],[0.208954703447571,52.1289619892718],[0.208589772488218,52.1289688237369],[0.208224841384361,52.128975657073],[0.207859910136028,52.12898248928],[0.207494978743237,52.128989320358],[0.20750607958867,52.1292139176433],[0.207517180578595,52.1294385149186],[0.207528281713016,52.129663112184],[0.207539382991937,52.1298877094395],[0.207550484415359,52.130112306685],[0.207561585983285,52.1303369039206],[0.207926528257323,52.1303300725435],[0.208291470386891,52.1303232400372],[0.208302575726571,52.1305478371631],[0.20793763178338,52.1305546697192],[0.207572687695717,52.1305615011463],[0.207207743463606,52.1305683314442],[0.207196643564801,52.1303437341687],[0.206831701001894,52.1303505632876],[0.206820603061178,52.1301259659524],[0.20645566216748,52.1301327938923],[0.206444566184805,52.1299081964973],[0.20643347034656,52.1296835990922],[0.206798407613111,52.1296767712519],[0.206787310105756,52.1294521738868],[0.206422374652742,52.1294590016773],[0.20641127910335,52.1292344042524],[0.206046345319485,52.129241230864],[0.205681411391284,52.1292480563465],[0.205316477318767,52.1292548806999],[0.204951543101958,52.1292617039243],[0.204940454950971,52.1290371062902],[0.204929366944309,52.1288125086462],[0.20491827908197,52.1285879109922],[0.204553350161329,52.1285947329382],[0.204542264256739,52.1283701352245],[0.204177337005295,52.1283769559916],[0.203812409609641,52.1283837756296],[0.203823491887361,52.1286083734429],[0.203834574309328,52.1288329712462],[0.203469643142587,52.1288397898548],[0.203104711831676,52.1288466073343],[0.203115790770922,52.1290712052272],[0.203126869854373,52.1292958031101],[0.202761934772312,52.1293026195601],[0.202773012186434,52.1295272174828],[0.202408075146707,52.1295340328535],[0.202419150891451,52.129758630816],[0.202054211894053,52.1297654451073],[0.201689272752571,52.1297722582694],[0.201678200634964,52.1295476602074],[0.201313263162995,52.1295544721908],[0.201302193003052,52.1293298740691],[0.200937257200601,52.1293366848736],[0.200572321254142,52.1293434945491],[0.200561254865346,52.1291188963181],[0.200196320588435,52.1291257048148],[0.200185256157187,52.1289011065242],[0.19982032354983,52.1289079138422],[0.199455390798542,52.1289147200311],[0.199466451602765,52.129139318421],[0.199831386167567,52.1291325121825],[0.199842448929296,52.1293571105128],[0.199853511835019,52.1295817088333],[0.200218449882981,52.1295749013663],[0.200229514746284,52.1297994996271],[0.199864574884741,52.1298063071437],[0.199875638078462,52.1300309054443],[0.199886701416184,52.130255503735],[0.199897764897911,52.1304801020157],[0.200262710200344,52.13047329435],[0.200273775639756,52.1306978925711],[0.200284841223201,52.1309224907822],[0.200649790009035,52.1309156818881],[0.200660857550238,52.1311402800396],[0.200671925235504,52.1313648781812],[0.200682993064834,52.1315894763129],[0.200694061038231,52.1318140744347],[0.200329104997366,52.1318208835276],[0.200340171301016,52.1320454816891],[0.199975213302342,52.1320522897026],[0.199986277936197,52.1322768879038],[0.199997342714079,52.1325014860952],[0.199632380943723,52.1325082930788],[0.19926741902942,52.1325150989332],[0.199278480323541,52.1327396972139],[0.198913516451415,52.1327465019887],[0.198924576075598,52.1329711003092],[0.198559610245645,52.1329779040045],[0.198194643106204,52.1329847069572],[0.198183587033417,52.1327601085641],[0.198172531104824,52.132535510161],[0.197807566029771,52.1325423123613],[0.197796512063874,52.1323177138997],[0.197785458242142,52.1320931154283],[0.19815041968021,52.1320863133253],[0.198139364184185,52.1318617148927],[0.198128308832343,52.1316371164502],[0.198117253624683,52.1314125179978],[0.198106198561202,52.1311879195356],[0.197741244396818,52.131194721444]]],[[[0.207242425037034,52.1386606568218],[0.206877415253475,52.1386674866442],[0.206888516809432,52.1388920836107],[0.206523505069129,52.138898912353],[0.206534604957059,52.139123509359],[0.20654570498937,52.1393481063551],[0.206910720354554,52.1393412775141],[0.207275735575392,52.1393344475435],[0.207264631918178,52.1391098506462],[0.207253528405394,52.1388852537389],[0.207242425037034,52.1386606568218]]]]}}
