{"type":"Feature","properties":{"code":"E63006042","name":"Balcombe"},"geometry":{"type":"MultiPolygon","coordinates":[[[[-0.137508338025799,51.056514993213],[-0.137151824643942,51.0565093091107],[-0.137160839491191,51.0562846245532],[-0.137169854223767,51.0560599399859],[-0.136813344352285,51.0560542548908],[-0.136804327921841,51.0562789394111],[-0.136795311376704,51.0565036239214],[-0.136438798224107,51.0564979376453],[-0.136447816467131,51.056273253182],[-0.136091305127082,51.0562675658659],[-0.136082285186172,51.0564922502821],[-0.135725772262922,51.056486561832],[-0.135369259454378,51.056480872295],[-0.135360236002922,51.0567055566071],[-0.135351212436681,51.0569302409092],[-0.135342188755654,51.0571549252015],[-0.135333164959839,51.0573796094839],[-0.134976645474288,51.0573739186714],[-0.134967619865693,51.0575986028967],[-0.134958594142285,51.0578232871122],[-0.134949568304061,51.0580479713177],[-0.135306092883644,51.0580536622716],[-0.135297068628656,51.0582783465143],[-0.135653595021037,51.0582840364283],[-0.13601012152814,51.0582897252553],[-0.136001100554512,51.0585144095824],[-0.13564457234933,51.0585087207084],[-0.135635549562844,51.0587334049785],[-0.135626526603062,51.0589580892472],[-0.135983058200904,51.0589637782159],[-0.135974036689472,51.0591884625413],[-0.13596501506305,51.0594131468568],[-0.136321550181154,51.0594188348312],[-0.136330570104902,51.0591941504693],[-0.136687103635246,51.0591998373103],[-0.136678085414176,51.0594245217184],[-0.136669067078157,51.0596492061167],[-0.137025604128774,51.0596548919631],[-0.137016587380528,51.0598795763978],[-0.13700757051735,51.0601042608226],[-0.136651030061265,51.0600985748836],[-0.136642011380389,51.0603232592523],[-0.136632992584556,51.0605479436112],[-0.136989536446196,51.0605536296428],[-0.136980519238215,51.060778314038],[-0.13733706491755,51.0607839990288],[-0.137328049297465,51.0610086834605],[-0.137319033562462,51.0612333678823],[-0.137310017712539,51.0614580522943],[-0.136953466924635,51.0614523671647],[-0.13694444925689,51.0616770515206],[-0.137301001747693,51.0616827366965],[-0.137291985667924,51.0619074210888],[-0.137282969473228,51.0621321054712],[-0.137273953163604,51.0623567898438],[-0.137264936739051,51.0625814742065],[-0.137255920199565,51.0628061585594],[-0.136899359193934,51.0628004731521],[-0.136890340836483,51.0630251574488],[-0.136533778242725,51.063019470908],[-0.136524758067266,51.0632441551486],[-0.136881322364075,51.0632498417357],[-0.136872303776707,51.0634745260127],[-0.136863285074378,51.0636992102799],[-0.1365067173714,51.0636935236002],[-0.136150149783354,51.0636878358332],[-0.135793582310262,51.063682146979],[-0.135784558383624,51.0639068310974],[-0.135427989322396,51.0639011411096],[-0.135071420376168,51.0638954500345],[-0.135080447709027,51.0636707660087],[-0.134723882806306,51.0636650740658],[-0.13473291163967,51.063440390062],[-0.135089474926813,51.0634460819731],[-0.135446040466844,51.0634517729555],[-0.135455065866494,51.0632270888638],[-0.135464091151096,51.0630024047621],[-0.135473116320653,51.0627777206506],[-0.135482141375166,51.0625530365293],[-0.135491166314638,51.062328352398],[-0.135847723454547,51.0623340420616],[-0.135856746576021,51.0621093578742],[-0.136213302127934,51.0621150464043],[-0.136222323431455,51.0618903621607],[-0.136231344619985,51.0616656779073],[-0.135874792473926,51.0616599894699],[-0.135883815250359,51.0614353052529],[-0.135892837911782,51.0612106210261],[-0.135536289286444,51.0612049315941],[-0.135545313535708,51.0609802474038],[-0.135554337669944,51.0607555632036],[-0.135197792565253,51.0607498727771],[-0.134841248391747,51.0607441812942],[-0.134832220981152,51.0609688654091],[-0.134475679903141,51.0609631729831],[-0.134484709085183,51.0607384889027],[-0.13412816989714,51.0607327954235],[-0.133771630827639,51.0607271008565],[-0.133762598102705,51.0609517848678],[-0.133406057380328,51.0609460891785],[-0.133397022765309,51.0611707731461],[-0.13304048039006,51.0611650763345],[-0.133049516776542,51.0609403924015],[-0.132692976291369,51.0609346945367],[-0.132683938133426,51.0611593784352],[-0.132674899856793,51.0613840623244],[-0.132665861461468,51.0616087462044],[-0.133022407261091,51.0616144441728],[-0.133378953179333,51.0616201410534],[-0.133369918208373,51.0618448249932],[-0.133726466016744,51.0618505208206],[-0.133717432698687,51.0620752047857],[-0.134073982397192,51.0620808995598],[-0.134064950732084,51.0623055835502],[-0.134055918948365,51.0625302675312],[-0.133699365706679,51.062524572688],[-0.133342812583574,51.062518876757],[-0.132986259579074,51.0625131797382],[-0.132629706693202,51.0625074816316],[-0.132273153925979,51.0625017824372],[-0.132264113165544,51.0627264662362],[-0.13190755874538,51.0627207659194],[-0.131916601277429,51.0624960821549],[-0.131560048747576,51.0624903807848],[-0.131569092932468,51.0622656970456],[-0.131578136998592,51.0620410132972],[-0.131587180945949,51.0618163295394],[-0.131596224774542,51.0615916457724],[-0.131605268484373,51.0613669619962],[-0.131614312075444,51.0611422782107],[-0.131257770293499,51.0611365759603],[-0.131266815537264,51.0609118922002],[-0.131275860662251,51.0606872084307],[-0.13128490566846,51.060462524652],[-0.131293950555895,51.0602378408641],[-0.131302995324557,51.0600131570669],[-0.131312039974449,51.0597884732604],[-0.131321084505572,51.0595637894446],[-0.131677613887821,51.0595694914529],[-0.131686656528883,51.0593448075933],[-0.131330128917928,51.0593391056196],[-0.130973601425686,51.0593334025583],[-0.130982647490548,51.0591087187586],[-0.130626121888309,51.0591030146441],[-0.130269596404827,51.059097309442],[-0.130278645840268,51.0588726257107],[-0.129922122227344,51.0588669194586],[-0.129565598731574,51.0588612121191],[-0.129574650954497,51.0586365285483],[-0.129218129314817,51.0586308201613],[-0.129227183159403,51.058406136621],[-0.128870663375809,51.0584004271865],[-0.128514143709432,51.0583947166646],[-0.128505086387069,51.0586194001252],[-0.128496028947412,51.0588440835762],[-0.128486970769571,51.0590687671162],[-0.128843495658927,51.0590744777567],[-0.128834438966487,51.0592991613487],[-0.129190965745971,51.0593048709362],[-0.129181910705889,51.0595295545535],[-0.129538439375506,51.0595352630879],[-0.129529385987828,51.0597599467306],[-0.129520332481268,51.059984630364],[-0.129511278855823,51.0602093139882],[-0.129154744872224,51.0602036053499],[-0.129163800269018,51.0599789217603],[-0.128807268175625,51.0599732120689],[-0.12845073620111,51.0599675012898],[-0.128459795021648,51.0597428177603],[-0.128103264937357,51.0597371059282],[-0.127746734971989,51.0597313930083],[-0.127737672608811,51.0599560764685],[-0.12738114099107,51.0599503624263],[-0.1270246094923,51.0599446472963],[-0.126668078112522,51.0599389310787],[-0.126677145789647,51.0597142477226],[-0.126320616300197,51.0597085304519],[-0.126329685629549,51.0594838471213],[-0.125973158030422,51.0594781287977],[-0.125982229011956,51.0592534454924],[-0.125991299874386,51.0590287621779],[-0.125634775936818,51.0590230428361],[-0.125278252118328,51.0590173224066],[-0.124921728418935,51.0590116008894],[-0.124930803957757,51.0587869177527],[-0.124939878786399,51.0585622347014],[-0.124948953497523,51.0583375516405],[-0.125305471990499,51.0583432730361],[-0.125314544845264,51.0581185899257],[-0.125671061716833,51.0581243101939],[-0.126027578705819,51.0581300293748],[-0.126018509328752,51.0583547125652],[-0.126375028173983,51.0583604306986],[-0.126384095812199,51.0581357474683],[-0.126393163332992,51.0579110642283],[-0.126402230736361,51.0576863809789],[-0.126045717107616,51.0576806629654],[-0.126054786132349,51.0574559797464],[-0.125698274359776,51.0574502606855],[-0.125707345005829,51.057225577497],[-0.125350835089425,51.0572198573887],[-0.125359907356751,51.0569951742306],[-0.125003399296511,51.0569894530751],[-0.125012473185068,51.0567647699475],[-0.124655966980988,51.0567590477446],[-0.124665042490731,51.0565343646475],[-0.125021546956124,51.0565400868103],[-0.125030620609679,51.0563154036636],[-0.125387123453852,51.0563211246992],[-0.125743626415447,51.0563268446474],[-0.125752696474213,51.0561021614112],[-0.125396195251264,51.056096441503],[-0.125039694145737,51.0560907205074],[-0.124683193157652,51.0560849984246],[-0.124674117882951,51.0563096815408],[-0.124317615273691,51.0563039583307],[-0.124326692287032,51.0560792752545],[-0.124335769182833,51.0558545921687],[-0.123979270168318,51.0558488679514],[-0.123988348685175,51.0556241848962],[-0.123997427084474,51.0553995018314],[-0.124006505366215,51.0551748187571],[-0.124015583530402,51.0549501356733],[-0.124024661577038,51.0547254525799],[-0.124033739506122,51.054500769477],[-0.124390228089405,51.0545064934542],[-0.124399304162481,51.0542818103017],[-0.124042817317658,51.0542760863645],[-0.124051895011646,51.0540514032426],[-0.124060972588091,51.0538267201111],[-0.124070050046992,51.05360203697],[-0.124079127388354,51.0533773538194],[-0.124435607279557,51.0533830775965],[-0.124426531676567,51.0536077607871],[-0.124783013423608,51.0536134835171],[-0.125139495288093,51.0536192051598],[-0.125148567414332,51.0533945218892],[-0.125505047657859,51.0534002424047],[-0.125495977269997,51.0536249257154],[-0.125486906764683,51.0538496090164],[-0.125477836141915,51.054074292308],[-0.125834321718045,51.0540800118563],[-0.125825252716268,51.0543046951784],[-0.126181740148227,51.0543104136795],[-0.126172672767485,51.0545350970319],[-0.126529162055277,51.0545408144858],[-0.126538227697545,51.0543161310934],[-0.126894715364202,51.0543218474201],[-0.127251203148175,51.0543275626595],[-0.127242140982857,51.0545522461319],[-0.1275986306226,51.0545579603241],[-0.127955120379617,51.0545636734291],[-0.128311610253885,51.0545693854468],[-0.12866810024538,51.0545750963773],[-0.128677155456772,51.0543504127452],[-0.129033643826987,51.0543561225486],[-0.129024590354081,51.0545808062206],[-0.129381080579966,51.0545865149766],[-0.129390132314382,51.0543618312647],[-0.129399183931586,51.0541371475433],[-0.12940823543158,51.0539124638124],[-0.129764720559221,51.0539181713615],[-0.130121205803995,51.0539238778234],[-0.13013025370993,51.0536991940032],[-0.130486737333387,51.053704899338],[-0.13084322107393,51.0537106035856],[-0.130834176644853,51.0539352874857],[-0.131190662240892,51.053940990686],[-0.131547147953974,51.0539466927991],[-0.131903633784077,51.053952393825],[-0.13226011973118,51.0539580937636],[-0.132616605795259,51.0539637926151],[-0.132973091976293,51.0539694903794],[-0.133329578274258,51.0539751870564],[-0.133686064689133,51.0539808826462],[-0.133677034050623,51.0542055668554],[-0.133668003295167,51.054430251055],[-0.134024493303892,51.0544359456372],[-0.134380983429485,51.0544416391321],[-0.134390010707954,51.0542169548529],[-0.134746499211897,51.0542226472209],[-0.135102991940213,51.0542283384775],[-0.13545948765622,51.0542340286301],[-0.135815983486935,51.054239717696],[-0.136172479432338,51.054245405675],[-0.13616346052399,51.0544700901802],[-0.136154441500922,51.0546947746756],[-0.13614542236313,51.054919459161],[-0.136501923516328,51.0549251461944],[-0.136858424784176,51.054930832141],[-0.136867440526501,51.0547061475614],[-0.136876456154148,51.0544814629718],[-0.136885471667116,51.0542567783724],[-0.136894487065409,51.0540320937631],[-0.137250981657071,51.0540377784344],[-0.13724196795645,51.0542624630908],[-0.137232954141173,51.0544871477373],[-0.137223940211241,51.0547118323739],[-0.13721492616665,51.0549365170007],[-0.1372059120074,51.0551612016175],[-0.13719689773349,51.0553858862244],[-0.137187883344915,51.0556105708215],[-0.13754438993534,51.0556162547355],[-0.137535377129926,51.0558409393697],[-0.137526364209865,51.056065623994],[-0.137517351175157,51.0562903086085],[-0.137508338025799,51.056514993213]]],[[[-0.137508338025799,51.056514993213],[-0.137864851522255,51.0565206762284],[-0.13785583995616,51.0567453608701],[-0.137846828275436,51.0569700455019],[-0.137837816480077,51.0571947301238],[-0.137481297889812,51.0571890469673],[-0.137124779414151,51.0571833627237],[-0.136768261053115,51.0571776773932],[-0.136777277942343,51.0569529929125],[-0.137133794605425,51.056958678196],[-0.137490311383129,51.0569643623924],[-0.137499324761791,51.0567396778077],[-0.137508338025799,51.056514993213]]],[[[-0.136768261053115,51.0571776773932],[-0.136759244049186,51.057402361864],[-0.136750226930554,51.0576270463249],[-0.136393705288194,51.0576213598133],[-0.136384686356839,51.0578460442172],[-0.136028163131135,51.0578403565714],[-0.135671640020126,51.0578346678386],[-0.135680662347512,51.057609983529],[-0.135689684560127,51.0573852992094],[-0.136046204275128,51.0573909878479],[-0.136055224675005,51.0571663034713],[-0.136411742806725,51.0571719909757],[-0.136768261053115,51.0571776773932]]],[[[-0.13831145751196,51.0542795107249],[-0.138302448789772,51.0545041955126],[-0.138658947235073,51.0545098759307],[-0.138649940096017,51.0547345607555],[-0.138640932842389,51.0549592455705],[-0.13863192547419,51.0551839303756],[-0.138622917991417,51.0554086151707],[-0.138266412755097,51.0554029345645],[-0.137909907633321,51.0553972528714],[-0.137918918511667,51.0551725681703],[-0.137927929275395,51.0549478834593],[-0.137571427663731,51.0549422007735],[-0.137580440010583,51.0547175160997],[-0.137589452242799,51.054492831416],[-0.137945950459006,51.0544985140077],[-0.137954960878893,51.0542738292671],[-0.137963971184168,51.0540491445165],[-0.137972981374837,51.0538244597561],[-0.137616488251652,51.0538187773055],[-0.137625500025345,51.0535940925822],[-0.137634511684411,51.0533694078491],[-0.137991001412356,51.0533750902055],[-0.13834749125485,51.0533807714752],[-0.138703981211871,51.053386451658],[-0.138694974645637,51.0536111365323],[-0.138338482991003,51.0536054563024],[-0.138329474612574,51.0538301411198],[-0.13832046611956,51.0540548259273],[-0.13831145751196,51.0542795107249]]]]}}