{"type":"Feature","properties":{"code":"E63005979","name":"Pease Pottage"},"geometry":{"type":"MultiPolygon","coordinates":[[[[-0.210704421297587,51.0826144703432],[-0.210347692103972,51.0826090117568],[-0.209990963019289,51.0826035520804],[-0.209982290146252,51.0828282447228],[-0.209625559497662,51.0828227839519],[-0.209616884842744,51.0830474765821],[-0.209608210078807,51.0832721692045],[-0.209251476193411,51.0832667073345],[-0.208894742417015,51.0832612443745],[-0.208538008749643,51.0832557803244],[-0.208529328857917,51.0834804729256],[-0.208172593626671,51.083475007781],[-0.207815858504491,51.0834695415462],[-0.2074591234914,51.0834640742213],[-0.207450438471771,51.0836887668013],[-0.207441752809293,51.0839134586907],[-0.207085014686253,51.0839079904235],[-0.206728276665518,51.0839025210604],[-0.206371538747109,51.0838970506014],[-0.206014800931043,51.0838915790466],[-0.205658063185197,51.0838861063523],[-0.205301325481216,51.0838806324777],[-0.204944587886477,51.083875157513],[-0.204935887447723,51.0840998451766],[-0.204927186695885,51.0843245325445],[-0.204918485841594,51.0845492199103],[-0.2045617438375,51.0845437443139],[-0.20455304134818,51.0847684317917],[-0.204544338756383,51.0849931192675],[-0.204535636062107,51.0852178067413],[-0.204526933265351,51.0854424942131],[-0.204518230366113,51.0856671816828],[-0.2041614808014,51.0856617055605],[-0.203804731339161,51.0856562283422],[-0.203813437303705,51.0854315406445],[-0.203456689476609,51.0854260622162],[-0.20346539687126,51.0852013744025],[-0.203474104163369,51.0849766865868],[-0.203482811352939,51.0847519987691],[-0.203126068226178,51.084746518903],[-0.203117359504021,51.0849712068347],[-0.203108650679304,51.0851958947644],[-0.203099941752025,51.0854205826921],[-0.203091232722182,51.0856452706177],[-0.203082523589775,51.0858699585414],[-0.202725772902407,51.0858644781492],[-0.202717062134745,51.0860891661848],[-0.202708351264495,51.0863138542184],[-0.203065105017259,51.0863193343827],[-0.203056395577145,51.0865440223003],[-0.202699640291655,51.08653854225],[-0.202690929216222,51.0867632302795],[-0.202334172500542,51.0867577492472],[-0.201977415887441,51.0867522671188],[-0.201620659376939,51.0867467838944],[-0.201611943600616,51.0869714722638],[-0.201603227721638,51.0871961606312],[-0.201246465194379,51.0871906721577],[-0.201237747463567,51.0874153604199],[-0.200880982876827,51.0874098701619],[-0.200524218399912,51.087404378813],[-0.200532939488894,51.0871796905323],[-0.200176176800907,51.0871741980832],[-0.200184899459068,51.0869495097861],[-0.199828138560005,51.0869440162369],[-0.199471377770828,51.0869385215968],[-0.199480103677158,51.0867138332741],[-0.19912334467692,51.0867083375338],[-0.199132072152319,51.0864836491948],[-0.199488829473546,51.0864891449443],[-0.199497555159992,51.0862644566073],[-0.19985431091213,51.0862699512751],[-0.199863034809667,51.0860452629403],[-0.200219788992713,51.0860507565265],[-0.200228511101384,51.0858260681937],[-0.200585263715335,51.0858315606983],[-0.200593984035183,51.0856068723677],[-0.200602704245163,51.0853821840299],[-0.200959453611104,51.0853876754621],[-0.200968172032328,51.0851629871265],[-0.200976890343708,51.0849382987837],[-0.201333636461698,51.0849437891436],[-0.20169038189209,51.0849492768669],[-0.202047126141215,51.0849547610028],[-0.202055839461125,51.0847300727292],[-0.201699096744581,51.0847245884794],[-0.201707811494433,51.0844999000899],[-0.201716526141647,51.0842752116984],[-0.201725240686225,51.0840505233049],[-0.201368501893565,51.0840450357383],[-0.201377217270693,51.0838203461634],[-0.201385930897608,51.0835956537816],[-0.201029194856211,51.0835901633607],[-0.200672458926854,51.0835846718524],[-0.200663741850156,51.0838093641133],[-0.200655023197899,51.0840340538536],[-0.200298284014782,51.0840285612751],[-0.200307004307974,51.0838038714571],[-0.199950266877879,51.0837983777136],[-0.199941544941504,51.0840230676058],[-0.199584805978088,51.0840175728458],[-0.199576081390953,51.084242261254],[-0.199219340858647,51.0842367654124],[-0.199210614482796,51.0844614538227],[-0.198853872381603,51.0844559568995],[-0.19884514421699,51.0846806453119],[-0.198836415942408,51.0849053337172],[-0.198479670593498,51.0848998357215],[-0.198470940530088,51.0851245241289],[-0.198114193612279,51.0851190250516],[-0.198105461759998,51.085343713461],[-0.197748713273292,51.0853382133021],[-0.197391964896588,51.0853327120524],[-0.197035216629906,51.0853272097118],[-0.196678468473268,51.0853217062804],[-0.196321720426696,51.0853162017582],[-0.195964972490211,51.0853106961451],[-0.195956230454565,51.0855353846023],[-0.195947488308769,51.0857600730524],[-0.19593874605282,51.0859847614954],[-0.196295499026029,51.0859902670811],[-0.196286758338877,51.0862149555078],[-0.195930003686716,51.0862094499313],[-0.195573249144671,51.0862039432639],[-0.19556450498944,51.0864286317017],[-0.195207748878563,51.0864231239526],[-0.19519900293416,51.0866478123924],[-0.194842245254455,51.0866423035615],[-0.194833497520837,51.0868669920034],[-0.194476738272307,51.0868614820907],[-0.194119979133983,51.0868559710871],[-0.193763220105889,51.0868504589926],[-0.193754467224957,51.0870751474546],[-0.193397706628087,51.0870696342782],[-0.193040946141491,51.087064120011],[-0.193032189792173,51.087288808484],[-0.192675427736829,51.087283293135],[-0.19268418576519,51.0870586046529],[-0.192327425499206,51.0870530882039],[-0.192318665791803,51.087277776695],[-0.192309905974017,51.087502465179],[-0.19195314246027,51.0874969476571],[-0.191944380853016,51.0877216361431],[-0.192301146045847,51.0877271536559],[-0.19229238600729,51.0879518421256],[-0.191935619135354,51.0879463246219],[-0.191578852373787,51.0879408060271],[-0.19157008886659,51.0881654945079],[-0.191213320536287,51.0881599748312],[-0.190856552316397,51.0881544540637],[-0.190499784206939,51.0881489322051],[-0.190508552751499,51.0879242436974],[-0.190151786431613,51.0879187207389],[-0.189795020222202,51.0879131966895],[-0.18978624831941,51.0881378852152],[-0.190143016207937,51.0881434092557],[-0.19013424587374,51.0883680977653],[-0.189777476306076,51.0883625737339],[-0.189420706848912,51.0883570486115],[-0.189063937502269,51.0883515223981],[-0.188707168266168,51.0883459950938],[-0.188350399140631,51.0883404666985],[-0.18799363012568,51.0883349372123],[-0.18800241053467,51.0881102486489],[-0.187645643309452,51.0881047180627],[-0.187654425286896,51.0878800294832],[-0.187663207153669,51.0876553408966],[-0.187671988909773,51.0874306523028],[-0.188028751097745,51.0874361829157],[-0.188037531064144,51.0872114943238],[-0.188046310919898,51.0869868057247],[-0.188403069860409,51.0869923352646],[-0.188411847926525,51.0867676466673],[-0.188768605298611,51.0867731751253],[-0.188777381575131,51.0865484865298],[-0.189134137378789,51.0865540139059],[-0.189142911865757,51.0863293253123],[-0.189499666100982,51.0863348516064],[-0.189856420446712,51.0863403768096],[-0.189865191465232,51.0861156882269],[-0.189508438798442,51.0861101630146],[-0.189517211385353,51.0858854744157],[-0.189160460507981,51.0858799481037],[-0.188803709741133,51.0858744207007],[-0.188446959084826,51.085868892207],[-0.18845573659787,51.085644203574],[-0.188098987731018,51.0856386739804],[-0.18774223897475,51.085633143296],[-0.18773345810393,51.0858578319468],[-0.187376707779383,51.0858523001804],[-0.187019957565465,51.0858467673231],[-0.186663207462198,51.085841233375],[-0.186306457469604,51.0858356983361],[-0.186315245055954,51.0856110096496],[-0.18595849685293,51.0856054735109],[-0.185601748760621,51.0855999362813],[-0.185610539593941,51.0853752475699],[-0.185619330316481,51.0851505588514],[-0.18526258569259,51.0851450205132],[-0.18490584117945,51.0851394810842],[-0.184914635148827,51.0849147923408],[-0.18455789227678,51.0849092507604],[-0.184566687858897,51.0846845620616],[-0.184575483327944,51.0844598733539],[-0.184584278683921,51.0842351846373],[-0.184941016392045,51.0842407260679],[-0.184949809918154,51.0840160372961],[-0.184958603238697,51.0837913481755],[-0.184967396321803,51.0835666585946],[-0.18497618929182,51.0833419690032],[-0.184984982148751,51.0831172794012],[-0.185341711401601,51.083122818692],[-0.185350502420685,51.0828981290186],[-0.185359293326709,51.0826734393346],[-0.185368084119673,51.08244874964],[-0.185724808311309,51.082454287661],[-0.186081532615931,51.0824598245947],[-0.186438257033514,51.0824653604411],[-0.186429471414717,51.0826900503182],[-0.186786197669969,51.0826955851382],[-0.187142924038141,51.0827011188708],[-0.187499650519212,51.0827066515161],[-0.187856377113159,51.0827121830741],[-0.188213103819961,51.0827177135448],[-0.188569830639596,51.0827232429282],[-0.188578605910007,51.0824985526863],[-0.188587381067561,51.0822738624339],[-0.188596156112261,51.0820491721709],[-0.188604931044106,51.0818244818974],[-0.188613705863101,51.0815997916132],[-0.188622480569246,51.0813751013186],[-0.188979197153596,51.08138062925],[-0.189335913850723,51.0813861560943],[-0.189692630660604,51.0813916818512],[-0.190049347583217,51.0813972065209],[-0.190406064618541,51.0814027301034],[-0.190762781766553,51.0814082525985],[-0.19111949902723,51.0814137740064],[-0.191476216400552,51.0814192943271],[-0.191832933886495,51.0814248135604],[-0.191824174702061,51.0816495044017],[-0.192180894025248,51.0816550226085],[-0.192537613461013,51.081660539728],[-0.192894333009337,51.0816660557602],[-0.193251052670193,51.0816715707051],[-0.193242300271786,51.0818962617785],[-0.19359902176983,51.0819017756969],[-0.193955743380368,51.0819072885279],[-0.194312465103375,51.0819128002716],[-0.194669186938831,51.0819183109281],[-0.194660441326655,51.0821430022335],[-0.195017164999241,51.0821485118632],[-0.195373888784232,51.0821540204057],[-0.195730612681608,51.0821595278608],[-0.196087336691344,51.0821650342287],[-0.196078597865607,51.0823897257659],[-0.196435323712416,51.0823952311071],[-0.196792049671545,51.0824007353609],[-0.19678331418293,51.0826254270088],[-0.197140041979116,51.0826309302358],[-0.197131308102934,51.0828556219337],[-0.19748803773618,51.082861124134],[-0.197844767481683,51.082866625247],[-0.197836036942787,51.0830913170554],[-0.198192768525333,51.0830968171416],[-0.198184039598983,51.083321509],[-0.198540773018577,51.0833270080594],[-0.198549500220094,51.0831023161404],[-0.198906232027047,51.0831078140518],[-0.198914957391509,51.0828831220618],[-0.199271687585817,51.0828886188254],[-0.19928041111327,51.0826639267642],[-0.19928913452853,51.0824392346926],[-0.199645861385417,51.0824447302478],[-0.199654582963736,51.082220038105],[-0.20001130820799,51.0822255325125],[-0.200020027949412,51.0820008402987],[-0.20037675158103,51.0820063335583],[-0.2003854694856,51.0817816412735],[-0.20039418727805,51.0815569489781],[-0.200750907572338,51.0815624410294],[-0.200759623528005,51.0813377486631],[-0.200402904958383,51.0813322566722],[-0.200046186500828,51.0813267635941],[-0.20005490579369,51.0811020713381],[-0.200063624974417,51.0808773790716],[-0.200072344043011,51.0806526867946],[-0.200081062999473,51.080427994507],[-0.200089781843805,51.0802033022088],[-0.20009850057601,51.0799786099001],[-0.200107219196089,51.0797539175809],[-0.199750512922649,51.0797484238389],[-0.199759233155091,51.0795237315696],[-0.199767953275389,51.0792990392898],[-0.199776673283544,51.0790743469994],[-0.19978539317956,51.0788496546985],[-0.199794112963436,51.078624962387],[-0.199802832635177,51.078400270065],[-0.19944613682041,51.0783947755988],[-0.199454858104367,51.0781700833268],[-0.199811552194782,51.0781755777324],[-0.199820271642255,51.0779508853893],[-0.19946357927617,51.0779453910441],[-0.19947230033582,51.077720698751],[-0.199481021283318,51.0774960064473],[-0.199489742118668,51.077271314133],[-0.19949846284187,51.0770466218082],[-0.199507183452927,51.0768219294729],[-0.199863867197695,51.0768274235156],[-0.200220551054537,51.0768329164712],[-0.200577235023429,51.0768384083397],[-0.200933919104349,51.0768438991211],[-0.201290603297275,51.0768493888154],[-0.201281891307333,51.0770740814531],[-0.20163857738017,51.077079569679],[-0.201647287664033,51.0768548769503],[-0.202003972314515,51.0768603626723],[-0.202360657074396,51.0768658473045],[-0.202369363904277,51.0766411545586],[-0.202378070624733,51.0764164618049],[-0.202386777235768,51.0761917690435],[-0.202395483737383,51.0759670762742],[-0.20240419012958,51.0757423834971],[-0.202412896371402,51.0755176905893],[-0.20242160230043,51.0752929970675],[-0.202778275405909,51.0752984805477],[-0.203134948623479,51.0753039629402],[-0.203143650983666,51.0750792693162],[-0.203500322584963,51.0750847505748],[-0.203491621953118,51.0753094442449],[-0.203482921209177,51.0755341379052],[-0.203839596379229,51.0755396181683],[-0.20383089681829,51.0757643110352],[-0.203822197114795,51.0759890038307],[-0.20381349730197,51.0762136966184],[-0.20380479737981,51.0764383893984],[-0.203796097348316,51.0766630821705],[-0.203787397207484,51.0768877749348],[-0.20343071201022,51.0768822946619],[-0.203422010087763,51.0771069874138],[-0.203778696957313,51.0771124676912],[-0.2037699965978,51.0773371604399],[-0.203761296128945,51.0775618531808],[-0.203752595550746,51.0777865459138],[-0.203395903664207,51.0777810656226],[-0.203039211886988,51.0777755842416],[-0.203030507854699,51.0780002769576],[-0.202673814514453,51.077994794482],[-0.20266510870038,51.0782194871856],[-0.203021803713017,51.0782249696658],[-0.203013099461941,51.0784496623662],[-0.203004395101471,51.0786743550588],[-0.202995690631604,51.0788990477436],[-0.202638990601664,51.0788935652496],[-0.202630284349921,51.0791182579219],[-0.202621577988754,51.0793429505865],[-0.202612871518163,51.0795676432432],[-0.202256166580104,51.0795621596454],[-0.202247458327547,51.0797868522897],[-0.20223874996554,51.0800115449262],[-0.201882041791781,51.0800060602292],[-0.201873331647741,51.0802307528532],[-0.201864621394225,51.0804554454694],[-0.202221332913169,51.0804609301757],[-0.202230041494081,51.0802362375549],[-0.202586751449827,51.0802417211665],[-0.202943461514956,51.0802472036882],[-0.203300171689449,51.0802526851199],[-0.20329146812636,51.0804773777546],[-0.203648180082804,51.080482858101],[-0.203656881973282,51.0802581654617],[-0.203665583754394,51.0800334728146],[-0.20367428542614,51.0798087801596],[-0.203682986988524,51.0795840874969],[-0.203326281722394,51.079578607169],[-0.203334984847942,51.079353914503],[-0.203343687864108,51.0791292218292],[-0.20370038978521,51.079134702148],[-0.203691688441546,51.0793593948264],[-0.204048392144464,51.0793648740598],[-0.204405095956672,51.0793703522032],[-0.204396397848704,51.079595044883],[-0.204387699631418,51.0798197375548],[-0.204379001304812,51.0800444302189],[-0.204370302868885,51.0802691228752],[-0.204013592366434,51.0802636447134],[-0.204004892148569,51.0804883373573],[-0.204361604323634,51.0804938155237],[-0.204718316607979,51.0804992926],[-0.20507502900158,51.0805047685864],[-0.205431741504418,51.0805102434828],[-0.20578845411647,51.0805157172892],[-0.206145166837715,51.0805211900057],[-0.206136476546349,51.0807458826691],[-0.206127786145764,51.0809705753247],[-0.206484502321497,51.0809760469602],[-0.206475813484382,51.0812007396125],[-0.206467124538066,51.081425432257],[-0.206458435482547,51.0816501248937],[-0.206815156785577,51.0816555954527],[-0.207171878197745,51.0816610649217],[-0.20752859971903,51.0816665333007],[-0.207537283756337,51.0814418406505],[-0.207894003713976,51.0814473079349],[-0.208250723780687,51.0814527741293],[-0.20860744395645,51.0814582392337],[-0.208616122866453,51.0812335465623],[-0.208624801667386,51.081008853883],[-0.208633480359249,51.0807841611959],[-0.208276765201592,51.0807786961049],[-0.208285445457046,51.0805540034144],[-0.208294125603413,51.0803293107162],[-0.208302805640695,51.0801046180101],[-0.208659515780442,51.0801100830877],[-0.209016226029207,51.0801155470752],[-0.209007549337158,51.0803402397903],[-0.209364261367539,51.0803457026923],[-0.209355586239088,51.080570395404],[-0.209346911001614,51.0807950881078],[-0.209338235655117,51.0810197808038],[-0.209329560199593,51.081244473492],[-0.209686279029651,51.0812499353219],[-0.209677605137828,51.0814746280068],[-0.209668931136998,51.0816993206838],[-0.210025653421502,51.0817047814326],[-0.210382375814952,51.0817102410913],[-0.210391046470275,51.0814855484053],[-0.210747767299894,51.0814910069696],[-0.211104488238413,51.0814964644438],[-0.211095820928603,51.0817211571386],[-0.211452543648762,51.0817266135272],[-0.21144387790281,51.0819513062185],[-0.211435212047954,51.0821759989021],[-0.211426546084193,51.0824006915778],[-0.211069818345626,51.082395235176],[-0.210713090715945,51.0823897776841],[-0.210704421297587,51.0826144703432]]],[[[-0.210704421297587,51.0826144703432],[-0.211061150600112,51.0826199278395],[-0.211052482745667,51.0828446204952],[-0.211409213829949,51.0828500769058],[-0.211400547539461,51.0830747695581],[-0.211391881140061,51.0832994622026],[-0.211383214631747,51.0835241548393],[-0.211026478528731,51.0835186984154],[-0.210669742534612,51.0835132409015],[-0.210678412388791,51.0832885482736],[-0.210687082134011,51.083063855638],[-0.210695751770276,51.0828391629945],[-0.210704421297587,51.0826144703432]]],[[[-0.204144071630102,51.0861110807219],[-0.203787319102499,51.0861056037316],[-0.203796025272093,51.0858809160379],[-0.204152776267005,51.0858863931422],[-0.204509527364391,51.0858918691505],[-0.204866278564235,51.0858973440629],[-0.204857576992723,51.0861220314146],[-0.204848875318745,51.0863467187642],[-0.204840173542297,51.0865714061119],[-0.204483417744305,51.0865659315415],[-0.204492121053489,51.0863412440799],[-0.204135366890694,51.0863357682996],[-0.204144071630102,51.0861110807219]]]]}}