{"type":"Feature","properties":{"code":"E63005131","name":"Cobham (Gravesham)"},"geometry":{"type":"MultiPolygon","coordinates":[[[[0.412478151414784,51.3963090700424],[0.412489971813656,51.396533665011],[0.412501792365431,51.3967582599692],[0.412513613070109,51.396982854917],[0.412525433927694,51.3972074498545],[0.412537254938188,51.3974320447816],[0.412549076101594,51.3976566396983],[0.412908106571645,51.3976492468941],[0.41291992964354,51.3978738417444],[0.413278961716265,51.3978664477848],[0.413290786696693,51.3980910425687],[0.412931752868374,51.3980984365843],[0.41294357624615,51.3983230314139],[0.412955399776873,51.398547626233],[0.412967223460542,51.3987722210418],[0.412979047297162,51.3989968158403],[0.412990871286735,51.3992214106283],[0.413002695429263,51.399446005406],[0.41301451972475,51.3996706001733],[0.413373565842859,51.3996632057653],[0.413385392047081,51.3998878004662],[0.41374443976802,51.3998804049027],[0.413732611808025,51.3996558102579],[0.414091657620226,51.3996484136509],[0.41407982805749,51.3994238190518],[0.414067998647781,51.3991992244423],[0.413708956347053,51.3992066209371],[0.413697128846069,51.3989820262612],[0.413338088148083,51.3989894216004],[0.413326262555779,51.3987648268581],[0.413314437116447,51.3985402321053],[0.413302611830087,51.3983156373422],[0.413661647261095,51.398308242171],[0.413649820372088,51.3980836474536],[0.413637993636067,51.3978590527258],[0.413997025402926,51.3978516565673],[0.413985197064325,51.3976270618851],[0.414344226922651,51.3976196646833],[0.414332396981515,51.3973950700468],[0.414320567193404,51.3971704754],[0.414679593387689,51.3971630772109],[0.414667761997107,51.3969384826098],[0.415026786282896,51.3969310833773],[0.415385810431397,51.3969236831617],[0.415744834427117,51.3969162818486],[0.416103858269797,51.3969088794364],[0.416462881959415,51.396901475925],[0.416474722126096,51.3971260702366],[0.416833747417644,51.3971186655667],[0.417192772556083,51.3971112597976],[0.417551797541387,51.3971038529293],[0.417563643126306,51.3973284470524],[0.417922669713486,51.3973210390255],[0.418281696147486,51.3973136298996],[0.418293545395707,51.3975382238932],[0.418305394797174,51.3977628178763],[0.41866442458809,51.3977554075324],[0.418676275897899,51.3979800014455],[0.418688127360984,51.3982045953481],[0.418699978977345,51.39842918924],[0.418711830746984,51.3986537831213],[0.418723682669906,51.3988783769921],[0.418735534746112,51.3991029708522],[0.419094574914682,51.3990955590527],[0.419453614929982,51.399088146154],[0.41944175934337,51.3988635524126],[0.41980079745018,51.3988561384741],[0.419812654791991,51.399080732156],[0.419824512287157,51.3993053258273],[0.420183553751069,51.3992979106707],[0.42054259506164,51.3992904944148],[0.420530734056039,51.3990659008623],[0.420889773458033,51.3990584835665],[0.421248812706645,51.3990510651715],[0.421236948344064,51.3988264717273],[0.421595985684084,51.3988190522925],[0.421955022870679,51.3988116317585],[0.421943155151216,51.3985870384226],[0.422302190429206,51.3985796168488],[0.422290321108093,51.3983550235617],[0.422278451940485,51.3981304302641],[0.422637483554763,51.39812300771],[0.422625612785571,51.3978984144613],[0.422613742169902,51.3976738212019],[0.422601871707752,51.3974492279319],[0.422590001399121,51.3972246346513],[0.422578131244005,51.3970000413601],[0.422566261242401,51.3967754480583],[0.42220724015831,51.3967828702556],[0.422195372065168,51.3965582768837],[0.42218350412551,51.3963336835012],[0.422171636339334,51.3961090901082],[0.422159768706638,51.3958844967045],[0.422147901227418,51.3956599032902],[0.422136033901672,51.3954353098654],[0.422124166729398,51.3952107164299],[0.422112299710593,51.3949861229838],[0.422100432845254,51.3947615295271],[0.422459438135591,51.3947541078652],[0.422447569668967,51.3945295144574],[0.422806573051112,51.3945220917558],[0.42279470298325,51.3942974983968],[0.42278283306889,51.3940729050273],[0.422770963308031,51.3938483116471],[0.422759093700671,51.3936237182564],[0.422747224246806,51.3933991248551],[0.422735354946435,51.3931745314431],[0.422376362092289,51.3931819537878],[0.422364494699996,51.3929573603058],[0.422352627461167,51.3927327668132],[0.421993637962751,51.39274018794],[0.421634648310934,51.3927476079678],[0.42127565850574,51.3927550268966],[0.421263796684016,51.392530433215],[0.42090480848002,51.3925378509853],[0.420545820122693,51.3925452676567],[0.42018683161206,51.3925526832291],[0.420198688170117,51.392777277089],[0.419839697751639,51.3927846916217],[0.419480707179896,51.3927921050555],[0.419121716454911,51.3927995173903],[0.419109865160542,51.3925749233522],[0.419098014019431,51.3923503293035],[0.419086163058277,51.3921257352708],[0.419074312305346,51.3919011412819],[0.419062461705582,51.3916765472821],[0.418703479594473,51.3916839582109],[0.418691630901101,51.3914593641378],[0.418679782360867,51.3912347700538],[0.418320803603093,51.3912421797587],[0.417961824692243,51.3912495883648],[0.417602845628343,51.3912569958721],[0.417614688908949,51.3914815901438],[0.417255707938806,51.391488996615],[0.416896726815653,51.3914964019875],[0.416537745539515,51.3915038062612],[0.416178764110411,51.3915112094361],[0.415819782528367,51.3915186115123],[0.415460800793405,51.3915260124898],[0.415101818905546,51.3915334123684],[0.414742836885886,51.3915408113048],[0.414383854718424,51.3915482091798],[0.414024872398124,51.3915556059558],[0.414036698298031,51.3917802008276],[0.4136777140715,51.3917875965643],[0.413689538370827,51.3920121914851],[0.413701362833447,51.3922367864005],[0.413342374948953,51.3922441811577],[0.413354197861127,51.3924687761449],[0.412995208068727,51.392476169859],[0.413007029378775,51.3927007648919],[0.413018850841727,51.3929253599144],[0.413030672457583,51.3931499549265],[0.412671677247102,51.3931573477094],[0.412683497260748,51.3933819427672],[0.412324500142301,51.3933893345069],[0.41233631855369,51.3936139296103],[0.412348137117947,51.3938385247034],[0.411989136336358,51.3938459154558],[0.412000953298293,51.3940705105945],[0.412012770413079,51.3942951057229],[0.411653765968271,51.394302495488],[0.41166558148067,51.394527090662],[0.412024587680718,51.3945197008408],[0.412036405101212,51.3947442959484],[0.412048222674563,51.3949688910456],[0.412407232232337,51.3949615000131],[0.412419051713855,51.395186095044],[0.412430871348259,51.3954106900644],[0.412442691135551,51.3956352850745],[0.412801705806456,51.3956278927746],[0.413160720324487,51.3956204993753],[0.413172543775409,51.395845094263],[0.413531559895908,51.3958376997084],[0.413543385255155,51.3960622945296],[0.413184367379268,51.3960696891402],[0.41319619113607,51.3962942840071],[0.412837171351868,51.3963016775745],[0.412478151414784,51.3963090700424]]],[[[0.398170758054969,51.390756988327],[0.398182506034053,51.390981585874],[0.398194254164775,51.3912061834109],[0.398553237770113,51.3911988353642],[0.398564987815137,51.391423432822],[0.398923973179125,51.3914160834202],[0.399282958391252,51.3914087329194],[0.399294712095111,51.3916333302481],[0.399653698908828,51.3916259785891],[0.400012685570637,51.3916186258311],[0.40000092835983,51.3913940286208],[0.399641943451494,51.3914013813196],[0.399630188146107,51.3911767840394],[0.399989171300994,51.3911694313999],[0.400348154303953,51.3911620776614],[0.400359913116238,51.3913866748231],[0.400718897720693,51.3913793199264],[0.400730658438436,51.3916039170181],[0.400742419308196,51.3918285140993],[0.400754180329975,51.39205311117],[0.401113170042917,51.3920457549965],[0.401101407267627,51.3918211579851],[0.401089644644381,51.3915965609632],[0.401448630698327,51.3915892038093],[0.401436866473656,51.391364606836],[0.401795850622121,51.3913572486424],[0.402154834618543,51.3913498893498],[0.4025138184629,51.3913425289582],[0.402502049129988,51.3911179321523],[0.402490279949201,51.3908933353357],[0.402849260134635,51.3908859739638],[0.403208240167965,51.390878611493],[0.403196467632535,51.3906540147845],[0.403555445760359,51.390646651274],[0.403914423736035,51.3906392866646],[0.403926199778219,51.3908638832545],[0.404285179355098,51.3908565174868],[0.404296957302891,51.3910811140067],[0.404655938480968,51.3910737470807],[0.404667718334414,51.3912983435307],[0.405026701113684,51.3912909754464],[0.40503848287283,51.3915155718263],[0.405397467253288,51.3915082025837],[0.405756451481475,51.3915008322421],[0.405744666215466,51.3912762359809],[0.406103648537933,51.3912688645997],[0.406091861670848,51.3910442683873],[0.405732881101788,51.3910516397091],[0.405721096140438,51.3908270434266],[0.405362117172475,51.3908344135901],[0.405350334116814,51.3906098172377],[0.404991356749953,51.3906171862428],[0.404979575599934,51.3903925898205],[0.404620599834182,51.3903999576673],[0.404608820589762,51.390175361175],[0.404249846425122,51.3901827278635],[0.404238069086255,51.3899581313012],[0.403879096522734,51.3899654968316],[0.403867321089374,51.3897409001993],[0.403855545808215,51.3895163035565],[0.403496576599079,51.3895236678692],[0.403484803223357,51.3892990711565],[0.40312583561533,51.389306434311],[0.403114064144999,51.3890818375284],[0.403473029999806,51.3890744744332],[0.403831995702484,51.3890671102391],[0.40419096125301,51.3890597449462],[0.404549926651362,51.3890523785544],[0.404908891897516,51.3890450110637],[0.404897111813371,51.3888204145672],[0.404885331881482,51.38859581806],[0.405244293469069,51.3885884495892],[0.405232511936297,51.3883638531309],[0.405220730555797,51.3881392566619],[0.404861772474465,51.388146625014],[0.404502814240925,51.3881539922672],[0.40449103651889,51.387929395669],[0.404132079886261,51.387936761764],[0.403773123101471,51.3879441267602],[0.403784897317306,51.3881687234772],[0.403425938627272,51.3881760874339],[0.40306697978512,51.3881834502918],[0.403078750646879,51.3884080471169],[0.402719789899498,51.3884154089352],[0.402360829000041,51.3884227696547],[0.40200186794853,51.3884301292754],[0.401642906744988,51.3884374877972],[0.40165467074625,51.3886620848488],[0.401666434899563,51.3888866818899],[0.40130747003766,51.3888940394314],[0.400948505023764,51.388901395874],[0.400589539857901,51.3889087512178],[0.400601298903628,51.389133348426],[0.400242331832599,51.3891407027302],[0.399883364609645,51.3891480559354],[0.399524397234788,51.3891554080418],[0.399536151172773,51.3893800054172],[0.399177181892787,51.389387356484],[0.398818212460939,51.3893947064518],[0.398806462029454,51.3891701089579],[0.398447494199023,51.3891774577676],[0.398459242877252,51.3894020553207],[0.398100273364748,51.3894094028339],[0.398088526447066,51.3891848052165],[0.398076779681004,51.388960207589],[0.398435745672645,51.388952860204],[0.398423997298117,51.3887282626297],[0.398412249075437,51.3885036650449],[0.398400501004602,51.3882790674495],[0.398041540292503,51.3882864146461],[0.398053286603725,51.3885110123038],[0.397694324016017,51.3885183584245],[0.397335361276761,51.3885257034457],[0.396976398385978,51.3885330473676],[0.396988139598912,51.3887576451691],[0.396999880963394,51.3889822429605],[0.397011622479423,51.3892068407419],[0.397370590620178,51.3891994966662],[0.397382334037794,51.3894240943862],[0.397741303777051,51.3894167491597],[0.397753049096299,51.3896413468184],[0.397764794567148,51.389865944467],[0.397776540189602,51.3900905421055],[0.397788285963662,51.390315139734],[0.39780003188933,51.3905397373523],[0.397811777966611,51.3907643349607],[0.398170758054969,51.390756988327]]],[[[0.392844650967481,51.391990063864],[0.393203641927178,51.3919827323671],[0.393562632735581,51.3919753997707],[0.393921623392667,51.3919680660748],[0.393933351126179,51.3921926641865],[0.393945079174572,51.3924172621292],[0.393956807377871,51.3926418600578],[0.394315803102182,51.392634525121],[0.394674798676033,51.3926271890843],[0.394663066999798,51.3924025912511],[0.394651335486971,51.3921779933937],[0.395010327440297,51.392170656348],[0.395369319242214,51.3921633182027],[0.3957283108927,51.3921559789579],[0.395740047608983,51.3923805766856],[0.396099040844315,51.3923732362975],[0.396110779466393,51.3925978339399],[0.396469774287609,51.3925904924044],[0.396828768958232,51.3925831497691],[0.39684051120387,51.3928077473062],[0.397199507460349,51.3928004035234],[0.397211251593139,51.3930250010029],[0.396852253600167,51.3930323448335],[0.396493255456574,51.3930396875643],[0.396134257162381,51.3930470291953],[0.396145996236299,51.3932716268082],[0.396504996267013,51.3932642851295],[0.396863996147124,51.393256942351],[0.397222995876613,51.3932495984727],[0.397581995455455,51.3932422534945],[0.39759374162615,51.3934668509067],[0.397234740310772,51.3934741959325],[0.396875738844745,51.3934815398586],[0.396887481693033,51.3937061373564],[0.39724648489562,51.3936987933826],[0.397605487947557,51.393691448309],[0.39796449084882,51.3936841021355],[0.397952742790857,51.393459504781],[0.398311743804871,51.3934521575555],[0.398299994161111,51.3932275602389],[0.398658993632619,51.3932202115725],[0.398647242374635,51.3929956143157],[0.399006240018943,51.3929882645155],[0.398994487157805,51.3927636673041],[0.398982734448685,51.3925390700823],[0.399341728430736,51.3925317192943],[0.399329974118526,51.3923071221178],[0.399318219958612,51.3920825248739],[0.399306465950897,51.3918579275663],[0.398947477231793,51.3918652781856],[0.398588488360823,51.3918726277059],[0.39860023886149,51.3920972251319],[0.398241248204112,51.3921045734577],[0.398229499466806,51.3918799759611],[0.39821775088115,51.3916553784544],[0.397858763791901,51.3916627252933],[0.397847017108147,51.3914381277252],[0.397835270576017,51.3912135301471],[0.397823524195505,51.3909889325589],[0.397464542205382,51.3909962781444],[0.39745279772668,51.3907716804949],[0.397093817335195,51.3907790249295],[0.396734836792182,51.3907863682648],[0.396746577770495,51.3910109660169],[0.396387595325775,51.3910183083039],[0.39602861272957,51.3910256494914],[0.396040350358984,51.391250247336],[0.395681365861088,51.3912575874753],[0.3956696299819,51.3910329895795],[0.395310647082789,51.3910403285681],[0.394951664032259,51.3910476664571],[0.394963396410984,51.3912722644554],[0.394604411458823,51.3912796012962],[0.394616142238729,51.3915041993357],[0.394627873170054,51.3917287973651],[0.394268884565974,51.3917361332088],[0.394257155384931,51.3915115351282],[0.393898168379776,51.3915188698212],[0.393539181223289,51.3915262034148],[0.39352745569417,51.3913016052217],[0.393168470136639,51.3913089376645],[0.392809484427821,51.3913162690078],[0.392797762550544,51.3910916707023],[0.393156746509114,51.3910843394102],[0.393515730316401,51.3910770070186],[0.393504005089976,51.3908524088054],[0.393862986995737,51.3908450753655],[0.393851260170458,51.3906204771934],[0.393492280014896,51.3906278105821],[0.393480555091155,51.3904032123488],[0.39312157653447,51.3904105445869],[0.392762597826507,51.3904178757255],[0.39277431924989,51.3906424740612],[0.392415338640491,51.3906498041515],[0.392427058464964,51.3908744025283],[0.392438778440713,51.391099000895],[0.392450498567739,51.3913235992516],[0.392462218846046,51.3915481975982],[0.392473939275637,51.3917727959348],[0.392832928636287,51.3917654655886],[0.392844650967481,51.391990063864]]],[[[0.39634063932246,51.39011991703],[0.396352378096007,51.3903445148636],[0.396364117021074,51.3905691126871],[0.396723095965417,51.3905617705026],[0.397082074758256,51.3905544272187],[0.397070332332882,51.3903298294977],[0.397058590059073,51.3901052317667],[0.396699614766516,51.3901125749481],[0.39634063932246,51.39011991703]]],[[[0.390413686720793,51.3936135424594],[0.390401975281306,51.3933889440939],[0.390760977718605,51.3933816200121],[0.390772690894676,51.3936062183301],[0.391131694918314,51.3935988931009],[0.391143409981274,51.3938234913615],[0.391502415591245,51.3938161649849],[0.391861421050921,51.3938088375085],[0.391873139737438,51.3940334356639],[0.392232146783417,51.3940261070401],[0.392591153679056,51.3940187773163],[0.392579431519303,51.3937941792561],[0.392567709509951,51.393569581186],[0.392926712782019,51.3935622504577],[0.393285715903708,51.3935549186296],[0.393273990571615,51.393330320645],[0.393262265389962,51.3931057226506],[0.393250540358743,51.3928811246463],[0.393609538120404,51.3928737918613],[0.393597811503124,51.3926491938949],[0.393586085036297,51.3924245959186],[0.393227090747608,51.3924319286083],[0.392868096308528,51.3924392601981],[0.392879819302404,51.3926638582697],[0.392520822976477,51.3926711888074],[0.392161826500203,51.3926785182454],[0.392173546171481,51.3929031164024],[0.391814547808374,51.3929104447882],[0.39145554929496,51.3929177720741],[0.391096550631263,51.3929250982603],[0.391084836169515,51.3927004999605],[0.390725839092073,51.3927078249992],[0.390366841864393,51.3927151489382],[0.3900078444865,51.3927224717774],[0.389648846958415,51.3927297935168],[0.389660554474089,51.392954392007],[0.38930155505931,51.3929617126942],[0.388942555494381,51.3929690322816],[0.388954259687166,51.393193630857],[0.388965964030119,51.3934182294227],[0.38932496706817,51.3934109097402],[0.389336673297887,51.3936355082485],[0.389348379677799,51.3938601067469],[0.389707386038902,51.3938527858695],[0.389695677922376,51.3936281874186],[0.390054682396685,51.393620865489],[0.390413686720793,51.3936135424594]]]]}}