{"type":"Feature","properties":{"code":"E63000531","name":"Langthorpe"},"geometry":{"type":"MultiPolygon","coordinates":[[[[-1.41545606206687,54.0986149940891],[-1.41545290310185,54.0988396674574],[-1.41544974409436,54.099064340817],[-1.41506747711442,54.0990624862142],[-1.41507063814132,54.0988378128806],[-1.41468837322324,54.0988359570897],[-1.41468521017694,54.0990606303972],[-1.41430294328192,54.099058773366],[-1.41392067642941,54.0990569151207],[-1.41353840961942,54.0990550556613],[-1.41354157872394,54.0988303824321],[-1.41315931397591,54.0988285217847],[-1.41316248505719,54.0986038485729],[-1.41278022237112,54.0986019867374],[-1.41278339542912,54.0983773135431],[-1.41278656844447,54.09815264034],[-1.41316882709187,54.0981545021232],[-1.41317199804527,54.0979298288853],[-1.41355425471596,54.0979316894283],[-1.41393651142921,54.0979335487572],[-1.41431876818498,54.097935406872],[-1.41431560328946,54.0981600801883],[-1.4143124383514,54.0983847534958],[-1.41469469918828,54.0983866104487],[-1.41507696006763,54.0983884661874],[-1.41545922098943,54.0983903207121],[-1.41545606206687,54.0986149940891]]],[[[-1.41353840961942,54.0990550556613],[-1.4135352404723,54.0992797288817],[-1.41353207128258,54.0995044020935],[-1.41352890205025,54.0997290752965],[-1.41352573277532,54.0999537484907],[-1.41390800766319,54.0999556080546],[-1.41390484036519,54.1001802812663],[-1.41428711731514,54.100182139642],[-1.4146693943076,54.1001839968036],[-1.41466623215715,54.1004086698933],[-1.41466307006871,54.1006333429592],[-1.41465990793837,54.1008580160163],[-1.41465674576612,54.1010826890647],[-1.41427446083179,54.1010808317842],[-1.41389217593933,54.1010789732895],[-1.41350989108878,54.1010771135806],[-1.41351305920717,54.1008524406229],[-1.4131307763806,54.1008505797301],[-1.41312760628016,54.1010752526576],[-1.41274532151349,54.1010733905204],[-1.41274849359598,54.1008487176232],[-1.41275166563642,54.1006240447172],[-1.41313394643903,54.1006259067939],[-1.41313711645544,54.1004012338488],[-1.41314028659291,54.1001765608721],[-1.41275800977064,54.1001746988538],[-1.41237573299098,54.1001728356213],[-1.41237890836715,54.0999481625141],[-1.41199663364967,54.0999462980935],[-1.41199981100265,54.0997216250037],[-1.41161753834736,54.0997197593951],[-1.41162071767711,54.0994950863228],[-1.41200298831292,54.0994969519052],[-1.4123852589914,54.0994988162735],[-1.4123884342395,54.0992741431402],[-1.41277070294117,54.0992760062682],[-1.41315297168544,54.099277868182],[-1.41315614285199,54.0990531949877],[-1.41353840961942,54.0990550556613]]],[[[-1.41161753834736,54.0997197593951],[-1.41161435897486,54.0999444324587],[-1.41161117955962,54.1001691055136],[-1.41160800142501,54.1003937783783],[-1.41122572277248,54.1003919114753],[-1.41084344416205,54.1003900433582],[-1.41084026225369,54.1006147161216],[-1.41045798170338,54.1006128467601],[-1.41007570119522,54.1006109761844],[-1.40969342072923,54.1006091043946],[-1.40969660858355,54.1003844317221],[-1.40931433014174,54.1003825587484],[-1.40931114030543,54.1006072313906],[-1.40892885992386,54.1006053571725],[-1.40854657958454,54.1006034817403],[-1.40854338574192,54.1008281543129],[-1.40816110346287,54.1008262776362],[-1.40777882122612,54.1008243997453],[-1.4073965390317,54.1008225206403],[-1.40739333920063,54.1010471931131],[-1.40701105506653,54.1010453127635],[-1.40700785321098,54.101269985197],[-1.40662556713721,54.1012681036029],[-1.40624328110585,54.1012662207946],[-1.40624007524367,54.1014908931586],[-1.40662236325712,54.1014927759973],[-1.40661915933455,54.1017174483829],[-1.4066159553695,54.1019421207597],[-1.40699824738962,54.101944002445],[-1.40699504536427,54.1021686748434],[-1.40661275136197,54.1021667931276],[-1.40660954731196,54.1023914654868],[-1.40622725136989,54.1023895825265],[-1.40584495547026,54.1023876983519],[-1.40584174741332,54.1026123706414],[-1.40545944957394,54.1026104852222],[-1.40507715177705,54.1026085985888],[-1.40507393971308,54.1028332708087],[-1.40469163997647,54.1028313829305],[-1.40430934028242,54.1028294938382],[-1.40392704063094,54.1028276035316],[-1.40392382257755,54.1030522756513],[-1.40354152098641,54.1030503840999],[-1.40353830090803,54.1032750561803],[-1.40315599737723,54.1032731633843],[-1.40277369388908,54.103271269374],[-1.40277691793206,54.1030465973546],[-1.4023946164689,54.1030447021606],[-1.40201231504846,54.1030428057523],[-1.40201554301322,54.1028181337852],[-1.40201877093517,54.1025934618092],[-1.40163647352199,54.1025915642478],[-1.40163970338334,54.1023668922936],[-1.40164293320186,54.1021422203305],[-1.40164616297754,54.1019175483587],[-1.40164939271039,54.1016928763781],[-1.40126710671756,54.1016909770964],[-1.40088482162845,54.1016890764437],[-1.40050253658328,54.1016871745767],[-1.40012025158207,54.1016852714952],[-1.39973796662487,54.1016833671994],[-1.39973472670048,54.101908039075],[-1.39935243973916,54.1019061335456],[-1.39935568171168,54.1016814616893],[-1.39897339684255,54.1016795549647],[-1.39897015282189,54.1019042268017],[-1.3985878659487,54.1019023188435],[-1.39820557911961,54.101900409671],[-1.39782329233467,54.101898499284],[-1.39782004212536,54.1021231710545],[-1.39743775333642,54.1021212594339],[-1.39705546459166,54.1021193465988],[-1.39667317589113,54.1021174325494],[-1.39629088723485,54.1021155172856],[-1.39590859862284,54.1021136008075],[-1.39552631005513,54.1021116831149],[-1.39514402153176,54.1021097642079],[-1.3951407569409,54.1023344358344],[-1.39475846641371,54.1023325156936],[-1.3943761759309,54.1023305943385],[-1.39437944461812,54.1021059227509],[-1.39399715622791,54.1021040002008],[-1.39399388549251,54.102328671769],[-1.39361159509856,54.1023267479851],[-1.39322930474908,54.1023248229868],[-1.39322602987274,54.1025494945076],[-1.39284373751956,54.1025475682755],[-1.3924614452109,54.1025456408289],[-1.39245816619351,54.1027703123022],[-1.39207587188118,54.1027683836218],[-1.3920725907709,54.102993055067],[-1.39169029445489,54.1029911251527],[-1.39168701125166,54.1032157965698],[-1.39130471293197,54.1032138654216],[-1.39130799818349,54.102989194024],[-1.39092570195674,54.1029872616809],[-1.39092898921181,54.1027625902942],[-1.39054669507798,54.1027606567562],[-1.39054998433654,54.1025359853803],[-1.39055327355032,54.1023113139959],[-1.39017098355763,54.1023093792825],[-1.39017427477482,54.1020847079089],[-1.38979198687502,54.1020827720007],[-1.38979528009557,54.101858100638],[-1.38979857327128,54.1016334292668],[-1.3894162895125,54.1016314921832],[-1.38941958469148,54.1014068208229],[-1.38903730302556,54.1014048825445],[-1.38904060020776,54.1011802111951],[-1.38904389734508,54.100955539837],[-1.3894261749149,54.1009574780764],[-1.3898084525295,54.1009594151014],[-1.38981174552594,54.1007347436957],[-1.38981503847755,54.1005100722813],[-1.39019731204092,54.100512008053],[-1.39020060289976,54.1002873366105],[-1.39058287445989,54.1002892711483],[-1.3905861637208,54.1000645996772],[-1.39058945324582,54.099839928197],[-1.39097172084522,54.0998418614636],[-1.39096843330756,54.1000665329745],[-1.39135070293793,54.1000684650576],[-1.39173297261189,54.1000703959266],[-1.39173625617484,54.0998457243545],[-1.39211852390501,54.0998476539788],[-1.39250079167872,54.099849582389],[-1.39250407122338,54.0996249107469],[-1.39250735072446,54.0994002390959],[-1.39288961456704,54.0994021662308],[-1.39289289203726,54.0991774945404],[-1.39327515393605,54.0991794204307],[-1.39327842937548,54.0989547487009],[-1.39366068933047,54.0989566733465],[-1.39366396273915,54.0987320015774],[-1.39366723610435,54.0985073297994],[-1.39404949212834,54.0985092531698],[-1.39405276346287,54.0982845813525],[-1.39405603475395,54.0980599095263],[-1.39405930600156,54.0978352376914],[-1.39444155610752,54.0978371597561],[-1.39482380625684,54.0978390806069],[-1.39482707348681,54.097614408702],[-1.39520932169239,54.0976163283082],[-1.39559156994128,54.0976182467004],[-1.39558830668549,54.0978429186664],[-1.39597055696476,54.0978448358751],[-1.39596729565274,54.0980695078627],[-1.39596403429739,54.0982941798416],[-1.39634628859419,54.0982960958973],[-1.39634954796239,54.098071423888],[-1.39673180031528,54.0980733386992],[-1.39711405271137,54.0980752522964],[-1.39711079731747,54.0982999243667],[-1.39710754188032,54.0985245964283],[-1.39710428639994,54.098749268481],[-1.39748654480074,54.0987511809557],[-1.39748979829393,54.0985265088724],[-1.39787205475068,54.0985284201026],[-1.39825431125057,54.0985303301186],[-1.39863656779356,54.0985322389207],[-1.39901882437962,54.0985341465087],[-1.39940108100873,54.0985360528827],[-1.39978333768086,54.0985379580426],[-1.40016559439598,54.0985398619885],[-1.40054785115408,54.0985417647203],[-1.40054461355856,54.098766437047],[-1.4009268723468,54.0987683385952],[-1.40093010795511,54.0985436662382],[-1.40131236479905,54.0985455665419],[-1.40169462312134,54.0985474653672],[-1.40207688456061,54.098549362412],[-1.40245914604326,54.0985512582427],[-1.40284140756926,54.0985531528594],[-1.40322366913858,54.0985550462619],[-1.4036059307512,54.0985569384503],[-1.40398819240708,54.0985588294246],[-1.40437045410621,54.0985607191848],[-1.40475271584854,54.0985626077308],[-1.40513497763406,54.0985644950628],[-1.40551723946274,54.0985663811806],[-1.40589950133455,54.0985682660844],[-1.40628176324947,54.098570149774],[-1.40666402520745,54.0985720322495],[-1.40704628720849,54.0985739135109],[-1.40742854925255,54.0985757935581],[-1.4078108113396,54.0985776723913],[-1.40780761198714,54.0988023452364],[-1.40780441259167,54.0990270180728],[-1.40780121315318,54.0992516909004],[-1.40818348134137,54.0992535685982],[-1.4081802838793,54.0994782414434],[-1.40856255412988,54.0994801179533],[-1.40894482442337,54.0994819932491],[-1.40932709475975,54.0994838673306],[-1.40932390331312,54.0997085402458],[-1.40970617571184,54.0997104131395],[-1.41008844815339,54.0997122848189],[-1.41047072063774,54.0997141552842],[-1.41085299316487,54.0997160245354],[-1.41123526573475,54.0997178925723],[-1.41161753834736,54.0997197593951]]],[[[-1.41543079025919,54.1004123806307],[-1.41581306937292,54.1004142341782],[-1.41580991323047,54.1006389073347],[-1.4158067570462,54.1008635804823],[-1.41580360082011,54.1010882536212],[-1.41542131576031,54.1010863999832],[-1.41503903074231,54.101084545131],[-1.4150421909325,54.1008598720525],[-1.41504535108082,54.1006351989652],[-1.41504851118726,54.100410525869],[-1.41543079025919,54.1004123806307]]]]}}