{"type":"Feature","properties":{"code":"E63001273","name":"Crosby (Sefton)"},"geometry":{"type":"MultiPolygon","coordinates":[[[[-3.0039118593122,53.4653085624753],[-3.00390656001934,53.4650838860367],[-3.00390126079766,53.4648592095884],[-3.00427776164768,53.4648560455859],[-3.00427246051344,53.4646313691796],[-3.00389596164717,53.4646345331307],[-3.00389066256786,53.4644098566633],[-3.00351416561409,53.4644130193773],[-3.00350886858965,53.4641883428489],[-3.00350357163638,53.463963666311],[-3.00312707857878,53.4639668277364],[-3.00312178368029,53.4637421511374],[-3.00311648885294,53.4635174745289],[-3.00273999969144,53.4635206346659],[-3.00273470691879,53.4632959579963],[-3.00235821966976,53.4632991168963],[-3.00235292895177,53.4630744401657],[-3.00272941421724,53.4630712813172],[-3.00272412158679,53.4628466046285],[-3.00310060479761,53.462843444646],[-3.00309531025474,53.4626187679992],[-3.0034717914109,53.4626156068826],[-3.00384827249589,53.4626124445805],[-3.00384297405719,53.4623877680271],[-3.0042194530875,53.4623846045911],[-3.00421415273651,53.4621599280796],[-3.00420885245673,53.4619352515586],[-3.00458532744895,53.4619320870401],[-3.00458002525696,53.461707410561],[-3.00495649819453,53.4617042449085],[-3.0049511940904,53.4614795684714],[-3.00532766497333,53.461476401685],[-3.00532235895711,53.4612517252899],[-3.0056988277854,53.4612485573695],[-3.00569351985714,53.4610238810164],[-3.0060699866308,53.4610207119621],[-3.00606467679055,53.4607960356509],[-3.00644114150957,53.4607928654628],[-3.0064358297574,53.4605681891936],[-3.00643051807657,53.4603435129148],[-3.00680697875773,53.4603403416445],[-3.00680166516505,53.4601156654077],[-3.00717812379161,53.4601124930035],[-3.00717280828713,53.4598878168087],[-3.00754926485909,53.4598846432707],[-3.0079257213596,53.4598814685473],[-3.00792040196023,53.4596567924461],[-3.00829685640612,53.459653616589],[-3.00829153509509,53.4594289405298],[-3.00866798748636,53.459425763539],[-3.00866266426371,53.4592010875218],[-3.00903911460037,53.4591979093972],[-3.00941556486547,53.4591947300873],[-3.00979201505898,53.4591915495921],[-3.00978668595866,53.4589668737202],[-3.01016313409752,53.4589636920913],[-3.01015780308575,53.4587390162615],[-3.01053424916994,53.4587358334989],[-3.01052891644646,53.4585111586269],[-3.01090536048669,53.4585079747672],[-3.01090002623084,53.4582833016417],[-3.0112764682238,53.4582801166468],[-3.01127113206364,53.458055443562],[-3.01164757200933,53.4580522574319],[-3.01164223394491,53.4578275843876],[-3.01201867184334,53.4578243971224],[-3.01201333187471,53.4575997241187],[-3.01238976772587,53.4575965357184],[-3.01238442585309,53.4573718627554],[-3.012760859657,53.4573686732199],[-3.01275551588011,53.4571440002975],[-3.01313194763676,53.457140809627],[-3.01350837932178,53.4571376177712],[-3.01388481093515,53.4571344247301],[-3.01426124247682,53.4571312305038],[-3.01425589086903,53.4569065577726],[-3.01463232036337,53.4569033624113],[-3.01500874978599,53.4569001658646],[-3.01500339429869,53.4566754932244],[-3.01537982167395,53.4566722955428],[-3.01575624897742,53.4566690966759],[-3.01613267620908,53.4566658966239],[-3.0165091033689,53.4566626953865],[-3.01650374005109,53.4564380229377],[-3.01688016516348,53.4564348205655],[-3.01725659020398,53.456431617008],[-3.01763301517256,53.4564284122653],[-3.01762764599999,53.4562037399578],[-3.0180040689211,53.4562005340801],[-3.01838049174632,53.4561973274161],[-3.01875691449894,53.4561941195732],[-3.01913333717933,53.4561909105449],[-3.01912796015523,53.4559662384018],[-3.01950438078052,53.4559630282312],[-3.01988080133352,53.4559598168752],[-3.02025722181421,53.4559566043338],[-3.02025183891392,53.4557319323105],[-3.02062825733946,53.4557287186268],[-3.02100467569265,53.4557255037577],[-3.02138109397344,53.4557222877032],[-3.02175751218182,53.4557190704633],[-3.02175212142273,53.4554943986031],[-3.02212853757588,53.455491180221],[-3.02250495365657,53.4554879606534],[-3.02288136966476,53.4554847399005],[-3.02325778560043,53.4554815179622],[-3.02363420146355,53.4554782948386],[-3.0236396021365,53.455702966483],[-3.02401601990982,53.4556997421307],[-3.02439243761052,53.4556965165931],[-3.02439784232162,53.4559211881418],[-3.02477426193249,53.4559179613756],[-3.0251506814707,53.455914733424],[-3.02552710093622,53.4559115042871],[-3.02552169027676,53.455686832868],[-3.02589810768679,53.4556836025889],[-3.02589269511725,53.4554589312038],[-3.02626911047178,53.4554556997825],[-3.02626369599222,53.4552310284312],[-3.02664010929125,53.4552277958678],[-3.0270165225175,53.4552245621191],[-3.02701110414527,53.454999890845],[-3.027387515316,53.4549966559542],[-3.02738209503389,53.454771984714],[-3.0277585041491,53.4547687486811],[-3.02813491319145,53.4547655114628],[-3.02814033743891,53.4549901826164],[-3.02814576175925,53.4552148537607],[-3.02852217469407,53.4552116152705],[-3.02852760107,53.4554362863621],[-3.02890401591464,53.4554330466432],[-3.02890944434622,53.4556577176822],[-3.02891487285072,53.4558823887118],[-3.02929129158793,53.455879147721],[-3.02929672214817,53.4561038186979],[-3.0296731427952,53.4561005764784],[-3.02967857541123,53.4563252474027],[-3.03005499796808,53.4563220039544],[-3.03006043263994,53.456546674826],[-3.03006586738482,53.4567713456883],[-3.03044229383437,53.4567681009679],[-3.03044773063516,53.4569927717775],[-3.03082415899455,53.4569895258283],[-3.03082959785132,53.4572141965852],[-3.03120602812055,53.4572109494072],[-3.03121146903335,53.4574356201114],[-3.03121691001924,53.4576602908063],[-3.03159334418129,53.4576570423561],[-3.03159878722329,53.4578817129982],[-3.03197522329519,53.4578784633192],[-3.03198066839336,53.4581031339086],[-3.03198611356468,53.4583278044886],[-3.03236255352949,53.4583245535374],[-3.03236800075706,53.4585492240647],[-3.03274444263175,53.4585459718845],[-3.0327498923694,53.4587706438612],[-3.03312633614276,53.4587673904105],[-3.03313178804168,53.4589920626757],[-3.03313724001372,53.4592167349311],[-3.03351368767248,53.4592134801714],[-3.03351914169697,53.4594381523548],[-3.03389559126186,53.459434896348],[-3.03390104733885,53.4596595684596],[-3.03427749880987,53.4596563112057],[-3.03428295693942,53.4598809832453],[-3.03428841514217,53.460105655275],[-3.03466487049872,53.460102396712],[-3.03467033075411,53.4603270686698],[-3.03504678873794,53.4603238117452],[-3.03505225108023,53.4605484837884],[-3.0354287110014,53.4605452257615],[-3.03543417542067,53.4607698978507],[-3.03543963991393,53.4609945699334],[-3.03581610376717,53.4609913108233],[-3.0358215703375,53.4612159829521],[-3.03619803611978,53.4612127227062],[-3.03620350476723,53.461437394881],[-3.03620897348871,53.4616620670492],[-3.03658544320317,53.4616588057201],[-3.03659091400185,53.4618834779344],[-3.03696738564537,53.4618802154695],[-3.03697285852131,53.4621048877298],[-3.03697833147135,53.4623295599836],[-3.03735480704715,53.4623262964354],[-3.03736028207452,53.4625509687352],[-3.0377367595794,53.4625477040511],[-3.03774223668417,53.4627723763969],[-3.03811871611812,53.462769110577],[-3.03812419530034,53.4629937829688],[-3.03850067666337,53.4629905160129],[-3.03850615792308,53.4632151884507],[-3.03851163925701,53.463439860882],[-3.03888812455246,53.4634365928427],[-3.03889360796396,53.46366126532],[-3.03927009518851,53.4636579961447],[-3.03927558067765,53.463882668668],[-3.03928106624106,53.4641073411847],[-3.03965755739812,53.464104070926],[-3.03966304503925,53.4643287434887],[-3.04003953812542,53.4643254720939],[-3.04004502784433,53.4645501447026],[-3.04005051763756,53.4647748173047],[-3.04042701465634,53.4647715448264],[-3.04043250652742,53.4649962174745],[-3.04043799847287,53.465220890116],[-3.04006149744701,53.4652241624892],[-3.03968499634679,53.4652274336738],[-3.03930849517224,53.4652307036698],[-3.03893199392339,53.4652339724773],[-3.03892650999215,53.4650093000459],[-3.03855001067257,53.4650125677173],[-3.03817351127874,53.4650158342002],[-3.03816803142881,53.4647911618674],[-3.03779153396429,53.4647944272142],[-3.03778605619206,53.4645697549274],[-3.03740956065685,53.4645730191383],[-3.03740408496227,53.4643483468975],[-3.03702759135637,53.4643516099724],[-3.03702211773938,53.4641269377777],[-3.0366456260628,53.4641301997166],[-3.03664015452335,53.4639055275679],[-3.03663468305798,53.4636808554127],[-3.03625819531412,53.4636841162683],[-3.03588170749617,53.4636873759355],[-3.03550521960418,53.4636906344141],[-3.03549975422302,53.4634659624101],[-3.03549428891586,53.4632412903996],[-3.03511780495657,53.463244547795],[-3.03512326826037,53.4634692197529],[-3.03474678222373,53.4634724759072],[-3.03437029697017,53.4634757345343],[-3.03399381184627,53.4634789928432],[-3.03361732664914,53.4634822499669],[-3.0336118713076,53.4632575779614],[-3.03323538801705,53.4632608338379],[-3.03322993472846,53.4630361617604],[-3.03285345334451,53.4630394163896],[-3.03247697188741,53.4630426698338],[-3.03248242121645,53.4632673420353],[-3.03210593770645,53.4632705943563],[-3.0321113851288,53.4634952666099],[-3.03211683262422,53.4637199388537],[-3.03249332009385,53.4637166864087],[-3.03249876964221,53.4639413585806],[-3.03250421926367,53.4641660307426],[-3.03250966895823,53.4643907028947],[-3.03251511872591,53.4646153750369],[-3.0321386233367,53.46461862773],[-3.03214407119752,53.4648432999244],[-3.03176757375524,53.4648465514942],[-3.03139107623988,53.4648498018789],[-3.03139652021381,53.4650744741874],[-3.0310200206454,53.4650777234488],[-3.03102546271234,53.4653023958094],[-3.03064896109088,53.4653056439475],[-3.03065440125078,53.4655303163602],[-3.03027789757627,53.4655335633751],[-3.02990139382878,53.4655368092047],[-3.02990683010151,53.4657614817314],[-3.02953032430099,53.4657647264377],[-3.02953575866655,53.4659893990165],[-3.02915925081299,53.4659926425995],[-3.02916468327132,53.4662173152304],[-3.02917011580253,53.4664419878514],[-3.02879360391578,53.4664452303729],[-3.02879903453968,53.466669903046],[-3.02880446523643,53.4668945757093],[-3.02918098108358,53.4668913330639],[-3.0291864142105,53.4671160080149],[-3.02919184746956,53.4673406833265],[-3.02919728080175,53.4675653586293],[-3.02920271420708,53.4677900339234],[-3.02920814768556,53.4680147092089],[-3.02883162190032,53.468017952006],[-3.02845509604195,53.4680211936166],[-3.02807857011045,53.4680244340407],[-3.02770204410586,53.4680276732781],[-3.02732551802821,53.4680309113291],[-3.02694899187753,53.4680341481934],[-3.02657246565383,53.4680373838712],[-3.02619593935715,53.4680406183624],[-3.02620135699539,53.468265293811],[-3.02582482863658,53.4682685271371],[-3.02544830020483,53.4682717592766],[-3.02545371393759,53.4684964347593],[-3.02507718344374,53.4684996657336],[-3.024700652877,53.4685028955214],[-3.02470606270417,53.4687275710382],[-3.02432953007535,53.4687307996608],[-3.02433493798608,53.4689554751903],[-3.02471147260416,53.4689522465463],[-3.0250880071494,53.4689490167157],[-3.02509341911151,53.4691736921937],[-3.02546995557314,53.4691704611551],[-3.02547536959742,53.4693951366029],[-3.02548078369458,53.469619812042],[-3.02585732406196,53.4696165797739],[-3.02586274022137,53.4698412551829],[-3.02623928250518,53.4698380217068],[-3.0262447007269,53.4700626970857],[-3.02625011902155,53.4702873724558],[-3.0266266652112,53.4702841377501],[-3.02663208556824,53.4705088130901],[-3.02700863367434,53.4705055771763],[-3.02701405609382,53.4707302524861],[-3.02739060611636,53.4707270153642],[-3.02739603059833,53.4709516906439],[-3.02740145515332,53.4711763659148],[-3.02740687978135,53.471401041177],[-3.0277834356994,53.471397802804],[-3.02778886239002,53.471622478036],[-3.02779428915371,53.4718471532593],[-3.02817084897784,53.4718439136566],[-3.02817627780421,53.4720685888498],[-3.02818170670366,53.4722932640342],[-3.02855827043397,53.4722900232018],[-3.02856370139618,53.472514698356],[-3.02894026704302,53.4725114563153],[-3.02931683261669,53.4725082130879],[-3.02932226763143,53.4727328881904],[-3.0296988351216,53.4727296437546],[-3.02970427219924,53.4729543188269],[-3.03008084160591,53.4729510731829],[-3.03007540253855,53.4727263981322],[-3.03045196988224,53.4727231513229],[-3.0304465288984,53.4724984762851],[-3.03082309417912,53.4724952283106],[-3.03081765127886,53.4722705532856],[-3.03044108798781,53.4722738012385],[-3.03043564715047,53.4720491261832],[-3.03005908577579,53.4720523729278],[-3.02968252432786,53.4720556184856],[-3.029677087543,53.4718309433785],[-3.02930052801148,53.4718341877282],[-3.0292950932894,53.4716095125908],[-3.02928965864049,53.4713848374448],[-3.02928422406475,53.47116016229],[-3.02890767042873,53.4711634053884],[-3.02890223791566,53.4709387302034],[-3.02889680547572,53.4707140550097],[-3.02889137310892,53.4704893798073],[-3.02851482536821,53.4704926216545],[-3.02813827755437,53.4704958623149],[-3.02813284923957,53.4702711870608],[-3.02775630334206,53.4702744265131],[-3.02775087708975,53.4700497512288],[-3.02774545091048,53.4698250759358],[-3.02774002480426,53.4696004006341],[-3.0281165647336,53.4695971612462],[-3.02811113671109,53.4693724859573],[-3.02848767457801,53.4693692454043],[-3.02849310458985,53.4695939206717],[-3.02886964437297,53.4695906789106],[-3.02887507644727,53.4698153541479],[-3.02925161814659,53.4698121111786],[-3.02925705228339,53.4700367863856],[-3.02963359589892,53.4700335422082],[-3.02963903209828,53.470258217385],[-3.03001557763,53.4702549719994],[-3.03002101589198,53.4704796471459],[-3.03039756333989,53.4704764005522],[-3.03040300366453,53.4707010756684],[-3.03002645422716,53.4707043222838],[-3.02964990471656,53.4707075677124],[-3.02927335513273,53.4707108119544],[-3.02927878956216,53.4709354871266],[-3.02965534113547,53.4709322428631],[-3.02966077762757,53.471156918005],[-3.02966621419286,53.4713815931382],[-3.03004276967201,53.471378347645],[-3.03004820830005,53.4716030227479],[-3.03042476569552,53.4715997760464],[-3.03041932507791,53.471375100965],[-3.03079588041054,53.4713718530983],[-3.03079043787664,53.4711471780297],[-3.03116699114644,53.4711439289979],[-3.03117243566988,53.471368604045],[-3.03154899085589,53.4713653538049],[-3.03155443744218,53.4715900288216],[-3.0315598841018,53.4718147038297],[-3.03193644319361,53.4718114523597],[-3.03194189191616,53.4720361273375],[-3.03194734071207,53.4722608023065],[-3.03157077764102,53.4722640538196],[-3.03157622452062,53.4724887288015],[-3.03119965938653,53.4724919791494],[-3.03120510434977,53.4727166541442],[-3.0312105493863,53.4729413291302],[-3.03083398019947,53.4729445783346],[-3.03045741093933,53.4729478263521],[-3.03046285206967,53.4731725013726],[-3.03046829327327,53.4733971763843],[-3.03084486651294,53.4733939283236],[-3.03085030977959,53.4736186033051],[-3.03085575311953,53.4738432782779],[-3.03123233026552,53.4738400289873],[-3.0312377756686,53.4740647039298],[-3.03161435473111,53.4740614534308],[-3.03161980219738,53.474286128343],[-3.0319963831764,53.4742828766356],[-3.03200183270592,53.4745075515175],[-3.03237841560146,53.4745042986018],[-3.03238386719428,53.4747289734533],[-3.03276045200632,53.4747257193291],[-3.0327659056625,53.4749503941504],[-3.03314249239104,53.4749471388177],[-3.03314794811063,53.4751718136086],[-3.03352453675568,53.4751685570675],[-3.03352999460858,53.4753932322775],[-3.03390658517236,53.4753899745294],[-3.0339120451382,53.4756146500055],[-3.03428863762467,53.4756113910683],[-3.03429409966064,53.4758360665346],[-3.03429956177034,53.4760607419929],[-3.03467615818095,53.4760574818868],[-3.03468162238396,53.4762821574369],[-3.03505822230682,53.4762789031383],[-3.0350636885772,53.4765035786673],[-3.03544029042004,53.4765003231689],[-3.03544575875784,53.4767249986768],[-3.03582236252064,53.4767217419785],[-3.03619896620966,53.4767184840931],[-3.03620443860868,53.4769431595671],[-3.03658104421764,53.4769399004818],[-3.03658651868421,53.4771645759347],[-3.03696312621311,53.4771613156495],[-3.03733973366813,53.477158054177],[-3.03734521219611,53.4773827295961],[-3.03772182157104,53.4773794669237],[-3.0377273021667,53.4776041423216],[-3.03810391346153,53.4776008784493],[-3.03810939612494,53.477825553826],[-3.03848600933967,53.4778222887537],[-3.03849149407087,53.4780469641092],[-3.03886810920549,53.4780436978369],[-3.03887359600453,53.4782683731712],[-3.03925021305905,53.4782651056989],[-3.03925570192599,53.478489781012],[-3.0396323209004,53.4784865123397],[-3.0396378118353,53.4787111876316],[-3.04001443272959,53.4787079177592],[-3.0400199257325,53.4789325930299],[-3.04002541880947,53.479157268292],[-3.04040204361765,53.4791539972068],[-3.04040753876271,53.4793786724478],[-3.04078416549079,53.4793754001624],[-3.040789662704,53.4796000753822],[-3.04079515999132,53.4798247505934],[-3.04117179063339,53.4798214770952],[-3.04117728998893,53.4800461522852],[-3.04155392255093,53.4800428775868],[-3.04193055503872,53.4800396017011],[-3.04230718745228,53.480036324628],[-3.04231269286436,53.4802609997711],[-3.04268932719779,53.4802577214978],[-3.04306596145692,53.4802544420372],[-3.04344259564175,53.4802511613893],[-3.04344810711052,53.4804758364854],[-3.04382474321515,53.4804725546372],[-3.04383025675241,53.4806972297119],[-3.04383577036402,53.4809219047781],[-3.04421241038266,53.4809186217169],[-3.04421792606283,53.4811432967618],[-3.0445945680013,53.4811400125003],[-3.04460008575009,53.4813646875238],[-3.04497672960839,53.481361402062],[-3.04535337339223,53.4813581154128],[-3.04573001710159,53.4813548275762],[-3.04610666073644,53.4813515385522],[-3.04611218653675,53.4815762135156],[-3.04611771241156,53.4818008884706],[-3.04612323836088,53.4820255634171],[-3.0464998879041,53.4820222731669],[-3.04650541592228,53.482246948092],[-3.04688206738529,53.4822436566414],[-3.04688759747239,53.4824683315451],[-3.04689312763405,53.4826930064404],[-3.04651647218226,53.4826962979169],[-3.04652200042406,53.4829209728166],[-3.0465275287404,53.4831456477079],[-3.04615086922514,53.4831489380229],[-3.04615639562154,53.4833736129186],[-3.04616192209445,53.4835982878096],[-3.04653858559807,53.4835949974677],[-3.04691524902718,53.4835917059383],[-3.04692077959536,53.4838163808566],[-3.04729744494221,53.4838130881245],[-3.0473029775772,53.4840377630189],[-3.04730851028673,53.4842624379048],[-3.04731404307079,53.4844871127822],[-3.04769071432008,53.4844838188166],[-3.04769624917106,53.4847084936701],[-3.04807292233814,53.4847051985018],[-3.04807845925611,53.4849298733314],[-3.04845513434097,53.4849265769602],[-3.04846067332597,53.4851512517659],[-3.04883735032861,53.4851479541918],[-3.0488428913807,53.4853726289737],[-3.04884843250743,53.485597303747],[-3.04922511342035,53.4855940049547],[-3.04923065661425,53.4858186797041],[-3.04923619988283,53.4860433544449],[-3.04961288470609,53.4860400544343],[-3.04961843004192,53.4862647291513],[-3.04962397545246,53.4864894038597],[-3.05000066418614,53.4864861026308],[-3.05000621166401,53.4867107773153],[-3.05001175921662,53.4869354519912],[-3.05038845186079,53.4869321495439],[-3.05039400148082,53.4871568241959],[-3.05077069604286,53.4871535205457],[-3.05077624773035,53.4873781951737],[-3.05078179949264,53.4876028697933],[-3.05115849796528,53.4875995649246],[-3.05116405179512,53.4878242395201],[-3.05154075422203,53.4878209324085],[-3.05154631021664,53.4880456068927],[-3.0519230164128,53.4880422975654],[-3.05192857455195,53.4882669719154],[-3.05193413276819,53.4884916462538],[-3.05231084302223,53.4884883354971],[-3.05231640338309,53.4887130097013],[-3.05269311562751,53.4887096976376],[-3.05269867813306,53.4889343717077],[-3.05270424071574,53.4891590457661],[-3.05270980337558,53.4893837198128],[-3.05271536611256,53.4896083938478],[-3.05233864559771,53.4896117064014],[-3.05234420634416,53.4898363805472],[-3.05272092892669,53.4898330678711],[-3.05272649181797,53.4900577418828],[-3.05310321639102,53.4900544278997],[-3.05310878142718,53.4902791017771],[-3.05348550799074,53.490275786487],[-3.05349107517184,53.4905004602303],[-3.05349664243015,53.4907251339619],[-3.05350220976567,53.4909498076817],[-3.05387894245533,53.4909464908395],[-3.0538845119359,53.4911711644252],[-3.05426124661612,53.4911678462759],[-3.05426681824179,53.4913925197273],[-3.05427238994474,53.4916171931671],[-3.05427796172496,53.4918418665952],[-3.05428353360082,53.4920665399177],[-3.05428910556366,53.4922912131795],[-3.05429467760389,53.4925158864297],[-3.05467142462464,53.4925125663676],[-3.05467699881434,53.4927372394855],[-3.05468257308146,53.4929619125917],[-3.05468814742601,53.4931865856863],[-3.05506490058557,53.4931832640775],[-3.05507047707969,53.4934079370398],[-3.05507605365127,53.4936326099904],[-3.05545281087766,53.4936292869555],[-3.0554583895989,53.4938539597738],[-3.05546396839763,53.4940786325805],[-3.05546954727385,53.4943033053755],[-3.05584631063938,53.4942999807937],[-3.05585189166537,53.4945246534564],[-3.05585747276889,53.4947493261074],[-3.05623424020145,53.4947460000995],[-3.05623982345482,53.4949706726181],[-3.05624540678574,53.4951953451252],[-3.05625099019421,53.4954200176205],[-3.05662776376627,53.4954166900656],[-3.05663334932472,53.4956413624286],[-3.05663893496074,53.49586603478],[-3.05664452067435,53.4960907071197],[-3.05665010646554,53.4963153794478],[-3.05702688824981,53.496312050225],[-3.05703247619112,53.4965367224207],[-3.05703806421004,53.4967613946047],[-3.05704365230658,53.4969860667771],[-3.05704924048074,53.4972107389379],[-3.05705482873252,53.497435411087],[-3.05667803658535,53.4974387409135],[-3.05630124436055,53.4974420695551],[-3.05592445205814,53.4974453970119],[-3.05554765967816,53.4974487232837],[-3.05517086722063,53.4974520483707],[-3.05479407468558,53.4974553722728],[-3.05441728207304,53.49745869499],[-3.05404048938304,53.4974620165222],[-3.05366369661561,53.4974653368696],[-3.05328690377077,53.4974686560321],[-3.05329247137348,53.4976933293767],[-3.05291567637858,53.4976966474749],[-3.05292124198592,53.4979213209286],[-3.05254444484097,53.4979246379626],[-3.0525500084529,53.4981493115252],[-3.05217320915789,53.4981526274949],[-3.05179640978558,53.4981559422797],[-3.05179085031912,53.4979312684757],[-3.05141405294228,53.4979345819549],[-3.05140849562577,53.4977099080187],[-3.05103170613753,53.4977132148371],[-3.05103726133833,53.4979378889079],[-3.05104281661399,53.4981625629701],[-3.05104837196453,53.4983872370237],[-3.05105392738993,53.4986119110687],[-3.05143072535506,53.4986086036937],[-3.05143628298042,53.4988332775834],[-3.05144184068299,53.4990579514615],[-3.05144739846278,53.4992826253279],[-3.05145295631978,53.4995072991827],[-3.05182976820638,53.4995039848591],[-3.05183532821353,53.4997286585816],[-3.05184088829794,53.4999533322925],[-3.0518464484596,53.5001780059918],[-3.05185201022825,53.5004026777864],[-3.05185757281513,53.5006273486522],[-3.05223439487365,53.5006240326691],[-3.05223995955983,53.5008487034568],[-3.05186313547781,53.5008520195079],[-3.05148631131996,53.5008553343724],[-3.05110949199687,53.500858643356],[-3.05110393351455,53.5006339722437],[-3.05109837510868,53.5004093011209],[-3.05109281746418,53.5001846291429],[-3.05108726151466,53.4999599551581],[-3.05071045332021,53.499963259777],[-3.05070489943993,53.4997385857656],[-3.05032809316497,53.4997418891785],[-3.05032254135388,53.4995172151405],[-3.0499457369984,53.4995205173474],[-3.04956893256809,53.4995238183662],[-3.04957448039051,53.4997484924401],[-3.04919767389107,53.4997517922888],[-3.04920321979389,53.4999764663721],[-3.04882641122531,53.4999797650507],[-3.04844960258198,53.4999830625413],[-3.04845514457075,53.5002077366518],[-3.0480783338583,53.5002110329723],[-3.04808387546992,53.5004357051672],[-3.04770706267158,53.500439000335],[-3.04770152307116,53.5002143281047],[-3.04732471220934,53.5002176220491],[-3.047330249797,53.5004422943165],[-3.04695343684621,53.5004455871118],[-3.04657662381923,53.5004488787209],[-3.0461998107161,53.5004521691437],[-3.04620534250346,53.5006768413072],[-3.0462108743669,53.5009015134602],[-3.04658769156524,53.5008982228774],[-3.04659322555242,53.50112289494],[-3.04621640630644,53.5011261856028],[-3.04583958698434,53.5011294750794],[-3.04546276758613,53.5011327633696],[-3.04508594811184,53.5011360504737],[-3.04509147398446,53.5013607228458],[-3.04471465238645,53.5013640088435],[-3.04433783071241,53.5013672936549],[-3.04396100896238,53.50137057728],[-3.04358418713638,53.5013738597189],[-3.04357866945447,53.501149187027],[-3.04357315184845,53.5009245143248],[-3.04319633404184,53.5009277954175],[-3.04319081855936,53.5007031226249],[-3.04281400272447,53.5007064024515],[-3.04243718681369,53.5007096810918],[-3.04206037082707,53.5007129585458],[-3.04206588016667,53.5009376315781],[-3.04168906205659,53.5009409079258],[-3.04169456942432,53.5011655810276],[-3.04131774919079,53.5011688562688],[-3.04094092888148,53.5011721303238],[-3.04056410849643,53.5011754031925],[-3.04055860727167,53.5009507298512],[-3.04018178885856,53.5009540014537],[-3.04017628975712,53.5007293280222],[-3.04017079073133,53.5005046545802],[-3.03979397633778,53.5005079248368],[-3.03978847943522,53.5002832513046],[-3.0394116670136,53.5002865202951],[-3.03940617278766,53.5000618459009],[-3.03940067873886,53.4998371713544],[-3.03902387022998,53.4998404391261],[-3.03864706164705,53.4998437057096],[-3.0382702529901,53.4998469711052],[-3.03827574105569,53.5000716457047],[-3.03789893033034,53.5000749099299],[-3.03752211953102,53.5000781729669],[-3.0375276037716,53.5003028474542],[-3.03715079089662,53.5003061093272],[-3.03677397794618,53.500309370014],[-3.03677945846802,53.5005340441845],[-3.03640264339455,53.5005373037647],[-3.03602582824567,53.5005405621587],[-3.03602035181902,53.5003158878287],[-3.0360148755946,53.5000912132347],[-3.03563806442585,53.5000944703315],[-3.03563259032114,53.4998697956086],[-3.03525578107299,53.4998730514997],[-3.03525030903645,53.4996483767506],[-3.03524483707365,53.4994237019929],[-3.03486803174048,53.4994269566608],[-3.03486256184577,53.4992022818769],[-3.03485709202478,53.4989776070844],[-3.0344802912819,53.4989808634222],[-3.03447482354927,53.4987561886927],[-3.0340980253576,53.4987594465299],[-3.03409255969573,53.4985347717901],[-3.0337157634273,53.4985380284367],[-3.03371029983614,53.4983133536866],[-3.03333350549093,53.4983166091426],[-3.03332804397043,53.4980919343822],[-3.03295125154846,53.4980951886476],[-3.03294579209857,53.4978705138769],[-3.03256900159983,53.4978737669518],[-3.03219221102744,53.4978770188382],[-3.03219766648348,53.4981016936132],[-3.03182087384053,53.4981049443133],[-3.03182632737323,53.4983296190823],[-3.03144953265972,53.4983328685961],[-3.03145498426902,53.498557543359],[-3.03107818748495,53.4985607916865],[-3.03108363717079,53.4987854664433],[-3.03070683831615,53.4987887135845],[-3.03071228607848,53.4990133883352],[-3.03033548515328,53.49901663429],[-3.03034093099204,53.4992413090347],[-3.02996412799627,53.499244553803],[-3.02996957191141,53.4994692285416],[-3.02959276684507,53.4994724721236],[-3.02959820883654,53.4996971468561],[-3.02922140169963,53.4997003892516],[-3.02922684176737,53.499925063978],[-3.02885003255988,53.4999283051871],[-3.02885547070384,53.5001529799073],[-3.02847865942577,53.5001562199299],[-3.02848409564431,53.5003808945708],[-3.0281072822959,53.5003841334054],[-3.02773046887416,53.5003873710514],[-3.02772503664952,53.5001626964096],[-3.0273482251514,53.5001659328666],[-3.02734279499616,53.4999412581383],[-3.02696598542193,53.4999444934049],[-3.02696055733711,53.4997198186664],[-3.02658374968678,53.4997230527425],[-3.02657832367233,53.4994983779939],[-3.02620151794589,53.4995016108795],[-3.02619609400175,53.4992769361209],[-3.02581929019921,53.4992801678161],[-3.02581386832533,53.4990554930473],[-3.02543706644669,53.499058723552],[-3.02543164664302,53.4988340487732],[-3.02505484668828,53.4988372780875],[-3.02506026449489,53.4990619528684],[-3.02468346246997,53.4990651809962],[-3.02430666037195,53.4990684079356],[-3.02392985820086,53.4990716336865],[-3.02392444638543,53.4988469588999],[-3.02354764613835,53.4988501834605],[-3.02317084581826,53.4988534068326],[-3.02316543806991,53.4986287320341],[-3.02278863967387,53.4986319542159],[-3.02278323399549,53.4984072794074],[-3.02240643752349,53.4984105003989],[-3.02240103391503,53.4981858255803],[-3.02202423936709,53.4981890453815],[-3.02164744474624,53.4981922639943],[-3.02164204520461,53.4979675891639],[-3.02126525250784,53.4979708065863],[-3.02088845973823,53.4979740228204],[-3.02089385528594,53.4981986976545],[-3.02051706044654,53.498201912702],[-3.02052245407005,53.4984265875297],[-3.02014565716085,53.4984298013906],[-3.02015104886012,53.498654476212],[-3.01977424988113,53.4986576888862],[-3.01977963965609,53.4988823637012],[-3.01940283860731,53.4988855751888],[-3.01940822645791,53.4991102499975],[-3.01903142333933,53.4991134602984],[-3.01903680926552,53.4993381351007],[-3.01866000407713,53.4993413442149],[-3.01866538807886,53.4995660190109],[-3.01828858082067,53.4995692269384],[-3.01829396289788,53.499793901728],[-3.01791715355768,53.4997971091918],[-3.01792253371113,53.5000217839386],[-3.01754572226491,53.5000249924105],[-3.01716891074612,53.5000281996945],[-3.01717428697867,53.500252874478],[-3.01679747339047,53.5002560805957],[-3.01679209915477,53.5000314057905],[-3.01678672499145,53.4998067309744],[-3.01640991532429,53.4998099358595],[-3.01640454323014,53.4995852610115],[-3.01602773548717,53.4995884646857],[-3.01602236546215,53.4993637898059],[-3.01564555964337,53.4993669922692],[-3.01526875375214,53.4993701935445],[-3.01489194778851,53.499373393632],[-3.01451514175248,53.4993765925317],[-3.0141383356441,53.4993797902434],[-3.01376152946338,53.4993829867673],[-3.01375617149061,53.4991583117407],[-3.01337936723423,53.4991615070537],[-3.01337401133035,53.4989368319953],[-3.0129972089983,53.4989400260975],[-3.01299185516327,53.4987153510074],[-3.01261505475556,53.4987185438988],[-3.0126097029893,53.498493868777],[-3.01260435129524,53.4982691936464],[-3.01222755480841,53.498272385304],[-3.01185075824939,53.4982755757738],[-3.01184541062053,53.4980509005886],[-3.01146861598586,53.4980540898476],[-3.01146327042563,53.4978294146307],[-3.0110864777153,53.497832602679],[-3.01108113422364,53.4976079274304],[-3.01070434343767,53.497611114268],[-3.01032755257962,53.4976142999177],[-3.0103222131529,53.4973896246146],[-3.00994542421923,53.4973928090537],[-3.00995076164951,53.4976174843797],[-3.00957397064738,53.4976206676539],[-3.00957930615319,53.4978453429942],[-3.00995609915178,53.4978421596971],[-3.00996143672606,53.4980668350056],[-3.01033823164912,53.4980636504979],[-3.01034357129191,53.4982883257748],[-3.00996677437234,53.4982915103055],[-3.00997211209061,53.4985161855966],[-3.00959531310246,53.4985193689623],[-3.00960064889617,53.4987440442675],[-3.0099774498809,53.4987408608789],[-3.00998278774318,53.4989655361525],[-3.01035959065248,53.4989623515531],[-3.0103649305834,53.499187026795],[-3.01074173541726,53.4991838409849],[-3.01111854017902,53.4991806539869],[-3.01112388417528,53.4994053291742],[-3.01074707741686,53.4994085161951],[-3.01075241948853,53.4996331913967],[-3.01037561066135,53.4996363772526],[-3.01038095080838,53.4998610524683],[-3.01038629102744,53.5000857276752],[-3.01000947813476,53.5000889123891],[-3.01001481640123,53.5003135875939],[-3.00963800143678,53.5003167711427],[-3.00964333770052,53.5005414463217],[-3.00926652066188,53.500544628708],[-3.00927185499569,53.5007693039036],[-3.00889503588284,53.5007724851276],[-3.00890036828667,53.5009971603398],[-3.00852354709962,53.5010003404013],[-3.00814672584047,53.5010035192749],[-3.00815205431215,53.5012281945291],[-3.00777523097882,53.5012313722402],[-3.00778055752038,53.501456047511],[-3.00778588413395,53.501680722773],[-3.0081627114716,53.501677545011],[-3.00816804015938,53.5019022202388],[-3.00854486942717,53.5018990412635],[-3.00855020018922,53.502123716457],[-3.00892703138715,53.5021205362684],[-3.00893236422352,53.5023452114277],[-3.00930919735158,53.5023420300258],[-3.00968603040749,53.5023388474359],[-3.00969136732052,53.5025635225355],[-3.01006820230654,53.5025603387322],[-3.01007354129402,53.5027850137976],[-3.00969670430569,53.5027881976262],[-3.00970204136302,53.5030128727082],[-3.00970737849249,53.5032375477813],[-3.00933053742729,53.5032407304729],[-3.00895369628994,53.5032439119765],[-3.0089590294868,53.5034685870917],[-3.00858218627493,53.5034717674328],[-3.00858751754146,53.5036964425645],[-3.00859284888008,53.5039211176875],[-3.0089696960968,53.5039179372955],[-3.00897502950996,53.5041426123842],[-3.00898036299523,53.5043672874641],[-3.00860351177353,53.5043704679069],[-3.00860884332837,53.5045951430033],[-3.00861417495529,53.504819818091],[-3.0086195066543,53.5050444931698],[-3.00862483842539,53.5052691682398],[-3.00824797912132,53.5052723475962],[-3.00825330896185,53.5054970226828],[-3.00825863887445,53.5057216977606],[-3.00826396885911,53.5059463728296],[-3.00864083417116,53.5059431933969],[-3.0086461662306,53.5061678684317],[-3.00902303347325,53.5061646877855],[-3.00939990064376,53.5061615059513],[-3.00940523678076,53.5063861809263],[-3.00978210588184,53.5063829978786],[-3.00978744409376,53.5066076728193],[-3.0101643151254,53.506604488558],[-3.01054118608481,53.5066013031086],[-3.01054652837448,53.5068259779896],[-3.01092340126443,53.5068227913266],[-3.01092874562914,53.5070474661734],[-3.01130562044962,53.5070442782967],[-3.01131096688942,53.5072689531092],[-3.01168784364043,53.5072657640189],[-3.0120647203191,53.5072625737406],[-3.01207007083692,53.5074872484932],[-3.01244694944609,53.5074840570012],[-3.01245230203914,53.5077087317195],[-3.0128291825788,53.5077055390138],[-3.01320606304604,53.5077023451199],[-3.01321141971729,53.5079270197783],[-3.013588302115,53.5079238246708],[-3.01359366086161,53.5081484992948],[-3.01397054518978,53.5081453029736],[-3.01434742944543,53.5081421054641],[-3.01435279227043,53.5083667800282],[-3.01435815516911,53.5085914545838],[-3.01398126690817,53.5085946521445],[-3.013986627913,53.508819326724],[-3.01360973758051,53.5088225231227],[-3.01323284717565,53.5088257183332],[-3.01285595669845,53.5088289123556],[-3.01286131177813,53.5090535870048],[-3.01248441922943,53.5090567798652],[-3.01210752660844,53.5090599715373],[-3.01211287776201,53.5092846462301],[-3.01173598306955,53.5092878367402],[-3.01135908830484,53.5092910260621],[-3.01136443553219,53.5095157007983],[-3.01098753869604,53.5095188889581],[-3.01099288399631,53.5097435637117],[-3.01136978283172,53.5097403755257],[-3.01137513020345,53.5099650502442],[-3.01138047764736,53.5101897249539],[-3.01100357481335,53.5101929131922],[-3.01062667190714,53.5101961002422],[-3.01024976892876,53.5101992861039],[-3.00987286587825,53.5102024707775],[-3.00987820539698,53.5104271455828],[-3.00950130027501,53.5104303290942],[-3.00949596275563,53.5102056542627],[-3.0094906253083,53.5099809794224],[-3.00911372411291,53.5099841616934],[-3.00910838873693,53.5097594868181],[-3.00948528793302,53.5097563045733],[-3.00986218705704,53.5097531211402],[-3.00985684775455,53.5095284463083],[-3.01023374480719,53.5095252617132],[-3.01061064178769,53.5095220759298],[-3.01060529855881,53.5092974011413],[-3.01059995540207,53.509072726344],[-3.01059461231745,53.5088480515378],[-3.01021772133458,53.5088512372428],[-3.01021238032125,53.5086265624017],[-3.0098354912654,53.5086297468924],[-3.00983015238739,53.508405072028],[-3.00982481359806,53.5081803971578],[-3.0094479284741,53.5081835804091],[-3.00944259175991,53.5079589055047],[-3.00943725511786,53.5077342305914],[-3.00906037392761,53.5077374126036],[-3.00905503936062,53.5075127376561],[-3.00867816010112,53.5075159184548],[-3.00867282760913,53.507291243473],[-3.00866749518924,53.5070665684823],[-3.00829061986334,53.507069748042],[-3.00791374446534,53.5070729264136],[-3.00790841612319,53.5068482513633],[-3.00790308785308,53.5066235763043],[-3.00752621638864,53.5066267534369],[-3.00752089019334,53.5064020783436],[-3.00714402065963,53.5064052542628],[-3.00713869653908,53.5061805791353],[-3.00676182893612,53.5061837538409],[-3.00675650689027,53.5059590786792],[-3.00713337249052,53.5059559039989],[-3.00712804851393,53.5057312288538],[-3.00675118491638,53.5057344035087],[-3.00674586301444,53.5055097283294],[-3.00636900134758,53.5055129017709],[-3.00636368152023,53.5052882265574],[-3.0063583617648,53.505063551335],[-3.00598150403124,53.5050667235377],[-3.00597618635033,53.5048420482812],[-3.00559933054744,53.5048452192705],[-3.00559401494098,53.5046205439799],[-3.00521716106876,53.5046237137558],[-3.0052118475367,53.504399038431],[-3.00520653407648,53.5041743630973],[-3.00482968413744,53.5041775316346],[-3.00482437275154,53.5039528562668],[-3.00444752474316,53.5039560235908],[-3.00444221543152,53.5037313481888],[-3.00406536935379,53.5037345142995],[-3.00406006211637,53.5035098388634],[-3.00368321796929,53.5035130037608],[-3.00367791280602,53.5032883282906],[-3.00367260771448,53.5030636528117],[-3.00329576750044,53.5030668164704],[-3.00329046448297,53.5028421409574],[-3.00291362619958,53.5028453034029],[-3.00290832525613,53.5026206278558],[-3.00253148890337,53.5026237890881],[-3.00252619003389,53.5023991135069],[-3.00214935561177,53.502402273526],[-3.00177252111802,53.5024054323572],[-3.00139568655265,53.5024085900004],[-3.00140097941522,53.5026332656574],[-3.0010241402774,53.5026364219372],[-3.00064730065002,53.5026395769953],[-3.00027046095134,53.5026427308656],[-2.9998936211814,53.5026458835478],[-2.99988833625533,53.502421207792],[-2.99951149840823,53.5024243592624],[-2.9995167813402,53.502649035042],[-2.99913994142779,53.5026521853482],[-2.99913466048991,53.5024275095448],[-2.9987578225004,53.5024306586393],[-2.99876310144419,53.5026553344665],[-2.99838626138942,53.5026584823967],[-2.99839153841022,53.5028831582389],[-2.99801469629019,53.502886305005],[-2.99763785409905,53.502889450583],[-2.99764312720266,53.5031141264639],[-2.99726628294628,53.5031172708777],[-2.99688943861884,53.5031204141035],[-2.99688416950355,53.502895738175],[-2.99687890045925,53.5026710622378],[-2.99725574079841,53.5026679190595],[-2.99725046983102,53.5024432431373],[-2.99687363148596,53.5024463862918],[-2.99686836258368,53.5022217103371],[-2.99686309375239,53.5019970343735],[-2.99685782499211,53.5017723584012],[-2.99723465735501,53.5017692153179],[-2.99761148964687,53.5017660710466],[-2.9976167623952,53.5019907469714],[-2.99799359660999,53.5019876014885],[-2.99798832186765,53.5017629255874],[-2.99836515401732,53.5017597789402],[-2.99835987735206,53.5015351030542],[-2.99835460075791,53.5013104271593],[-2.99797777259619,53.5013135737589],[-2.99797249806708,53.5010888978316],[-2.99796722360904,53.5008642218954],[-2.99834404778291,53.5008610753433],[-2.99833877140206,53.5006363994221],[-2.99796194922208,53.5006395459505],[-2.99795667490619,53.5004148699968],[-2.99757985464896,53.5004180153134],[-2.99720303432066,53.5004211594422],[-2.99719776401623,53.5001964834239],[-2.99682094561401,53.5001996263408],[-2.99644412714071,53.5002027680699],[-2.99606730859634,53.5002059086112],[-2.99606204420644,53.4999812324784],[-2.99568522758743,53.4999843718051],[-2.99530841089742,53.4999875099441],[-2.99493159413643,53.4999906468952],[-2.99455477730448,53.4999937826585],[-2.99454952097106,53.4997691064099],[-2.99454426470854,53.4995444301525],[-2.99416745179839,53.4995475646746],[-2.99416219760309,53.4993228883816],[-2.99378538661836,53.4993260216892],[-2.99340857556276,53.499329153809],[-2.99340332543091,53.4991044774538],[-2.99302651630076,53.4991076083591],[-2.993021268236,53.4988829319683],[-2.99301602024202,53.4986582555686],[-2.99339282537965,53.4986551247166],[-2.99376963044645,53.4986519926769],[-2.99376437853082,53.4984273163217],[-2.99414118153054,53.498424183121],[-2.99413592768957,53.4981995067836],[-2.99375912668603,53.4982026399577],[-2.99375387491208,53.4979779635848],[-2.99374862320896,53.4977532872031],[-2.9941254202202,53.4977501540825],[-2.99412016659181,53.4975254777186],[-2.99374337157667,53.4975286108125],[-2.99336657649068,53.4975317427188],[-2.99337182612686,53.497756419136],[-2.99299502897392,53.4977595498813],[-2.99261823175018,53.4977626794388],[-2.9926234774649,53.4979873559006],[-2.99224667817424,53.4979904842971],[-2.99225192196355,53.4982151607767],[-2.99187512060597,53.4982182880122],[-2.99188036246981,53.4984429645096],[-2.99188560440436,53.4986676409982],[-2.99150879898364,53.4986707670992],[-2.99150355904532,53.498446090584],[-2.99112675555012,53.4984492154707],[-2.99074995198425,53.4984523391696],[-2.99074471610899,53.4982276625922],[-2.99036791446867,53.4982307850768],[-2.98999111275773,53.4982339063736],[-2.98998588094543,53.4980092297342],[-2.98960908116007,53.4980123498167],[-2.98923228130414,53.4980154687115],[-2.98885548137768,53.4980185864186],[-2.98885025562439,53.4977939096905],[-2.98847345762356,53.4977970261833],[-2.98846823393688,53.4975723494198],[-2.98884502994158,53.4975692329536],[-2.98883980432926,53.4973445562078],[-2.98883457878742,53.4971198794532],[-2.98921137072945,53.4971167618525],[-2.98920614326204,53.4968920851156],[-2.9895829331375,53.4968889663537],[-2.98957770374459,53.4966642896346],[-2.98995449155348,53.4966611697117],[-2.98994926023511,53.4964364930102],[-2.99032604597744,53.4964333719263],[-2.99070283164915,53.4964302496547],[-2.99069759640943,53.4962055729976],[-2.99107438001455,53.496202449565],[-2.99106914284951,53.4959777729258],[-2.99144592438804,53.4959746483322],[-2.99144068529774,53.4957499717107],[-2.99181746476969,53.4957468459561],[-2.99181222375417,53.4955221693524],[-2.99218900115953,53.4955190424368],[-2.99256577849416,53.4955159143337],[-2.99256053355764,53.4952912377745],[-2.99293730882566,53.4952881085104],[-2.99293206196407,53.495063431969],[-2.99330883516549,53.495060301544],[-2.99368560829609,53.4950571699314],[-2.99368035751369,53.4948324934346],[-2.99367510680211,53.4946078169288],[-2.99405187587033,53.4946046841821],[-2.99442864486768,53.4946015502478],[-2.99442339023546,53.4943768737866],[-2.99480015716619,53.4943737386915],[-2.99479490060913,53.4941490622481],[-2.99517166547324,53.4941459259922],[-2.99516640699141,53.4939212495667],[-2.9955431697889,53.49391811215],[-2.9955484302664,53.4941427885487],[-2.99592519498859,53.4941396499176],[-2.99593045753274,53.4943643262807],[-2.99593572014786,53.4945890026349],[-2.99631248879046,53.4945858627628],[-2.99668925736204,53.4945827217031],[-2.99668399075548,53.4943580454025],[-2.99706075726028,53.494354903182],[-2.997437523694,53.494351759774],[-2.99743225316708,53.494127083518],[-2.997809017534,53.4941239389493],[-2.9978037450825,53.4938992627113],[-2.99818050738263,53.4938961169818],[-2.9981752330066,53.4936714407617],[-2.99855199323993,53.4936682938715],[-2.99854671693944,53.4934436176694],[-2.99892347510598,53.4934404696185],[-2.99891819688106,53.4932157934343],[-2.99929495298081,53.4932126442228],[-2.99928967283152,53.4929879680566],[-2.99966642686449,53.4929848176844],[-2.99966114479089,53.4927601415362],[-2.99965586278853,53.4925354653792],[-3.00003261275922,53.4925323138732],[-3.00002732883262,53.4923076377341],[-2.99965058085739,53.4923107892132],[-2.99964529899749,53.4920861130385],[-2.99926855294645,53.4920892633032],[-2.99927383281091,53.4923139395049],[-2.9988970846932,53.4923170886091],[-2.99852033650427,53.4923202365258],[-2.9985150606307,53.4920955602705],[-2.99813831436605,53.492098706973],[-2.99813304056944,53.4918740307021],[-2.99775629622939,53.4918771761891],[-2.99775102454643,53.491652499964],[-2.99812776688543,53.4916493545026],[-2.99812249327271,53.4914246782942],[-2.9984992335394,53.491421531671],[-2.99849395799696,53.4911968554794],[-2.99887069619133,53.4911937076944],[-2.99924743431434,53.4911905587219],[-2.99962417236598,53.491187408562],[-2.99962945391137,53.4914120846766],[-3.00000619389257,53.4914089333036],[-3.00001147751036,53.4916336093837],[-3.00038821942114,53.4916304567975],[-3.00076496126045,53.4916273030239],[-3.00075967364064,53.4914026269951],[-3.00113641340745,53.4913994720598],[-3.00113112385813,53.4911747960479],[-3.0011258343803,53.4909501200272],[-3.0015025688338,53.4909469637948],[-3.00149727747062,53.4907222877954],[-3.0014919861788,53.4904976117871],[-3.00186871481274,53.4904944541849],[-3.00186342159653,53.4902697781908],[-3.00185812845171,53.4900451021878],[-3.0018528353783,53.4898204261762],[-3.00222955795359,53.4898172674551],[-3.00222426295588,53.4895925914575],[-3.00221896802959,53.4893679154512],[-3.00259568654209,53.4893647555884],[-3.00259038969159,53.4891400795962],[-3.00258509291253,53.4889154035953],[-3.00296180736232,53.4889122425908],[-3.00295650865913,53.488687566604],[-3.00295121002741,53.4884628906084],[-3.00332792041459,53.4884597284622],[-3.00332261985881,53.4882350524808],[-3.00369932817895,53.4882318891701],[-3.00369402569917,53.4880072132028],[-3.00407073195227,53.4880040487276],[-3.0044474381338,53.4880008830651],[-3.00444213173461,53.4877762071349],[-3.00443682540699,53.4875515311959],[-3.00443151915094,53.4873268552482],[-3.00480821927457,53.487323688467],[-3.00480291109471,53.4870990125334],[-3.00517960915133,53.4870958445878],[-3.00555630713631,53.4870926754549],[-3.00555099503734,53.4868679995585],[-3.00592769095529,53.4868648292612],[-3.00592237693264,53.4866401533789],[-3.00629907078357,53.4866369819172],[-3.00629375483729,53.4864123060492],[-3.00667044662121,53.4864091334231],[-3.00666512875136,53.4861844575693],[-3.00704181846825,53.4861812837789],[-3.00741850811337,53.4861781088013],[-3.00779519768669,53.4861749326363],[-3.00778987390285,53.4859502568427],[-3.00778455019081,53.4857255810403],[-3.00816123570186,53.4857224037341],[-3.00815591006644,53.485497727946],[-3.00853259351045,53.4854945494754],[-3.0085272659517,53.4852698737016],[-3.00890394732868,53.4852666940668],[-3.00889861784666,53.4850420183072],[-3.0092752971566,53.4850388375082],[-3.00965197639461,53.485035655522],[-3.00964664299428,53.4848109797998],[-3.00964130966588,53.4845863040688],[-3.01001798484177,53.4845831209414],[-3.01001264959025,53.4843584452247],[-3.01038932269912,53.4843552609331],[-3.01038398552455,53.4841305852307],[-3.01037864842195,53.4839059095196],[-3.01075531746882,53.483902724087],[-3.01074997844324,53.4836780483901],[-3.01112664542312,53.4836748617934],[-3.01112130458855,53.4834501860925],[-3.01149796950441,53.483446998333],[-3.01149262682108,53.4832223226374],[-3.01148728420979,53.4829976469329],[-3.01111062328275,53.4830008346405],[-3.01110528273786,53.4827761589012],[-3.01148194167055,53.4827729712196],[-3.01147659920334,53.4825482954975],[-3.01147125680816,53.4823236197665],[-3.01184791168014,53.4823204309498],[-3.01184256736272,53.4820957552359],[-3.01183722311736,53.4818710795132],[-3.01221387392871,53.4818678895614],[-3.01259052466795,53.4818646984226],[-3.01259587290182,53.4820893740933],[-3.01297252556316,53.4820861817415],[-3.01296717533505,53.4818615060968],[-3.01334382592998,53.4818583125839],[-3.01333847377979,53.4816336369564],[-3.0137151223083,53.4816304422825],[-3.01370976823608,53.4814057666722],[-3.01408641469818,53.4814025708373],[-3.01408105870398,53.4811778952442],[-3.014075702782,53.4809532196422],[-3.01445234518355,53.4809500226724],[-3.01444698733968,53.4807253470876],[-3.01482362767485,53.4807221489569],[-3.01481826790913,53.4804974733893],[-3.01519490617793,53.4804942740977],[-3.01518954449042,53.4802695985473],[-3.0151841828752,53.4800449229881],[-3.01480754859449,53.4800481222276],[-3.01480218904556,53.4798234466335],[-3.0147968295689,53.4795987710306],[-3.0147914701645,53.4793740954188],[-3.01516809846329,53.4793708962574],[-3.01516273713723,53.4791462206629],[-3.01553936336979,53.4791430203407],[-3.01553400012212,53.4789183447634],[-3.01552863694676,53.4786936691772],[-3.01552327384372,53.4784689935821],[-3.01589989402234,53.4784657921513],[-3.01589452899779,53.4782411165735],[-3.01627114711025,53.4782379139818],[-3.01626578016425,53.4780132384213],[-3.01588916404557,53.4780164409868],[-3.01551254785454,53.4780196423655],[-3.01550718496841,53.477794966744],[-3.01513057069881,53.4777981669097],[-3.01475395635689,53.4778013658887],[-3.0143773419427,53.4778045636807],[-3.01437198511008,53.4775798879721],[-3.01436662834968,53.4773552122547],[-3.01436127166149,53.4771305365285],[-3.01435591504553,53.4769058607934],[-3.01435055850179,53.4766811850494],[-3.01434520203027,53.4764565092967],[-3.01472180448245,53.4764533116609],[-3.01472716294758,53.4766779873876],[-3.01473252148495,53.4769026631055],[-3.01473788009456,53.4771273388146],[-3.01474323877642,53.4773520145148],[-3.01474859753053,53.4775766902061],[-3.01512520987871,53.4775734912533],[-3.01550182215459,53.4775702911136],[-3.01549645941307,53.4773456154743],[-3.01549109674385,53.4771209398262],[-3.01548573414693,53.4768962641693],[-3.01548037162231,53.4766715885035],[-3.01547500916999,53.4764469128289],[-3.01585161140529,53.4764437116328],[-3.01585697585121,53.4766683872813],[-3.01586234036945,53.476893062921],[-3.01586770496002,53.4771177385519],[-3.01587306962291,53.4773424141739],[-3.01587843435814,53.477567089787],[-3.01588379916569,53.4777917653914],[-3.01626041329061,53.4777885628519],[-3.01663702734314,53.4777853591256],[-3.01663165854813,53.4775606835734],[-3.0166262898255,53.4773360080124],[-3.0170028998182,53.4773328031515],[-3.01699752917428,53.4771081276078],[-3.01699215860277,53.4768834520552],[-3.01698678810367,53.4766587764938],[-3.01698141767697,53.4764341009235],[-3.0166048156588,53.4764373056801],[-3.01659944729807,53.4762126300749],[-3.01659407900972,53.4759879544608],[-3.01658871079374,53.475763278838],[-3.01658334265014,53.4755386032062],[-3.0165779745789,53.4753139275657],[-3.0162013824559,53.4753171310049],[-3.01619601634105,53.4750924552585],[-3.016190650256,53.4748677794756],[-3.01618528424328,53.4746431036838],[-3.0158086980292,53.4746463058591],[-3.01580333408176,53.4744216300322],[-3.01579797020662,53.4741969541965],[-3.01579260640377,53.473972278352],[-3.01541602609613,53.4739754792618],[-3.01541066435846,53.4737508033822],[-3.01540530269306,53.4735261274937],[-3.01539994109992,53.4733014515964],[-3.01539457957905,53.4730767756903],[-3.01501800717044,53.4730799753085],[-3.0150126477146,53.4728552993673],[-3.01463607722649,53.4728584977727],[-3.01463071983562,53.4726338217964],[-3.01462536251697,53.4724091458112],[-3.01500192901963,53.4724059474583],[-3.0149965697805,53.4721812714905],[-3.0149912106136,53.4719565955139],[-3.01498585151893,53.4717319195284],[-3.0149804924965,53.4715072435341],[-3.01497513354629,53.4712825675309],[-3.01496977466831,53.4710578915189],[-3.01459322012136,53.4710610897146],[-3.01421666550219,53.4710642867238],[-3.01421131068148,53.4708396106505],[-3.01383475798263,53.4708428064469],[-3.01345820521161,53.4708460010567],[-3.01345285444808,53.4706213249223],[-3.01307630359742,53.4706245183194],[-3.01307095489848,53.4703998421499],[-3.01269440596818,53.4704030343343],[-3.01268905933378,53.4701783581298],[-3.01268371277145,53.4699536819164],[-3.01230716775393,53.469956872862],[-3.01193062266435,53.4699600626211],[-3.01192528015888,53.4697353863466],[-3.01154873698966,53.469738574893],[-3.01154339654857,53.4695138985835],[-3.01116685529973,53.4695170859173],[-3.01116151692295,53.4692924095729],[-3.01115617861813,53.4690677332196],[-3.01077964128198,53.4690709193147],[-3.0107743050414,53.4688462429264],[-3.01039776962561,53.4688494278089],[-3.01002123413789,53.4688526115049],[-3.00964469857828,53.4688557940145],[-3.00963936838644,53.4686311175392],[-3.00926283474724,53.4686342988362],[-3.00925750661948,53.4684096223259],[-3.00888097490069,53.4684128024104],[-3.00887564883697,53.4681881258652],[-3.00849911903859,53.4681913047372],[-3.00849379503884,53.4679666281571],[-3.00811726716088,53.4679698058167],[-3.00811194522506,53.4677451292017],[-3.00773541926752,53.4677483056487],[-3.00773009939557,53.4675236289989],[-3.00735357535845,53.4675268042335],[-3.00734825755031,53.4673021275488],[-3.00697173543362,53.467305301571],[-3.00696641968925,53.4670806248514],[-3.00696110399835,53.4668559483518],[-3.00658458579276,53.4668591211175],[-3.00620806751577,53.4668622926974],[-3.00620275582067,53.4666376166348],[-3.00619744419693,53.4664129405627],[-3.00582092981647,53.4664161108539],[-3.00544441536466,53.4664192799594],[-3.00543910778013,53.4661946037746],[-3.00506259524091,53.466197771643],[-3.00505728971158,53.4659730953971],[-3.00505198425352,53.4657484191417],[-3.00467547561078,53.4657515857214],[-3.00467017220783,53.4655269094048],[-3.00429366547767,53.4655300747474],[-3.00428836412979,53.4653053983698],[-3.0039118593122,53.4653085624753]]],[[[-3.0277074697008,53.4682523486408],[-3.02771289536878,53.4684770239948],[-3.02733636531276,53.4684802620887],[-3.02734178906455,53.4687049374554],[-3.02734721288935,53.4689296128135],[-3.0269706787818,53.4689328497637],[-3.02697610069034,53.4691575251345],[-3.0265995645205,53.4691607609195],[-3.02659414460125,53.4689360855273],[-3.02658872475496,53.4687114101263],[-3.02658330498162,53.4684867347167],[-3.0269598351837,53.468483498996],[-3.02695441349412,53.468258823599],[-3.02733094163398,53.4682555867132],[-3.0277074697008,53.4682523486408]]],[[[-3.03617160532123,53.4755951065959],[-3.03617707735136,53.4758197821123],[-3.03655367299186,53.4758165230904],[-3.03655914708941,53.4760411985856],[-3.03693574464971,53.4760379383638],[-3.03694122081473,53.4762626138379],[-3.03694669705357,53.4764872893034],[-3.03732329852737,53.4764840278691],[-3.03732877683376,53.4767087033135],[-3.03695217336625,53.4767119647606],[-3.03657556982487,53.4767152250204],[-3.03657009550591,53.4764905495506],[-3.03656462126076,53.4762658740723],[-3.03618802163296,53.4762691331196],[-3.03618254945527,53.4760444576201],[-3.03580595174733,53.4760477154676],[-3.03580048163706,53.475823039947],[-3.03542388584898,53.4758262965946],[-3.03541841780607,53.4756016210529],[-3.03579501160054,53.475598364418],[-3.03617160532123,53.4755951065959]]],[[[-3.04119649632834,53.4654390145437],[-3.04120199242971,53.4656636872771],[-3.04120748860549,53.465888360004],[-3.04083098171764,53.4658916345969],[-3.04045447475536,53.4658949080011],[-3.04044898258683,53.4656702353793],[-3.04044349049267,53.4654455627509],[-3.04081999344772,53.4654422892416],[-3.04119649632834,53.4654390145437]]],[[[-3.0592987781544,53.4967413929374],[-3.0593043786864,53.496966064385],[-3.05892759115083,53.4969694010792],[-3.058933189688,53.497194072636],[-3.05893878830294,53.4974187441812],[-3.05894438699564,53.4976434157147],[-3.0589499857661,53.4978680872366],[-3.05857318986217,53.4978714232291],[-3.05856759316439,53.4976467515864],[-3.05819079925536,53.4976500862733],[-3.05818520470798,53.4974254144981],[-3.0581796102383,53.4972007427114],[-3.05780282039682,53.4972040759717],[-3.05742603047762,53.4972074080472],[-3.05742044023086,53.4969827360073],[-3.05741485006174,53.4967580639556],[-3.05779163583575,53.4967547321217],[-3.05816842153205,53.4967513991029],[-3.05816282729548,53.4965267272812],[-3.0581572331366,53.4963020554478],[-3.05778045158537,53.496305388225],[-3.05777485957669,53.4960807162592],[-3.05776926764567,53.4958560442818],[-3.05776367579233,53.4956313722927],[-3.05738690038079,53.4956347035228],[-3.05738131067752,53.4954100314013],[-3.05737572105189,53.4951853592681],[-3.05737013150389,53.4949606871233],[-3.05699336223184,53.4949640168064],[-3.05698777483381,53.4947393445292],[-3.05698218751338,53.4945146722403],[-3.0573589526408,53.4945113427988],[-3.05735336332571,53.4942866706191],[-3.05773012630319,53.4942833401135],[-3.05773571769056,53.4945080121725],[-3.05774130915559,53.4947326842198],[-3.05774690069828,53.4949573562555],[-3.05812366981497,53.4949540242029],[-3.05812926350767,53.4951786961062],[-3.05813485727807,53.4954033679978],[-3.05851163046177,53.4954000345189],[-3.05851722638226,53.4956247062781],[-3.05852282238048,53.4958493780256],[-3.05852841845643,53.4960740497615],[-3.05890519777967,53.4960707147354],[-3.05891079600583,53.4962953863388],[-3.05891639430974,53.4965200579306],[-3.0589219926914,53.4967447295107],[-3.0592987781544,53.4967413929374]]]]}}