{"type":"Feature","properties":{"code":"E63005063","name":"Lambeth"},"geometry":{"type":"MultiPolygon","coordinates":[[[[-0.143397904969292,51.4167772739059],[-0.143388802738349,51.4170019520033],[-0.143379700440679,51.4172266300155],[-0.143020379849068,51.4172209452073],[-0.143011275943079,51.4174456227361],[-0.142651953741768,51.4174399366987],[-0.142642847993781,51.4176646140807],[-0.142283524182772,51.4176589268141],[-0.142274416592743,51.4178836040495],[-0.14191509117204,51.4178779155536],[-0.141905981739924,51.4181025926422],[-0.141546654709531,51.4180969029171],[-0.141537543435282,51.418321579859],[-0.141178214795204,51.4183158889046],[-0.141169101678776,51.4185405656997],[-0.141159988446063,51.4187652424806],[-0.140800656470368,51.4187595501644],[-0.140791541395408,51.4189842267986],[-0.140432207810014,51.418978533253],[-0.140423090892762,51.4192032097404],[-0.140063755697674,51.4191975149656],[-0.140054636938086,51.4194221913061],[-0.139695300133307,51.419416495302],[-0.139686179531338,51.4196411714957],[-0.139326841116872,51.4196354742622],[-0.139317718672477,51.4198601503091],[-0.138958378648327,51.4198544518463],[-0.138949254361462,51.4200791277463],[-0.138589912727632,51.4200734280541],[-0.138580786598252,51.4202981038073],[-0.138571660352412,51.4205227795464],[-0.138212315382805,51.4205170784921],[-0.138203187294381,51.4207417540843],[-0.138194059089471,51.4209664296622],[-0.138184930768074,51.421191105226],[-0.137825580736466,51.4211854026769],[-0.137816450572389,51.4214100780938],[-0.138175802330187,51.4214157807755],[-0.138166673775809,51.4216404563108],[-0.138157545104937,51.4218651318319],[-0.138148416317569,51.4220898073387],[-0.138139287413705,51.4223144828313],[-0.138130158393341,51.4225391583097],[-0.138121029256476,51.4227638337739],[-0.138111900003107,51.4229885092239],[-0.138471263961303,51.4229942117372],[-0.138462136317799,51.4232188873056],[-0.138453008557809,51.4234435628598],[-0.138443880681334,51.4236682383997],[-0.138434752688369,51.4238929139255],[-0.138794123668615,51.4238986158725],[-0.138784997285621,51.4241232915167],[-0.138775870786156,51.4243479671466],[-0.138766744170219,51.4245726427623],[-0.138757617437807,51.4247973183638],[-0.138748490588919,51.4250219939511],[-0.138739363623552,51.4252466695241],[-0.138730236541705,51.4254713450829],[-0.138721109351081,51.4256960206275],[-0.138711982045923,51.4259206961581],[-0.138702854624094,51.4261453716749],[-0.138693727085592,51.4263700471779],[-0.138684599430416,51.4265947226669],[-0.138675471658564,51.4268193981422],[-0.138666343770034,51.4270440736035],[-0.138657215764822,51.427268749051],[-0.138648087642929,51.4274934244847],[-0.13828868900467,51.4274877204779],[-0.138279559035654,51.4277123957722],[-0.13827042894993,51.4279370710526],[-0.138261298747495,51.4281617463192],[-0.138252168428347,51.4283864215719],[-0.138243037992484,51.4286110968108],[-0.138233907439905,51.4288357720358],[-0.138224776770607,51.4290604472469],[-0.138215645984588,51.4292851224442],[-0.138206515081847,51.4295097976276],[-0.138197384062381,51.4297344727972],[-0.138188252926188,51.4299591479529],[-0.138179121673266,51.4301838230947],[-0.138169990303614,51.4304084982227],[-0.13781056928459,51.4304027914867],[-0.137451148382267,51.4303970836532],[-0.137091727596665,51.4303913747222],[-0.137100864158427,51.4301666999708],[-0.13674144522027,51.4301609900678],[-0.136382026398879,51.4301552790673],[-0.136022607694275,51.4301495669693],[-0.135663189106481,51.4301438537737],[-0.135303770635519,51.4301381394807],[-0.13529462542028,51.4303628136042],[-0.135285480088129,51.4305874877138],[-0.135276334639064,51.4308121618096],[-0.135267189073083,51.4310368358915],[-0.135626614466944,51.4310425506869],[-0.135617470514826,51.4312672248805],[-0.13560832644581,51.4314918990603],[-0.135599182259894,51.4317165732262],[-0.135590037957076,51.4319412473782],[-0.135949470391046,51.4319469615784],[-0.135940327702197,51.4321716358422],[-0.135931184896465,51.4323963100921],[-0.135922041973848,51.4326209843281],[-0.135912898934344,51.4328456585502],[-0.13590375577795,51.4330703327585],[-0.136263196983346,51.4330760464891],[-0.136254055441048,51.4333007208091],[-0.136244913781879,51.4335253951152],[-0.136235772005838,51.4337500694075],[-0.13622662991217,51.4339747437819],[-0.136586078157351,51.4339804569061],[-0.13694552652007,51.4339861689311],[-0.137304975000305,51.4339918798571],[-0.137314111901937,51.4337672051436],[-0.137673558767505,51.4337729148603],[-0.138033005749803,51.4337786234793],[-0.138023872313232,51.4340032984119],[-0.138383321145879,51.4340090060407],[-0.138374189240471,51.4342336810716],[-0.138733639936107,51.4342393876994],[-0.138724509658805,51.434464062816],[-0.139083962217435,51.4344697684428],[-0.139074833568283,51.434694443645],[-0.139434287989911,51.4347001482709],[-0.139425160968956,51.4349248235588],[-0.139416033830582,51.4351494988342],[-0.139775491860872,51.4351552025572],[-0.13976636635076,51.4353798779182],[-0.139757240723248,51.4356045532668],[-0.139748114978333,51.4358292286029],[-0.140107578363091,51.4358349315211],[-0.140098454246524,51.4360596069428],[-0.140089330012575,51.4362842823521],[-0.140080205661238,51.436508957749],[-0.140071081192515,51.4367336331333],[-0.140061956606401,51.4369583085053],[-0.139702484492654,51.4369526050966],[-0.139343012496269,51.4369469005887],[-0.139352140574066,51.436722225413],[-0.138992670440903,51.4367165199041],[-0.138633200425145,51.436710813296],[-0.138624068855671,51.4369354882755],[-0.138614937168715,51.4371601632425],[-0.138605805364276,51.437384838197],[-0.138246330228371,51.4373791301953],[-0.138237196560542,51.4376038050392],[-0.138596673442349,51.437609513139],[-0.138956150441592,51.4376152201397],[-0.138947020148105,51.4378398951674],[-0.138587541402935,51.4378341880686],[-0.13857840924603,51.4380588629858],[-0.13821892887235,51.4380531546897],[-0.138209794851982,51.4382778294962],[-0.138200660714098,51.4385025042902],[-0.137841176965919,51.4384967946986],[-0.137832040964502,51.438721469382],[-0.137822904845542,51.438946144053],[-0.137463417722804,51.4389404331658],[-0.137454279740241,51.4391651077261],[-0.137445141640109,51.439389782274],[-0.137436003422403,51.4396144568094],[-0.137426865087124,51.4398391313323],[-0.137417726634269,51.4400638058428],[-0.137058230898544,51.4400580933654],[-0.137049090581943,51.4402827677653],[-0.137039950147739,51.4405074421526],[-0.137030809595931,51.4407321165275],[-0.136671308739187,51.4407264026563],[-0.136662166323538,51.4409510769205],[-0.136302663838138,51.4409453618517],[-0.136293519558603,51.4411700360053],[-0.136284375161411,51.4413947101464],[-0.135924869301084,51.4413889937819],[-0.135915723039937,51.4416136678123],[-0.135906576661108,51.4418383418302],[-0.135897430164593,51.4420630158357],[-0.136256941263883,51.4420687324948],[-0.136266086014053,51.4418440583912],[-0.136625595484608,51.4418497738527],[-0.136985105072747,51.4418554882149],[-0.137344614778451,51.4418612014778],[-0.137704124601695,51.4418669136412],[-0.138063634542457,51.4418726247053],[-0.138423144600715,51.44187833467],[-0.138782654776446,51.4418840435353],[-0.139142165069628,51.4418897513012],[-0.139501675480238,51.4418954579678],[-0.139861186008254,51.4419011635349],[-0.140220696653652,51.4419068680027],[-0.14058020741641,51.4419125713711],[-0.140939718296508,51.4419182736401],[-0.14129922929392,51.4419239748097],[-0.141658740408625,51.4419296748799],[-0.142018251640601,51.4419353738507],[-0.142377762989825,51.4419410717221],[-0.142737274456273,51.4419467684941],[-0.143096786039925,51.4419524641668],[-0.143456297740757,51.44195815874],[-0.143447187917868,51.4421828348061],[-0.143438078457548,51.4424075102083],[-0.143797593813905,51.4424132038109],[-0.143788486017938,51.4426378792459],[-0.143779378103116,51.442862554671],[-0.143770270069438,51.4430872300862],[-0.144129790882132,51.4430929227316],[-0.144120684508821,51.4433175981851],[-0.144111578016673,51.4435422736287],[-0.144471102506627,51.4435479652686],[-0.144461997674913,51.4437726407506],[-0.144452892724381,51.4439973162226],[-0.144443787655028,51.4442219916846],[-0.144803317601638,51.4442276823673],[-0.144794214192808,51.4444523578677],[-0.144785110665175,51.4446770333582],[-0.145144644289247,51.4446827230353],[-0.145135542422203,51.4449073985641],[-0.145126440436376,51.445132074083],[-0.145485977737986,51.4451377627546],[-0.145476877412815,51.4453624383118],[-0.14546777696888,51.445587113859],[-0.145458676406178,51.4458117893963],[-0.145449575724709,51.4460364649237],[-0.145440474924471,51.4462611404412],[-0.14543137400546,51.4464858159488],[-0.145422272967675,51.4467104914464],[-0.145062723209502,51.4467048024372],[-0.14505362027334,51.4469294778767],[-0.145044517218377,51.4471541533062],[-0.145035414044611,51.4473788287259],[-0.145026310752039,51.4476035041356],[-0.145017207340661,51.4478281795353],[-0.144657648803009,51.4478224891828],[-0.144648543493108,51.4480471645244],[-0.144639438064373,51.4482718398561],[-0.144630332516801,51.4484965151779],[-0.144270768758724,51.4484908235784],[-0.144261661312534,51.448715498842],[-0.143902095893484,51.448709806092],[-0.143892986548631,51.4489344812974],[-0.143533419468613,51.4489287873971],[-0.143524308225048,51.4491534625443],[-0.143164739484068,51.4491477674934],[-0.143155626341747,51.4493724425824],[-0.143146513080488,51.4495971176614],[-0.142786940898684,51.4495914214118],[-0.142777825738598,51.4498160964326],[-0.142768710459547,51.4500407714435],[-0.14240913483686,51.450035073995],[-0.142400017658911,51.4502597489477],[-0.142390900361969,51.4504844238905],[-0.142031321298338,51.4504787252431],[-0.142022204088964,51.4507033996373],[-0.142013087170872,51.4509280739206],[-0.142003970132343,51.4511527481949],[-0.142363554676427,51.4511584469257],[-0.142723139340863,51.4511641445534],[-0.143082724125626,51.4511698410779],[-0.143442309030692,51.4511755364994],[-0.143433199103426,51.4514002108926],[-0.143792785936704,51.4514059052429],[-0.144152372890241,51.4514115984902],[-0.144143266458537,51.4516362729383],[-0.144502855340268,51.4516419651143],[-0.144862444342213,51.4516476561873],[-0.14485334140617,51.4518723306902],[-0.145212932336292,51.451878020692],[-0.145572523386583,51.4518837095906],[-0.14593211455702,51.451889397386],[-0.14592301692475,51.4521140719757],[-0.146282610023324,51.4521197587],[-0.146642203242,51.4521254443211],[-0.146633109105617,51.4523501189656],[-0.146992704252413,51.4523558035154],[-0.147352299519265,51.4523614869621],[-0.147343208878867,51.4525861616613],[-0.147334118118364,51.4528108363514],[-0.147325027237756,51.4530355110323],[-0.14731593623704,51.4532601857042],[-0.147675538856343,51.4532658681754],[-0.14766644954368,51.45349054287],[-0.147657360110926,51.4537152175556],[-0.147297753875273,51.4537095350207],[-0.146938147759664,51.4537038513826],[-0.146929054590403,51.4539285259953],[-0.146569446786659,51.453922841222],[-0.14656035168903,51.4541475157937],[-0.146200742197153,51.4541418298853],[-0.146191645171109,51.4543665044159],[-0.146182548024876,51.4545911789375],[-0.1458229350366,51.454585491862],[-0.14581383596188,51.4548101663425],[-0.145804736766942,51.455034840814],[-0.145445120282207,51.4550291525713],[-0.145436019158711,51.4552538270017],[-0.145076400985813,51.4552481376239],[-0.145067297933714,51.4554728120132],[-0.145058194761344,51.4556974863935],[-0.144698573091908,51.4556917958484],[-0.144689467990862,51.4559164701876],[-0.144680362769519,51.4561411445177],[-0.144320737603484,51.4561354528054],[-0.144311630453392,51.4563601270945],[-0.143952003599167,51.4563544342469],[-0.143942894520281,51.4565791084948],[-0.143933785321045,51.4568037827337],[-0.143924676001456,51.4570284569634],[-0.144284308281159,51.457034149907],[-0.144643940681126,51.4570398417471],[-0.145003573201333,51.457045532484],[-0.145012677095368,51.4568208581583],[-0.14537230792727,51.4568265477598],[-0.145731938879363,51.456832236258],[-0.146091569951624,51.4568379236529],[-0.146082471483162,51.4570625980744],[-0.146442104484096,51.4570682843979],[-0.146433007703971,51.4572929588422],[-0.146423910803652,51.4575176332775],[-0.146064274185591,51.4575119468902],[-0.145704637687682,51.4575062593995],[-0.145695537049973,51.4577309337618],[-0.145335898863644,51.4577252451358],[-0.144976260797514,51.4577195554064],[-0.144967156422329,51.4579442296957],[-0.144607516667809,51.457938538831],[-0.144247877033537,51.457932846863],[-0.143888237519538,51.4579271537915],[-0.143528598125835,51.4579214596167],[-0.143537709735459,51.4576967854553],[-0.1435468212247,51.4574721112848],[-0.143187185568501,51.4574664160706],[-0.143178072270679,51.4576910902091],[-0.142818434926239,51.4576853938595],[-0.142809319699407,51.4579100679569],[-0.142800204352142,51.4581347420452],[-0.142440563510841,51.4581290445282],[-0.142431446234495,51.4583537185754],[-0.142422328837689,51.4585783926134],[-0.142062684499467,51.458572693929],[-0.142053565173509,51.4587973679259],[-0.142044447605145,51.459022040766],[-0.141684799733886,51.4590163409482],[-0.141675680844956,51.4592410133921],[-0.141666561837304,51.4594656858267],[-0.141657442710929,51.4596903582519],[-0.141297789637874,51.4596846572189],[-0.141306910537751,51.459459984831],[-0.140947259356865,51.4594542827322],[-0.140956381911474,51.4592296103724],[-0.140596732622755,51.4592239072078],[-0.140587608294672,51.4594485795302],[-0.140578483847796,51.4596732518433],[-0.140569359282126,51.459897924147],[-0.14092901389134,51.4599036274238],[-0.140919890980419,51.4601282997555],[-0.140560234597662,51.4601225964414],[-0.140551109794398,51.4603472687264],[-0.140191451756796,51.4603415642717],[-0.140182325061145,51.4605662365099],[-0.139822665368703,51.4605605309146],[-0.139813536780619,51.4607852031061],[-0.139453875433339,51.4607794963702],[-0.139444744952776,51.4610041685149],[-0.139804408073684,51.4610098752881],[-0.140164071313367,51.4610155809582],[-0.1405237346718,51.4610212855251],[-0.140883398148962,51.4610269889887],[-0.141243061744829,51.4610326913491],[-0.141602725459378,51.4610383926063],[-0.141962389292587,51.4610440927603],[-0.142322053244432,51.4610497918111],[-0.142312936834269,51.4612744642454],[-0.141953271108756,51.4612687651573],[-0.141593605501883,51.461263064966],[-0.141233940013672,51.4612573636714],[-0.140874274644144,51.4612516612736],[-0.140514609393325,51.4612459577726],[-0.140154944261235,51.4612402531683],[-0.139795279247898,51.4612345474608],[-0.139435614353337,51.4612288406502],[-0.139075949577576,51.4612231327362],[-0.138716284920637,51.4612174237191],[-0.138707150654977,51.4614420957702],[-0.138698016270393,51.4616667678119],[-0.139057684474697,51.4616724769039],[-0.139066817085587,51.4614478048247],[-0.139426483635022,51.4614535127761],[-0.139417352797828,51.4616781848926],[-0.139777021239762,51.4616838917782],[-0.139767892057407,51.4619085639227],[-0.140127562391845,51.4619142697424],[-0.140118434864376,51.462138941915],[-0.14047810709132,51.4621446466688],[-0.14048723284504,51.4619199744588],[-0.140846903416973,51.461925678072],[-0.141206574107619,51.4619313805819],[-0.141197451901401,51.4621560528667],[-0.141557124484491,51.4621617543107],[-0.141916797186251,51.4621674546515],[-0.142276470006657,51.462173153889],[-0.142285586891608,51.4619484814921],[-0.142645258056878,51.461954179589],[-0.143004929340747,51.4619598765827],[-0.142995816003319,51.4621845490542],[-0.142986702547234,51.4624092215163],[-0.14334637749723,51.4624149174813],[-0.143706052565783,51.4624206123431],[-0.14371516247429,51.4621959398063],[-0.144074835887586,51.4622016335275],[-0.144434509419391,51.4622073261454],[-0.14444361566175,51.4619826535246],[-0.144803287538268,51.461988345002],[-0.145162959533246,51.461994035376],[-0.145172062109543,51.4617693626714],[-0.145531732449207,51.4617750519049],[-0.145891402907284,51.4617807400352],[-0.145900501817602,51.4615560672467],[-0.146260170620335,51.4615617542364],[-0.146269267638475,51.4613370814013],[-0.146628934785859,51.4613427672506],[-0.146988602051584,51.4613484519966],[-0.147348269435625,51.4613541356395],[-0.147707936937961,51.461359818179],[-0.148067604558569,51.4613654996154],[-0.148427272297425,51.4613711799485],[-0.148786940154506,51.4613768591784],[-0.148796024638326,51.4611521860733],[-0.149155690839905,51.4611578641628],[-0.14914660812979,51.461382537305],[-0.149506276223254,51.4613882143284],[-0.14949719516861,51.4616128874984],[-0.149856865153962,51.4616185634557],[-0.149847785754835,51.4618432366535],[-0.149838706237491,51.462067909842],[-0.150198379888516,51.4620735847703],[-0.150189302026756,51.4622982579866],[-0.150180224046797,51.4625229311934],[-0.150171145948639,51.462747604391],[-0.150530825039263,51.4627532783275],[-0.150521748596776,51.4629779515528],[-0.150512672036107,51.4632026247688],[-0.150503595357255,51.4634272979754],[-0.150494518560218,51.4636519711726],[-0.150854204864581,51.4636576441544],[-0.150845129723323,51.4638823173794],[-0.150836054463899,51.4641069905951],[-0.150826979086307,51.4643316638014],[-0.150817903590544,51.4645563369983],[-0.150808827976608,51.4647810101859],[-0.150799752244499,51.4650056833641],[-0.150790676394212,51.4652303565329],[-0.150781600425747,51.4654550296924],[-0.150772524339102,51.4656797028426],[-0.150763448134273,51.4659043759833],[-0.15040374408921,51.4658987026302],[-0.150394665992001,51.4661233757245],[-0.150385587776583,51.4663480488094],[-0.150376509442953,51.466572721885],[-0.150367430991109,51.4667973949511],[-0.15035835242105,51.467022068008],[-0.150349273741854,51.4672467411057],[-0.150340194967231,51.4674714143179],[-0.149980478631331,51.4674657395838],[-0.149971397973846,51.4676904127387],[-0.149611679990536,51.4676847368541],[-0.149602597450142,51.4679094099516],[-0.149242877819426,51.4679037329166],[-0.148883158306457,51.4678980547785],[-0.148874072117959,51.4681227277711],[-0.148514350957613,51.4681170484826],[-0.148505262886095,51.4683417214177],[-0.148145540078376,51.4683360409787],[-0.147785817388477,51.4683303594366],[-0.147776725668703,51.4685550322668],[-0.14741700133146,51.4685493495742],[-0.147407907728554,51.4687740223469],[-0.14704818174397,51.4687683385037],[-0.146688455877279,51.4687626535575],[-0.146679358625965,51.4689873262252],[-0.146319631111963,51.4689816401284],[-0.146310531977405,51.4692063127387],[-0.145950802816095,51.4692006254913],[-0.145591073772749,51.4691949371408],[-0.145581970989633,51.469419609646],[-0.145222240299009,51.4694139201449],[-0.145213135632535,51.4696385925926],[-0.144853403294637,51.4696329019409],[-0.144493671074776,51.4696272101861],[-0.144484562759592,51.4698518825286],[-0.144124828892486,51.4698461896232],[-0.144115718693833,51.4700708619081],[-0.143755983179485,51.470065167852],[-0.143396247783246,51.4700594726928],[-0.143387133935732,51.4702841448726],[-0.143027396892281,51.4702784485627],[-0.14303651250514,51.4700537764306],[-0.142676777345189,51.4700480790653],[-0.142667659966986,51.4702727511497],[-0.142307923159872,51.4702670526338],[-0.142298803898048,51.4704917246606],[-0.141939065443775,51.4704860249938],[-0.141579327107729,51.470480324224],[-0.141570204196855,51.4707049961455],[-0.141929944298282,51.470710696963],[-0.14192082303448,51.4709353689224],[-0.141561081167647,51.4709296680571],[-0.141551958020107,51.4711543399589],[-0.141192214506103,51.4711486379428],[-0.140832471110377,51.4711429348237],[-0.140841597788768,51.4709182630174],[-0.140481856276766,51.4709125588429],[-0.140472727832954,51.4711372306015],[-0.140112984673856,51.4711315252762],[-0.140122114883088,51.4709068535654],[-0.139762373607755,51.4709011471847],[-0.139771505463957,51.4706764755118],[-0.139780637201714,51.4704518038289],[-0.139420899575513,51.4704460964407],[-0.139061162067699,51.4704403879494],[-0.138701424678296,51.4704346783551],[-0.138692287644435,51.4706593498947],[-0.139052026799205,51.4706650595368],[-0.139042891412219,51.4708897311142],[-0.139402632450791,51.470895439701],[-0.139393498710725,51.4711201113163],[-0.139384364852186,51.4713447829217],[-0.139024620282763,51.4713390742394],[-0.13901548454029,51.4715637457872],[-0.139006348679318,51.471788417325],[-0.138646600697375,51.471782707444],[-0.138286852833877,51.4717769964599],[-0.137927105088848,51.4717712843727],[-0.13791796381287,51.4719959557573],[-0.137908822418321,51.472220627132],[-0.137549071260766,51.4722149138461],[-0.137539927982099,51.4724395851631],[-0.13718017517752,51.4724338707262],[-0.137171030014692,51.4726585419855],[-0.136811275563094,51.4726528263977],[-0.136451521230064,51.4726471097067],[-0.136091767015624,51.4726413919126],[-0.135732012919796,51.4726356730154],[-0.135372258942605,51.472629953015],[-0.135363104833251,51.4728546240252],[-0.135003349209144,51.4728489028738],[-0.134994193215454,51.4730735738262],[-0.134634435985038,51.4730678514601],[-0.134625278104245,51.4732925223578],[-0.134265519234026,51.473286798828],[-0.134256359463461,51.4735114696746],[-0.134247199573821,51.4737361405117],[-0.134238039565106,51.4739608113392],[-0.133878275501646,51.4739550865816],[-0.133887437281129,51.4737304157956],[-0.133527675107457,51.4737246899759],[-0.13351851155721,51.4739493607205],[-0.133509347887837,51.4741740314555],[-0.133869113603063,51.4741797573581],[-0.134228879437311,51.4741854821571],[-0.134588645390562,51.4741912058526],[-0.13494841146549,51.4741969284396],[-0.134939254759181,51.4744215993326],[-0.134579486914503,51.4744158767024],[-0.134570328319384,51.4746405475426],[-0.134561169605204,51.4748652183733],[-0.134201398339441,51.4748594945535],[-0.134192237735314,51.4750841653331],[-0.133832464817677,51.4750784403683],[-0.13347269201907,51.4750727142999],[-0.133463527754048,51.475297384987],[-0.133823302323556,51.4753031110969],[-0.13381413972173,51.4755277818155],[-0.133804977188138,51.4757524525172],[-0.133795814535763,51.475977123209],[-0.133436034661651,51.4759713969652],[-0.133426870126046,51.4761960676009],[-0.133417705471632,51.4764207382269],[-0.13305792218734,51.4764150107871],[-0.133048755649626,51.4766396813569],[-0.133039588993075,51.4768643519169],[-0.132679802298542,51.4768586232811],[-0.132670633758621,51.477083293785],[-0.132661465099836,51.477307964279],[-0.132652296322186,51.4775326347632],[-0.132292504452778,51.4775269048851],[-0.132283333791661,51.4777515753131],[-0.132274163011653,51.4779762457314],[-0.131914367731841,51.4779705146572],[-0.131905195068296,51.4781951850193],[-0.131896022285832,51.4784198553715],[-0.131536223595555,51.4784141231012],[-0.131527048929484,51.4786387933973],[-0.131517874144467,51.4788634636836],[-0.131508699240502,51.47908813396],[-0.13114889537497,51.4790824004472],[-0.131139718587304,51.4793070706675],[-0.131130541680661,51.4795317408779],[-0.130770734404501,51.4795260061689],[-0.130761555614086,51.4797506763232],[-0.130752376704669,51.4799753464676],[-0.130392566017819,51.4799696105624],[-0.13038338522456,51.4801942806507],[-0.130374204312271,51.480418950729],[-0.130014390214671,51.4804132136276],[-0.130005207418469,51.4806378836498],[-0.129996024503212,51.4808625536621],[-0.129636206994801,51.4808568153644],[-0.12962702219556,51.4810814853205],[-0.129267203041226,51.4810757458728],[-0.129258016357955,51.4813004157728],[-0.128898195557701,51.4812946751751],[-0.128889006990355,51.4815193450188],[-0.128879818303876,51.4817440148527],[-0.128519994092719,51.4817382730586],[-0.128160170000638,51.481732530161],[-0.128150977665004,51.4819571998922],[-0.127791151927017,51.4819514558446],[-0.127431326308153,51.4819457106935],[-0.127422130323279,51.4821703803219],[-0.127062303058537,51.4821646340207],[-0.126702475912968,51.4821588866159],[-0.126693276278769,51.4823835561417],[-0.127053105189385,51.4823893035929],[-0.127043907200978,51.4826139731552],[-0.127034709093314,51.4828386427078],[-0.127025510866391,51.4830633122505],[-0.127016312520208,51.4832879817833],[-0.127007114054762,51.4835126513063],[-0.12664727631857,51.4835069036228],[-0.126638075968676,51.4837315730895],[-0.126628872390676,51.4839562431089],[-0.126269031411631,51.4839504941988],[-0.126259822645936,51.4841751647607],[-0.126250613761355,51.4843998353128],[-0.126241404757887,51.484624505855],[-0.126601251007477,51.4846302549054],[-0.126961097375885,51.4846360028522],[-0.127320943863089,51.4846417496952],[-0.127311740011419,51.4848664203679],[-0.127671588374296,51.4848721661541],[-0.128031436855926,51.4848779108366],[-0.12802223639928,51.485102581593],[-0.128382086756567,51.4851083252185],[-0.12837288793809,51.4853329960118],[-0.128013035823855,51.4853272523395],[-0.127653183828352,51.4853215075635],[-0.127293331951606,51.4853157616838],[-0.12728412774346,51.485540432327],[-0.127274923416484,51.4857651029603],[-0.126915068144561,51.4857593558834],[-0.126905861941741,51.4859840264601],[-0.127265718970675,51.4859897735838],[-0.127625576118394,51.4859955196037],[-0.12761637331079,51.4862201902641],[-0.127607170384371,51.4864448609147],[-0.127247309722556,51.4864391148012],[-0.12688744917953,51.4864333675839],[-0.126896655620065,51.4862086970269],[-0.126536796952906,51.4862029487527],[-0.126527588755315,51.486427619263],[-0.126167728449936,51.4864218698383],[-0.126158518376387,51.4866465402918],[-0.125798656432791,51.4866407897166],[-0.125789444483237,51.4868654601135],[-0.12578023241475,51.4870901305006],[-0.125771020227328,51.4873148008779],[-0.125411153131261,51.4873090490585],[-0.12540193906774,51.4875337193791],[-0.125042070333423,51.4875279664091],[-0.125032854393756,51.487752636673],[-0.125023638335102,51.4879773069271],[-0.124663766205335,51.4879715527596],[-0.124303894194531,51.4879657974884],[-0.124294674502437,51.488190467639],[-0.124285454691306,51.4884151377797],[-0.124276234761137,51.4886398079106],[-0.123916357597581,51.488634051395],[-0.123907135791081,51.4888587214692],[-0.123897913865516,51.4890833915335],[-0.123888691820884,51.4893080615879],[-0.123879469657184,51.4895327316326],[-0.123519585583347,51.4895269738257],[-0.123159701628555,51.4895212149151],[-0.12279981779283,51.4895154549006],[-0.122790590237923,51.4897401247947],[-0.122781362563876,51.489964794679],[-0.122772134770685,51.4901894645535],[-0.123132023878607,51.4901952247086],[-0.123122797723714,51.4904198946201],[-0.122762906858348,51.4904141344181],[-0.122753678826864,51.4906388042729],[-0.122744450676232,51.4908634741178],[-0.12238455641501,51.4908577127181],[-0.122375326387714,51.4910823825063],[-0.122366096241243,51.4913070522846],[-0.122356865975593,51.491531722053],[-0.121996966560902,51.4915259594088],[-0.121987734418494,51.4917506291205],[-0.121978502156882,51.4919752988224],[-0.121969269353849,51.4921999686032],[-0.121960032092546,51.4924246392872],[-0.121950794711607,51.4926493099614],[-0.12159088673323,51.4926435459545],[-0.12158164746672,51.4928682165728],[-0.121941557211031,51.4928739806258],[-0.122301467074957,51.4928797435748],[-0.122661377058473,51.4928855054198],[-0.122652142970182,51.4931101761666],[-0.122292231220703,51.4931044142755],[-0.122282995246831,51.4933290849664],[-0.121923081850962,51.4933233219252],[-0.12156316857471,51.4933175577798],[-0.121553928949209,51.4935422283687],[-0.121544689204038,51.4937668989476],[-0.121535449339198,51.4939915695168],[-0.121526209354685,51.4942162400762],[-0.121516969250499,51.4944409106258],[-0.121507729026637,51.4946655811655],[-0.121147805273672,51.4946598156393],[-0.121138563163993,51.494884486123],[-0.121498488683096,51.4948902516954],[-0.121858414321854,51.4948960161637],[-0.121849175624796,51.49512068673],[-0.121489248219875,51.4951149222156],[-0.12112932093461,51.495109156597],[-0.121120078585522,51.4953338270612],[-0.121110836116728,51.4955584975155],[-0.121101593528223,51.49578316796],[-0.121092350820007,51.4960078383947],[-0.121083107992078,51.4962325088196],[-0.121073865044435,51.4964571792347],[-0.121064621977073,51.49668184964],[-0.12070468244773,51.4966760825942],[-0.120695437494307,51.4969007529435],[-0.120686192421139,51.497125423283],[-0.120676947228225,51.4973500936126],[-0.120667701915562,51.4975747639325],[-0.120658456483149,51.4977994342425],[-0.120649210930984,51.4980241045427],[-0.120639965259064,51.4982487748331],[-0.120630719467387,51.4984734451137],[-0.120621473555951,51.4986981153845],[-0.120612227524755,51.4989227856455],[-0.120252270450697,51.4989170170337],[-0.120243022533169,51.4991416872387],[-0.120233774495853,51.4993663574338],[-0.120224526338748,51.4995910276192],[-0.120215278061851,51.4998156977947],[-0.12020602966516,51.5000403679604],[-0.120196781148673,51.5002650381163],[-0.120187532512389,51.5004897082624],[-0.12017828297043,51.5007143786979],[-0.120538254156396,51.5007201476857],[-0.120898225462187,51.500725915569],[-0.12125819688778,51.5007316823479],[-0.121618168433153,51.5007374480223],[-0.121978140098283,51.5007432125922],[-0.121968899187564,51.5009678832723],[-0.121608925754364,51.5009621186583],[-0.121248952440924,51.5009563529398],[-0.120888979247263,51.5009505861169],[-0.120529006173408,51.5009448181896],[-0.12016903321938,51.5009390491578],[-0.120159783348459,51.5011637196079],[-0.120150533357665,51.5013883900483],[-0.119790556987299,51.5013826198239],[-0.1197813051085,51.5016072902105],[-0.120141283246995,51.501613060479],[-0.120132033016447,51.5018377309],[-0.1197720531098,51.5018319605875],[-0.119762800991198,51.5020566309547],[-0.119753548752692,51.5022813013122],[-0.119744296394279,51.50250597166],[-0.119735043915958,51.5027306419981],[-0.119725791317725,51.5029553123265],[-0.120085780065472,51.5029610828594],[-0.120445768933088,51.5029668522878],[-0.12080575792055,51.5029726206116],[-0.120796510507276,51.5031972910625],[-0.120787262974158,51.5034219615037],[-0.12077801532119,51.5036466319351],[-0.120418021028782,51.5036408634791],[-0.120408771487602,51.5038655338568],[-0.120048775546686,51.5038597642522],[-0.119688779725647,51.503853993543],[-0.119328784024507,51.5038482217292],[-0.119319529058312,51.504072891965],[-0.119310273972171,51.5042975621911],[-0.119301018766083,51.5045222324074],[-0.119291763440044,51.5047469026141],[-0.118931760785185,51.5047411295194],[-0.118922503570727,51.5049657996722],[-0.118913246236291,51.5051904698154],[-0.118903988781877,51.5054151399488],[-0.118543980941507,51.5054093656172],[-0.118183973273492,51.5054035902244],[-0.117823965963848,51.5053978139252],[-0.117814703111432,51.5056224839336],[-0.118174712172952,51.505628260268],[-0.11816545095324,51.5058529303023],[-0.118156189614355,51.5060776003274],[-0.117796177049017,51.5060718239225],[-0.117786913839015,51.5062964939031],[-0.117777650509812,51.5065211638745],[-0.117417634559746,51.5065153862941],[-0.117408369359355,51.5067400562209],[-0.117768387061407,51.5067458338366],[-0.118128404882643,51.5067516103471],[-0.118119143067046,51.5069762803352],[-0.118109881132265,51.507200950314],[-0.117749859806984,51.5071951737331],[-0.117389838600891,51.5071893960469],[-0.117399104039737,51.5069647261386],[-0.117039084704882,51.5069589473825],[-0.116679065489257,51.5069531675213],[-0.116669796546352,51.5071778373592],[-0.116309775697953,51.5071720563577],[-0.116300504883724,51.5073967261511],[-0.115940482402556,51.5073909440091],[-0.115931209716957,51.5076156137579],[-0.115571185603023,51.5076098304755],[-0.115211161608416,51.5076040460879],[-0.115201885299312,51.507828715757],[-0.114841859671968,51.507822930229],[-0.114481834163998,51.5078171435957],[-0.114472554231307,51.508041813185],[-0.114112527090628,51.5080360254113],[-0.11375250006937,51.5080302365324],[-0.113392473167555,51.5080244465483],[-0.113383187859068,51.5082491160224],[-0.113023159324599,51.5082433248978],[-0.112663130909621,51.508237532668],[-0.112303102614156,51.5082317393331],[-0.112293811929753,51.5084564086918],[-0.111933782001687,51.5084506142163],[-0.111573752193182,51.5084448186357],[-0.11121372250426,51.5084390219497],[-0.110853692934944,51.5084332241587],[-0.110493663485257,51.5084274252624],[-0.110502962930328,51.5082027560806],[-0.11014293535242,51.5081969561145],[-0.110133634155221,51.508421625261],[-0.10977360494486,51.5084158241543],[-0.109413575854196,51.5084100219425],[-0.10905354688325,51.5084042186254],[-0.109062853336819,51.5081795495853],[-0.109422880555643,51.5081853528669],[-0.109432185137351,51.507960683782],[-0.109072159670626,51.5079548805359],[-0.109081465884671,51.5077302114772],[-0.108721442289757,51.5077244071613],[-0.108730750136093,51.5074997381288],[-0.109090771978956,51.5075055424093],[-0.109450793941552,51.5075113455846],[-0.10946009816405,51.507286676472],[-0.109100077953484,51.5072808733321],[-0.109109383808257,51.5070562042457],[-0.109118689543277,51.50683153515],[-0.108758672956432,51.5068257309758],[-0.108749365469429,51.5070504000361],[-0.10874005786265,51.5072750690871],[-0.10838003789157,51.507269263737],[-0.108389347250353,51.5070445947214],[-0.108398656489337,51.5068199256966],[-0.108038640142015,51.5068141193122],[-0.107678623914489,51.5068083118227],[-0.107318607806781,51.5068025032281],[-0.10732792218183,51.5065778343004],[-0.107337236437018,51.5063531653635],[-0.107346550572345,51.5061284964173],[-0.10698653984026,51.506122686824],[-0.106995855607611,51.505898017904],[-0.107355864587814,51.5059038274618],[-0.107365178483426,51.5056791584971],[-0.107005171255082,51.5056733489748],[-0.107014486782677,51.5054486800363],[-0.10665448142602,51.5054428694444],[-0.106663798585551,51.5052182005321],[-0.106673115625186,51.5049935316106],[-0.106682432544928,51.5047688626798],[-0.106691749344778,51.5045441937398],[-0.106701066024739,51.5043195247905],[-0.106710382584811,51.504094855832],[-0.106719699024999,51.5038701868641],[-0.106729015345303,51.5036455178871],[-0.106738331545726,51.5034208489007],[-0.107098321136894,51.5034266591732],[-0.10710763546583,51.5032019901422],[-0.107467623425221,51.5032077992742],[-0.107476935882715,51.5029831301984],[-0.10748624822038,51.5027584611133],[-0.107495560438217,51.502533792019],[-0.107135577733518,51.5025279829933],[-0.107144891583048,51.5023033139252],[-0.107154205312732,51.5020786448478],[-0.106794226230868,51.5020728347882],[-0.106434247268847,51.5020670236237],[-0.106443564381627,51.501842354608],[-0.106803541592178,51.5018481657371],[-0.106812856833624,51.5016234966766],[-0.107172832412568,51.5016293066653],[-0.107182145782725,51.5014046375601],[-0.107542119730058,51.5014104464083],[-0.107551431228971,51.5011857772584],[-0.107911403544688,51.5011915849663],[-0.107920713172404,51.5009669157717],[-0.107930022680331,51.5007422465678],[-0.108289991613065,51.5007480530998],[-0.108299299249864,51.5005233838512],[-0.108659266550995,51.5005291892429],[-0.108668571892881,51.5003045205965],[-0.108677877080917,51.500079851991],[-0.108687182148391,51.4998551833756],[-0.109047144280855,51.4998609874996],[-0.109056447460559,51.4996363188255],[-0.109065750519729,51.4994116501415],[-0.109075053458367,51.4991869814476],[-0.109435010409768,51.4991927843214],[-0.109444311460732,51.4989681155688],[-0.109453612391189,51.4987434468062],[-0.109462913201144,51.4985187780338],[-0.109822864971654,51.4985245796574],[-0.109832163894029,51.4982999108263],[-0.109841462695928,51.4980752419852],[-0.109850761377352,51.4978505731343],[-0.110210707967142,51.4978563735077],[-0.110220004761083,51.4976317045982],[-0.110229301434576,51.4974070356786],[-0.110238597987625,51.4971823667492],[-0.110598539396864,51.4971881658726],[-0.110607834062524,51.4969634968845],[-0.110617128607767,51.4967388278865],[-0.110626423032593,51.4965141588785],[-0.110986359261452,51.496519956752],[-0.110995651798985,51.4962952876854],[-0.111355586381328,51.4963010844062],[-0.111364877031614,51.4960764152811],[-0.11100494421613,51.4960706186089],[-0.111014236512887,51.4958459495225],[-0.111023528689259,51.4956212804261],[-0.11066359952778,51.4956154827473],[-0.110672893350557,51.4953908136896],[-0.110682187052931,51.495166144622],[-0.110322261545379,51.4951603459364],[-0.109962336158227,51.4951545461469],[-0.109971633273677,51.4949298771667],[-0.10961170977368,51.4949240763218],[-0.109251786394127,51.494918274373],[-0.109261086922556,51.4946936054802],[-0.108901165430177,51.4946878024761],[-0.108910467604802,51.494463133622],[-0.108550547999592,51.4944573295627],[-0.108190628514889,51.4944515243994],[-0.108199934102326,51.4942268556327],[-0.107840016504809,51.4942210494142],[-0.107480099027842,51.4942152420917],[-0.107489408027992,51.4939905734125],[-0.107129492438229,51.4939847650348],[-0.106769576969059,51.4939789555532],[-0.106778889381824,51.4937542869616],[-0.106418975799874,51.4937484764248],[-0.106059062338562,51.4937426647841],[-0.106068378163845,51.49351799628],[-0.105708466589769,51.4935121835841],[-0.105348555136374,51.4935063697843],[-0.104988643803683,51.4935005548807],[-0.104997964807935,51.4932758865129],[-0.105007285691436,51.4930512181353],[-0.105016606454188,51.4928265497476],[-0.104656700541797,51.4928207338864],[-0.104666022950282,51.4925960655376],[-0.10430611892511,51.4925902486213],[-0.104315442979281,51.4923655803114],[-0.104324765996399,51.4921409121448],[-0.10433408458999,51.4919162446884],[-0.10397418583799,51.491910426833],[-0.103614287206244,51.4919046078736],[-0.103623609193049,51.491679940498],[-0.103632931059526,51.4914552731126],[-0.103642252805677,51.4912306057174],[-0.103282359564378,51.4912247857899],[-0.103291682946884,51.4910001184302],[-0.103651574431506,51.4910059383124],[-0.103660895937012,51.4907812708977],[-0.104020785785246,51.4907870896306],[-0.104030105413799,51.4905624221608],[-0.104039424922056,51.4903377546813],[-0.104399311377287,51.4903435722197],[-0.104408629008661,51.4901189046851],[-0.104417946519768,51.4898942371407],[-0.104777829582055,51.4899000534847],[-0.104787145216349,51.4896753858853],[-0.105147026642277,51.48968120108],[-0.105156340399803,51.4894565334256],[-0.105165654037113,51.4892318657614],[-0.105525532070173,51.4892376797617],[-0.105534843830787,51.4890130120425],[-0.105544155471211,51.4887883443135],[-0.105904030111464,51.4887941571195],[-0.105913339875261,51.4885694893355],[-0.105922649518895,51.4883448215418],[-0.106282520766401,51.4883506331533],[-0.106291828533479,51.4881259653046],[-0.106651698144673,51.4881317757671],[-0.106661004035239,51.4879071078634],[-0.106670309805695,51.4876824399499],[-0.107030176024219,51.4876882492181],[-0.107039479918234,51.4874635812496],[-0.107048783692164,51.4872389132714],[-0.107408646518077,51.4872447213453],[-0.107417948415637,51.4870200533122],[-0.107777809605267,51.4870258602371],[-0.107787109626503,51.4868011921489],[-0.107796409527706,51.486576524051],[-0.108156267324802,51.4865823297817],[-0.10816556534975,51.4863576616289],[-0.108174863254692,51.4861329934663],[-0.108534717659315,51.4861387980029],[-0.108544013688073,51.4859141297853],[-0.108553309596852,51.4856894615581],[-0.108562605385654,51.485464793321],[-0.108202756249507,51.48545898892],[-0.108212053674448,51.4852343207183],[-0.108571901054482,51.4852401250742],[-0.108581196603338,51.4850154568176],[-0.108941042347202,51.4850212600246],[-0.109300888210963,51.4850270621277],[-0.109310180127707,51.4848023937711],[-0.109670024355269,51.4848081947254],[-0.109679314396039,51.4845835263138],[-0.109319471924528,51.4845777254047],[-0.109328763601429,51.4843530570285],[-0.10933805515841,51.4841283886426],[-0.109697894117887,51.4841341894615],[-0.109688604316912,51.4843588578925],[-0.110048445152239,51.4843646576528],[-0.110057733197208,51.4841399891766],[-0.110067021122305,51.4839153206907],[-0.11042685856546,51.483921119257],[-0.110436140690076,51.4836964514507],[-0.110795976635779,51.4837022488419],[-0.110805254962079,51.4834775813401],[-0.110814533167614,51.4832529138286],[-0.111174365685607,51.4832587100316],[-0.111183641996215,51.4830340424684],[-0.111192918186087,51.4828093748956],[-0.111202194255223,51.4825847073131],[-0.111562021571445,51.4825905022858],[-0.111571295745751,51.4823658346516],[-0.11158056979935,51.4821411670078],[-0.1112207460313,51.4821353721194],[-0.111230021738244,51.4819107045081],[-0.111239297324461,51.4816860368873],[-0.110879477225137,51.4816802409795],[-0.110888754464634,51.4814555733911],[-0.110528936259979,51.4814497764217],[-0.110538215152709,51.481225108866],[-0.110178398842719,51.481219310835],[-0.110187679388637,51.4809946433118],[-0.109827864973309,51.4809888442193],[-0.10981858265344,51.4812135117003],[-0.109458766584893,51.4812077114618],[-0.109098950637103,51.4812019101195],[-0.109108236504869,51.480977242723],[-0.108748422451801,51.4809714403192],[-0.10873913481009,51.4811961076736],[-0.108729847047496,51.4814207750183],[-0.10872055916402,51.4816454423534],[-0.10871127115966,51.4818701096789],[-0.10835145013148,51.4818643060024],[-0.108342160232196,51.4820889732761],[-0.107982337550814,51.4820831684536],[-0.107973045756563,51.4823078356754],[-0.107963753841375,51.4825325028876],[-0.107954461805247,51.4827571700902],[-0.108314289808865,51.4827629750394],[-0.108304999425921,51.4829876422746],[-0.108664829324506,51.4829934461622],[-0.108655540594791,51.48321811343],[-0.108295708922057,51.4832123095002],[-0.107935877370165,51.4832065044665],[-0.10757604593914,51.483200698329],[-0.107216214629003,51.4831948910877],[-0.10720691868171,51.4834195581769],[-0.106847085718321,51.4834137497895],[-0.106856383439778,51.4831890827425],[-0.106496552371488,51.4831832732935],[-0.106136721424157,51.4831774627407],[-0.106146022572876,51.4829527957687],[-0.106155323600538,51.4827281287871],[-0.106164624507144,51.4825034617959],[-0.106173925292696,51.482278794795],[-0.106533749143616,51.4822846051787],[-0.106543048034072,51.4820599381259],[-0.106902870231894,51.4820657473635],[-0.10726269255064,51.4820715554974],[-0.107271987772017,51.4818468883505],[-0.107631808437636,51.4818526953382],[-0.107641101764027,51.4816280281394],[-0.107281282872415,51.4816222211939],[-0.107290577851835,51.4813975540278],[-0.107650394969465,51.4814033609311],[-0.107659688053952,51.4811786937131],[-0.107299872710282,51.4811728868521],[-0.106940057487505,51.4811670788873],[-0.106580242385646,51.4811612698188],[-0.106589540670988,51.480936602718],[-0.106949353998915,51.4809424117442],[-0.106958650389331,51.4807177445915],[-0.107318462064259,51.4807235524717],[-0.107327756559794,51.4804988852671],[-0.10768756658172,51.4805046920014],[-0.10804737672451,51.4805104976319],[-0.108407186988141,51.4805163021587],[-0.108416476041098,51.4802916348177],[-0.108425764973159,51.4800669674672],[-0.108065958257251,51.4800611630249],[-0.107706151662178,51.4800553574788],[-0.107715444020998,51.4798306902032],[-0.107355639320609,51.4798248835957],[-0.107364933332291,51.4796002163527],[-0.107005130526581,51.4795944086838],[-0.106645327841771,51.4795885999112],[-0.106654625280043,51.4793639327431],[-0.10629482448993,51.4793581229091],[-0.106304123580948,51.4791334557736],[-0.105944324685526,51.4791276448783],[-0.105584525911071,51.4791218328792],[-0.105593828428509,51.4788971658187],[-0.105234031548762,51.4788913527583],[-0.104874234790024,51.4788855385943],[-0.104883540733786,51.4786608716088],[-0.104523745869774,51.4786550563834],[-0.104533053466095,51.4784303894307],[-0.104173260496803,51.4784245731439],[-0.103813467648586,51.4784187557536],[-0.103822778671061,51.4781940888759],[-0.103462987717582,51.4781882704243],[-0.103472300392499,51.4779636035793],[-0.103112511333753,51.4779577840664],[-0.102752722396148,51.4779519634499],[-0.10276203849705,51.47772729668],[-0.102402251454194,51.4777214750022],[-0.102042464532521,51.4777156522209],[-0.102051784059313,51.4774909855262],[-0.101691999032407,51.4774851616836],[-0.101701320211453,51.4772604950216],[-0.101341539534773,51.4772546690501],[-0.100981760194699,51.4772488414464],[-0.100991084893701,51.4770241748179],[-0.100631307569563,51.4770183460998],[-0.10064063402989,51.4767936794561],[-0.100280858721683,51.4767878496237],[-0.100290186943286,51.4765631829649],[-0.100649960362863,51.4765690128054],[-0.100659286568486,51.4763443461477],[-0.10066861264676,51.476119679483],[-0.100677938597687,51.4758950128113],[-0.10068726442127,51.4756703461327],[-0.100696591584004,51.4754456787914],[-0.100705921879381,51.4752210099857],[-0.100715252052808,51.4749963411707],[-0.100724582104289,51.4747716723462],[-0.100733912033826,51.4745470035124],[-0.10074324184142,51.4743223346692],[-0.100752571527073,51.4740976658166],[-0.100761901090789,51.4738729969546],[-0.1004021496947,51.4738671672995],[-0.100411480921097,51.473642498466],[-0.10005173143153,51.4736366677452],[-0.100061064320565,51.4734119989403],[-0.100070397087622,51.473187330126],[-0.0997106512891412,51.4731814983773],[-0.0997199857187678,51.4729568295915],[-0.0997293200263971,51.4727321607964],[-0.0997386542120324,51.4725074919919],[-0.0993789138890584,51.4725016592534],[-0.0993882497371747,51.4722769904774],[-0.0993975854632783,51.4720523216921],[-0.0990378488311886,51.4720464879258],[-0.0990471862197066,51.471821819169],[-0.0990565234861928,51.4715971504029],[-0.0986967905449092,51.4715913156089],[-0.0987061294737432,51.4713666468713],[-0.098346398438836,51.4713608110118],[-0.0983557390299718,51.4711361423028],[-0.0979960099014367,51.4711303053776],[-0.098005352154829,51.4709056366972],[-0.097645624932662,51.4708997987064],[-0.0976549688482635,51.4706751300546],[-0.0972952435324607,51.4706692909982],[-0.0973045891102265,51.470444622375],[-0.0969448657007833,51.4704387822531],[-0.0969542129406669,51.4702141136585],[-0.09659449143758,51.470208272471],[-0.0966038403395353,51.4699836039051],[-0.0962441207427997,51.4699777616521],[-0.0962534713067814,51.4697530931147],[-0.0958937536163931,51.4697472497963],[-0.0955340360481733,51.4697414053743],[-0.0955246819157929,51.4699660738355],[-0.0951649626855676,51.469960228272],[-0.0951556066467214,51.4701848966858],[-0.0947958857544951,51.4701790499806],[-0.0944361649845109,51.4701732021719],[-0.0944268052549151,51.4703978705002],[-0.0940670828229594,51.4703920215499],[-0.0940577211867861,51.4706166898307],[-0.093697997092863,51.4706108397388],[-0.093688633550066,51.4708355079721],[-0.0936792698848997,51.4710601761961],[-0.0936699060973629,51.4712848444107],[-0.0936605421874527,51.4715095126158],[-0.0933008110785939,51.4715036612679],[-0.0933101767728517,51.4712789931009],[-0.0933195423447129,51.4710543249244],[-0.0929598149268681,51.4710484725491],[-0.092969182160633,51.4708238044013],[-0.0929785492719837,51.4705991362441],[-0.0929879162609218,51.4703744680776],[-0.0929972831274484,51.4701497999016],[-0.0930066498715664,51.4699251317163],[-0.0930160164932782,51.4697004635215],[-0.0930253829925854,51.4694757953174],[-0.0926656681866999,51.4694699421053],[-0.0926750363477392,51.4692452739299],[-0.0926844043863555,51.4690206057451],[-0.0923246932710886,51.4690147515057],[-0.0923340629713717,51.4687900833496],[-0.0923434325492126,51.4685654151841],[-0.0919837251244857,51.4685595599175],[-0.0919930963639261,51.4683348917807],[-0.092002467480905,51.4681102236346],[-0.091642763746642,51.4681043673408],[-0.0916521365251539,51.4678796992234],[-0.0916615091811854,51.4676550310965],[-0.0913018091373083,51.4676491737756],[-0.0913111834548063,51.4674245056775],[-0.0913205576498051,51.46719983757],[-0.0916802541258187,51.4672056948147],[-0.0916708817147398,51.4674303629603],[-0.0920305800970974,51.4674362191397],[-0.0920399507242539,51.4672115509559],[-0.0923996474450884,51.4672174059938],[-0.092759344288299,51.4672232599282],[-0.0927687115772991,51.4669985912657],[-0.0931284067623508,51.4670044440684],[-0.0934881020687757,51.4670102957679],[-0.0938477974965514,51.4670161463641],[-0.0938571594442991,51.4667914774818],[-0.0942168532278472,51.4667973269333],[-0.0942262132886861,51.466572658],[-0.0938665212706709,51.4665668085899],[-0.0935068293739798,51.4665609580766],[-0.0935161928444857,51.4663362892166],[-0.0938758829756698,51.4663421396885],[-0.0938852445592979,51.4661174707774],[-0.0938946060215564,51.4658928018569],[-0.0939039673624471,51.4656681329267],[-0.0942636523185601,51.465673982171],[-0.0942730117726677,51.4654493131898],[-0.0946326950846525,51.4654551612894],[-0.0946420526520225,51.4652304922572],[-0.0950017343198756,51.4652363392123],[-0.0950110900005526,51.4650116701291],[-0.0950204455599404,51.4647870010363],[-0.0953801238182998,51.4647928468053],[-0.095739802197875,51.4647986914712],[-0.0957491541053049,51.464574022286],[-0.0957585058914936,51.4643493530913],[-0.0961181808616098,51.4643551965712],[-0.0961275307612681,51.4641305273255],[-0.0961368805397136,51.4639058580702],[-0.0964965521004299,51.4639117003642],[-0.0965058999924146,51.463687031058],[-0.096515247763213,51.4634623617422],[-0.09687491591459,51.4634682028503],[-0.096884261798998,51.4632435334835],[-0.0972439283062806,51.4632493734471],[-0.0972532723043449,51.4630247040294],[-0.0976129371675279,51.4630305428485],[-0.0976222792792949,51.4628058733799],[-0.0972626161812749,51.4628000346022],[-0.0972719599370723,51.4625753651654],[-0.0969122987252749,51.4625695253259],[-0.0969216441250574,51.4623448559209],[-0.0969309894036878,51.4621201865063],[-0.0965713318431989,51.4621143456465],[-0.0965806787657484,51.4618896762637],[-0.0962210230914487,51.4618838343423],[-0.0962303716578712,51.4616591649913],[-0.0962397201031033,51.4614344956308],[-0.0958800680800055,51.4614286526891],[-0.0955204161780703,51.4614228086444],[-0.0955110642028035,51.4616474779221],[-0.0955017121062999,51.4618721471902],[-0.0951420567954978,51.4618663019596],[-0.0951327028126965,51.4620909711768],[-0.0951233487086314,51.4623156403844],[-0.0951139944833008,51.4625403095824],[-0.0947543339984687,51.4625344631245],[-0.0947449778867442,51.4627591322715],[-0.094735621653728,51.462983801409],[-0.0943759577598648,51.4629779537651],[-0.0943665996403843,51.4632026228516],[-0.0943572413995839,51.4634272919285],[-0.0939975740966306,51.4634214430987],[-0.0939882139692959,51.4636461121245],[-0.0939788537206146,51.4638707811409],[-0.0939694933505847,51.4640954501476],[-0.0936098208732245,51.4640896000903],[-0.0932501485171867,51.4640837489299],[-0.0932407844952495,51.4643084178441],[-0.0928811104952836,51.4643025655391],[-0.0928717445866498,51.4645272344023],[-0.0925120689427585,51.4645213809527],[-0.0921523934202641,51.4645155263999],[-0.0921430238595711,51.4647401951706],[-0.0917833466931808,51.4647343394732],[-0.0914236696482342,51.4647284826726],[-0.091063992724754,51.4647226247689],[-0.0907043159227641,51.4647167657621],[-0.0907136925447039,51.4644920971575],[-0.0907230690450848,51.4642674285433],[-0.0907324454239071,51.4640427599196],[-0.0907418216811736,51.4638180912862],[-0.0907511978168868,51.4635934226433],[-0.0907605738310486,51.4633687539908],[-0.0907699497236606,51.4631440853288],[-0.0911296141689686,51.463149944045],[-0.0911389881748841,51.4629252753318],[-0.0911483620592776,51.4627006066091],[-0.0915080230957815,51.4627064641392],[-0.0915173950935476,51.4624817953654],[-0.0915267669698197,51.462257126582],[-0.0915361387245972,51.462032457789],[-0.0918957945872951,51.4620383140915],[-0.0919051644555423,51.4618136452475],[-0.0919145342023232,51.4615889763939],[-0.0922741866563801,51.4615948315103],[-0.0922835545167007,51.4613701626056],[-0.0922929222555816,51.4611454936914],[-0.0926525713010588,51.4611513476219],[-0.0926619371535498,51.4609266786566],[-0.0930215845554381,51.4609325314425],[-0.0930309485215853,51.4607078624262],[-0.0930403123663446,51.4604831934003],[-0.0933999563597283,51.4604890450003],[-0.0934093183182149,51.4602643759234],[-0.0937689606680221,51.4602702263789],[-0.0937783207402798,51.460045557251],[-0.0941379614465072,51.4600514065621],[-0.0941473196325822,51.4598267373831],[-0.0941566776973477,51.4596020681946],[-0.0945163149951639,51.4596079163199],[-0.094525671173817,51.4593832470803],[-0.094885306828065,51.4593890940613],[-0.0948946611206518,51.4591644247707],[-0.0949040152919788,51.4589397554706],[-0.0952636475378936,51.4589456012657],[-0.095272999843742,51.4587209320347],[-0.0952823520434785,51.4584962628823],[-0.0956419808811473,51.4585021074798],[-0.0956513311956071,51.458277438272],[-0.0956606813888931,51.4580527690545],[-0.0956700314610079,51.4578280998271],[-0.0956793814119537,51.45760343059],[-0.0960390033145613,51.4576092739024],[-0.0960483513803504,51.4573846046099],[-0.0964079716400615,51.457390446774],[-0.0964173178207388,51.4571657774261],[-0.0967769364375486,51.4571716184421],[-0.096786280733161,51.4569469490388],[-0.0971458977070648,51.4569527889066],[-0.0971552401176572,51.4567281194479],[-0.0971645824071816,51.4565034499796],[-0.0975241959742699,51.4565092886535],[-0.0975335363788443,51.4562846191298],[-0.09789314830304,51.4562904566556],[-0.097902486822711,51.4560657870765],[-0.0982620971040089,51.4560716234542],[-0.0986217075062509,51.4560774587292],[-0.0986310423772187,51.4558527890493],[-0.0989906511365344,51.4558586231763],[-0.09899998412271,51.455633953441],[-0.0993595912390962,51.4556397864199],[-0.099368922340525,51.4554151166293],[-0.099728527813976,51.4554209484601],[-0.0997378570307033,51.4551962786143],[-0.100097460861217,51.4552021092969],[-0.10010678819329,51.4549774393958],[-0.100116115404493,51.454752769485],[-0.100475715828323,51.4547585989741],[-0.100485041154941,51.454533929008],[-0.100844639935846,51.4545397573491],[-0.100853963377925,51.4543150873277],[-0.101213560515899,51.4543209145208],[-0.101222882073484,51.4540962444441],[-0.101232203510277,51.4538715743577],[-0.10124152482628,51.4536469042615],[-0.101250846021495,51.4534222341555],[-0.101260167095924,51.4531975640398],[-0.101269488049569,51.4529728939142],[-0.101629074756038,51.4529787197125],[-0.101638393831259,51.4527540495275],[-0.101647712785767,51.4525293793327],[-0.101657031619563,51.4523047091279],[-0.101666350332651,51.4520800389132],[-0.102025930301884,51.4520858632901],[-0.102016613351426,51.4523105335526],[-0.102376195203926,51.4523163568751],[-0.10273577717704,51.4523221790952],[-0.102726463631207,51.4525468494435],[-0.10308604748757,51.4525526706091],[-0.103445631464505,51.4525584906724],[-0.103805215561987,51.4525643096333],[-0.103795907183563,51.4527889801152],[-0.104155493164257,51.4527947980216],[-0.104515079265456,51.4528006148256],[-0.104505774291878,51.4530252853933],[-0.104865362276274,51.4530311011428],[-0.104874665487136,51.4528064305273],[-0.105234251829275,51.4528122451266],[-0.105243553156935,51.4525875744534],[-0.105603137856814,51.4525933879026],[-0.105962722677103,51.4525992002494],[-0.106322307617781,51.4526050114938],[-0.106681892678825,51.4526108216359],[-0.107041477860211,51.4526166306757],[-0.107032185346052,51.4528413015877],[-0.107391772410464,51.4528471095728],[-0.107382481538662,51.4530717805226],[-0.107373190546509,51.4532964514626],[-0.107732781256706,51.4533022584408],[-0.107723491906977,51.4535269294186],[-0.108083084500233,51.4535327353421],[-0.108442677213749,51.4535385401633],[-0.108433391269293,51.4537632112266],[-0.108792985865852,51.4537690149931],[-0.109152580582627,51.4537748176571],[-0.109161863001469,51.4535501464984],[-0.109521456075628,51.4535559480124],[-0.109512175419595,51.4537806192188],[-0.109502894643343,51.4540052904153],[-0.109493613746867,51.4542299616019],[-0.109853212229699,51.4542357621565],[-0.10984393297588,51.4544604333809],[-0.110203533341746,51.4544662328808],[-0.110194255730628,51.4546909041429],[-0.110553857979532,51.454696702588],[-0.110544582011161,51.454921373888],[-0.110904186143108,51.4549271712782],[-0.111263790395144,51.4549329675661],[-0.111623394767248,51.4549387627515],[-0.111632665446817,51.4547140913086],[-0.111273062837649,51.4547082961709],[-0.111282335160039,51.4544836247658],[-0.111291607362317,51.4542589533508],[-0.111300879444485,51.4540342819258],[-0.110941282244047,51.4540284858286],[-0.11095055596895,51.4538038144414],[-0.110959829573722,51.4535791430444],[-0.110969103058368,51.4533544716374],[-0.11097837642289,51.4531298002206],[-0.110987649667288,51.4529051287938],[-0.110628061400908,51.4528993318324],[-0.110637336287911,51.4526746604434],[-0.110996922791565,51.4526804573572],[-0.111006195795723,51.4524557859107],[-0.111015468679765,51.4522311144543],[-0.110655885701497,51.4522253176358],[-0.110665160228083,51.4520006462171],[-0.110674434634533,51.4517759747886],[-0.110683708920849,51.4515513033501],[-0.11104328661121,51.4515571000257],[-0.111052559014805,51.4513324285297],[-0.111412135062633,51.4513382240552],[-0.111771711230494,51.4513440184785],[-0.111780979988842,51.4511193468774],[-0.11179024862713,51.4508946752663],[-0.111430675984389,51.4508888809383],[-0.111439946265147,51.450664209365],[-0.111449216475976,51.4504395377715],[-0.111089647483452,51.4504337424344],[-0.11109891943451,51.450209070856],[-0.111108191265273,51.4499843992679],[-0.111117462975742,51.4497597276701],[-0.111477026669349,51.4497655228749],[-0.111486296493267,51.4495408512233],[-0.111495566196919,51.449316179562],[-0.111504835780307,51.449091507891],[-0.111514105243433,51.4488668362102],[-0.111523374586299,51.4486421645198],[-0.111532643808907,51.4484174928196],[-0.11154191291126,51.4481928211097],[-0.111182361580996,51.4481870262135],[-0.111191632329194,51.447962354538],[-0.111200902957118,51.4477376828528],[-0.110841355279257,51.4477318869424],[-0.110850627552962,51.4475072152916],[-0.110859899706373,51.447282543631],[-0.110869171739493,51.4470578719608],[-0.111228714119264,51.4470636677389],[-0.111588256619253,51.4470694624147],[-0.111597525000113,51.4468447906465],[-0.11123798426611,51.4468389960148],[-0.111247254292692,51.4466143242811],[-0.110887715444867,51.4466085285911],[-0.110528176717279,51.4466027317989],[-0.110537450155475,51.4463780601436],[-0.110546723473363,51.4461533884786],[-0.110187188397881,51.4461475906723],[-0.110196463361356,51.4459229190417],[-0.109836930172038,51.4459171201773],[-0.109477397103019,51.4459113202105],[-0.109468118607772,51.4461359917529],[-0.109108583893192,51.4461301906397],[-0.108749049298958,51.4461243884242],[-0.108389514825093,51.4461185851065],[-0.108029980471621,51.4461127806864],[-0.108020694792391,51.4463374520424],[-0.107661158793436,51.446331646476],[-0.10730162291492,51.4463258398072],[-0.106942087156868,51.4463200320361],[-0.106932796059418,51.4465447032498],[-0.106573258655936,51.4465388943323],[-0.106213721372965,51.4465330843124],[-0.105854184210526,51.4465272731902],[-0.105494647168645,51.4465214609658],[-0.105485348886923,51.446746131993],[-0.105125810199691,51.446740318622],[-0.104766271633062,51.4467345041486],[-0.10475696969881,51.4469591750776],[-0.104747667643881,51.4471838459969],[-0.104388125665961,51.4471780303328],[-0.104028583808695,51.4471722135663],[-0.104019278101103,51.4473968843874],[-0.103659734598525,51.4473910664743],[-0.103650427004195,51.4476157372414],[-0.103290881856307,51.4476099181817],[-0.103281572375193,51.4478345888948],[-0.102922025582001,51.4478287686885],[-0.102912714214057,51.4480534393475],[-0.102903402725312,51.4482781099968],[-0.102543852520746,51.4482722885996],[-0.102534539145102,51.4484969591949],[-0.102174987295218,51.448491136651],[-0.102165672032628,51.4487158071922],[-0.101806118537432,51.4487099835017],[-0.10179680138785,51.4489346539889],[-0.101787484117391,51.4491593244664],[-0.101427927287065,51.4491534995149],[-0.101418608138092,51.4493781699333],[-0.101409288868664,51.449602840342],[-0.101049728746482,51.4495970141023],[-0.101040407598994,51.4498216844552],[-0.101031086331022,51.4500463547983],[-0.100671522814057,51.4500405273643],[-0.100662199667955,51.4502651976517],[-0.100302634513808,51.4502593690694],[-0.0999430694801469,51.4502535393849],[-0.0999523961415289,51.4500288691894],[-0.0999617226823565,51.4498041989842],[-0.0996021612844542,51.4497983682892],[-0.099611489462322,51.4495736981201],[-0.0996208175196168,51.4493490279412],[-0.0996301454563409,51.4491243577525],[-0.0992705894516653,51.4491185260931],[-0.0992799190253431,51.4488938559406],[-0.0992892484784312,51.4486691857783],[-0.0989296961093145,51.4486633531086],[-0.0989390271992897,51.4484386829824],[-0.0985794767082072,51.4484328492564],[-0.0985888094350229,51.4482081791665],[-0.0985981420412105,51.4479835090667],[-0.0986074745267727,51.4477588389571],[-0.0989670197455755,51.4477646725451],[-0.0989763503531313,51.4475400023798],[-0.0993358939351057,51.4475458348195],[-0.0993452226647018,51.4473211645984],[-0.0993545512737229,51.4470964943674],[-0.0997140914615233,51.447102325613],[-0.0997234181926545,51.4468776553262],[-0.0997327448032386,51.4466529850296],[-0.0993732081300501,51.446647153876],[-0.0993638797621718,51.4468718241266],[-0.0990043414522105,51.4468659918248],[-0.0989950112064472,51.4470906620196],[-0.0986354712597183,51.4470848285695],[-0.0986261391360242,51.4473094987085],[-0.0986168068917092,51.4475341688377],[-0.0982572635508605,51.4475283341935],[-0.0982479294285445,51.4477530042668],[-0.098238595185581,51.4479776743304],[-0.097879048450553,51.4479718384919],[-0.0978883844509155,51.4477471684743],[-0.0975288395939077,51.4477413315795],[-0.097538177230976,51.4475166615982],[-0.0971786342519845,51.4475108236472],[-0.0971879735257113,51.4472861537021],[-0.0968284324247329,51.4472803146949],[-0.0968377733350746,51.447055644786],[-0.0964782341121049,51.4470498047226],[-0.0964875766590143,51.4468251348499],[-0.0964969190851723,51.4466004649674],[-0.0961373834974829,51.446594623894],[-0.0961467275601428,51.4463699540477],[-0.0957871938504287,51.4463641119181],[-0.095796539549546,51.4461394421081],[-0.0958058851278722,51.4459147722883],[-0.0954463550533325,51.4459089291486],[-0.0954557022680499,51.4456842593651],[-0.0954650493619564,51.4454595895717],[-0.0951055229225148,51.4454537454221],[-0.0951148716527463,51.445229075665],[-0.0951242202621489,51.4450044058981],[-0.0954837431873478,51.4450102499556],[-0.0954930899188356,51.4447855801328],[-0.0951335687507255,51.4447797361213],[-0.0951429171184776,51.4445550663348],[-0.0951522653654063,51.4443303965385],[-0.0951616134915146,51.4441057267323],[-0.095170961496804,51.4438810569163],[-0.0948114474775861,51.4438752119871],[-0.0948207971190311,51.4436505422074],[-0.0948301466396393,51.4434258724179],[-0.0948394960394124,51.4432012026185],[-0.0944799874118262,51.4431953567255],[-0.0944893384476688,51.4429706869624],[-0.0944986893626572,51.4427460171895],[-0.0941391843696555,51.4427401702866],[-0.0941485369206465,51.44251550055],[-0.0941578893507657,51.4422908308036],[-0.0937983879922712,51.4422849828909],[-0.0938077420678035,51.4420603132012],[-0.0938170960296158,51.4418356435179],[-0.0934575983213491,51.4418297946007],[-0.0934669539282273,51.4416051249564],[-0.0934763094136902,51.4413804553021],[-0.0931168153596846,51.4413746053808],[-0.0931261724901468,51.4411499357654],[-0.0931355294991748,51.4409252661401],[-0.0931448863867718,51.4407005965048],[-0.0927853977533161,51.4406947456284],[-0.0927947562858251,51.440470076032],[-0.092804114696884,51.4402454064257],[-0.0928134729864943,51.4400207368094],[-0.0924539897733934,51.4400148849779],[-0.0924633497078285,51.4397902154005],[-0.0924727095207967,51.4395655458133],[-0.0924820692123008,51.439340876216],[-0.0924914287823412,51.4391162066088],[-0.0921319527556013,51.4391103538712],[-0.0921413139703594,51.4388856843029],[-0.0921506750636359,51.4386610147247],[-0.0917912026906604,51.4386551609831],[-0.0918005654285877,51.4384304914439],[-0.0918099280450154,51.4382058218946],[-0.0914504593257276,51.4381999671492],[-0.0914598235867399,51.437975297639],[-0.0914691877262332,51.4377506281187],[-0.091478551744209,51.4375259585886],[-0.0911190884445684,51.4375201028883],[-0.0911284541070417,51.4372954333971],[-0.0911378196479816,51.4370707638959],[-0.0911471850673873,51.4368460943847],[-0.0907877271871963,51.4368402377296],[-0.0907970942510126,51.4366155682574],[-0.0908064611932771,51.4363908987753],[-0.090815828013992,51.4361662292832],[-0.0908251947131587,51.4359415597812],[-0.0904657440180962,51.4359357022202],[-0.090475112361566,51.4357110327571],[-0.090484480583469,51.4354863632841],[-0.0904938486838078,51.4352616938011],[-0.0905032166625847,51.4350370243082],[-0.0905125845198006,51.4348123548053],[-0.0901531427752634,51.4348064963874],[-0.0901625122766538,51.4345818269235],[-0.0901718816564653,51.4343571574496],[-0.0901812509147009,51.4341324879658],[-0.0901906200513617,51.433907818472],[-0.0901999887776988,51.4336831493416],[-0.0898405559837804,51.4336772900576],[-0.0898499262733327,51.4334526210604],[-0.0898592964405822,51.4332279520547],[-0.089868666485531,51.4330032830404],[-0.0898780364081809,51.4327786140178],[-0.0898874062085341,51.4325539449866],[-0.0895279824328365,51.4325480847015],[-0.0895373538900197,51.4323234156823],[-0.0895467252248881,51.4320987466545],[-0.0895560964374432,51.4318740776184],[-0.0895654675276861,51.4316494085737],[-0.0895748384956205,51.4314247395206],[-0.0892154237375734,51.4314188782344],[-0.0892247963622092,51.4311942091932],[-0.0892341688645158,51.4309695401435],[-0.0892435412444972,51.4307448710853],[-0.0892529135021555,51.4305202020187],[-0.0888935059822731,51.4305143397112],[-0.0889028798965234,51.4302896706564],[-0.0889122536884313,51.4300650015933],[-0.0889216273579995,51.4298403325216],[-0.0885622252970785,51.4298344691724],[-0.088571600623151,51.4296098001127],[-0.0885809758268652,51.4293851310444],[-0.0885903509082213,51.4291604619678],[-0.0882309543060663,51.4291545975769],[-0.0882403310438406,51.4289299285122],[-0.0878809363427841,51.4289240630388],[-0.0875215417640759,51.4289181964627],[-0.0875309219369669,51.4286935274303],[-0.0871715292593738,51.4286876597718],[-0.0868121367041736,51.4286817910104],[-0.0868215203120836,51.4284571220104],[-0.0864621296580153,51.4284512521667],[-0.0861027391263835,51.4284453812201],[-0.0861121261692151,51.4282207122526],[-0.0861215130895392,51.4279960432766],[-0.0861308998873582,51.4277713742921],[-0.0861402865626751,51.4275467052992],[-0.0857809032681215,51.4275408333316],[-0.0854215200960413,51.4275349602613],[-0.0850621370464595,51.4275290860882],[-0.0850715289350611,51.4273044171482],[-0.0850809207010947,51.4270797481998],[-0.0847215413714017,51.4270738730131],[-0.0847309347736354,51.4268492040899],[-0.0847403280551016,51.4266245351566],[-0.0843809523685094,51.4266186590111],[-0.0843903472729961,51.4263939901187],[-0.0843997420566951,51.4261693212162],[-0.0844091367196105,51.4259446523036],[-0.0844185312617423,51.4257199833809],[-0.0840591626708949,51.4257141063377],[-0.0840685588611774,51.4254894377845],[-0.0840779550903982,51.4252647712937],[-0.0840873512001217,51.425040104795],[-0.0837279879120862,51.4250342267725],[-0.083737385621083,51.4248095602737],[-0.0837467832105641,51.4245848937671],[-0.0837561806805319,51.4243602272526],[-0.0837655780309892,51.4241355607304],[-0.0837749752619367,51.4239108942004],[-0.0837843723733783,51.4236862276625],[-0.0837937693653139,51.4234615611169],[-0.0838031662377468,51.4232368945635],[-0.0838125629906796,51.4230122280022],[-0.0838219596241128,51.4227875614332],[-0.083462613642191,51.4227816823837],[-0.0831032677797398,51.422775802231],[-0.0830938677091806,51.4230004687847],[-0.0827345202476618,51.4229945875211],[-0.0823751729056593,51.4229887051542],[-0.0823657692783939,51.4232133716848],[-0.0820064203373527,51.423207488207],[-0.0816470715158745,51.4232016036259],[-0.0816564785802941,51.4229769371106],[-0.0816658855250818,51.4227522705875],[-0.0816752923502386,51.4225276040566],[-0.0813159488040017,51.4225217183953],[-0.0813253572280366,51.4222970518643],[-0.0813347655324227,51.4220723853255],[-0.0813441737171615,51.4218477187789],[-0.0809848354459734,51.4218418320374],[-0.0806254972944032,51.4218359441927],[-0.0802661592624718,51.4218300552448],[-0.0799068213502016,51.4218241651936],[-0.0799162362890368,51.42159949867],[-0.0795569002148809,51.4215936075234],[-0.079197564260428,51.4215877152735],[-0.0792069825163444,51.4213630487577],[-0.0792164006524858,51.421138382234],[-0.0795757331701497,51.4211442744683],[-0.0795851494681566,51.4209196079291],[-0.0795945656464162,51.4206949413821],[-0.079235236565453,51.4206890491632],[-0.0788759076042067,51.4206831558411],[-0.078885327099351,51.4204584893018],[-0.0785259999761567,51.4204525948843],[-0.0785354210698017,51.4202279283449],[-0.0785448420436377,51.4200032617977],[-0.078904165730273,51.4200091561997],[-0.0792634895366429,51.4200150494985],[-0.0792729069541785,51.419790382928],[-0.0796322291620105,51.4197962751159],[-0.0799915514895296,51.4198021662007],[-0.0803508739367133,51.4198080561823],[-0.0807101965035407,51.4198139450608],[-0.0810695191899896,51.4198198328362],[-0.0814288419960365,51.4198257195084],[-0.0817881649216602,51.4198316050775],[-0.0821474879668391,51.4198374895434],[-0.0825068111315508,51.4198433729061],[-0.0828661344157723,51.4198492551658],[-0.0832254578194826,51.4198551363222],[-0.0835847813426593,51.4198610163756],[-0.0839441049852795,51.4198668953258],[-0.0839534999459424,51.4196422286475],[-0.0843128219897315,51.4196481064869],[-0.0846721441529186,51.4196539832232],[-0.0846815355576485,51.4194293165219],[-0.0850408552442723,51.4194351918742],[-0.085400173423204,51.4194410656173],[-0.0857594917259868,51.4194469382594],[-0.0861188101525965,51.4194528098005],[-0.086478128703012,51.4194586802405],[-0.0868374473772081,51.4194645495794],[-0.0868280668075476,51.4196892165588],[-0.0871873874101547,51.4196950848441],[-0.0875467081364975,51.4197009520283],[-0.087537331052382,51.4199256190926],[-0.0878966537071179,51.4199314852231],[-0.0878872783039402,51.4201561523249],[-0.0882466028870738,51.4201620174017],[-0.088237229164881,51.420386684541],[-0.0885965556764158,51.4203925485641],[-0.0885871836352536,51.4206172157408],[-0.0889465120751934,51.4206230787102],[-0.0889371417151084,51.4208477459244],[-0.0892964720834571,51.4208536078401],[-0.0892871034044963,51.4210782750917],[-0.0896464357012581,51.4210841359536],[-0.089637068703467,51.4213088032427],[-0.089996402928647,51.4213146630508],[-0.09035573727739,51.4213205217577],[-0.0903463737656724,51.4215451891316],[-0.0907057100428159,51.4215510467847],[-0.0910650464434794,51.4215569033368],[-0.0910556864179334,51.4217815707953],[-0.0914150247469795,51.4217874262935],[-0.0914056664027928,51.4220120937895],[-0.0917650066602256,51.4220179482338],[-0.0917556499974453,51.4222426157672],[-0.0921149921832695,51.4222484691577],[-0.0921056372019408,51.4224731367285],[-0.0924649813161583,51.422478989065],[-0.0924556280163299,51.4227036566732],[-0.0928149740589466,51.4227095079558],[-0.0931743202249536,51.4227153581372],[-0.0931649704116814,51.4229400258301],[-0.0935243185060698,51.4229458749576],[-0.0938836667238036,51.4229517229838],[-0.0942430150648598,51.4229575699089],[-0.0946023635292139,51.4229634157328],[-0.0945930208126858,51.4231880836047],[-0.094233670543287,51.4231822377336],[-0.0942243258983595,51.4234069055484],[-0.0938649739471957,51.4234010585288],[-0.0938556273738234,51.4236257262865],[-0.093496273740899,51.4236198781185],[-0.0934869252390352,51.4238445458191],[-0.0931275699243552,51.4238386965026],[-0.0931182194939547,51.4240633641461],[-0.092758862497523,51.4240575136812],[-0.092749510138538,51.4242821812675],[-0.0931088689401213,51.4242880317797],[-0.0930995182628533,51.4245126994034],[-0.093090167462149,51.4247373670172],[-0.0934495299974914,51.4247432165226],[-0.0934401808785723,51.4249678841738],[-0.0930808165380065,51.4249620346211],[-0.0927214523208286,51.4249561839672],[-0.0923620882270622,51.424950332212],[-0.0923527335689919,51.4251749997115],[-0.0919933677934197,51.4251691468077],[-0.0920027242567303,51.4249444793554],[-0.0916433604098561,51.4249386253977],[-0.0912839966864631,51.4249327703386],[-0.0912746366126783,51.4251574376963],[-0.0909152712075567,51.4251515814887],[-0.0909059092049565,51.4253762487892],[-0.0905465421181101,51.425370391433],[-0.0905371781274362,51.4255950593696],[-0.0905278138956817,51.4258197286838],[-0.0901684433615682,51.4258138701126],[-0.0901590772291417,51.426038539398],[-0.08979970503875,51.4260326797037],[-0.0897903370056067,51.4262573489602],[-0.0894309631589412,51.4262514881429],[-0.0894215932250358,51.4264761573705],[-0.0897809688502055,51.4264820182082],[-0.0897716005725425,51.4267066874477],[-0.0901309780984518,51.4267125472031],[-0.0904903557465506,51.4267184058557],[-0.0908497335168168,51.4267242634055],[-0.0912091114092263,51.4267301198526],[-0.0911997501235195,51.4269547891651],[-0.0915591299166101,51.4269606445298],[-0.0919185098318005,51.4269664987917],[-0.092277889869069,51.4269723519508],[-0.0922685337969428,51.4271970213158],[-0.0926279157348533,51.4272028733925],[-0.0929872977947976,51.4272087243664],[-0.0933466799767513,51.4272145742375],[-0.0933373291183612,51.427439243655],[-0.0936967132009206,51.4274450924436],[-0.0940560974054459,51.4274509401294],[-0.0944154817319146,51.4274567867125],[-0.0944061360874136,51.4276814561823],[-0.0943967903209388,51.4279061256436],[-0.0947561783266458,51.4279119711644],[-0.0951155664542535,51.4279178155824],[-0.0954749547037399,51.4279236588975],[-0.0954842951341971,51.4276989893755],[-0.0954936354427493,51.4274743198449],[-0.0951342507505896,51.4274684765702],[-0.0951435927158678,51.4272438070514],[-0.0947842099242072,51.4272379626942],[-0.0947935535461664,51.4270132931872],[-0.0944341726550034,51.4270074477475],[-0.0940747918857564,51.4270016012049],[-0.0937154112384496,51.4269957535597],[-0.093724760074193,51.426771084105],[-0.0933653813274193,51.4267652353772],[-0.093374731819702,51.4265405659343],[-0.0933840821899524,51.426315896483],[-0.0933934324381729,51.4260912270232],[-0.0937528058493661,51.4260970756901],[-0.0937621541970772,51.4258724062016],[-0.0934027825643658,51.4258665575549],[-0.0934121325685321,51.4256418880782],[-0.0934214822704792,51.4254172194466],[-0.0937808503449295,51.4254230679925],[-0.0941402185427254,51.4254289154371],[-0.0944995868638433,51.4254347617804],[-0.094858955308259,51.4254406070224],[-0.09521832387595,51.4254464511631],[-0.0952276642153258,51.4252217832955],[-0.0955870311009855,51.4252276262877],[-0.0959463981098718,51.4252334681787],[-0.0963057652419606,51.4252393089683],[-0.0963151000422486,51.4250146409493],[-0.0966744654922515,51.4250204805905],[-0.0966837983640641,51.4247958125145],[-0.0963244347193037,51.4247899729205],[-0.0963337692731293,51.4245653048817],[-0.0966931311126703,51.4245711444286],[-0.0967024637380712,51.4243464763328],[-0.0970618238955637,51.4243523147312],[-0.0974211841761802,51.4243581520284],[-0.0974305130680266,51.4241334838285],[-0.0977898716665641,51.4241393199772],[-0.0977991986301012,51.4239146517203],[-0.0978085254705081,51.4236899834534],[-0.0974491704822595,51.423684147399],[-0.0974584990046506,51.4234594791694],[-0.0974678274038923,51.42323481093],[-0.0971084761489308,51.4232289738686],[-0.0971178062300894,51.4230043056664],[-0.0967584569032995,51.4229984675509],[-0.0967677886663276,51.4227737993861],[-0.0971271361880805,51.4227796374544],[-0.0974864838329432,51.4227854744215],[-0.0978458316008911,51.4227913102875],[-0.0982051794919021,51.4227971450522],[-0.0985645275059522,51.4228029787157],[-0.0989238756430183,51.422808811278],[-0.0992832239030768,51.4228146427392],[-0.0996425722861039,51.4228204730991],[-0.100001920792076,51.4228263023578],[-0.100361269420971,51.4228321305153],[-0.100370583010587,51.4226074618695],[-0.100729929957346,51.4226132888787],[-0.10108927702698,51.4226191147868],[-0.101448624219462,51.4226249395936],[-0.101807971495426,51.4226307638886],[-0.102167318869752,51.4226365874216],[-0.102526666364689,51.4226424098528],[-0.102886013980215,51.4226482311825],[-0.103245361716309,51.4226540514104],[-0.103604709572945,51.4226598705367],[-0.103964057550102,51.4226656885614],[-0.104323405647757,51.4226715054843],[-0.104682753865887,51.4226773213057],[-0.105042102204469,51.4226831360253],[-0.105401450663481,51.4226889496433],[-0.105392161902799,51.4229136188292],[-0.105751512245491,51.4229194313836],[-0.1057607992429,51.4226947621596],[-0.106120147942703,51.4227005735743],[-0.106479496762867,51.4227063838872],[-0.106838845703369,51.4227121930985],[-0.106829563995795,51.4229368624367],[-0.107188914819896,51.4229426705844],[-0.10754826576429,51.4229484776304],[-0.107907616828958,51.4229542835747],[-0.107898340290927,51.4231789530175],[-0.108257693239155,51.4231847578982],[-0.108617046307612,51.4231905616772],[-0.108976399496274,51.4231963643545],[-0.109335752805119,51.42320216593],[-0.109695106234125,51.4232079664039],[-0.110054459783269,51.4232137657762],[-0.110413813452528,51.4232195640467],[-0.110773167241879,51.4232253612155],[-0.111132521151298,51.4232311572826],[-0.111491875180764,51.423236952248],[-0.111851229330253,51.4232427461118],[-0.112210583599745,51.4232485388738],[-0.112569937989214,51.4232543305341],[-0.112560684254371,51.4234790004611],[-0.112920040527156,51.4234847910576],[-0.113279396919875,51.4234905805525],[-0.113638753432506,51.4234963689456],[-0.113998110065026,51.423502156237],[-0.114357466817414,51.4235079424267],[-0.114716823689643,51.4235137275147],[-0.115076180681694,51.423519511501],[-0.115435537793543,51.4235252943856],[-0.115794895025168,51.4235310761684],[-0.11578565704083,51.4237557464268],[-0.115426298045806,51.4237499646061],[-0.115417058178232,51.4239746348173],[-0.115776418936678,51.4239804166758],[-0.116135779814881,51.4239861974326],[-0.116145016155607,51.4237615271458],[-0.116504375390117,51.423767306763],[-0.116863734744336,51.4237730852785],[-0.116854501930464,51.423997755641],[-0.117213863167799,51.4240035330926],[-0.117204631997632,51.4242282034834],[-0.11719540070774,51.4244528738649],[-0.117186169298119,51.424677544237],[-0.116826802770356,51.424671766672],[-0.116817569477483,51.4248964369969],[-0.117176937768768,51.4249022145997],[-0.117536306179726,51.4249079911007],[-0.117895674710334,51.4249137664999],[-0.117886446588345,51.4251384369288],[-0.118245817004868,51.4251442112587],[-0.118255043389943,51.4249195407402],[-0.118264269656133,51.4246948702103],[-0.118273495803441,51.4244701996691],[-0.118282721831868,51.4242455291167],[-0.118291947741417,51.424020858553],[-0.11830117353209,51.4237961879779],[-0.117941813525018,51.4237904142147],[-0.117951040928916,51.4235657437295],[-0.11831039920389,51.4235715173916],[-0.118319624756816,51.423346846794],[-0.118678982322677,51.4233526174517],[-0.11868820600852,51.4231279467682],[-0.118697429575517,51.4229032760733],[-0.118338075506061,51.422897505565],[-0.118347300702383,51.4226728349335],[-0.117987949347786,51.4226670616948],[-0.117997176153332,51.4224423911626],[-0.118006402839214,51.4222177206211],[-0.118365750738438,51.4222234936367],[-0.118725099563454,51.422229263921],[-0.118715876352982,51.4224539346497],[-0.119075227044903,51.4224597039089],[-0.119066005463739,51.422684374701],[-0.119425358022568,51.422690142935],[-0.119416138070759,51.4229148137905],[-0.119406918000152,51.4231394846347],[-0.119766274174092,51.4231452519183],[-0.12012563046675,51.4231510181021],[-0.120484986878106,51.4231567831861],[-0.120844343408135,51.4231625471703],[-0.120853556485939,51.4229378760274],[-0.121212911386415,51.4229436388371],[-0.121203700056816,51.4231683100546],[-0.121563056824126,51.4231740718391],[-0.121922413710042,51.4231798325239],[-0.122281770714541,51.4231855921088],[-0.122641127837602,51.4231913505939],[-0.123000485079202,51.4231971079791],[-0.123359842439318,51.4232028642646],[-0.123350641480444,51.4234275359184],[-0.123710000707296,51.4234332911786],[-0.124069360052621,51.423439045339],[-0.124060162471727,51.4236637171306],[-0.124419523683772,51.4236694702657],[-0.124428719516396,51.4234447983995],[-0.1247880790986,51.4234505503602],[-0.125147438799208,51.4234563012211],[-0.125506798618199,51.4234620509822],[-0.125866158555551,51.4234677996434],[-0.125856969716023,51.4236924718077],[-0.126216331519991,51.4236982194436],[-0.12622551861124,51.4234735472048],[-0.126584878785244,51.4234792936663],[-0.126944239077541,51.423485039028],[-0.127303599488108,51.4234907832898],[-0.127662960016922,51.4234965264518],[-0.128022320663962,51.423502268514],[-0.128031498895524,51.4232775958915],[-0.128390857912496,51.4232833367794],[-0.128750217047646,51.4232890765674],[-0.128741042312624,51.4235137493388],[-0.129100403314203,51.4235194881014],[-0.129459764433916,51.4235252257642],[-0.129819125671741,51.4235309623271],[-0.129828295161939,51.4233062893324],[-0.12946893567239,51.4233005528439],[-0.129478106792698,51.4230758799124],[-0.129487277794841,51.4228512069696],[-0.129496448678821,51.4226265340155],[-0.129137094552071,51.4226207966504],[-0.129146267066074,51.4223961237595],[-0.129155439461896,51.4221714508574],[-0.128796088949616,51.4221657125413],[-0.128805262975394,51.4219410397023],[-0.128814436882973,51.4217163668521],[-0.128455089985086,51.4217106275851],[-0.128095743205361,51.4217048872184],[-0.128086565801559,51.4219295599198],[-0.127727217391912,51.4219238183789],[-0.127367869100477,51.4219180757382],[-0.127377050000493,51.4216934031857],[-0.127386230782221,51.421468730622],[-0.127395411445664,51.421244058047],[-0.127754754492848,51.4212498004643],[-0.128114097658237,51.4212555417819],[-0.128123274707315,51.4210308690467],[-0.128482616242843,51.42103660919],[-0.128491791425664,51.4208119363691],[-0.128132451638156,51.4208061963002],[-0.128141628450761,51.4205815235425],[-0.128150805145133,51.4203568507735],[-0.12779146897177,51.4203511097538],[-0.127800647295861,51.420126437048],[-0.127441312988644,51.420120695003],[-0.127432132916604,51.4203453676343],[-0.127072796979658,51.4203396244152],[-0.126713461160954,51.4203338800963],[-0.126704277474703,51.4205585525674],[-0.126344940026298,51.4205528070743],[-0.125985602696182,51.4205470604815],[-0.125976415395634,51.4207717327923],[-0.125617076435846,51.4207659850253],[-0.125257737594395,51.4207602361585],[-0.125248546679466,51.4209849083091],[-0.124889206208371,51.420979158268],[-0.124529865855659,51.4209734071273],[-0.124170525621352,51.4209676548867],[-0.124161329343938,51.4211923268024],[-0.123801987480042,51.4211865733876],[-0.123442645734598,51.4211808188731],[-0.123083304107629,51.4211750632588],[-0.12307410246761,51.4213997349395],[-0.122714759211105,51.4213939781509],[-0.122355416073122,51.4213882202625],[-0.121996073053685,51.4213824612744],[-0.12198686605094,51.4216071327201],[-0.121627521402018,51.4216013725577],[-0.121268176871688,51.4215956112954],[-0.120908832459974,51.4215898489335],[-0.120899620094385,51.421814520144],[-0.12054027405324,51.4218087566077],[-0.120531059820863,51.4220334277323],[-0.12017171215029,51.4220276630216],[-0.119812364598404,51.4220218972111],[-0.119803146751085,51.4222465681751],[-0.1194437975698,51.4222408011901],[-0.11908444850725,51.4222350331054],[-0.119093669850781,51.4220103622907],[-0.119453017165227,51.4220161303008],[-0.119462236641863,51.4217914594001],[-0.119471455999711,51.4215667884882],[-0.119112112181409,51.4215610206275],[-0.119121333168508,51.421336349779],[-0.119130554036801,51.4211116789191],[-0.118771213833296,51.421105910108],[-0.118780436330774,51.4208812393116],[-0.118789658709427,51.4206565685039],[-0.118430322120645,51.4206507987424],[-0.118439546128418,51.4204261279981],[-0.118080212018599,51.4204203559507],[-0.118089437627593,51.4201956853247],[-0.118098663116944,51.4199710146893],[-0.118107888486653,51.4197463440445],[-0.118467217438681,51.4197521156973],[-0.118476440971092,51.4195274449079],[-0.118835768820386,51.4195332142959],[-0.11884499048613,51.4193085434204],[-0.119204316706347,51.4193143116341],[-0.119563643045294,51.4193200787482],[-0.119572861096606,51.4190954077121],[-0.119932185806447,51.4191011736518],[-0.119941401991205,51.4188765025298],[-0.119950618057224,51.4186518313965],[-0.120309939390184,51.4186575960873],[-0.120319153589718,51.418432924868],[-0.12032836767054,51.4182082536375],[-0.120337581632651,51.4179835823957],[-0.120346795476055,51.4177589111427],[-0.120706109936808,51.4177646744353],[-0.120715321913845,51.4175400030963],[-0.120724533772201,51.417315331746],[-0.12108384485628,51.4173210937898],[-0.121093055305729,51.4170964225583],[-0.121102266306912,51.4168717516143],[-0.121461573966734,51.4168775123422],[-0.121470783087452,51.4166528412711],[-0.121479992088847,51.4164281701867],[-0.121839296345728,51.4164339295893],[-0.121848503466728,51.4162092583778],[-0.121857710468431,51.415984587153],[-0.122217011322433,51.4159903452305],[-0.122226216443811,51.4157656738785],[-0.12223542144592,51.4155410025133],[-0.122594718897102,51.4155467592657],[-0.122603922018956,51.4153220877733],[-0.122613125021566,51.4150974162677],[-0.122972419069989,51.415103171695],[-0.123331713237577,51.4151089260248],[-0.123340912599059,51.4148842542783],[-0.123700205124844,51.4148900073969],[-0.12370940260621,51.4146653355233],[-0.124068693490188,51.4146710874306],[-0.124427984493259,51.4146768382404],[-0.124437178333648,51.414452166126],[-0.124446372054914,51.4142274939984],[-0.124455565657062,51.4140028218575],[-0.124814851496551,51.4140085712286],[-0.124824043218741,51.4137838989606],[-0.124833234821839,51.4135592266794],[-0.124842426305846,51.4133345543848],[-0.125201706981924,51.4133403023173],[-0.125560987777016,51.4133460491523],[-0.125570175620386,51.413121376617],[-0.125579363344716,51.4128967040685],[-0.125938640737268,51.4129024495786],[-0.125929454773692,51.4131271222409],[-0.126288734045964,51.4131328667673],[-0.126297918248783,51.4129081939914],[-0.126657195879239,51.4129139373067],[-0.127016473628614,51.4129196795246],[-0.127375751496885,51.4129254206451],[-0.127384930298499,51.4127007475148],[-0.127744206524901,51.4127064874242],[-0.127753383446872,51.4124818141669],[-0.127762560249945,51.4122571408964],[-0.128121833073776,51.4122628794811],[-0.128131007997278,51.4120382060836],[-0.128490279179253,51.4120439434573],[-0.128849550480025,51.4120496797335],[-0.129208821899571,51.4120554149123],[-0.129568093437868,51.4120611489938],[-0.129927365094893,51.4120668819778],[-0.130286636870623,51.4120726138644],[-0.130645908765037,51.4120783446537],[-0.13100518077811,51.4120840743455],[-0.131364452909821,51.4120898029399],[-0.131723725160147,51.4120955304369],[-0.132082997529064,51.4121012568365],[-0.13244227001655,51.4121069821387],[-0.132801542622583,51.4121127063435],[-0.132792390588043,51.4123373812177],[-0.133151665073303,51.4123431044386],[-0.133510939677067,51.412348826562],[-0.133520088190198,51.4121241514608],[-0.133529236584797,51.4118994763463],[-0.133888507785648,51.4119051971453],[-0.134247779104953,51.4119109168469],[-0.134256923859697,51.4116862414921],[-0.134266068495959,51.411461566124],[-0.134275213013743,51.4112368907427],[-0.134634479169547,51.4112426090065],[-0.134993746926834,51.411248324097],[-0.135353019602874,51.4112540313706],[-0.135343880180548,51.4114787073091],[-0.135703154712718,51.4114844135923],[-0.136062429362116,51.4114901187779],[-0.13642170412872,51.4114958228657],[-0.136780979012508,51.4115015258558],[-0.136771846428509,51.4117262022111],[-0.13713112316837,51.4117319042109],[-0.137490400025371,51.411737605113],[-0.137849676999492,51.4117433049173],[-0.137840549515088,51.4119679815819],[-0.138199828345244,51.4119736803959],[-0.138559107292476,51.4119793781121],[-0.138549983168851,51.4122040549785],[-0.138909263972104,51.4122097517044],[-0.139268544892388,51.4122154473325],[-0.139259424129639,51.4124401244007],[-0.139618706905928,51.4124458190384],[-0.139977989799207,51.4124515125784],[-0.139968872397427,51.4126761898483],[-0.140328157146693,51.4126818823978],[-0.140687442012907,51.4126875738496],[-0.140678327972195,51.4129122513212],[-0.14103761469438,51.4129179417825],[-0.141396901533468,51.412923631146],[-0.141387790853919,51.4131483088194],[-0.141747079548963,51.4131539971924],[-0.142106368360868,51.4131596844676],[-0.142097261042578,51.4133843623426],[-0.142456551710422,51.4133900486273],[-0.142815842495084,51.4133957338142],[-0.143175133396541,51.4134014179032],[-0.143184235497525,51.4131767397063],[-0.14354352477665,51.4131824225903],[-0.143552625021728,51.4129577442732],[-0.143911912678517,51.4129634259521],[-0.143921011067735,51.4127387475149],[-0.144280297102183,51.4127444279888],[-0.144639583253333,51.4127501073649],[-0.144648678047691,51.4125254287003],[-0.145007962576471,51.4125311068713],[-0.144998869521159,51.4127557856431],[-0.145358155905641,51.4127614628236],[-0.145717442406756,51.4127671389063],[-0.146076729024482,51.4127728138911],[-0.146436015758796,51.4127784877782],[-0.146795302609675,51.4127841605674],[-0.147154589577097,51.4127898322588],[-0.147513876661041,51.4127955028525],[-0.147504795662561,51.4130201823617],[-0.147495714547531,51.413244861858],[-0.1471364239854,51.4132391910501],[-0.14712734101469,51.4134638704263],[-0.147118257927404,51.4136885497896],[-0.146758964003523,51.4136828776695],[-0.146749879060488,51.4139075569128],[-0.14639058351399,51.4139018835876],[-0.14638149671516,51.4141265627108],[-0.146022199546048,51.4141208881806],[-0.146013110891379,51.4143455671836],[-0.145653812099658,51.4143398914484],[-0.145644721589105,51.4145645703313],[-0.145285421174776,51.414558893391],[-0.145276328808294,51.4147835721538],[-0.144917026771364,51.4147778940084],[-0.144907932548907,51.415002572651],[-0.144548628889378,51.4149968933005],[-0.144539532810902,51.415221571823],[-0.144180227528779,51.4152158912673],[-0.144171129594238,51.4154405696697],[-0.144162031542922,51.4156652480591],[-0.143802722898874,51.4156595661911],[-0.143793622991424,51.4158842444603],[-0.143434312724768,51.4158785613871],[-0.143425210961139,51.4161032395362],[-0.143065899071881,51.4160975552578],[-0.143056795452028,51.4163222332866],[-0.142697481940169,51.416316547803],[-0.142688376464047,51.4165412257117],[-0.143047691715324,51.4165469113026],[-0.143038587861769,51.4167715893057],[-0.143397904969292,51.4167772739059]]],[[[-0.110178398842719,51.481219310835],[-0.110169118176013,51.4814439783486],[-0.110159837388515,51.4816686458525],[-0.110150556480224,51.4818933133469],[-0.110141275451137,51.4821179808316],[-0.110131994301253,51.4823426483067],[-0.110122713030569,51.4825673157722],[-0.109762886197097,51.4825615163843],[-0.109772169241871,51.482336848961],[-0.109412344303232,51.4823310485115],[-0.109421629001247,51.4821063811208],[-0.109430913578418,51.4818817137204],[-0.109440198034749,51.4816570463105],[-0.109449482370239,51.481432378891],[-0.109809300212759,51.4814381791716],[-0.10981858265344,51.4812135117003],[-0.110178398842719,51.481219310835]]],[[[-0.107391772410464,51.4528471095728],[-0.107401063161917,51.4526224386131],[-0.10776064858392,51.4526282454481],[-0.107769937452341,51.4524035744307],[-0.108129521231932,51.4524093801157],[-0.108120234126198,51.4526340511808],[-0.108479819788727,51.4526398558111],[-0.108470534325405,51.452864526914],[-0.108830121870878,51.4528703304896],[-0.108820838050012,51.4530950016304],[-0.108811554108888,51.4533196727612],[-0.108451963037918,51.4533138690901],[-0.108092372087183,51.4533080643166],[-0.108101659553826,51.4530833932812],[-0.107742070486105,51.4530775874531],[-0.107751359595176,51.4528529164556],[-0.107391772410464,51.4528471095728]]],[[[-0.105612437301318,51.4523687171717],[-0.105252854364112,51.4523629037703],[-0.105262155450808,51.4521382330773],[-0.105271456417026,51.4519135623745],[-0.105631035828952,51.4519193756803],[-0.105990615361285,51.4519251878838],[-0.105981317920325,51.4521498586822],[-0.105972020358932,51.4523745294707],[-0.105612437301318,51.4523687171717]]],[[[-0.109291804325018,51.4504047492119],[-0.109282523505244,51.4506294205346],[-0.108922953465704,51.4506236185383],[-0.108913670847322,51.450848289778],[-0.109273242649373,51.450854091822],[-0.109263961673286,51.4510787630995],[-0.1089043881087,51.4510729610077],[-0.108895105249838,51.4512976322276],[-0.108535530042889,51.4512918289858],[-0.108526245301205,51.4515165001481],[-0.108885822270733,51.4515223034376],[-0.108876539171381,51.4517469746377],[-0.108867255951783,51.4519716458279],[-0.109226836566735,51.4519774481104],[-0.109586417301863,51.4519832492906],[-0.109945998157146,51.4519890493684],[-0.109936720105249,51.4522137206918],[-0.110296302843318,51.4522195197149],[-0.110287026433915,51.4524441910761],[-0.10992744193317,51.4524383920052],[-0.109918163640905,51.4526630633088],[-0.109558577497598,51.4526572630879],[-0.10919899147445,51.4526514617646],[-0.108839405571485,51.452645659339],[-0.108848689151837,51.4524209881786],[-0.108489105131771,51.4524151846983],[-0.108498390354539,51.4521905135756],[-0.108507675457032,51.451965842443],[-0.108516960439254,51.4517411713005],[-0.108157381827347,51.451735366861],[-0.108166668451896,51.4515106957564],[-0.108175954956156,51.4512860246418],[-0.107816379989662,51.4512802191954],[-0.107825668136184,51.4510555481187],[-0.107834956162396,51.450830877032],[-0.10819452760381,51.4508366823829],[-0.108203813747209,51.4506120112387],[-0.108213099874128,51.4503873400489],[-0.108572667904024,51.4503931442057],[-0.108581952219325,51.4501684729362],[-0.108591236414171,51.449943801657],[-0.10895080103187,51.449949604623],[-0.10931036576995,51.4499554064866],[-0.109669930628388,51.4499612072477],[-0.109660651732423,51.4501858786594],[-0.109651372716072,51.4504105500613],[-0.109291804325018,51.4504047492119]]],[[[-0.108267835704262,51.4838863113034],[-0.107907998980359,51.4838805061148],[-0.107548162376409,51.4838746998225],[-0.107557457471917,51.4836500325824],[-0.107566751766013,51.4834253654605],[-0.107926584971207,51.4834311716403],[-0.108286418297269,51.4834369767162],[-0.108277127551557,51.4836616439226],[-0.108267835704262,51.4838863113034]]]]}}