{"type":"Feature","properties":{"code":"E63005039","name":"Northfleet"},"geometry":{"type":"MultiPolygon","coordinates":[[[[0.325790758392652,51.437407281309],[0.325802167360648,51.4376318893485],[0.325813576476355,51.4378564973854],[0.325454201388042,51.4378636272318],[0.325465608892034,51.438088235199],[0.325477016543718,51.4383128431636],[0.325488424343096,51.4385374511258],[0.325847804709759,51.4385303214811],[0.325859214416331,51.4387549295079],[0.326218596394825,51.4387477988215],[0.326230008008635,51.438972406913],[0.326241419770193,51.439197015002],[0.326600805120049,51.4391898833411],[0.326612218788916,51.4394144914947],[0.326971605750614,51.439407358792],[0.327330992564572,51.4394002249804],[0.327690379230769,51.4393930900598],[0.327678960283242,51.4391684817046],[0.327667541483556,51.4389438733469],[0.328026924482893,51.438936737183],[0.328015504071544,51.4387121287556],[0.328374885163578,51.4387049914157],[0.32836346314061,51.4384803829186],[0.328722842325347,51.4384732444025],[0.328711418690804,51.4382486358358],[0.329070795968249,51.4382414961437],[0.329059370722178,51.4380168875073],[0.329418746092335,51.4380097466391],[0.329407319234783,51.437785137933],[0.329766692697657,51.4377779958889],[0.329755264228668,51.4375533871131],[0.330114635784264,51.4375462438929],[0.330474007191937,51.4375390995638],[0.330833378451663,51.4375319541259],[0.331192749563421,51.437524807579],[0.331181314205001,51.4373001985324],[0.331540683409426,51.4372930508095],[0.331900052015767,51.4372859043571],[0.33225942008456,51.4372787588503],[0.332247979589614,51.4370541494959],[0.332607345727479,51.4370470028394],[0.332966711715853,51.4370398550757],[0.333326077554714,51.4370327062046],[0.333685443244038,51.4370255562262],[0.333673995772892,51.4368009466984],[0.334033359531232,51.4367937955704],[0.33439272313999,51.4367866433351],[0.334404174173983,51.4370112529476],[0.334415625357638,51.4372358625559],[0.334427076690962,51.4374604721602],[0.334786445494446,51.4374533189445],[0.335145814148296,51.4374461646215],[0.335134359252044,51.4372215549326],[0.335122904505504,51.4369969452396],[0.335482269446798,51.4369897897247],[0.335470813068554,51.4367651799854],[0.335830176078761,51.4367580233209],[0.336189538939273,51.4367508655491],[0.336178079147983,51.4365262557211],[0.336537440077392,51.4365190967997],[0.336896800857063,51.4365119367711],[0.336885337652827,51.4362873268545],[0.337244696501379,51.4362801656763],[0.33760405520015,51.4362730033909],[0.337963413749114,51.4362658399981],[0.337951945350702,51.4360412299507],[0.338311301968513,51.4360340654085],[0.338670658436475,51.436026899759],[0.339030014754566,51.4360197330021],[0.339018541162137,51.4357951228241],[0.339377895549037,51.4357879549178],[0.339737249786022,51.4357807859043],[0.340096603873069,51.4357736157835],[0.340108082809374,51.4359982260881],[0.3401195618957,51.4362228363885],[0.340478919395383,51.4362156652448],[0.340838276745076,51.4362084929937],[0.341197633944756,51.4362013196354],[0.341556990994401,51.4361941451697],[0.341916347893987,51.4361869695968],[0.342275704643491,51.4361797929166],[0.342635061242892,51.4361726151291],[0.342646552948518,51.4363972257204],[0.3422871945678,51.4364044034658],[0.342298684642272,51.4366290140109],[0.34231017486691,51.4368536245519],[0.341950812773376,51.4368608011058],[0.341962301366793,51.4370854116006],[0.341973790110358,51.4373100220913],[0.341985279004074,51.437534632578],[0.341996768047942,51.4377592430605],[0.341637398678615,51.4377664183386],[0.341278029159212,51.4377735925093],[0.340918659489755,51.4377807655727],[0.340559289670268,51.4377879375287],[0.340199919700773,51.4377951083773],[0.340211399987355,51.4380197186451],[0.33985202808638,51.4380268883442],[0.339492656035441,51.438034056936],[0.339133283834561,51.4380412244204],[0.339144758926622,51.4382658345575],[0.338785384794297,51.4382730008924],[0.338426010512074,51.4382801661199],[0.338066636079978,51.43828733024],[0.337707261498029,51.4382944932528],[0.337718729613855,51.438519103217],[0.337359353100518,51.4385262650802],[0.336999976437373,51.438533425836],[0.337011441139919,51.4387580357116],[0.336652062545401,51.4387651953178],[0.336292683801119,51.4387723538165],[0.336304145090286,51.4389969636036],[0.335944764414646,51.4390041209527],[0.335585383589286,51.4390112771945],[0.335596841464975,51.4392358868928],[0.335237458708273,51.4392430419849],[0.335248914952053,51.4394676516369],[0.335608299490422,51.4394604965871],[0.33561975766563,51.4396851062773],[0.335979143835983,51.4396779501624],[0.335990603942665,51.4399025598908],[0.336002064199136,51.4401271696151],[0.336013524605399,51.4403517793353],[0.336024985161455,51.4405763890514],[0.336036445867309,51.4408009987634],[0.336047906722961,51.4410256084713],[0.336059367728416,51.4412502181751],[0.336070828883675,51.4414748278748],[0.336082290188741,51.4416994375705],[0.336093751643617,51.441924047262],[0.336105213248305,51.4421486569495],[0.336116678156176,51.4423732720601],[0.33575727069473,51.4423804279149],[0.335397863080957,51.4423875826647],[0.335038455314884,51.4423947363094],[0.33467904739653,51.442401888849],[0.334690505921673,51.4426265052373],[0.334331096028839,51.4426336566683],[0.333971685983771,51.4426408069943],[0.333983141016712,51.4428654233691],[0.333994596201907,51.4430900397373],[0.334006051539358,51.4433146560989],[0.334017507029069,51.443539272454],[0.334028962671039,51.4437638888024],[0.334040418465274,51.4439885051443],[0.334051874411776,51.4442131214796],[0.334411297213091,51.4442059711779],[0.334422755134277,51.4444305875101],[0.334434213207756,51.4446552038357],[0.33407478676159,51.4446623541305],[0.334063330510548,51.4444377378084],[0.333703905734587,51.4444448870015],[0.333715360163189,51.4446695033202],[0.333355933412577,51.4446766514047],[0.332996506509778,51.4446837983841],[0.332985055726064,51.4444591820724],[0.332973605094551,51.4442345657541],[0.333333028352483,51.4442274187678],[0.333321576050771,51.4440028024394],[0.333310123901279,51.4437781861044],[0.332950704288122,51.4437853330978],[0.332939254113199,51.4435607167597],[0.332927804090468,51.4433361004151],[0.332916354219925,51.4431114840639],[0.332904904501569,51.4428868677062],[0.332893454935396,51.4426622513419],[0.332534044281628,51.4426693972475],[0.332174633475743,51.4426765420481],[0.331815222517765,51.4426836857436],[0.331455811150597,51.4426908309153],[0.331096399520091,51.442697976091],[0.331084959216377,51.4424733600093],[0.331073519065123,51.4422487439266],[0.330714110939142,51.4422558881764],[0.330702675071011,51.442031277282],[0.330691240270695,51.4418066684201],[0.330679805618432,51.4415820595556],[0.330320402538594,51.4415892026769],[0.330331835431076,51.4418138114742],[0.33034326847159,51.442038420269],[0.329983861724194,51.442045562147],[0.329995294230033,51.4422701733437],[0.329635885646953,51.4422773142613],[0.329647318484349,51.4425019299743],[0.329287907920478,51.4425090696887],[0.329299339081746,51.4427336853083],[0.329310770395358,51.442958300927],[0.328951356022173,51.4429654393458],[0.328962785659589,51.4431900548711],[0.328603369305578,51.4431971920867],[0.328614797266752,51.4434218075186],[0.328626225380232,51.4436464229497],[0.328266805216795,51.4436535588695],[0.328278231653964,51.4438781742072],[0.328637653646021,51.4438710383798],[0.328649082064122,51.444095653809],[0.329008505732552,51.4440885169633],[0.32936792924869,51.4440813790069],[0.329727352612512,51.4440742399396],[0.330086775823993,51.4440670997615],[0.330446198883111,51.4440599584726],[0.330457636596815,51.4442845743632],[0.330469074462953,51.4445091902528],[0.330480512481526,51.4447338061415],[0.33012108393638,51.4447409471531],[0.329761655238862,51.4447480870539],[0.329773089752427,51.4449727027568],[0.329413659073832,51.4449798414543],[0.329425091911039,51.4452044570638],[0.329065659251364,51.445211594558],[0.328706226439385,51.4452187309414],[0.328346793475122,51.4452258662138],[0.328335366124186,51.4450012508817],[0.32832393892555,51.4447766355486],[0.32796450946653,51.4447837698952],[0.327605079855281,51.4447909031311],[0.327593656466376,51.444566287982],[0.327234228531642,51.4445734201995],[0.326874800444728,51.4445805513062],[0.326886220176189,51.4448051662702],[0.326526790108395,51.4448122961736],[0.326538208163311,51.4450369110441],[0.326178776114631,51.4450440397441],[0.326190192492956,51.4452686545212],[0.325830758463385,51.4452757820178],[0.325819343913837,51.4450511673333],[0.325459911560953,51.4450582938116],[0.325100479056004,51.4450654191791],[0.325111889947989,51.4452900336786],[0.324752455462212,51.4452971578427],[0.32476386467748,51.4455217722486],[0.324404428210871,51.4455288952093],[0.324044991592261,51.4455360170592],[0.324056397301931,51.4457606312791],[0.323696958702505,51.4457677519255],[0.323708362735338,51.4459923660518],[0.323348922155092,51.4459994854948],[0.323360324511043,51.4462240995276],[0.32300088194997,51.4462312177671],[0.322641439236984,51.4462383348958],[0.322652838087089,51.4464629487424],[0.322293393393293,51.4464700646676],[0.322304790566397,51.4466946784206],[0.321945343891785,51.4467017931423],[0.321956739387841,51.4469264068017],[0.32159729073241,51.4469335203198],[0.321608684551369,51.4471581338857],[0.321620078522209,51.4473827474506],[0.321631472644932,51.4476073610146],[0.321272018350609,51.4476144731438],[0.321260626056933,51.4473898596725],[0.320901173439849,51.4473969707835],[0.320889783127055,51.447172357404],[0.320530332187215,51.4471794674967],[0.32054172067098,51.4474040807836],[0.320182267750353,51.4474111896728],[0.320193654556878,51.4476358028661],[0.319834199655458,51.4476429105517],[0.319474744602323,51.4476500171264],[0.319486127902478,51.4478746301333],[0.319126670868568,51.4478817355044],[0.319138052491362,51.4481063484177],[0.318778593476671,51.4481134525851],[0.318419134310331,51.4481205556416],[0.318059674992365,51.4481276575872],[0.317700215522798,51.4481347584219],[0.317711589980767,51.4483593709632],[0.317352128530479,51.4483664705943],[0.317363501310917,51.4485910830418],[0.3170040378799,51.4485981814691],[0.317015408982759,51.448822793823],[0.316655943571011,51.4488298910466],[0.316667312996245,51.4490545033068],[0.316678682573053,51.449279115566],[0.316690052301435,51.4495037278242],[0.316330581250436,51.4495108236585],[0.315971110047936,51.4495179183817],[0.315982476269311,51.4497425304534],[0.315623003086039,51.4497496239729],[0.315634367629627,51.4499742359509],[0.31599384264222,51.4499671425242],[0.316005209166666,51.450191754594],[0.315645732324729,51.4501988479278],[0.315286255331332,51.4502059401507],[0.314926774538656,51.4502130316911],[0.314938136045294,51.45043764342],[0.314578645322801,51.4504447346035],[0.314590001437264,51.4506693414962],[0.314230508503451,51.4506764313686],[0.314241860996958,51.4509010358224],[0.313882366085093,51.4509081247205],[0.313893716902976,51.4511327292827],[0.313534220013056,51.4511398172066],[0.313545569155268,51.4513644218772],[0.313186070287288,51.4513715088267],[0.313197417753783,51.4515961136057],[0.313208765371486,51.4518207183701],[0.312849262698468,51.4518278044683],[0.312860608640386,51.4520524093411],[0.312501103989273,51.452059494465],[0.312512448255359,51.4522840994461],[0.312152941626145,51.4522911835956],[0.312164284216352,51.4525157886852],[0.311804775609032,51.4525228718603],[0.311816116523314,51.4527474770582],[0.311456605937883,51.4527545592589],[0.311467945176194,51.4529791645652],[0.311827457588724,51.4529720822415],[0.312186969850214,51.4529649988204],[0.312175626957708,51.4527403937601],[0.31253513724104,51.4527333093646],[0.312894647373286,51.4527262238717],[0.313254157354423,51.4527191372814],[0.313613667184428,51.4527120495938],[0.313973176863276,51.4527049608088],[0.314332686390945,51.4526978709264],[0.314321332687206,51.4524732665895],[0.314680840236617,51.4524661757328],[0.315040347634802,51.4524590837787],[0.315399843895202,51.452451993244],[0.315759339972506,51.4524449016088],[0.316118835893831,51.4524378088668],[0.316478331659155,51.4524307150181],[0.316837827268452,51.4524236200627],[0.31682646090832,51.4521990157588],[0.317185954460665,51.4521919196719],[0.317197322721697,51.4524165240006],[0.317556818018864,51.4524094268317],[0.317568188336975,51.4526340311799],[0.317579558811271,51.4528586355227],[0.3179390577542,51.4528515372966],[0.317927685378961,51.452626932929],[0.318287182264818,51.4526198335714],[0.318646678994521,51.452612733107],[0.319006175568047,51.4526056315359],[0.319365671985369,51.4525985288581],[0.31937705196435,51.4528231333243],[0.319736550126373,51.4528160295644],[0.319747932162616,51.4530406340501],[0.319759314355193,51.4532652385305],[0.320118816162886,51.4532581337131],[0.3201302004128,51.4534827382129],[0.320141584819079,51.4537073427074],[0.320501090272501,51.4537002368325],[0.320512476736191,51.4539248413464],[0.320523863356276,51.4541494458551],[0.320535250132757,51.4543740503585],[0.32017573897613,51.4543811561595],[0.319816227663205,51.4543882608536],[0.319827610793851,51.4546128653025],[0.319468097423528,51.4546199688652],[0.319479478809382,51.4548445732842],[0.319490860351568,51.4550691776979],[0.319850377524206,51.4550620741845],[0.319861761123921,51.4552866786176],[0.31950224205009,51.4552937821063],[0.319142722819998,51.4553008844882],[0.319154102773637,51.4555254888668],[0.318794581486086,51.4555325901172],[0.318805959694794,51.4557571944658],[0.318817338059798,51.4559817988092],[0.318828716581098,51.4562064031473],[0.318840095258699,51.4564310074801],[0.318851474092605,51.4566556118077],[0.318862853082814,51.4568802161301],[0.319222385778212,51.4568731150277],[0.319233766826123,51.4570977193695],[0.319593301266657,51.4570906171848],[0.319604684372316,51.457315221546],[0.31924514803037,51.457322323706],[0.318885611532165,51.457329424759],[0.318526074877723,51.4573365247051],[0.318537452435425,51.457561128987],[0.31889699099131,51.4575540290656],[0.319256529390955,51.4575469280372],[0.319616067634339,51.4575398259019],[0.319627451052726,51.4577644302526],[0.31926791090788,51.4577715323632],[0.31927929258115,51.457996136684],[0.318919750378551,51.458003237663],[0.318931130306653,51.4582278419538],[0.318571586046296,51.4582349418012],[0.318212041629717,51.4582420405416],[0.317852497056941,51.4582491381751],[0.317492952327993,51.4582562347016],[0.317133407442899,51.4582633301211],[0.316773862401683,51.4582704244337],[0.316785231076834,51.4584950285711],[0.316425683977964,51.458502121752],[0.31606613672302,51.4585092138259],[0.316077501751191,51.4587338179085],[0.316088864536609,51.4589584224264],[0.316100224598121,51.4591830274605],[0.316111584816116,51.4594076324791],[0.315752029618129,51.4594147237771],[0.31539247426379,51.4594218139781],[0.315032918592187,51.4594289032307],[0.315044273406388,51.4596535084931],[0.314684709032293,51.4596606034871],[0.314696062696914,51.4598852088467],[0.31505562821607,51.4598781138884],[0.315066983182171,51.4601027192682],[0.314707416481967,51.4601098141878],[0.314718770387451,51.4603344195103],[0.314730124413371,51.4605590248143],[0.314741478559728,51.4607836300997],[0.314381907299418,51.4607907249964],[0.314393260226831,51.4610153304486],[0.314752832826523,51.4610082353665],[0.315112404610832,51.4610011406333],[0.315123760359074,51.461225745936],[0.315483331127018,51.4612186557452],[0.315842901738614,51.4612115644575],[0.316202472193836,51.4612044720729],[0.31656204249266,51.4611973785913],[0.31692161263506,51.4611902840129],[0.316932978076053,51.461414888621],[0.316944343673606,51.4616394932136],[0.317303917474093,51.4616323972666],[0.317663491118101,51.4616253002226],[0.318023064605605,51.4616182020818],[0.318011693286223,51.4613935978968],[0.318371264709929,51.4613864987949],[0.318359891639932,51.4611618947304],[0.318348518726588,51.4609372906504],[0.318708086179279,51.4609301907234],[0.31869671151539,51.4607055867639],[0.318685337008174,51.460480982789],[0.319044900489934,51.460473882037],[0.319033524232242,51.4602492781825],[0.319022148131242,51.4600246743125],[0.319381707642151,51.4600175727355],[0.319741266996453,51.4600104700616],[0.319729887237957,51.4597858664481],[0.319718507636193,51.4595612628191],[0.319707128191162,51.4593366591746],[0.31969574890286,51.4591120555147],[0.32005530047232,51.4591049522877],[0.32004391943375,51.4588803487483],[0.32003253388461,51.4586557444838],[0.320392081322917,51.4586486402579],[0.320380693475935,51.458424035879],[0.320369305785377,51.4581994314947],[0.32035791825124,51.4579748271053],[0.320346530873521,51.4577502227106],[0.320335143652219,51.4575256183106],[0.320323756587329,51.4573010139054],[0.320683292460346,51.4572939084246],[0.320671903650462,51.4570693039895],[0.321031437465717,51.4570621973773],[0.321020046910886,51.4568375929123],[0.321379578668384,51.4568304851685],[0.321368186368654,51.4566058806736],[0.3217277160684,51.4565987717983],[0.32171632202382,51.4563741672736],[0.321704928135735,51.4561495627436],[0.322064453876435,51.4561424527122],[0.32205305824357,51.4559178481523],[0.322412581926554,51.4559107369895],[0.322401184548957,51.4556861323998],[0.32276070617423,51.4556790201054],[0.323120227643013,51.4556719067042],[0.323479748955283,51.4556647921962],[0.323468346030568,51.4554401875276],[0.323108826619513,51.4554473020602],[0.323097425752596,51.4552226974108],[0.32345694326246,51.4552155828537],[0.323445540650955,51.4549909781745],[0.323434138196049,51.4547663734901],[0.323793651747076,51.454759257777],[0.323782247547652,51.4545346530628],[0.324141759041013,51.4545275362183],[0.3245012703778,51.4545204182669],[0.324512678379448,51.4547450230302],[0.324872191460744,51.4547379039966],[0.324883601520193,51.4549625087792],[0.32524311634599,51.4549553886632],[0.325602631015134,51.4549482674405],[0.325962145527598,51.4549411451108],[0.32595072976477,51.4547165402548],[0.325939314158708,51.4544919353934],[0.32629882471225,51.454484811908],[0.32628740736188,51.4542602070169],[0.32664691585763,51.4542530824002],[0.326635496762997,51.4540284774794],[0.326624077825172,51.4538038725533],[0.326264573131489,51.453810997219],[0.325905068281093,51.4538181207779],[0.325893653302069,51.4535935158956],[0.326253156251466,51.4535863923122],[0.326241739528218,51.4533617874001],[0.325882238479799,51.453368911008],[0.325522737274694,51.4533760335091],[0.325511324510128,51.4531514286408],[0.325870823814277,51.4531443061152],[0.325859409305504,51.4529197012171],[0.325847994953476,51.4526950963138],[0.32620749029911,51.4526879726324],[0.326196074202944,51.4524633676993],[0.326555567491001,51.4524562428868],[0.326544149650744,51.452231637924],[0.326903640881226,51.4522245119802],[0.326892221296929,51.4519999069877],[0.327251710469841,51.4519927799127],[0.32724028914155,51.4517681748904],[0.327599776256899,51.4517610466843],[0.327588353184662,51.4515364416323],[0.327947838242451,51.451529312295],[0.327936413426317,51.4513047072134],[0.32829589642655,51.4512975767449],[0.328284469866568,51.4510729716336],[0.328643950809252,51.4510658400341],[0.328632522505469,51.4508412348931],[0.328273043463478,51.4508483665171],[0.327913564264658,51.4508554970344],[0.327554084909036,51.450862626445],[0.327194605396634,51.450869754749],[0.326835125727478,51.4508768819463],[0.326475645901593,51.4508840080369],[0.326116165919004,51.4508911330208],[0.326104751076869,51.4506665280457],[0.325745272838287,51.4506736519475],[0.325733858848821,51.450449043765],[0.325374382446628,51.4504561669108],[0.325362968055841,51.4502315524326],[0.325722442628714,51.4502244291942],[0.326081917049461,51.4502173048448],[0.326093335098887,51.4504419195081],[0.326452811196799,51.4504347941403],[0.326812287142535,51.4504276676614],[0.327171762936072,51.4504205400714],[0.327160339398708,51.4501959251304],[0.32714891601361,51.4499713101884],[0.327508387996331,51.4499641813023],[0.327496962934237,51.4497395662669],[0.327856432935457,51.4497324361773],[0.32786785982681,51.4499570513052],[0.328227331505022,51.4499499201971],[0.328586803030946,51.4499427879779],[0.328946274404556,51.4499356546477],[0.32930574562583,51.4499285202065],[0.329317179986594,51.4501531357036],[0.329328614499766,51.4503777511997],[0.329688089227239,51.4503706158324],[0.330047563802322,51.4503634793541],[0.330407038224992,51.4503563417647],[0.330395598223952,51.4501317259911],[0.330755070664901,51.4501245871982],[0.331114542953392,51.4501174472943],[0.3314740150894,51.4501103062793],[0.331462569753064,51.4498856902275],[0.331822039724996,51.4498785482814],[0.332181509159229,51.4498714058037],[0.332540978441309,51.4498642622207],[0.332900447571213,51.4498571175324],[0.332888995109121,51.4496325013754],[0.332877542799268,51.4494078852118],[0.333237008131026,51.4494007394111],[0.333596473310567,51.449393592505],[0.333955938337866,51.4493864444936],[0.334315403212899,51.4493792953768],[0.334303943763545,51.4491546791927],[0.334663406663361,51.4491475289671],[0.335022869410867,51.4491403776362],[0.335011406468035,51.4489157614386],[0.335370867240308,51.4489086089989],[0.335730327860227,51.4489014554539],[0.335718861424017,51.4486768392428],[0.336078320068686,51.448669684589],[0.336437778560957,51.4486625288299],[0.33642630863147,51.4484379126055],[0.336785765148476,51.4484307557376],[0.337145221513037,51.4484235977644],[0.337133748090375,51.4481989815266],[0.337493202479655,51.4481918224447],[0.337852656716446,51.4481846622575],[0.33784117980071,51.4479600460064],[0.337829703037521,51.4477354297486],[0.337818226426876,51.4475108134843],[0.338177675042871,51.4475036521817],[0.338537123506338,51.4474964897738],[0.338548603762456,51.4477211060449],[0.338908053896104,51.447713942535],[0.33891953612757,51.4479385588029],[0.339278987931393,51.4479313941911],[0.339638439582612,51.4479242284741],[0.339997891081203,51.4479170616518],[0.340357342427141,51.4479098937242],[0.340345852904679,51.447685277443],[0.3407053022752,51.4476781084067],[0.341064751493024,51.4476709382652],[0.341424200558129,51.4476637670184],[0.341412705720224,51.4474391507208],[0.341772152809873,51.4474319783654],[0.342131599746758,51.4474248049047],[0.342120101416253,51.447200188594],[0.342479546377667,51.4471930140248],[0.342838991186271,51.4471858383503],[0.343198435842044,51.4471786615706],[0.343557880344959,51.4471714836856],[0.343546374876649,51.4469468673552],[0.343905817404035,51.4469396883618],[0.344265259778521,51.446932508263],[0.344624702000081,51.446925327059],[0.344613191216811,51.4467007107124],[0.344972631462805,51.4466935284],[0.344984144068693,51.4469181447498],[0.344995656827584,51.4471427610931],[0.345355100565863,51.4471355776818],[0.345714544151144,51.4471283931652],[0.345703027746978,51.4469037768155],[0.346062469356603,51.4468965911905],[0.346421910813186,51.4468894044603],[0.346781352116701,51.4468822166247],[0.347140793267127,51.446875027684],[0.34750023426444,51.4468678376379],[0.347488708900299,51.4466432212659],[0.347848147921877,51.4466360301115],[0.348207586790296,51.4466288378518],[0.348567023277946,51.4466216436046],[0.348555492728403,51.4463970272985],[0.348543962332407,51.446172410982],[0.348532432089954,51.4459477946553],[0.348891861067054,51.445940598728],[0.349251289890618,51.4459334016992],[0.349610718560623,51.445926203569],[0.349970147077044,51.4459190043372],[0.350329575439858,51.445911804004],[0.35068900364904,51.4459046025693],[0.351048431704569,51.4458974000331],[0.35103688882392,51.4456727840811],[0.35139631489839,51.4456655804985],[0.351407859606419,51.4458901963954],[0.351767287354568,51.4458829916563],[0.35212671494899,51.4458757858157],[0.352486142389663,51.4458685788736],[0.352845569676564,51.44586137083],[0.352857121847909,51.4460859864964],[0.353216550808402,51.4460787772963],[0.353204996809667,51.445854161685],[0.353193442964775,51.4456295460633],[0.353552868116693,51.4456223358719],[0.35356442378895,51.4458469514384],[0.353923850614389,51.4458397400905],[0.35428327728596,51.445832527641],[0.354642703803638,51.4458253140901],[0.354631142649305,51.4456006986889],[0.354990567185715,51.4455934840916],[0.355349991568189,51.4455862683929],[0.355709415796703,51.4455790515927],[0.35572098243309,51.4458036668285],[0.356080408334966,51.4457964488717],[0.356439834082832,51.4457892298135],[0.356428263791755,51.445564614688],[0.356787687558247,51.4455573945834],[0.356776115593905,51.4453327795028],[0.357135537379027,51.445325558352],[0.357123963741466,51.4451009433162],[0.357483383545224,51.4450937211191],[0.35747180823449,51.4448691061282],[0.357460233077871,51.4446444911269],[0.357819649073029,51.4446372679388],[0.357808072243306,51.4444126529825],[0.357796495567714,51.4441880380158],[0.357784919046251,51.4439634230387],[0.358144329405725,51.4439561989148],[0.358132751211246,51.4437315839827],[0.358121173170914,51.4435069690402],[0.358109595284726,51.4432823540875],[0.358098017552681,51.4430577391244],[0.358086439974775,51.442833124151],[0.358074862551006,51.4426085091672],[0.358063285281372,51.4423838941732],[0.357703887711408,51.4423911179107],[0.357692313061975,51.442166503422],[0.357680743379525,51.4419418932235],[0.357669173850751,51.441717283016],[0.357309781418138,51.4417245053721],[0.357298213863337,51.4414998951207],[0.357286646462184,51.4412752848603],[0.357275079214675,51.4410506745908],[0.357263512120809,51.4408260643124],[0.357251945180584,51.440601454025],[0.357240378393995,51.4403768437285],[0.357228811761042,51.4401522334231],[0.357588191452052,51.440145011311],[0.357576623152594,51.4399204010314],[0.35756505500679,51.4396957907428],[0.357924430903949,51.4396885675979],[0.357912861091708,51.4394639573351],[0.357553487014636,51.4394711804451],[0.35754191917613,51.4392465701385],[0.357901291433138,51.4392393470634],[0.358260663536525,51.4392321228857],[0.358249092211586,51.4390075126398],[0.358237521040336,51.4387829023849],[0.35859688935003,51.4387756771746],[0.358585316512478,51.4385510669455],[0.358944682848523,51.4385438406676],[0.358933108344717,51.4383192304645],[0.358921533994637,51.4380946202523],[0.359280896537102,51.4380873929417],[0.359269320520834,51.4378627827554],[0.359628681089686,51.4378555543773],[0.359617103407276,51.4376309442169],[0.359257744658312,51.4376381725601],[0.359246168949532,51.4374135623558],[0.358886811866736,51.4374207895617],[0.35887523813154,51.4371961793135],[0.358515882714917,51.437203405382],[0.358504310953258,51.4369787950899],[0.358144957202816,51.4369860200212],[0.358133387414647,51.4367614096852],[0.35812181778014,51.4365367993402],[0.357762467515664,51.4365440230993],[0.357750899854574,51.4363194127104],[0.357739332347119,51.4360948023125],[0.357727764993296,51.4358701919055],[0.35736842003444,51.4358774144577],[0.357356854653936,51.4356528040069],[0.357716197793101,51.4356455814896],[0.357704630746532,51.4354209710647],[0.358063971912451,51.4354137474799],[0.358052403199865,51.4351891370808],[0.358411742392545,51.4351819124285],[0.358771081431604,51.435174686674],[0.358759509233433,51.4349500763356],[0.359118846299236,51.4349428495136],[0.359107272435167,51.4347182392012],[0.359095698724805,51.4344936288797],[0.359455031997797,51.4344864010252],[0.359443456621604,51.4342617907296],[0.359431881399138,51.4340371804251],[0.359072551765198,51.4340444082098],[0.35908412516815,51.4342690185493],[0.358724793561037,51.4342762452666],[0.35836546180029,51.4342834708816],[0.358353892036375,51.4340588604723],[0.358342322505523,51.4338342505167],[0.357982994207877,51.4338414748319],[0.35797142726144,51.4336168684208],[0.357959860468599,51.4333922620023],[0.358319185128239,51.4333850377104],[0.358307616670024,51.4331604312959],[0.358296048365423,51.432935824874],[0.358284480214432,51.4327112184445],[0.357925161011627,51.4327184427015],[0.357913594833143,51.4324938362529],[0.357902028808243,51.4322692297968],[0.357890462936924,51.4320446233332],[0.357531149037216,51.4320518464516],[0.357519585138302,51.4318272399688],[0.357160272903924,51.4318344619719],[0.357148710977374,51.43160985547],[0.35713714920435,51.4313852489607],[0.357496457801132,51.4313780269808],[0.357484894362868,51.4311534204755],[0.357844200987392,51.4311461974035],[0.357832635883933,51.4309215909024],[0.357821070934039,51.4306969843937],[0.357461767946968,51.4307042074424],[0.357450204969326,51.4304796009145],[0.357809506137706,51.4304723778775],[0.358168807152577,51.4304651537368],[0.358180373767599,51.4306897602413],[0.358539676447622,51.4306825349854],[0.358898978974088,51.4306753086258],[0.358887408721697,51.4304507021445],[0.359246709275898,51.430443474693],[0.359258281346969,51.4306680811626],[0.359269853571696,51.4308926876247],[0.359281425950079,51.4311172940793],[0.358922119939767,51.4311245215658],[0.35893369065306,51.4313491280246],[0.358945261519992,51.4315737344759],[0.358956832540568,51.4317983409196],[0.359316144007203,51.4317911133981],[0.35930457116783,51.431566506966],[0.359663880662051,51.4315592783525],[0.360023190002631,51.4315520486353],[0.360011613679385,51.4313274422191],[0.360370921047535,51.4313202114099],[0.360730228262,51.4313129794971],[0.360718648454981,51.4310883730967],[0.360707068801714,51.4308637666888],[0.360695489302197,51.4306391602734],[0.360683909956429,51.4304145538505],[0.360672330764406,51.43018994742],[0.361031628731708,51.4301827144621],[0.361390926545291,51.4301754804005],[0.361379343869771,51.4299508739859],[0.361367761348038,51.4297262675639],[0.361356178980089,51.4295016611343],[0.361344596765921,51.4292770546972],[0.360985306226672,51.429284288712],[0.360973725984809,51.4290596822557],[0.360614437110378,51.4290669151552],[0.360602858840771,51.4288423086796],[0.360243571631167,51.4288495404639],[0.360231995333772,51.4286249339691],[0.360220419190078,51.4284003274669],[0.359861135463768,51.4284075581242],[0.359849561292211,51.4281829516028],[0.359837987274329,51.4279583450738],[0.359826413410115,51.4277337385374],[0.359814839699569,51.4275091319934],[0.359455563093263,51.4275163615005],[0.359443991354731,51.4272917549373],[0.359432419769838,51.4270671483667],[0.35907314664662,51.4270743767469],[0.359061577033669,51.426849770157],[0.359050007574328,51.4266251635597],[0.359038438268594,51.4264005569548],[0.358679170446669,51.4264077841966],[0.35831990247121,51.4264150103349],[0.358308336955562,51.4261904036992],[0.357949070644839,51.4261976287224],[0.357937507100967,51.4259730220676],[0.357925943710624,51.4257484154053],[0.357914380418567,51.4255238088014],[0.358273641164698,51.4255165839477],[0.358262072831303,51.4252919814458],[0.357902813870182,51.4252992062609],[0.357891247473182,51.4250746037112],[0.357879681227565,51.4248500011522],[0.357868115133327,51.4246253985839],[0.357856549190464,51.4244007960064],[0.357844983398978,51.4241761934197],[0.357833417758861,51.4239515908237],[0.357821852270114,51.4237269882184],[0.357810286932734,51.4235023856039],[0.357798721746716,51.4232777829802],[0.357787156712062,51.4230531803472],[0.357427915448461,51.4230604036749],[0.357416352349925,51.4228358009941],[0.357404789402722,51.422611198304],[0.357393226606851,51.4223865956047],[0.357381663962307,51.4221619928961],[0.357370101469088,51.4219373901783],[0.357358539127193,51.4217127874512],[0.357346976936617,51.4214881847149],[0.357335414897359,51.4212635819693],[0.356976187759922,51.4212708038869],[0.356616960471226,51.4212780247031],[0.356257733031293,51.4212852444177],[0.355898505440147,51.4212924630309],[0.355886950690541,51.4210678601218],[0.355527724732795,51.4210750775949],[0.355516171918976,51.4208504746381],[0.355504619256353,51.4206258716721],[0.355493066744922,51.4204012686968],[0.355852287349035,51.4203940513393],[0.355840733204295,51.4201694483933],[0.356199951872731,51.4201622299728],[0.356188396094729,51.4199376270561],[0.356547612827493,51.4199304075727],[0.356536055416275,51.4197058046853],[0.356895270213373,51.419698584139],[0.357254484859231,51.4196913624912],[0.357242924030421,51.4194667596716],[0.357602136740598,51.419459536961],[0.357961349299489,51.419452313149],[0.357949785053188,51.4192277103973],[0.358308995676383,51.4192204855224],[0.358668206148249,51.4192132595461],[0.358656638484557,51.4189886568623],[0.359015847020711,51.4189814298231],[0.359004277724061,51.4187568271687],[0.359363484324508,51.4187495990668],[0.359722690773563,51.4187423698634],[0.359711118059692,51.418517767277],[0.359351913394947,51.4185249964417],[0.359340342616807,51.4183003938074],[0.358981139584963,51.4183076218321],[0.358969570742509,51.4180830191499],[0.358610369343569,51.4180902460347],[0.358251167793291,51.4180974718181],[0.358262733067203,51.4183220745774],[0.357903529581335,51.418329299298],[0.357891966091697,51.4181046965001],[0.35753276423881,51.4181119200807],[0.357544325944172,51.4183365229172],[0.357185122155737,51.418343745435],[0.356825918216052,51.4183509668514],[0.356466714125144,51.4183581871664],[0.356455157772628,51.4181335842142],[0.356095955314803,51.4181408033893],[0.356084400897785,51.4179162003893],[0.356443601571345,51.4179089812528],[0.356802802093709,51.4179017610148],[0.357162002464851,51.4178945396756],[0.357150442846324,51.4176699367819],[0.356791244259417,51.4176771580827],[0.356432045521293,51.4176843782821],[0.356072846631974,51.4176915973801],[0.355713647591483,51.4176988153767],[0.35572520007305,51.4179234184245],[0.355365999097163,51.4179306353583],[0.355354448399843,51.417706032272],[0.354995249057078,51.4177132480659],[0.354636049563209,51.4177204627585],[0.354647596692028,51.4179450659217],[0.354288395262827,51.4179522795514],[0.353929193682565,51.4179594920797],[0.353569991951268,51.4179667035066],[0.353210790068958,51.4179739138321],[0.353222330211769,51.41819851714],[0.353581533878364,51.4181913067761],[0.353940737393944,51.4181840953107],[0.354299940758484,51.4181768827439],[0.354311486405238,51.4184014859272],[0.353952281256394,51.4184086985324],[0.353963825269919,51.418633301745],[0.353604618185706,51.4186405132873],[0.353593075956509,51.4184159100363],[0.353233870505606,51.4184231204387],[0.352874664903707,51.4184303297398],[0.352886203564241,51.4186549330677],[0.352526996027034,51.4186621413058],[0.352515459150837,51.4184375379395],[0.352156253247017,51.4184447450377],[0.351797047192272,51.4184519510346],[0.35180858049979,51.4186765544778],[0.351449372509798,51.4186837594117],[0.351090164368924,51.4186909632441],[0.35073095607719,51.4186981659752],[0.35037174763462,51.4187053676048],[0.350383273955595,51.4189299711924],[0.350024063577834,51.418937171759],[0.35003558826526,51.4191617753758],[0.350047113103518,51.4193863789834],[0.349687899006137,51.4193935785253],[0.349699422210779,51.419618182162],[0.350058638092608,51.4196109825817],[0.350070163232534,51.4198355861707],[0.349710945566233,51.4198427857894],[0.349722469072503,51.4200673894076],[0.349363249470926,51.4200745879632],[0.349374771343494,51.4202991916105],[0.349733992729591,51.4202919930166],[0.350093213964903,51.4202847933211],[0.350081688523298,51.4200601897505],[0.350440907823287,51.420052988992],[0.350429380748032,51.4198283854506],[0.350788598112703,51.4198211836289],[0.350800126972448,51.4200457871319],[0.351159345970757,51.4200385841705],[0.351518564818191,51.4200313801075],[0.351877783514728,51.4200241749431],[0.35186624930153,51.4197995715553],[0.352225466062666,51.4197923653279],[0.352237002060342,51.4200169686772],[0.352248538208995,51.4202415720173],[0.351889317878879,51.4202487783216],[0.35190085239399,51.4204733816909],[0.351541630128422,51.4204805869321],[0.351182407711952,51.4204877910719],[0.350823185144601,51.4204949941102],[0.350834714457014,51.4207195975855],[0.350475489954249,51.4207267995608],[0.350116265300647,51.4207340004345],[0.350127791194791,51.4209586039773],[0.34976856460579,51.4209658037879],[0.349757040496233,51.4207412002067],[0.349397815541027,51.4207483988775],[0.349409337865996,51.4209730024971],[0.34942086034177,51.4211976061074],[0.349061631666592,51.4212048037534],[0.348702402840665,51.4212120002978],[0.348343173180733,51.4212191961029],[0.348354690718519,51.4214437996786],[0.347995451570589,51.4214509984246],[0.347636212272666,51.4214581960688],[0.347647726412615,51.4216827997042],[0.34728848519077,51.4216899962809],[0.346929243818973,51.4216971917558],[0.346570002297248,51.421704386129],[0.346210760625616,51.4217115794003],[0.345851518804102,51.4217187715698],[0.345863024224176,51.4219433753677],[0.346222267819673,51.4219361831639],[0.346233775163651,51.4221607869185],[0.34587452979415,51.4221679791566],[0.345886035514025,51.4223925829366],[0.345897541383804,51.4226171867075],[0.345538292316353,51.4226243779123],[0.345549796561963,51.4228489817085],[0.345190545570586,51.4228561718457],[0.345179043099055,51.4226315680153],[0.345167540777385,51.4224069641758],[0.344808293184321,51.4224141531427],[0.344449045441457,51.4224213410077],[0.34443754681772,51.4221967370908],[0.344078300699121,51.4222039238198],[0.344089797548818,51.422428527771],[0.343730549506425,51.4224357134324],[0.343742044731847,51.4226603174088],[0.343382794765655,51.4226675020026],[0.343023544649754,51.4226746854945],[0.343035036476759,51.4228992895304],[0.342675784437074,51.4229064719547],[0.342316532247722,51.4229136532771],[0.342328020676212,51.4231382573724],[0.341968766563092,51.4231454376272],[0.341609512300349,51.4231526167801],[0.341250257888005,51.4231597948312],[0.341261741143729,51.42338439902],[0.340902484807653,51.4233915760033],[0.340913966438816,51.4236161802173],[0.340554708179002,51.4236233561329],[0.340195449769652,51.4236305309467],[0.340206928002003,51.4238551352199],[0.340218406383909,51.4240797394842],[0.339859144276604,51.4240869132644],[0.339499882019803,51.4240940859426],[0.33914061961353,51.424101257519],[0.339129146554325,51.4238766531523],[0.338769885772839,51.4238838235927],[0.338410624841929,51.4238909929312],[0.338051363761617,51.4238981611677],[0.338062831498097,51.4241227656366],[0.337703568494159,51.4241299328054],[0.337344305340863,51.4241370988722],[0.336985042038231,51.4241442638372],[0.336996504601315,51.4243688683993],[0.336637239375093,51.4243760322964],[0.336277973999578,51.4243831950916],[0.336289433163414,51.4246077997128],[0.335930165864325,51.4246149614401],[0.335941623403143,51.4248395660864],[0.335582354180474,51.4248467267458],[0.335223084808577,51.4248538863033],[0.335234538947977,51.4250784910086],[0.334875267652515,51.4250856494982],[0.334886720166781,51.4253102542285],[0.33452744694775,51.4253174116501],[0.334168173579554,51.4253245679698],[0.334179622344924,51.4255491728052],[0.333820346943958,51.4255563280618],[0.333831790941744,51.4257809332666],[0.33347251363965,51.4257880873756],[0.333483956031864,51.4260126925354],[0.333124676828635,51.4260198454967],[0.332765397477687,51.4260269973514],[0.332776836510864,51.4262516024252],[0.332417555258798,51.4262587531322],[0.332058273859054,51.4262659027325],[0.332069709533095,51.4264905077204],[0.331710426232248,51.426497656173],[0.33172186030053,51.4267222611158],[0.331362573541237,51.4267294107955],[0.331003286571314,51.4267365594706],[0.330991855930454,51.4265119545417],[0.331351141160887,51.4265048058993],[0.331339708927313,51.4262802009942],[0.331328276840512,51.4260555960803],[0.330968995088992,51.4260627446574],[0.33060971319078,51.4260698921325],[0.330250431145898,51.4260770385055],[0.330261858014355,51.4263016435173],[0.33027328502952,51.4265262485203],[0.329913999359062,51.4265333938564],[0.329902574083373,51.4263087888208],[0.329543290005762,51.4263159330223],[0.329531866616211,51.4260913279453],[0.329891148954367,51.4260841837764],[0.329879723972042,51.425859578723],[0.329520443373318,51.4258667228593],[0.329509020277082,51.4256421177645],[0.329149741271171,51.4256492607661],[0.328790462118683,51.4256564026657],[0.328779041272283,51.425431797385],[0.328419763821572,51.4254389381483],[0.328060486223435,51.4254460778111],[0.328071903374071,51.4256706831587],[0.327712623781992,51.4256778217521],[0.327353344043426,51.4256849592434],[0.327341930584975,51.4254603538355],[0.326982652544697,51.4254674901971],[0.326623374357084,51.4254746254584],[0.326264096022158,51.4254817596192],[0.326252685717196,51.4252571537664],[0.325893408988211,51.4252642867684],[0.325904817539942,51.4254888926796],[0.325916223624754,51.4257134981883],[0.325556943154095,51.4257206301694],[0.325568347116659,51.4259452356222],[0.325209064760209,51.4259523665337],[0.325220467129719,51.42617697201],[0.324861182887472,51.426184101852],[0.324872583663884,51.4264087073519],[0.324883984586664,51.426633312843],[0.325243272307908,51.4266261829362],[0.325254675116592,51.4268507883859],[0.325613964431026,51.4268436573444],[0.325973253599096,51.4268365252009],[0.32633254262078,51.4268293919552],[0.326691831496055,51.4268222576074],[0.326703241409329,51.4270468629183],[0.327062531877715,51.4270397274359],[0.327421822199645,51.4270325908514],[0.327781112375096,51.4270254531648],[0.327769697243203,51.4268008479515],[0.328128985532619,51.4267937091954],[0.328117568807767,51.4265691040058],[0.328476855211152,51.4265619641801],[0.328488273675514,51.4267865693371],[0.328847561671866,51.4267794283767],[0.329206849521652,51.4267722863143],[0.329218271611669,51.4269968913973],[0.329229693848333,51.4272214964714],[0.32887040251947,51.427228638599],[0.328511111044036,51.4272357796245],[0.328522529948201,51.4274603847548],[0.328163236586641,51.4274675247108],[0.328174653897813,51.4276921298648],[0.327815358650123,51.4276992687512],[0.327826774368255,51.4279238739289],[0.32818607135557,51.42791673501],[0.328197488959916,51.4281413401462],[0.328208906710853,51.4283659452736],[0.328220324608384,51.4285905503921],[0.328231742652511,51.4288151555017],[0.328591046452006,51.4288080153504],[0.328602466382466,51.4290326204186],[0.328243160843236,51.4290397606025],[0.328254579180563,51.4292643656943],[0.327895271755026,51.4292715048086],[0.327906688499174,51.4294961099241],[0.327918105389905,51.4297207150308],[0.327558794338251,51.4297278531079],[0.327570209635739,51.4299524582382],[0.327581625079793,51.4301770633597],[0.327593040670415,51.4304016684722],[0.327233724252688,51.4304088055448],[0.327245138249982,51.430633410681],[0.327256552393826,51.4308580158083],[0.326897232349778,51.4308651518437],[0.326908644900229,51.4310897569946],[0.326920057597214,51.4313143621367],[0.326931470440734,51.4315389672699],[0.326572145030293,51.4315461023006],[0.326583556280335,51.4317707074575],[0.326594967676894,51.4319953126054],[0.32623563863993,51.4320024465989],[0.326247048442947,51.4322270517705],[0.326258458392464,51.4324516569332],[0.325899125728899,51.4324587898893],[0.325910534084807,51.4326833950757],[0.325921942587199,51.4329080002531],[0.325933351236077,51.4331326054217],[0.325574013205673,51.433139737373],[0.325585420260858,51.4333643425652],[0.325226080343857,51.4333714734467],[0.325237485805303,51.4335960786625],[0.324878144001701,51.4336032084741],[0.324889547869362,51.4338278137135],[0.324900951085587,51.4340524212812],[0.324541605608911,51.4340595500525],[0.324553007084425,51.4342841579284],[0.324564408707543,51.4345087658018],[0.324575810478269,51.4347333736726],[0.324587212396603,51.4349579815409],[0.324227859736053,51.4349651089346],[0.324239260042859,51.4351897167331],[0.324250660497259,51.4354143245291],[0.324610016676111,51.4354071972699],[0.324621419037288,51.4356318051306],[0.324632821546086,51.4358564129887],[0.324644224202505,51.4360810208443],[0.324655627006548,51.4363056286974],[0.324667029958218,51.4365302365479],[0.324678433057518,51.4367548443959],[0.325037799644249,51.4367477164312],[0.325397166083384,51.4367405873577],[0.325408572848951,51.4369651953376],[0.3250492046505,51.4369723243439],[0.325060609804407,51.437196932254],[0.324701239699016,51.4372040600842],[0.32471264324122,51.4374286679246],[0.324724046931063,51.4376532757624],[0.325083420555205,51.4376461480667],[0.32544279403174,51.437639019262],[0.325431386823127,51.4374144112897],[0.325790758392652,51.437407281309]]],[[[0.329509020277082,51.4256421177645],[0.329868299136396,51.4256349736608],[0.330227577849089,51.4256278284551],[0.33021614960042,51.4254032233283],[0.330204720010094,51.4251786181191],[0.330193290567344,51.4249540128994],[0.329834017212943,51.4249611579471],[0.329474743711031,51.4249683018943],[0.32948616964742,51.4251929072312],[0.329497595731338,51.4254175125575],[0.329509020277082,51.4256421177645]]],[[[0.336292683801119,51.4387723538165],[0.336281222661752,51.4385477440254],[0.335921845549321,51.4385549014591],[0.33591038634132,51.4383302917062],[0.33589892728309,51.4381056819491],[0.335539553584066,51.43811283836],[0.335180179735354,51.4381199936635],[0.335191635230482,51.4383446033359],[0.335203090875335,51.4385692130043],[0.335214546669916,51.4387938226686],[0.335573925863354,51.438786667492],[0.335933304907096,51.438779511208],[0.336292683801119,51.4387723538165]]],[[[0.347567130583052,51.4201105740676],[0.347578643822991,51.4203351777569],[0.347219413244498,51.4203423741278],[0.347230924860597,51.4205669778424],[0.347242436626671,51.4207915815481],[0.347601670752857,51.4207843851086],[0.347960904729078,51.4207771875674],[0.348320138555311,51.4207699889244],[0.348308621467671,51.4205453853217],[0.34794938941529,51.4205525839303],[0.347937874251523,51.4203279802843],[0.347926359237774,51.4201033766293],[0.347567130583052,51.4201105740676]]],[[[0.346187746687259,51.4212623718461],[0.346176239942953,51.4210377680555],[0.346164733348558,51.420813164256],[0.345805498622744,51.4208203562884],[0.345817003443248,51.4210449601223],[0.345457766793691,51.4210521510872],[0.345469269990167,51.4212767549463],[0.345480773336511,51.4215013587964],[0.345840013533925,51.421494167763],[0.34582850841364,51.4212695639471],[0.346187746687259,51.4212623718461]]],[[[0.345434760850334,51.4206029433421],[0.345793993952127,51.4205957524457],[0.345782489431394,51.4203711485939],[0.345770985060542,51.4201465447331],[0.345411755506421,51.420153735561],[0.345423258103449,51.420378339456],[0.345064026625682,51.4203855292165],[0.344704794998116,51.4203927178751],[0.344716294197299,51.4206173218297],[0.344727793546296,51.4208419257752],[0.344739293045112,51.4210665297118],[0.345098529994305,51.4210593409504],[0.345087028721591,51.4208347370481],[0.345075527598718,51.4206101331367],[0.345434760850334,51.4206029433421]]],[[[0.33125967519062,51.4247079660997],[0.331248240783625,51.4244833610346],[0.331236806524266,51.424258755959],[0.331596074029022,51.4242516066856],[0.331584638164218,51.424027001658],[0.33194390256002,51.4240198525996],[0.331932465135107,51.4237952475437],[0.331921027859221,51.4235706424788],[0.331561766877566,51.4235777915712],[0.331550331455714,51.423353186512],[0.331538896181508,51.4231285814422],[0.331179637441921,51.4231357304227],[0.331191070963138,51.423360335551],[0.330831810322978,51.4233674834897],[0.330472549535257,51.4233746303281],[0.330113288599996,51.4233817760662],[0.32975402751722,51.423388920704],[0.32976545417399,51.4236135260561],[0.329406191190697,51.4236206696521],[0.32904692805993,51.4236278121478],[0.32905835135814,51.4238524176064],[0.329069774803843,51.4240770230544],[0.329081198397041,51.424301628492],[0.329440466787023,51.4242944858206],[0.32942904144073,51.4240698804417],[0.32978830793014,51.4240627367286],[0.330147574272048,51.4240555919151],[0.330159003124521,51.424280197177],[0.330518271071992,51.4242730512047],[0.330529701825139,51.4244976563974],[0.330541132725879,51.4247222615797],[0.330552563774211,51.4249468667514],[0.330911836833521,51.424939719503],[0.330900404032037,51.4247151143899],[0.33125967519062,51.4247079660997]]]]}}
