{"type":"Feature","properties":{"code":"E63004294","name":"Tiptree"},"geometry":{"type":"MultiPolygon","coordinates":[[[[0.722303492144164,51.8007604893985],[0.722665623770936,51.8007521025687],[0.723027755214634,51.8007437146255],[0.723041286630131,51.800968241378],[0.723403419776812,51.80095985224],[0.723416953261581,51.8011843788988],[0.723779088111238,51.8011759885659],[0.723792623665326,51.801400515131],[0.723430486929542,51.8014089055453],[0.723444020780697,51.8016334321797],[0.723081881975624,51.8016418215623],[0.723095414123799,51.801866348266],[0.72345755481505,51.8018579588019],[0.723471089032605,51.802082485412],[0.723484623433365,51.8023070120098],[0.723846767713902,51.8022986212693],[0.723833231426919,51.802074094753],[0.724195373638063,51.8020657029806],[0.724208911811268,51.8022902294154],[0.72422245016773,51.8025147558379],[0.724584595968143,51.8025063627891],[0.724946741585333,51.8024979686268],[0.724960283897582,51.8027224948741],[0.725322431217784,51.8027140995169],[0.725335975599629,51.8029386256704],[0.725349520164812,51.8031631518118],[0.724987369072018,51.8031715473321],[0.724625217795966,51.8031799417391],[0.724638758771822,51.8034044680314],[0.725000911934209,51.8033960735428],[0.725014454979721,51.8036205997414],[0.725027998208556,51.8038451259277],[0.725041541620719,51.8040696521019],[0.725403700258989,51.8040612562552],[0.725765858713964,51.8040528592951],[0.726128016985619,51.8040444612215],[0.726490175073929,51.8040360620345],[0.726503726215121,51.8042605878701],[0.726517277539739,51.8044851136936],[0.726155115678565,51.8044935130438],[0.72616866530015,51.8047180389366],[0.726182215105145,51.8049425648173],[0.726195765093557,51.8051670906858],[0.726209315265387,51.805391616542],[0.726571484672579,51.8053832168654],[0.726557932614208,51.8051586910907],[0.726920099951475,51.8051502903822],[0.727282267105333,51.8051418885601],[0.727295822936776,51.8053664141715],[0.727657991793729,51.8053580111544],[0.727644434075756,51.8051334856246],[0.728006600862721,51.8051250815755],[0.727993041441759,51.8049005561152],[0.727979482204333,51.8046760306427],[0.72796592315044,51.8044515051579],[0.727952364280077,51.804226979661],[0.727938805593239,51.8040024541519],[0.727925247089926,51.8037779286306],[0.727911688770132,51.8035534030971],[0.728273842168617,51.8035449985061],[0.728635995383617,51.8035365928017],[0.728622433474681,51.8033120674194],[0.728984584619846,51.8033036606832],[0.728971021008172,51.8030791353703],[0.729333170083508,51.8030707276024],[0.729346735581479,51.8032952528336],[0.729708886359555,51.8032868438707],[0.729722453927456,51.803511369008],[0.730084606408266,51.8035029588499],[0.730446758705467,51.8034945475784],[0.73043318736494,51.8032700226045],[0.730795337592199,51.8032616103013],[0.731157487635803,51.8032531968846],[0.731519637495728,51.8032447823546],[0.731533214495172,51.8034693070835],[0.731895368949272,51.8034608912854],[0.731908948140238,51.8036854159179],[0.731922527511415,51.8039099405383],[0.731560369045341,51.8039183565045],[0.731198213526437,51.8039267712797],[0.731184638045822,51.8037022464936],[0.730822484229583,51.8037106600736],[0.730836057823844,51.8039351849415],[0.730473901937585,51.8039435974898],[0.730487473829182,51.8041681224272],[0.730125315872898,51.8041765339438],[0.729763157732997,51.804184944347],[0.729749589614173,51.8039604192462],[0.72938743317707,51.8039688284542],[0.7290252765564,51.8039772365488],[0.729038840902438,51.8042017618129],[0.728676682211829,51.8042101688757],[0.728690244855045,51.8044346942093],[0.728703807681839,51.8046592195308],[0.728717370692214,51.80488374484],[0.728730933886175,51.805108270137],[0.728368767466201,51.805116676413],[0.728382328957228,51.8053412017795],[0.72839589063182,51.8055657271338],[0.72875806082486,51.8055573206945],[0.729120230834361,51.8055489131417],[0.72910666538668,51.8053243879507],[0.729093100122615,51.8050998627475],[0.729455266175498,51.8050914542446],[0.729441699208552,51.8048669291109],[0.729803863191366,51.8048585195761],[0.730166026990576,51.8048501089279],[0.730528190606158,51.8048416971662],[0.730890354038087,51.804833284291],[0.731252517286337,51.8048248703023],[0.731614680350887,51.8048164552002],[0.731976846798263,51.8048080388995],[0.732339013379016,51.8047996214777],[0.732701179779571,51.8047912029423],[0.733063345999906,51.8047827832933],[0.733425512039997,51.8047743625307],[0.733439099667642,51.8049988867721],[0.7338012673663,51.8049904648162],[0.733814857013128,51.8052149889658],[0.733828446840305,51.8054395131034],[0.733842036847834,51.805664037229],[0.733479863632521,51.8056724594241],[0.733493451981473,51.8058969836173],[0.733507040510758,51.8061215077985],[0.733144863437269,51.8061299290394],[0.73315845030791,51.8063544532882],[0.733520629220382,51.8063460319676],[0.733882807952563,51.8063376095334],[0.73386921740396,51.806113085444],[0.733855627035718,51.8058885613425],[0.734217801909654,51.805880137954],[0.734204209882841,51.8056556139202],[0.734190618036408,51.8054310898744],[0.734552789052183,51.8054226655317],[0.734539195547247,51.8051981415536],[0.734901364543798,51.805189716177],[0.734887769380405,51.8049651922666],[0.73487417439743,51.804740668344],[0.735236339535937,51.8047322420133],[0.735598504494055,51.804723814569],[0.735960669271761,51.8047153860112],[0.736322833869031,51.8047069563397],[0.736336436207287,51.8049314799431],[0.736698602462909,51.8049230490782],[0.736712206820513,51.8051475725899],[0.736725811358655,51.8053720960894],[0.736363641425338,51.8053805271139],[0.736377244305138,51.8056050506812],[0.736390847365461,51.8058295742364],[0.736028673573876,51.8058380043068],[0.736042274975788,51.8060625279298],[0.736055876558204,51.8062870515407],[0.735693698908271,51.806295480657],[0.735707298832207,51.8065200043356],[0.735345119162851,51.806528432418],[0.735358717428263,51.8067529561644],[0.735720898936632,51.8067445280022],[0.735734499221545,51.8069690516567],[0.736096682388505,51.8069606223011],[0.736083080264559,51.8067360987264],[0.736445261412021,51.8067276683369],[0.736431657629584,51.8065031448298],[0.73641805402768,51.8062786213108],[0.736780231316674,51.8062701899672],[0.736766626056346,51.8060456665158],[0.736753020976569,51.8058211430524],[0.737115194407178,51.8058127107547],[0.737101587669044,51.8055881873591],[0.73708798111148,51.8053636639514],[0.737450150683786,51.8053552306996],[0.737463759080228,51.8055797540275],[0.737825930310867,51.8055713195824],[0.737839540726799,51.8057958428184],[0.738201713615764,51.8057874071798],[0.738215326051234,51.806011930324],[0.738577500598519,51.8060034934919],[0.738591115053574,51.8062280165442],[0.738953291259172,51.8062195785186],[0.73896690773386,51.806444101479],[0.738980524389246,51.8066686244273],[0.738618344505705,51.8066770626125],[0.738631959502787,51.8069015856286],[0.738269777599603,51.80691002278],[0.738283390938335,51.8071345458639],[0.737921207015503,51.8071429819815],[0.737934818695834,51.8073675051331],[0.737572632753348,51.8073759402168],[0.737586242775234,51.8076004634362],[0.737599852977738,51.8078249866435],[0.737962042598423,51.8078165514002],[0.737975654820687,51.8080410745156],[0.738337846099905,51.8080326380788],[0.738700037198495,51.8080242005281],[0.739062228116434,51.8080157618638],[0.739048610376784,51.8077912389879],[0.739410799274926,51.8077827992897],[0.739772987992373,51.8077743584778],[0.739786609410265,51.807998881194],[0.740148799786109,51.8079904391885],[0.740162423223909,51.8082149618127],[0.740524615258144,51.8082065186136],[0.740538240715901,51.8084310411459],[0.740900434408519,51.8084225967532],[0.74091406188628,51.8086471191936],[0.741276257237275,51.8086386736072],[0.741289886753803,51.8088631959311],[0.740927689570889,51.8088716415901],[0.740565492208109,51.8088800861349],[0.740579118367691,51.809104608447],[0.740216918998306,51.8091130519536],[0.740230543510994,51.8093375743297],[0.740244168203554,51.809562096694],[0.740606371226531,51.8095536530359],[0.740968574069654,51.8095452082636],[0.741330776732902,51.8095367623773],[0.74169297921625,51.8095283153769],[0.741706611395991,51.8097528374262],[0.741720243755704,51.8099773594639],[0.741733876295392,51.8102018814897],[0.741747509015058,51.8104264035038],[0.741761141914706,51.8106509255062],[0.741774774994337,51.8108754474968],[0.741412561549703,51.8108838949521],[0.741426192982358,51.8111084170067],[0.741063977530838,51.8111168634237],[0.740701761899419,51.8111253087265],[0.740715389858058,51.811349830921],[0.740353172219768,51.8113582751855],[0.740366798531308,51.811582797444],[0.74000457888614,51.8115912406701],[0.740018203550536,51.8118157629927],[0.740031828394814,51.8120402853035],[0.740394051694099,51.8120318419258],[0.740756274813521,51.812023397434],[0.740769903491869,51.8122479195815],[0.740783532350152,51.8124724417172],[0.740421305576524,51.8124808863606],[0.740434932787606,51.8127054085604],[0.740072704006967,51.8127138521654],[0.739710475046479,51.8127222946562],[0.739724098783147,51.8129468169957],[0.739361867815662,51.8129552584481],[0.739375489905008,51.8131797808517],[0.739013256930521,51.8131882212655],[0.739026877372499,51.8134127437331],[0.738664642391002,51.8134211831085],[0.738678261185564,51.8136457056401],[0.738316024197054,51.813654143977],[0.738329641344152,51.8138786665726],[0.737967402348621,51.8138871038709],[0.737981017848209,51.8141116265305],[0.737618776845652,51.8141200627903],[0.737256535663391,51.8141284979359],[0.737242923818415,51.8139039751248],[0.73688068428379,51.8139124090804],[0.736867074445823,51.8136878861819],[0.736504836558837,51.8136963189474],[0.736518444569513,51.8139208419216],[0.736532052759864,51.8141453648841],[0.736545661129891,51.8143698878347],[0.736907904498819,51.8143614548421],[0.736921514875887,51.8145859777053],[0.737283759892518,51.8145775435227],[0.737646004729464,51.8145691082257],[0.738008249386703,51.8145606718144],[0.738370493864211,51.8145522342888],[0.738384111730495,51.8147767568374],[0.738746357855618,51.8147683181218],[0.739108603800959,51.8147598782919],[0.739470849566494,51.8147514373477],[0.739484473094752,51.8149759596573],[0.739846720507841,51.814967517523],[0.740208967741074,51.8149590742744],[0.740222595104023,51.8151835964206],[0.7402362226469,51.8154081185551],[0.740249850369708,51.8156326406778],[0.73988759765419,51.8156410841538],[0.739525344758808,51.8156495265154],[0.739163091683584,51.8156579677627],[0.739176714103892,51.815882490101],[0.739190336704066,51.8161070124276],[0.73882807979403,51.816115452712],[0.738841700746544,51.8163399751026],[0.738479441829173,51.8163484143485],[0.738493061133976,51.8165729368031],[0.738130800209264,51.8165813750103],[0.738144417866311,51.8168058975289],[0.737782154934251,51.8168143346975],[0.737795770943495,51.8170388572801],[0.737433506004081,51.81704729341],[0.737447120130967,51.8172718164673],[0.737460734179537,51.8174963399606],[0.737098465437744,51.8175047751856],[0.737084853183139,51.8172802515996],[0.736722586058152,51.8172886856188],[0.736708975586124,51.8170641623267],[0.736346710107628,51.8170725951135],[0.736360318756034,51.8172971185249],[0.736373927422702,51.8175216422962],[0.7360116581495,51.8175300741818],[0.736025265199336,51.8177545980328],[0.736038872426313,51.8179791218707],[0.735676599387998,51.8179875528284],[0.735690204998074,51.8182120767459],[0.735327929988637,51.818220506683],[0.735341533981766,51.8184450306802],[0.734979257001201,51.8184534595968],[0.734992859377336,51.8186779836735],[0.734630580425637,51.8186864115695],[0.734644181184731,51.8189109357259],[0.735006461930555,51.8189025077372],[0.735368742499341,51.8188940786354],[0.735731022891065,51.8188856484203],[0.735717416749605,51.8186611245419],[0.736079695170126,51.8186526933063],[0.736441973413544,51.8186442609575],[0.736804251479833,51.8186358274955],[0.736817863003631,51.818860351096],[0.737180142686874,51.8188519164281],[0.737193756182007,51.8190764399229],[0.737556037482199,51.8190680040492],[0.73756965294871,51.8192925274383],[0.737207369854368,51.8193009634047],[0.737220983703964,51.8195254868735],[0.73758326859248,51.8195170508144],[0.737596884413508,51.8197415741775],[0.737959170919007,51.8197331369125],[0.737972788711515,51.8199576601699],[0.73833507683399,51.8199492216989],[0.738348696598024,51.8201737448506],[0.738710986337471,51.8201653051737],[0.738724608073078,51.8203898282196],[0.738738229986027,51.8206143512524],[0.738375936658042,51.8206227911147],[0.738362316539374,51.8203982679891],[0.7380000248284,51.8204067066455],[0.737986406681312,51.8201821834142],[0.737624116587356,51.8201906208646],[0.73726182631618,51.8201990572017],[0.736899535867807,51.8202074924256],[0.73688592328074,51.8199829689032],[0.737248211934866,51.819974533772],[0.737234597730795,51.8197500103293],[0.736872310870892,51.8197584453678],[0.73685869863826,51.8195339218194],[0.736496413395393,51.819542355652],[0.736134127975385,51.8195507883714],[0.736147736619609,51.8197753121052],[0.736161345441,51.8199998358259],[0.736174954439565,51.8202243595335],[0.736537245242261,51.8202159265362],[0.736550856212277,51.8204404501382],[0.736188563615305,51.8204488832282],[0.736202172968225,51.8206734069099],[0.735839878399821,51.8206818389793],[0.735853486135596,51.8209063627405],[0.735491189595754,51.8209147937893],[0.735128892878823,51.8209232237248],[0.735115288731708,51.8206986997782],[0.735101684761705,51.8204741758187],[0.734739391456353,51.8204826044556],[0.734725789457746,51.8202580803904],[0.73436349776965,51.8202665078215],[0.734349897742394,51.8200419836507],[0.734336297892193,51.8198174594668],[0.733974009615604,51.8198258855995],[0.733960411736681,51.81960136131],[0.733598125077339,51.8196097862368],[0.733235838241042,51.8196182100503],[0.733249432531507,51.8198427345249],[0.732887143724046,51.8198511573178],[0.732524854739672,51.8198595789974],[0.732162565578412,51.8198679995637],[0.73217615466308,51.820092524303],[0.73181386353069,51.8201009438487],[0.731827450997986,51.8203254686675],[0.731841038642179,51.8205499934734],[0.732203333363171,51.8205415737426],[0.732216922978598,51.8207660984429],[0.732230512770951,51.8209906231302],[0.732592810903758,51.820982202101],[0.732606402667419,51.8212067266827],[0.7329687024177,51.8211983044477],[0.732982296152714,51.8214228289238],[0.733344597520462,51.8214144054829],[0.733358193226878,51.8216389298534],[0.733720496212086,51.8216305052066],[0.733706898711254,51.8214059809287],[0.734069199725068,51.8213975552612],[0.734431500561878,51.8213891284803],[0.734793801221664,51.8213807005862],[0.7351561017044,51.8213722715788],[0.735169706382869,51.8215967954862],[0.735532008482935,51.8215883652729],[0.735545615132951,51.8218128890747],[0.735907918850341,51.8218044576553],[0.736270222390605,51.8217960251227],[0.73628383280666,51.8220205487262],[0.736297443399914,51.8222450723166],[0.736311054170371,51.8224695958941],[0.735948745246712,51.8224780287047],[0.735962354399864,51.8227025523618],[0.736324665118036,51.8226941194585],[0.736338276242908,51.8229186430099],[0.736700588578452,51.8229102089006],[0.737062900736809,51.822901773678],[0.737049286022875,51.8226772503119],[0.737035671486196,51.8224527269328],[0.737397979878315,51.8224442907822],[0.737384363724409,51.8222197674828],[0.737370747747777,51.8219952441703],[0.737733052373739,51.8219868070917],[0.737719434779947,51.8217622838589],[0.738081737434237,51.8217538457597],[0.738444039911264,51.8217454065471],[0.738430418905958,51.8215208834867],[0.738792719411299,51.8215124432536],[0.739155019739332,51.8215040019072],[0.739168644333429,51.8217285247821],[0.739530946278522,51.8217200822297],[0.739544572844417,51.8219446049989],[0.739906876406563,51.8219361612404],[0.739893248046256,51.8217116385639],[0.740255549636611,51.8217031937849],[0.740269179791325,51.8219277163686],[0.74063148299868,51.8219192703835],[0.740645115125279,51.8221437928614],[0.741007419949629,51.8221353456702],[0.74102105404816,51.8223598680423],[0.741383360489498,51.8223514196451],[0.741396996560008,51.8225759419114],[0.741410632808052,51.8228004641647],[0.741772942660862,51.8227920144685],[0.742135252336161,51.8227835636589],[0.74212161249914,51.8225590415912],[0.74248392020242,51.8225505897612],[0.742470278748522,51.8223260677733],[0.742832584479788,51.8223176149227],[0.742846227728143,51.8225421368178],[0.743208535076286,51.8225336827611],[0.743570842246826,51.8225252275911],[0.743557195409567,51.8223007058816],[0.743543548749982,51.8220761841591],[0.743905852154023,51.8220677280615],[0.743919500608034,51.8222922496911],[0.744281805628855,51.8222837923873],[0.744644110472005,51.8222753339702],[0.745006415137464,51.8222668744397],[0.745368719625206,51.822258413796],[0.745731023935209,51.8222499520389],[0.746093328067449,51.8222414891686],[0.746106987465775,51.822466010228],[0.746469293214656,51.8224575461514],[0.746831598785724,51.8224490809616],[0.747193904178956,51.8224406146584],[0.747556209394329,51.8224321472419],[0.747918514431821,51.8224236787122],[0.747932182980203,51.8226481992939],[0.747945851706544,51.8228727198626],[0.748308160155021,51.8228642500336],[0.748294489634223,51.8226397295579],[0.748656796106568,51.8226312589424],[0.748643123967099,51.8224067385212],[0.749005428464168,51.8223982668758],[0.749367732783068,51.8223897941157],[0.749354057227874,51.8221652738339],[0.749716359571627,51.8221568000347],[0.749702682397739,51.8219322798167],[0.75006498276635,51.8219238049786],[0.750051303973815,51.8216992848244],[0.750037625359559,51.8214747646585],[0.750399921956156,51.8214662888568],[0.750762218374504,51.8214578119406],[0.751124514614577,51.8214493339098],[0.751110830788038,51.8212248139589],[0.751473125052969,51.8212163348891],[0.751835419139584,51.8212078547048],[0.751849106559813,51.8214323745045],[0.752211402264929,51.82142389313],[0.752197713047857,51.8211993734058],[0.752560006777769,51.8211908909924],[0.752922300329294,51.8211824074644],[0.753284593702408,51.8211739228218],[0.75364688689709,51.8211654370647],[0.753633190671193,51.8209409176313],[0.753619494623801,51.8207163981862],[0.753981784046445,51.8207079114658],[0.753968086380796,51.8204833920847],[0.753954388893666,51.8202588726917],[0.753940691585053,51.8200343532871],[0.753926994454955,51.8198098338706],[0.753913297503367,51.8195853144424],[0.753899600730286,51.8193607950025],[0.753885904135709,51.8191362755509],[0.754248180803105,51.8191277882456],[0.75423448259044,51.8189032688578],[0.754596757282775,51.8188947805137],[0.754959031796613,51.8188862910551],[0.755321306131931,51.8188778004821],[0.755307602708111,51.8186532813096],[0.755669875068335,51.8186447896978],[0.756032147249996,51.8186362969716],[0.756394419253071,51.8186278031309],[0.756756691077536,51.8186193081757],[0.756742980646203,51.8183947892943],[0.757105250495519,51.8183862933004],[0.757467520166182,51.8183777961922],[0.757453806320541,51.8181532774504],[0.75781607401604,51.8181447793035],[0.758178341532842,51.8181362800421],[0.758164624272997,51.8179117614401],[0.758150907191916,51.8176872428263],[0.758513170937106,51.817678742602],[0.758499452238377,51.8174542240523],[0.758485733718429,51.8172297054908],[0.758847993692086,51.8172212043036],[0.758834272715533,51.81699668596],[0.758820551636618,51.8167721676563],[0.758458295275526,51.8167806686927],[0.758096038736705,51.8167891686144],[0.757733782020174,51.8167976674213],[0.75737152512596,51.8168061651135],[0.757385239072181,51.8170306837002],[0.757022980217124,51.8170391803483],[0.757009268054085,51.8168146616909],[0.756647010804571,51.8168231571536],[0.756633300602373,51.8165986384141],[0.756995556068726,51.8165901430221],[0.757357811357442,51.8165816465154],[0.757720066468501,51.816573148894],[0.757706351094554,51.8163486303553],[0.757692635898329,51.8161241118052],[0.757678920879822,51.8158995932438],[0.757665206039029,51.815675074671],[0.758027453840031,51.8156665762178],[0.758389701463341,51.8156580766499],[0.758751948908935,51.8156495759673],[0.759114196176792,51.81564107417],[0.759127918149802,51.8158655924598],[0.759141640300621,51.8160901107382],[0.759503890956833,51.8160816076847],[0.759517615068556,51.8163061258809],[0.759531339358117,51.8165306440658],[0.759893593402743,51.8165221397559],[0.760255847269548,51.8165136343314],[0.760242119413763,51.8162891162881],[0.760604371319618,51.8162806098196],[0.76061810095851,51.8165051277921],[0.760631830775312,51.8167296457532],[0.760994086069536,51.8167211380283],[0.761356341185868,51.8167126291887],[0.761718596124284,51.8167041192344],[0.762080850884762,51.8166956081654],[0.762067113935468,51.8164710904877],[0.762053377164177,51.8162465727985],[0.762039640570886,51.816022055098],[0.762025904155591,51.8157975373861],[0.762388151605785,51.8157890254857],[0.762750398878007,51.8157805124707],[0.763112645972233,51.815771998341],[0.763474892888441,51.8157634830966],[0.763837139626607,51.8157549667375],[0.763850884957099,51.815979484095],[0.764213133300231,51.8159709665503],[0.764575381465271,51.8159624478909],[0.764937629452197,51.8159539281168],[0.764951380309953,51.8161784452503],[0.765313630083456,51.8161699243818],[0.765299877430134,51.815945407312],[0.765662125247977,51.8159368854012],[0.766024372887201,51.8159283623755],[0.76601061683502,51.8157038454283],[0.766372862506856,51.8156953213545],[0.766735108000028,51.8156867961657],[0.766721348549092,51.8154622793411],[0.767083592074861,51.8154537531042],[0.76706983101396,51.8152292363355],[0.766707589276882,51.8152377625055],[0.766345347361125,51.8152462875605],[0.766331590056313,51.815021770647],[0.765969349750574,51.8150302945202],[0.765607109266205,51.8150388172784],[0.765593355717401,51.81481430022],[0.765231116843082,51.8148228217963],[0.764868877836082,51.8148313422788],[0.764506638764046,51.8148398616983],[0.76414439951391,51.8148483800032],[0.764158145914922,51.8150728973354],[0.763795904703773,51.8150814145965],[0.763809649499946,51.8153059319882],[0.763447406327778,51.8153144482055],[0.763461149519068,51.8155389656567],[0.763098904385873,51.8155474808303],[0.762736659074664,51.8155559948891],[0.762722919449358,51.8153314772962],[0.762360675743152,51.8153399901695],[0.761998431858979,51.8153485019281],[0.761636187796863,51.8153570125721],[0.761649922073172,51.8155815303776],[0.76128767605013,51.8155900399777],[0.761273943556828,51.8153655221014],[0.761260211241466,51.8151410042137],[0.760897968606519,51.8151495125574],[0.7605357257937,51.8151580197866],[0.760521997222204,51.8149335017458],[0.760159756014507,51.8149420077894],[0.759797514628988,51.8149505127184],[0.759783789801273,51.8147259945247],[0.759421550020907,51.8147344982682],[0.75940782715396,51.8145099799923],[0.759045588978752,51.8145184825504],[0.759031868072526,51.8142939641923],[0.759394104464824,51.814285461705],[0.759756340679359,51.8142769581031],[0.759770065151397,51.8145014763196],[0.760132302971044,51.8144929715322],[0.760494540612874,51.8144844656302],[0.760508268828597,51.8147089836937],[0.760870508075508,51.8147004766062],[0.761232747144553,51.814691968404],[0.761246479104042,51.8149164863145],[0.761608719778136,51.8149079769269],[0.761970960274317,51.8148994664246],[0.762333200592559,51.8148909548077],[0.762319463284273,51.8146664371097],[0.762305726153985,51.8144419194004],[0.761943489401579,51.8144504308756],[0.761929754232175,51.814225913084],[0.762291989201699,51.8142174016796],[0.762278252427406,51.8139928839475],[0.76264048543612,51.8139843714993],[0.763002718266865,51.8139758579365],[0.763016458606869,51.8142003755269],[0.763378693042469,51.8141918607786],[0.76374092730005,51.8141833449157],[0.763727183394347,51.8139588274671],[0.764089415691039,51.8139503105605],[0.764075670180599,51.8137257931713],[0.764437900516408,51.813717275221],[0.764800130674135,51.813708756156],[0.764786381776211,51.8134842388973],[0.765148610033247,51.813475718812],[0.765134859523419,51.8132512016091],[0.765497085877778,51.8132426805007],[0.765859312053553,51.8132341582775],[0.766221538050723,51.8132256349393],[0.766583763869264,51.8132171104863],[0.766945989509151,51.8132085849184],[0.766932230235594,51.8129840680388],[0.766570006384167,51.8129925935399],[0.766556249077765,51.8127680765823],[0.766918471140756,51.8127595511482],[0.766904712224631,51.8125350342465],[0.767266932320541,51.8125265077644],[0.76725317179474,51.8123019909185],[0.767615389923575,51.8122934633884],[0.767601627788144,51.8120689465983],[0.767963843949911,51.8120604180203],[0.767950080204898,51.8118359012861],[0.767936316638655,51.8116113845408],[0.767922553251182,51.8113868677843],[0.767908790042475,51.8111623510169],[0.76789502701253,51.8109378342383],[0.767532819792206,51.8109463624817],[0.76751905872924,51.8107218456251],[0.767156853118447,51.8107303726868],[0.767170612393191,51.8109548896103],[0.766808404815507,51.8109634156241],[0.766822162480716,51.8111879326034],[0.766459952936137,51.8111964575693],[0.766097743212932,51.8112049814204],[0.766111497480281,51.8114294985224],[0.765749285790194,51.8114380213256],[0.765735533311126,51.8112135041567],[0.765373323230741,51.8112220257782],[0.765387073921525,51.8114465430139],[0.765400824790914,51.8116710602386],[0.765038610955377,51.8116795808789],[0.765024861874299,51.8114550635875],[0.765011112971801,51.8112305462849],[0.76499736424788,51.8110060289712],[0.764635155656165,51.8110145482996],[0.76427294689042,51.8110230665137],[0.764259201912586,51.8107985490474],[0.763896994751311,51.8108070660761],[0.763883251734063,51.8105825485276],[0.763869508894874,51.8103580309676],[0.76350730512055,51.8103665467401],[0.763145101168235,51.8103750613981],[0.762782897037952,51.8103835749416],[0.762420692729723,51.8103920873706],[0.762406957198416,51.8101675695158],[0.762769159724186,51.8101590571576],[0.762755422588405,51.8099345393623],[0.762393221845073,51.8099430516496],[0.762031020923827,51.8099515628225],[0.761668819824686,51.8099600728809],[0.761682551613146,51.8101845908888],[0.76132034855369,51.8101930999035],[0.760958145316384,51.8102016078038],[0.760971873717819,51.810426125942],[0.760609668520211,51.8104346327986],[0.760247463144797,51.8104431385408],[0.760233738308316,51.810218620261],[0.7598715345376,51.8102271248179],[0.759857811661403,51.810002606456],[0.759844088963004,51.8097780880827],[0.75948188857943,51.8097865913835],[0.75946816784124,51.8095620729281],[0.75945444728082,51.8093375544613],[0.759092250284331,51.8093460565061],[0.759078531684048,51.8091215379571],[0.759064813261504,51.8088970193967],[0.759051094648689,51.8086725006904],[0.758688902850447,51.8086810014178],[0.758675186063785,51.8084564825783],[0.758312995882924,51.8084649821234],[0.758299281071088,51.8082404632051],[0.75828556643798,51.8080159442756],[0.757923379670556,51.8080244425708],[0.757909667012199,51.8077999235626],[0.757895954532541,51.8075754045433],[0.757533771178497,51.8075839015886],[0.757520060673518,51.8073593824906],[0.757506350347207,51.8071348633813],[0.757492640199562,51.806910344261],[0.757478930230578,51.8066858251295],[0.757116753881717,51.8066943207898],[0.756754577354262,51.8067028153356],[0.75674087115573,51.8064782960577],[0.756727165135807,51.8062537767688],[0.756364992021559,51.8062622700648],[0.756378696245605,51.8064867894213],[0.756016521156935,51.8064952816703],[0.75600281872877,51.8062707622462],[0.755640645257463,51.806279253313],[0.755278471607659,51.8062877432653],[0.755264772949779,51.806063223695],[0.755626944803718,51.8060547338102],[0.755613244528508,51.8058302142963],[0.755251074470409,51.8058387041135],[0.755237376169546,51.8056141845208],[0.755223678047186,51.8053896649171],[0.754861511402239,51.8053981534846],[0.754499344578855,51.8054066409376],[0.754137177577059,51.8054151272761],[0.753775010396872,51.8054236125],[0.753761319636126,51.805199092615],[0.75339915407336,51.8052075766569],[0.753036988332253,51.8052160595843],[0.753050675501424,51.8054405796043],[0.753064362848957,51.8056650996132],[0.753426532181664,51.8056566165508],[0.753788701336026,51.8056481323739],[0.75380239245359,51.8058726522367],[0.753440221503396,51.8058811364811],[0.753078050374853,51.8058896196109],[0.752715879067983,51.8058981016262],[0.752702193337926,51.805673581561],[0.752688507786209,51.8054490614846],[0.75267482241283,51.8052245413971],[0.752661137217786,51.8050000212984],[0.752298972915841,51.8050085019293],[0.751936808435628,51.8050169814455],[0.751950490039127,51.8052415016791],[0.751588323584893,51.8052499801483],[0.751226156952436,51.805258457503],[0.750863990141779,51.8052669337432],[0.75087766653615,51.805491454168],[0.750891343108745,51.8057159745817],[0.750529172528266,51.8057244498421],[0.750542847483227,51.8059489703121],[0.750180674928728,51.8059574445255],[0.750194348266009,51.8061819650518],[0.749832173737485,51.806190438218],[0.74981850219609,51.8059659176242],[0.749456329285336,51.8059743896085],[0.749094156196489,51.8059828604781],[0.749107824146101,51.8062073812066],[0.748745649083288,51.8062158510291],[0.748383473842427,51.8062243197369],[0.748397138378312,51.8064488405891],[0.748034962702323,51.8064573078565],[0.748021300073371,51.8062327869072],[0.748007637625711,51.8060082659458],[0.747645465943539,51.8060167318122],[0.747283294080142,51.8060251965651],[0.746921122035546,51.8060336602043],[0.746907465285757,51.8058091389907],[0.746545294898851,51.8058176014363],[0.746183124330795,51.8058260627682],[0.745820953581614,51.8058345229866],[0.74580730252958,51.8056100015208],[0.745793651658688,51.8053854800429],[0.746155818730193,51.8053770199846],[0.746142166201637,51.8051524985747],[0.746128513854239,51.8049279771527],[0.745766350460313,51.8049364370509],[0.745780000968932,51.805160958553],[0.745417835555137,51.8051694174177],[0.745431484406087,51.8053939389876],[0.745445133438151,51.8056184605455],[0.745458782651332,51.8058429820913],[0.745096611539972,51.8058514400824],[0.744734440247558,51.8058598969599],[0.744720794712091,51.8056353752541],[0.744358625077511,51.805643830938],[0.744372268774114,51.8058683527238],[0.744385912651768,51.8060928744975],[0.74402373915843,51.8061013292277],[0.744010097119665,51.805876807374],[0.743647925284235,51.8058852609106],[0.743634285265364,51.8056607389649],[0.743272115087847,51.805669191308],[0.743258477088822,51.8054446692702],[0.742896308569225,51.8054531204197],[0.742534139868724,51.8054615704555],[0.742520505728329,51.8052370482458],[0.742882672589999,51.8052285982899],[0.742869036791719,51.805004076148],[0.743231201633686,51.8049956251585],[0.743217564177568,51.8047711030845],[0.743579726999837,51.8047626510613],[0.743593366294731,51.8049871730553],[0.743607005770615,51.8052116950373],[0.743620645427492,51.8054362170071],[0.74398281358521,51.8054277636304],[0.744344981561952,51.8054193091401],[0.744707149357695,51.8054108535362],[0.744693504184365,51.8051863318063],[0.7446798591921,51.8049618100643],[0.744666214380893,51.8047372883102],[0.744304052101524,51.8047457436741],[0.744290409310118,51.804521221828],[0.744652569750745,51.804512766544],[0.745014730010361,51.8045043101464],[0.745376890088942,51.8044958526353],[0.745739049986464,51.8044873940106],[0.746101209702904,51.8044789342724],[0.746087557898962,51.8042544128142],[0.746449715595591,51.8042459520424],[0.746436062134115,51.8040214306521],[0.746073906276166,51.8040298913439],[0.746060254834513,51.8038053698615],[0.746422408853806,51.8037969092497],[0.746408755754659,51.8035723878353],[0.746395102836673,51.8033478664087],[0.746032952494623,51.8033563268604],[0.746046603573999,51.803580848367],[0.745684451212246,51.8035893077852],[0.745698100634124,51.8038138293597],[0.745335946252661,51.8038222877443],[0.74497379169015,51.8038307450154],[0.744987437615814,51.8040552667378],[0.744625281033607,51.8040637229754],[0.744263124270396,51.8040721780994],[0.743900967326205,51.8040806321099],[0.743538810201056,51.8040890850068],[0.743176652894975,51.8040975367902],[0.743190289808216,51.8043220589003],[0.742828130482517,51.8043305096501],[0.74246597097593,51.8043389592863],[0.742103811288479,51.8043474078089],[0.741741651420189,51.8043558552179],[0.741728021861801,51.804131332788],[0.742090179891374,51.8041228854589],[0.742076548675151,51.8038983630968],[0.741714392484272,51.803906810346],[0.741352236112584,51.8039152564817],[0.74099007956011,51.8039237015038],[0.740627922826872,51.8039321454123],[0.7406415466883,51.804156668094],[0.740279387935618,51.8041651109689],[0.739917229002219,51.8041735527301],[0.739555069888127,51.8041819933779],[0.739192910593365,51.804190432912],[0.738830751117957,51.8041988713326],[0.738844365966488,51.8044233944015],[0.738482204471713,51.8044318317884],[0.738120042796337,51.8044402680616],[0.737757880940385,51.8044487032213],[0.737395718903878,51.8044571372674],[0.737033556686844,51.8044655701999],[0.736671394289304,51.8044740020188],[0.736309231711283,51.8044824327241],[0.736295629734041,51.8042579090965],[0.735933468814331,51.8042663386085],[0.735919868856336,51.8040418148891],[0.735906269078816,51.8038172911576],[0.735544111656147,51.8038257193965],[0.735530513897799,51.8036011955732],[0.735516916319898,51.8033766717378],[0.735503318922438,51.8031521478905],[0.735141166835409,51.8031605747765],[0.735127571457021,51.8029360508373],[0.734765421028258,51.80294447653],[0.734403270419157,51.8029529011092],[0.734389678898408,51.8027283769985],[0.73437608755802,51.8025038528757],[0.734013940445815,51.8025122761819],[0.734000351124356,51.8022877519673],[0.733638205670438,51.8022961740803],[0.733624618367862,51.802071649774],[0.73361103124559,51.8018471254556],[0.733973173022432,51.8018387035021],[0.733959584241961,51.8016141792514],[0.734321724000028,51.8016057562641],[0.734683863577799,51.8015973321633],[0.734670271300701,51.80137280806],[0.735032408859682,51.8013643829254],[0.735394546238321,51.8013559566774],[0.735380950464704,51.8011314327216],[0.735743085824538,51.8011230054398],[0.735729488392917,51.8008984815517],[0.735715891141728,51.8006739576515],[0.736078022644375,51.8006655294158],[0.736064423883434,51.8004410055815],[0.736426553392452,51.8004325763099],[0.736412953407307,51.8002080525321],[0.736050825724158,51.8002164817306],[0.735688697861553,51.8002249098151],[0.735326569819516,51.8002333367858],[0.735340164327043,51.8004578607829],[0.735353759458701,51.8006823847737],[0.734991627595317,51.8006908107824],[0.73500522116972,51.8009153348422],[0.734643087287607,51.8009237598173],[0.734656679203972,51.8011482839446],[0.734294543303123,51.801156707886],[0.733932407221982,51.8011651307139],[0.733570270960576,51.8011735524283],[0.733208134518926,51.8011819730292],[0.732845997897058,51.8011903925167],[0.732832415172848,51.8009658679907],[0.732470280209225,51.800974286285],[0.732108145065433,51.8009827034659],[0.731746009741499,51.8009911195333],[0.731383877607318,51.8009995343953],[0.731021746609088,51.8010079481081],[0.730659615427209,51.8010163607076],[0.730673186817116,51.8012408857219],[0.730311053565548,51.8012492972897],[0.729948920130379,51.8012577077443],[0.729586786511632,51.8012661170855],[0.729224652709333,51.8012745253134],[0.729238216738534,51.8014990506422],[0.728876080866604,51.8015074578384],[0.728889643193263,51.8017319832367],[0.728527505251695,51.8017403894012],[0.728165367126642,51.8017487944524],[0.72817892586455,51.8019733200018],[0.727816785669876,51.8019817240212],[0.727830342705117,51.8022062496401],[0.727843899923857,51.8024307752467],[0.727857457326096,51.8026553008412],[0.727495311289342,51.8026637039922],[0.727133165069165,51.8026721060298],[0.727119611439403,51.8024475802721],[0.72675746692207,51.8024559811147],[0.726771018665588,51.802680506954],[0.726408872078636,51.8026889067648],[0.726046725308336,51.8026973054622],[0.726033177337316,51.8024727794597],[0.725671032269944,51.8024811769621],[0.725657486368534,51.8022566508658],[0.725295343004096,51.8022650471733],[0.724933199456391,51.8022734423674],[0.724919657510752,51.8020489160957],[0.724906115748415,51.8018243898119],[0.724892574169377,51.8015998635158],[0.724530436096999,51.8016082573519],[0.724168297841409,51.8016166500745],[0.724154760217954,51.8013921236032],[0.724141222777741,51.8011675971197],[0.724127685520768,51.800943070624],[0.724114148447032,51.8007185441161],[0.723752017552707,51.8007269353993],[0.723738482548257,51.8005024087977],[0.723376353356838,51.8005107988859],[0.723362819771828,51.8002862724163],[0.723724947099095,51.8002778824115],[0.723711411820099,51.800053356017],[0.723349286330666,51.8000617459475],[0.723335753069072,51.799837219467],[0.722973629237943,51.7998456082092],[0.722960097993703,51.7996210816427],[0.722597975820885,51.7996294691967],[0.722235853468612,51.7996378556369],[0.722222326079449,51.79941332891],[0.721860205385521,51.799421714162],[0.721498084512189,51.7994300983002],[0.721484560978019,51.799205571413],[0.721122441763065,51.799213954363],[0.721135963459477,51.7994384813246],[0.720773842227409,51.7994468632352],[0.720787362265452,51.7996713902596],[0.720800882482889,51.7998959172723],[0.721163007390552,51.799887535213],[0.721176529625219,51.8001120621397],[0.721190052039312,51.8003365890548],[0.72120357436365,51.8005611160358],[0.720841443890904,51.8005694983308],[0.720854963806823,51.8007940255844],[0.720868483905759,51.8010185528258],[0.721230618150685,51.8010101703679],[0.721244140318766,51.8012346975156],[0.721606276266835,51.8012263138629],[0.721968412031897,51.8012179290968],[0.721954886091574,51.800993402112],[0.721941360334342,51.800768875115],[0.721579228341495,51.8007772597181],[0.721565704653424,51.8005527326275],[0.7219278347602,51.8005443481058],[0.722289964683955,51.8005359624709],[0.722303492144164,51.8007604893985]]],[[[0.723724947099095,51.8002778824115],[0.723738482548257,51.8005024087977],[0.72410061154327,51.8004940176011],[0.724114148447032,51.8007185441161],[0.724476279158185,51.8007101517197],[0.724489818117993,51.800934678146],[0.724503357261063,51.8011592045601],[0.724865491561182,51.8011508108872],[0.725227625678072,51.801142416101],[0.725589759611708,51.8011340202014],[0.725951893362066,51.8011256231885],[0.725938346674641,51.8009010971007],[0.726300478355615,51.800892699056],[0.726662609853265,51.800884299898],[0.726649059577087,51.8006597739612],[0.727011189005338,51.8006513737715],[0.727373318250218,51.8006429724685],[0.727386872298495,51.8008674982421],[0.727400426530227,51.8010920240035],[0.727762559363825,51.8010836214239],[0.727776115665107,51.8013081470916],[0.727413980945416,51.8013165497528],[0.727427535544065,51.8015410754898],[0.727789672149873,51.801532672747],[0.728151808572248,51.8015242688908],[0.728138250201368,51.801299743317],[0.728500384554176,51.8012913384291],[0.728486824480719,51.8010668129248],[0.728473264590792,51.8008422874083],[0.72883539498798,51.8008338815704],[0.728848956763966,51.8010584070052],[0.729211088863713,51.8010499999724],[0.729573220779935,51.8010415918262],[0.729559655231842,51.8008170665546],[0.729197525201672,51.8008254746192],[0.729183961723206,51.8006009492538],[0.728821833395547,51.8006093561233],[0.728808272006934,51.8003848307307],[0.728446145357534,51.8003932364038],[0.728084018528285,51.800401640963],[0.727721891519208,51.8004100444084],[0.72770833584439,51.8001855188446],[0.727346210493335,51.8001939211017],[0.727332656836171,51.7999693954517],[0.726970533143144,51.7999777965205],[0.726956981503587,51.7997532707844],[0.726594859468593,51.7997616706648],[0.726581309846596,51.7995371448426],[0.726219189469643,51.7995455435348],[0.725857068912996,51.7995539411131],[0.725843523146253,51.7993294151303],[0.72548140424768,51.7993378115204],[0.725119285169462,51.7993462067967],[0.725132827260715,51.7995707329284],[0.72477070616513,51.7995791271653],[0.724784246598288,51.7998036533598],[0.724422123485326,51.7998120465573],[0.724435662260341,51.8000365728146],[0.724073537129998,51.8000449649727],[0.724087074246825,51.8002694912927],[0.723724947099095,51.8002778824115]]],[[[0.742076548675151,51.8038983630968],[0.742438704685195,51.8038899147341],[0.742800860514382,51.8038814652578],[0.743163016162688,51.8038730146679],[0.743525171630088,51.8038645629645],[0.743511533240092,51.8036400409101],[0.743497895031067,51.8034155188437],[0.743860046640252,51.8034070661867],[0.744222198068488,51.8033986124161],[0.744208556363219,51.8031740904975],[0.744194914838961,51.8029495685669],[0.743832767087909,51.8029580221775],[0.743470619155917,51.8029664746746],[0.743108471043007,51.8029749260582],[0.742746322749204,51.8029833763283],[0.742384174274532,51.8029918254849],[0.742397806605855,51.8032163478153],[0.742411439118072,51.8034408701336],[0.742425071811184,51.8036653924399],[0.742062917639806,51.8036738407227],[0.742076548675151,51.8038983630968]]],[[[0.736346710107628,51.8170725951135],[0.736333101408863,51.8168480722281],[0.735970837578348,51.8168565038247],[0.735608573568213,51.816864934307],[0.735246309378483,51.8168733636749],[0.734884045009179,51.8168817919283],[0.734897646397415,51.8171063151165],[0.735259912594355,51.8170978867873],[0.73562217861172,51.8170894573438],[0.735984444449485,51.8170810267858],[0.736346710107628,51.8170725951135]]],[[[0.734884045009179,51.8168817919283],[0.734870443800539,51.8166572687285],[0.734856842771493,51.8164327455168],[0.73449458187785,51.8164411725046],[0.734132320804689,51.816449598378],[0.734118723610373,51.8162250750033],[0.733756464185293,51.8162334996867],[0.733770059552035,51.816458023137],[0.733783655098295,51.8166825465755],[0.734145918178549,51.8166741217409],[0.734159515731952,51.8168986450921],[0.734173113464906,51.8171231684316],[0.734535380020925,51.8171147423312],[0.734521780460328,51.8168902190674],[0.734884045009179,51.8168817919283]]],[[[0.755517347600703,51.8042585773869],[0.755503648753647,51.8040340577839],[0.755141493061433,51.8040425470606],[0.755155190112834,51.8042670667312],[0.754793032446523,51.8042755549611],[0.75480672788073,51.804500074688],[0.754444568240314,51.8045085618709],[0.75443087460179,51.8042840420764],[0.75406871657866,51.8042925280773],[0.753706558377155,51.8043010129636],[0.753720248424302,51.8045255328932],[0.753733938649845,51.8047500528116],[0.753747629053785,51.8049745727189],[0.754109792642428,51.80496608763],[0.754471956052688,51.8049576014265],[0.754485650226547,51.8051821211876],[0.754847815254153,51.8051736338022],[0.754834119284542,51.8049491141086],[0.755196282337965,51.8049406256761],[0.755182584751099,51.804716106039],[0.755544745830344,51.8047076165595],[0.755531046626267,51.8044830969788],[0.755517347600703,51.8042585773869]]],[[[0.748697813594172,51.8233048201353],[0.748684140920101,51.8230802997494],[0.748321830853852,51.8230887705068],[0.748335501730866,51.8233132909683],[0.748349172786063,51.823537811418],[0.747986858953341,51.8235462814902],[0.748000528391543,51.8237708020067],[0.748014198007718,51.8239953225101],[0.74802786780187,51.8242198430004],[0.748390187020785,51.8242113726967],[0.74837651543102,51.8239868522822],[0.74873883268564,51.8239783812227],[0.749101149762092,51.8239699090484],[0.749463466660354,51.8239614357595],[0.749449789857407,51.8237369155599],[0.749436113232719,51.8235123953486],[0.749073799928677,51.8235208684864],[0.74906012527932,51.8232963481877],[0.748697813594172,51.8233048201353]]],[[[0.743625431372642,51.8234233142985],[0.743263117024067,51.8234317698398],[0.743249471270633,51.8232072480897],[0.742887158538989,51.8232157024249],[0.742524845629756,51.8232241556467],[0.742511203643033,51.8229996336979],[0.742148892350764,51.8230080857136],[0.742162532542957,51.8232326077552],[0.741800219278617,51.8232410587503],[0.741813857853845,51.8234655808717],[0.742176172912741,51.8234571297838],[0.742189813460119,51.8236816517993],[0.742552130136046,51.8236731995052],[0.742565772655621,51.8238977214149],[0.742928090948573,51.8238892679146],[0.74329040906393,51.823880813301],[0.743652727001663,51.8238723575739],[0.743639079098308,51.8236478359427],[0.743625431372642,51.8234233142985]]],[[[0.732805591400943,51.8185040097193],[0.732791999966406,51.8182794850741],[0.733154276214723,51.8182710629292],[0.733516552286127,51.8182626396711],[0.733878828180595,51.8182542152999],[0.734241103898103,51.8182457898154],[0.734603379438629,51.8182373632178],[0.734589779210708,51.8180128390224],[0.734952052780173,51.8180044114043],[0.734938450935272,51.8177798872885],[0.734924849267443,51.8175553631596],[0.734911247776684,51.8173308390178],[0.734548979589247,51.8173392663582],[0.734186711224814,51.8173476925854],[0.733824442683411,51.8173561176995],[0.73346217396506,51.8173645417004],[0.733099905069785,51.8173729645881],[0.733086312719921,51.8171484400461],[0.733072720469915,51.8169239164797],[0.732710455023679,51.8169323380468],[0.732696864780784,51.8167078143931],[0.732334600982777,51.8167162347702],[0.732321012746943,51.8164917110291],[0.731958750597172,51.8165001302162],[0.731945164368354,51.8162756063878],[0.731582904141923,51.8162840244085],[0.731220645105136,51.8162924414323],[0.731207062822651,51.8160679174392],[0.730844805472538,51.8160763332677],[0.730482547940031,51.8160847479822],[0.730120290225155,51.8160931615828],[0.730133866900348,51.8163176858203],[0.729771607134024,51.8163260983884],[0.729785182122486,51.8165506226952],[0.730147443757938,51.8165422100456],[0.73016102079793,51.8167667342588],[0.730523284120179,51.8167583204138],[0.730885547260051,51.8167499054549],[0.730899128220789,51.8169744294929],[0.731261393047424,51.8169660133385],[0.731274976079573,51.8171905374116],[0.731288559439176,51.8174150624496],[0.731302142972435,51.8176395874774],[0.730939872797711,51.8176480038612],[0.730953454752897,51.817872528934],[0.730967036881718,51.8180970539967],[0.731329310559922,51.8180886375023],[0.731691584284839,51.8180802198936],[0.731705170160209,51.8183047448295],[0.731718756212447,51.8185292697524],[0.732081034785466,51.8185208508546],[0.73244331318164,51.8185124308436],[0.732805591400943,51.8185040097193]]],[[[0.718495636086774,51.8037715316454],[0.718133477743492,51.8037799061733],[0.717771319217413,51.8037882795878],[0.717757813899705,51.8035637517596],[0.71739565707728,51.8035721239793],[0.717382153828809,51.8033475960575],[0.717019998710042,51.8033559670823],[0.716657843408561,51.8033643369936],[0.716644344115659,51.803139808897],[0.716282190517871,51.8031481776135],[0.716295687924389,51.8033727057915],[0.716309185513643,51.8035972339574],[0.716322683285637,51.803821762111],[0.716684842542651,51.8038133931504],[0.716698342383845,51.8040379212106],[0.717060503344617,51.8040295510551],[0.717074005255059,51.8042540790218],[0.717436167919581,51.8042457076714],[0.717449671899321,51.8044702355445],[0.717811836267587,51.8044618629993],[0.717825342316672,51.8046863907788],[0.717838848548609,51.8049109185461],[0.717852354963402,51.8051354463013],[0.717865861561054,51.8053599740443],[0.718228033292753,51.80535160006],[0.71824154195988,51.8055761277094],[0.718603715395372,51.8055677525302],[0.718617226132024,51.805792280086],[0.718979401271302,51.8057839037118],[0.718965888648019,51.8055593762374],[0.719328061717795,51.8055509988311],[0.719314547390844,51.805326471426],[0.719301033246853,51.8051019440087],[0.719287519285816,51.8048774165792],[0.719274005507731,51.8046528891375],[0.719636170848353,51.8046445109434],[0.719998336006067,51.8046361316359],[0.72036050098085,51.8046277512148],[0.720374020418511,51.8048522784121],[0.720736187096855,51.8048438967961],[0.720749708604084,51.8050684238998],[0.720763230294366,51.8052929509913],[0.721125400562832,51.8052845680989],[0.721487570648283,51.8052761840929],[0.721849740550694,51.8052677989734],[0.722211910270041,51.8052594127404],[0.722574079806299,51.8052510253938],[0.722936249159442,51.8052426369338],[0.723298418329448,51.8052342473603],[0.723284883433284,51.8050097208393],[0.723271348720341,51.8047851943061],[0.723633513934123,51.8047768037821],[0.723619977517905,51.8045522773182],[0.723606441284926,51.8043277508422],[0.723592905235184,51.804103224354],[0.723579369368673,51.8038786978536],[0.723565833685394,51.8036541713411],[0.723203677903838,51.8036625614574],[0.723190144290157,51.8034380348511],[0.723552298185341,51.8034296448163],[0.723538762868512,51.8032051182794],[0.723176610859677,51.8032135082326],[0.723163077612391,51.802988981602],[0.723525227734902,51.8029805917303],[0.723511692784511,51.802756065169],[0.723498158017332,51.8025315385955],[0.723136011667397,51.8025399283042],[0.722773865134338,51.8025483168994],[0.72278739612896,51.8027728436359],[0.722425247526518,51.8027812311993],[0.722411718418178,51.8025567043813],[0.722049571518942,51.8025650907497],[0.722036044480002,51.802340563838],[0.722022517624171,51.8021160369141],[0.722008990951449,51.8018915099781],[0.722371132191973,51.8018831238541],[0.722733273249431,51.8018747366168],[0.722719742987439,51.8016502098315],[0.722706212908596,51.8014256830341],[0.722344075623485,51.8014340701084],[0.722357603816166,51.8016585969873],[0.721995464461831,51.8016669830298],[0.721633324924458,51.8016753679589],[0.721646849527884,51.8018998949886],[0.721284707921302,51.8019082788858],[0.721271185204072,51.8016837517746],[0.720909045300696,51.801692134477],[0.720546905214357,51.8017005160659],[0.720560424159189,51.8019250433401],[0.720573943287026,51.8021495706021],[0.720587462597876,51.8023740978519],[0.720600982091741,51.8025986250895],[0.720614501768621,51.802823152315],[0.720628021628524,51.8030476795282],[0.720641541671449,51.8032722067294],[0.720655061897401,51.8034967339183],[0.720292906537807,51.8035051150455],[0.720306425060391,51.8037296423037],[0.719944267631456,51.803738022399],[0.719957784450624,51.8039625497265],[0.71997130145278,51.8041870770418],[0.719609140068044,51.8041954561865],[0.719246978500408,51.8042038342176],[0.718884816749895,51.8042122111354],[0.718871305407108,51.8039876835758],[0.718509145360208,51.8039960592986],[0.718495636086774,51.8037715316454]]],[[[0.72007944405797,51.805983295126],[0.719717267580741,51.8059916749222],[0.719355090920584,51.8060000536049],[0.718992914077527,51.8060084311741],[0.718630737051593,51.8060168076297],[0.718644248154081,51.8062413351612],[0.718657759439492,51.8064658626805],[0.718671270907829,51.8066903901876],[0.719033453593876,51.8066820134877],[0.719395636097037,51.8066736356743],[0.719757818417288,51.8066652567472],[0.720120000554603,51.8066568767066],[0.720106481539371,51.8064323495253],[0.720092962707161,51.8062078223317],[0.72007944405797,51.805983295126]]]]}}