{"type":"Feature","properties":{"code":"E63004963","name":"Chafford Hundred and West Thurrock"},"geometry":{"type":"MultiPolygon","coordinates":[[[[0.249054897441275,51.4863440894429],[0.249414668417812,51.4863371872035],[0.249774439248961,51.4863302838601],[0.249763384073305,51.4861056661651],[0.250123152958631,51.4860987617585],[0.250112096128058,51.4858741440947],[0.250471863067567,51.4858672386248],[0.250831629861622,51.485860332051],[0.250842690292962,51.4860849496334],[0.251202458741919,51.4860780419149],[0.251213521119198,51.4863026594471],[0.251573291223052,51.486295750584],[0.251562227045373,51.4860711330925],[0.251551163013277,51.4858465155916],[0.251910929370831,51.485839605706],[0.251899863683968,51.4856149882364],[0.252259628095626,51.4856080772876],[0.252619392361716,51.4856011652349],[0.252608323219807,51.4853765478373],[0.252968085539985,51.4853696347215],[0.252979156482215,51.4855942520783],[0.252990227570118,51.4858188694256],[0.253349993345343,51.4858119551243],[0.253709758974929,51.4858050397191],[0.254069524458851,51.48579812321],[0.254429289797086,51.4857912055969],[0.254440368232104,51.4860158227717],[0.254800135224983,51.4860089040139],[0.255159902072126,51.4860019841522],[0.255519668773509,51.4859950631866],[0.255879435329109,51.485988141117],[0.255890521111392,51.4862127581191],[0.255530752755422,51.4862196802295],[0.255541836883178,51.486444297263],[0.25590160703954,51.4864373751118],[0.256261377050093,51.4864304518567],[0.256621146914811,51.4864235274975],[0.256980916633671,51.4864166020345],[0.257340686206649,51.4864096754675],[0.257329593076955,51.4861850586382],[0.257689360703649,51.4861781310082],[0.257700455633724,51.4864027477966],[0.258060224914872,51.4863958190218],[0.258419994050068,51.4863888891429],[0.258408895519239,51.4861642724363],[0.258768662708087,51.4861573414945],[0.259128429750941,51.4861504094487],[0.259488196647776,51.486143476299],[0.25984796339857,51.4861365420454],[0.260207730003298,51.4861296066879],[0.260567496461938,51.4861226702264],[0.260927262774466,51.486115732661],[0.261287028940859,51.4861087939917],[0.261646794961094,51.4861018542185],[0.26165790969519,51.4863264705567],[0.261298141874602,51.4863334103709],[0.261309254954559,51.4865580267406],[0.261669024575523,51.4865510868855],[0.261680139602096,51.4867757032048],[0.26203991087727,51.4867687622047],[0.2620287940503,51.4865441459264],[0.262388563378868,51.4865372038633],[0.262748332561202,51.4865302606963],[0.262759452988958,51.4867548768927],[0.263119223825424,51.4867479325808],[0.263478994515607,51.4867409871649],[0.263838765059486,51.4867340406451],[0.264198535457035,51.4867270930213],[0.264558305708231,51.4867201442936],[0.264547176278555,51.4864955283024],[0.264906944582999,51.4864885785118],[0.265266713263232,51.4864816278718],[0.265626482122813,51.4864746762865],[0.265986250838239,51.4864677235983],[0.266346019409485,51.4864607698071],[0.26670578783653,51.486453814913],[0.266694647894162,51.4862291992194],[0.266334881230574,51.4862361540563],[0.266323743195915,51.4860115382952],[0.266312605305502,51.4857869225235],[0.26667236844224,51.4857799678007],[0.266661228932684,51.4855553520757],[0.266650089567392,51.4853307363402],[0.266638950346365,51.4851061205944],[0.266627811269599,51.484881504838],[0.266616672337091,51.4846568890713],[0.266976426512899,51.484649933531],[0.266965285961374,51.4844253178109],[0.266605533548839,51.4844322732941],[0.266594394904841,51.4842076575064],[0.266583256405093,51.4839830417083],[0.266572118025473,51.4837584258733],[0.266560979757964,51.4835338099915],[0.266549841636109,51.4833091940995],[0.266538703659903,51.4830845781974],[0.266898445413068,51.4830776230391],[0.266909585175126,51.4833022388887],[0.266920725082856,51.4835268547281],[0.266931865136263,51.4837514705574],[0.266943005291148,51.4839760863394],[0.266954145554124,51.4842007020804],[0.267313896059185,51.4841937455515],[0.267325038229683,51.4844183612249],[0.267336180544482,51.4846429768879],[0.26734732300358,51.4848675925405],[0.267358465606984,51.4850922081826],[0.267369608354693,51.4853168238143],[0.267729367531969,51.485309865897],[0.267740512187348,51.4855344814611],[0.268100272983703,51.4855275223838],[0.268111419546796,51.4857521378803],[0.26812256625425,51.4859767533665],[0.268133713106065,51.4862013688421],[0.268144860102245,51.4864259843074],[0.268156007242792,51.4866505997622],[0.267796237629307,51.4866575591251],[0.267807383150728,51.4868821746266],[0.268167154527708,51.4868752152065],[0.268178301956996,51.4870998306404],[0.268189449530658,51.4873244460639],[0.268200597248696,51.4875490614769],[0.268211745111115,51.4877736768795],[0.26857152339797,51.487766716128],[0.268931301540472,51.4877597542734],[0.268942453074482,51.4879843695513],[0.269302232836209,51.4879774065366],[0.269313386278272,51.4882020217468],[0.269673167659221,51.488195057572],[0.269684323009383,51.4884196727147],[0.270044106009548,51.4884127073797],[0.270055263267854,51.4886373224547],[0.270415047887229,51.4886303559595],[0.270426207053726,51.4888549709669],[0.270785993292307,51.4888480033115],[0.271145779386387,51.4888410345531],[0.271156942224822,51.4890656494357],[0.271516729938076,51.489058679517],[0.271527894684814,51.4892832943319],[0.271887684017239,51.489276323253],[0.271876517506782,51.4890517084954],[0.272236304930916,51.4890447363707],[0.272225136801387,51.4888201216598],[0.271865351140949,51.4888270937272],[0.271505565335941,51.4888340646917],[0.271494400878405,51.4886094498559],[0.271854184919738,51.4886024789487],[0.272213968816503,51.4885955069384],[0.272573752568678,51.4885885338252],[0.272584922317232,51.4888131484893],[0.272944707688462,51.4888061742158],[0.272933536176241,51.4885815596089],[0.273293319639167,51.4885745842897],[0.273282146507992,51.4883499697296],[0.273270973521524,51.4881253551591],[0.273259800679763,51.4879007405782],[0.272900022507695,51.4879077157257],[0.272888851574211,51.487683101077],[0.272877680785404,51.4874584864179],[0.272866510141273,51.4872338717483],[0.272855339641815,51.4870092570683],[0.273215110759724,51.4870022821498],[0.273203938641454,51.4867776675166],[0.273192766667874,51.4865530528729],[0.273181594838982,51.4863284382188],[0.273170423154777,51.4861038235543],[0.273530187074261,51.4860968477619],[0.273541360521878,51.4863214623692],[0.273552534114204,51.486546076966],[0.273563707851241,51.4867706915524],[0.273574881732992,51.4869953061284],[0.273586055759458,51.4872199206939],[0.273597229930644,51.4874445352489],[0.27360840424655,51.4876691497936],[0.27361957870718,51.4878937643277],[0.273979356589923,51.4878867869743],[0.274339134327969,51.4878798085178],[0.274350312460505,51.488104422927],[0.27399053295887,51.4881114014407],[0.274001709472569,51.4883360158967],[0.27401288613102,51.4885606303422],[0.274024062934229,51.4887852447773],[0.274035239882196,51.4890098592019],[0.274046416974924,51.4892344736161],[0.274406205294848,51.489227494816],[0.274765993470036,51.4892205149129],[0.275125781500467,51.4892135339067],[0.275136964029129,51.4894381481386],[0.275496753678499,51.4894311659721],[0.275856543183065,51.4894241827026],[0.275867729384041,51.4896487968093],[0.276227520507514,51.4896418123795],[0.276587311486134,51.4896348268465],[0.276598501359509,51.4898594408282],[0.276958293957007,51.4898524541349],[0.276947102319878,51.4896278402106],[0.277306893008723,51.4896208524716],[0.277318086409604,51.4898454663386],[0.27732927995546,51.4900700801951],[0.277689074026905,51.4900630912383],[0.278048867953401,51.4900561011785],[0.278408661734925,51.4900491100157],[0.278768455371453,51.4900421177498],[0.278779656117452,51.4902667313663],[0.279139451372749,51.49025973794],[0.279499246483002,51.4902527434106],[0.279510450901686,51.4904773569018],[0.279870247630675,51.4904703612119],[0.280230044214575,51.490463364419],[0.28058984065336,51.490456366523],[0.280601050508634,51.4906809798315],[0.280612260509099,51.4909055931296],[0.280972060330407,51.4908985940156],[0.280960848566101,51.490673980775],[0.281320646478406,51.4906669806154],[0.281680444245526,51.4906599793528],[0.282040241727502,51.4906529769339],[0.282400039050161,51.4906459734068],[0.282411257924875,51.4908705864325],[0.282771056894844,51.4908635817529],[0.283130855717619,51.4908565759696],[0.283490654393178,51.4908495690828],[0.283850452921496,51.4908425610924],[0.283861679121424,51.4910671739124],[0.284221479296969,51.4910601647694],[0.284581279325225,51.4910531545227],[0.284941079206169,51.4910461431725],[0.285300878939777,51.4910391307187],[0.285660678526025,51.4910321171612],[0.286020477964891,51.4910251025002],[0.286380277256352,51.4910180867355],[0.286740076400384,51.4910110698672],[0.287099875396964,51.4910040518953],[0.287459674246069,51.4909970328198],[0.287470918538344,51.4912216451399],[0.287482162978171,51.4914462574501],[0.28712236054006,51.4914532766237],[0.287133603332902,51.4916778889729],[0.287493407565551,51.4916708697503],[0.287853211650695,51.4916638494241],[0.287864458180189,51.4918884616653],[0.288224263912359,51.4918814401864],[0.288584069496973,51.4918744176039],[0.28894387493401,51.4918673939177],[0.288932623020855,51.4916427818236],[0.28857281937837,51.4916498054607],[0.288213015588308,51.4916568279942],[0.28820176741186,51.4914322157921],[0.288190519383011,51.49120760358],[0.288179271501759,51.4909829913581],[0.288168023768101,51.4907583791261],[0.288156776182036,51.4905337668842],[0.287796981216856,51.4905407880688],[0.287785735572797,51.490316175768],[0.287774490076303,51.4900915634572],[0.287763244727369,51.4898669511364],[0.287751999525994,51.4896423388058],[0.287740754472175,51.4894177264652],[0.287729509565911,51.4891931141146],[0.287718264807197,51.4889685017541],[0.287707020196032,51.4887438893837],[0.287347239438048,51.4887509090724],[0.287335996768665,51.488526296643],[0.287324754246802,51.4883016842037],[0.287313511872457,51.4880770717544],[0.287302269645627,51.4878524592952],[0.287291027566311,51.4876278468261],[0.287279785634505,51.487403234347],[0.286920015494127,51.487410252638],[0.286560245206316,51.4874172698255],[0.286549007010219,51.4871926572384],[0.286189238369101,51.4871996732735],[0.286178002114544,51.4869750606275],[0.286537768961581,51.4869680446414],[0.286897535661213,51.486961027552],[0.286886295965975,51.4867364149941],[0.286875056418216,51.4865118024262],[0.286863817017931,51.4862871898484],[0.286852577765117,51.4860625772607],[0.286841338659774,51.4858379646631],[0.286830099701899,51.4856133520555],[0.287189855490127,51.4856063341568],[0.287201096241941,51.4858309467153],[0.287560853676666,51.4858239276641],[0.287572096369929,51.4860485401637],[0.287583339210707,51.4862731526534],[0.287594582199004,51.4864977651331],[0.28760582533482,51.4867223776029],[0.287617068618161,51.4869469900627],[0.287257302213413,51.4869540093591],[0.287268543850206,51.487178621858],[0.287628312049027,51.4871716025126],[0.287639555627423,51.4873962149526],[0.28799932547286,51.4873891944547],[0.288010570992903,51.4876138068357],[0.288021816660504,51.4878384192067],[0.288381589946688,51.4878313975073],[0.288392837556009,51.4880560098193],[0.288033062475662,51.4880630315678],[0.288044308438383,51.488287643919],[0.288055554548668,51.4885122562603],[0.28806680080652,51.4887368685916],[0.288426581269488,51.4887298466959],[0.288437829469162,51.4889544589682],[0.288797611578837,51.4889474359199],[0.28880886172038,51.4891720481332],[0.288820112009543,51.4893966603366],[0.288831362446329,51.48962127253],[0.288842613030741,51.4898458847135],[0.288853863762781,51.490070496887],[0.288865114642451,51.4902951090506],[0.288876365669754,51.4905197212043],[0.288887616844693,51.490744333348],[0.28889886816727,51.4909689454818],[0.289258666278649,51.4909619208883],[0.289269919543347,51.4911865329631],[0.28928117295571,51.491411145028],[0.289292426515742,51.4916357570829],[0.289652229863006,51.4916287312385],[0.289663485365254,51.4918533432344],[0.290023290359416,51.4918463162373],[0.290383095205907,51.4918392881365],[0.290742899904703,51.4918322589322],[0.291102704455782,51.4918252286242],[0.29146250885912,51.4918181972126],[0.291473773481872,51.4920428089529],[0.291833579531999,51.4920357763885],[0.292193385434336,51.4920287427205],[0.292553191188861,51.4920217079488],[0.292912996795548,51.4920146720735],[0.292924268556911,51.4922392835761],[0.292935539861644,51.4924638949685],[0.292575730675192,51.4924709309446],[0.292215921342593,51.4924779658174],[0.292204653573138,51.4922533543163],[0.291844845862059,51.4922603880315],[0.291485038004883,51.4922674206433],[0.291496302239049,51.492492032253],[0.291507566619345,51.4927166438525],[0.291518831145772,51.4929412554417],[0.291530095818334,51.4931658670206],[0.291889910746229,51.4931588341915],[0.291901177332662,51.4933834457059],[0.291912444065259,51.4936080572099],[0.29192371094402,51.4938326687038],[0.292283531029078,51.4938256346083],[0.292294799821809,51.4940502460375],[0.292306068760731,51.4942748574564],[0.292665892235275,51.4942678221489],[0.293025715563653,51.494260785738],[0.293385538745842,51.4942537482236],[0.293745361781819,51.4942467096059],[0.294105184671562,51.4942396698848],[0.294465007415048,51.4942326290603],[0.294824830012253,51.4942255871324],[0.295184652463155,51.4942185441011],[0.295544474767732,51.4942114999664],[0.295533189918492,51.4939868890369],[0.295893010308919,51.4939798438532],[0.295881723838299,51.4937552329679],[0.295870437514097,51.4935306220722],[0.295859151336311,51.4933060111663],[0.295847865304937,51.4930814002502],[0.295836579419973,51.4928567893237],[0.296196390825384,51.4928497433088],[0.296185103319168,51.4926251324266],[0.29617381595938,51.492400521534],[0.296162528699133,51.4921759106231],[0.296151240599265,51.4919512995323],[0.296139952647513,51.4917266884315],[0.296499754980038,51.4917196415691],[0.296511044726311,51.4919442526207],[0.296522334620722,51.4921688636622],[0.296533623683117,51.4923934745247],[0.296893431260456,51.492386426412],[0.296904722155513,51.4926110371957],[0.297264531354063,51.4926039879253],[0.297624340406168,51.4925969375515],[0.297635634983004,51.492821548216],[0.297995445656289,51.4928144966845],[0.29835525618308,51.4928074440496],[0.298715065413868,51.492800390117],[0.298726365436568,51.4930250006051],[0.298366554441778,51.4930320545949],[0.298006742147317,51.4930391072842],[0.297646929706361,51.4930461588702],[0.297287117118931,51.4930532093529],[0.297298410221117,51.4932778200513],[0.296938595719537,51.4932848694851],[0.296578781071528,51.4932919178155],[0.296567491504744,51.4930673070082],[0.296207678478031,51.4930743541809],[0.296218966277111,51.4932989650426],[0.296230254222628,51.4935235758941],[0.296590070784771,51.4935165286125],[0.296949887200505,51.4935094802276],[0.297309703469806,51.4935024307394],[0.297669519592653,51.4934953801478],[0.297680814755591,51.4937199907712],[0.297692110065063,51.4939446013842],[0.297703405521068,51.4941692119871],[0.297714701123611,51.4943938225796],[0.297354877929659,51.4944008733891],[0.297366171910908,51.4946254840258],[0.297725996872694,51.4946184331619],[0.298085821687989,51.4946113811945],[0.298445646171847,51.4946043280892],[0.29880546976222,51.4945972737409],[0.299165293203819,51.4945902182889],[0.299525116496621,51.4945831617333],[0.299513811826188,51.4943585514167],[0.299153990336399,51.4943656079217],[0.299142687617824,51.4941409975444],[0.299502507304624,51.49413394109],[0.299491202931926,51.4939093307533],[0.299479898708093,51.4936847204066],[0.299468594633121,51.4934601100498],[0.299457290707008,51.493235499683],[0.299817103033278,51.4932284423276],[0.300176915210719,51.4932213838686],[0.300536727239307,51.493214324306],[0.30089653911902,51.4932072636398],[0.300907850256694,51.493431873804],[0.301267663790391,51.4934248119835],[0.301627477175164,51.4934177490595],[0.301987290410989,51.4934106850319],[0.302347103497843,51.4934036199007],[0.30235842199608,51.4936282298521],[0.302718236736835,51.4936211635666],[0.303078051328569,51.4936140961775],[0.303437865771258,51.4936070276848],[0.303797680064882,51.4935999580885],[0.303809005923829,51.493824567827],[0.303449189827294,51.4938316374741],[0.30308937358169,51.4938387060175],[0.303100695983906,51.4940633158474],[0.303112018535222,51.4942879256674],[0.303123341235637,51.4945125354772],[0.302763519432096,51.4945196030692],[0.302774840478605,51.4947442129198],[0.303134664085157,51.4947371452771],[0.303145987083781,51.4949617550669],[0.302786161674196,51.4949688227603],[0.302797483018873,51.4951934325908],[0.302808804512639,51.4954180424112],[0.302448975347877,51.4954251091024],[0.302460295187627,51.4956497189635],[0.302471615176447,51.4958743288146],[0.302111782256429,51.4958813945035],[0.301751949187411,51.4958884590887],[0.301763265718992,51.4961130690311],[0.301403430697838,51.4961201325633],[0.301043595527729,51.4961271949918],[0.300683760208686,51.4961342563166],[0.30067244908659,51.4959096462221],[0.300312615421807,51.4959167063926],[0.29995278160814,51.4959237654594],[0.29994147424129,51.4956991552536],[0.299930167023348,51.4954745450377],[0.299570336667095,51.4954816028995],[0.29955903140116,51.495256992623],[0.299199202699183,51.4952640493305],[0.2988393738484,51.4952711049343],[0.298479544848836,51.4952781594345],[0.298490844705447,51.4955027698628],[0.298502144710871,51.4957273802811],[0.298142311471083,51.4957344336794],[0.298153609867424,51.4959590441455],[0.298164908410346,51.4961836546013],[0.298176207099849,51.4964082650469],[0.298187505935938,51.4966328754822],[0.298547346220745,51.4966258218541],[0.298558646970268,51.4968504322223],[0.298918488592091,51.4968433773679],[0.299278330065114,51.4968363214097],[0.299638171389313,51.4968292643478],[0.299649477697475,51.4970538745541],[0.299660784154536,51.4972784847503],[0.300020628936442,51.4972714264834],[0.300380473569473,51.4972643671128],[0.300740318053606,51.4972573066384],[0.301100162388816,51.4972502450602],[0.301460006575082,51.4972431823783],[0.30181985061238,51.4972361185927],[0.302179694500686,51.4972290537034],[0.302539538239977,51.4972219877103],[0.302550859272357,51.4974465974911],[0.302562180453828,51.4976712072619],[0.302573501784391,51.4978958170226],[0.302933350784584,51.4978887497736],[0.302944674067603,51.4981133594736],[0.30258482326405,51.4981204267733],[0.302596144892806,51.498345036514],[0.302607466670663,51.4985696462446],[0.302967321081006,51.4985625788435],[0.303327175342273,51.4985555103386],[0.303315849957606,51.4983309007094],[0.303675702266371,51.4983238311514],[0.304035554426014,51.4983167604897],[0.304395406436513,51.4983096887241],[0.304406737231376,51.4985342982011],[0.304766590896101,51.498527225281],[0.305126444411631,51.4985201512572],[0.305486297777945,51.4985130761295],[0.305497634132269,51.4987376854442],[0.305857489152751,51.498730609162],[0.306217344023966,51.498723531776],[0.306228684134445,51.498948140979],[0.306588540659796,51.4989410624384],[0.306948397035833,51.498933982794],[0.30695974090255,51.4991585918853],[0.307319598932692,51.4991515110863],[0.307679456813468,51.4991444291835],[0.307690804436508,51.4993690381631],[0.308050663971361,51.4993619551057],[0.308410523356798,51.4993548709444],[0.308421874736245,51.4995794798123],[0.30843322626518,51.4998040886702],[0.308444577943604,51.500028697518],[0.308455929771519,51.5002533063558],[0.308815796221583,51.5002462208872],[0.309175662522176,51.5002391343149],[0.309164307087161,51.5000145255788],[0.309524171434713,51.5000074379535],[0.309884035632749,51.5000003492243],[0.309895394674852,51.5002249578586],[0.309535528673273,51.5002320466387],[0.309546886061397,51.5004566553138],[0.309906753866543,51.5004495664828],[0.310266621522145,51.500442476548],[0.310626489028179,51.5004353855094],[0.310637851087626,51.5006599938568],[0.310997720269786,51.5006529016673],[0.311357589304729,51.5006458083745],[0.311717458192432,51.5006387139782],[0.311706090648643,51.5004141057703],[0.312065957556173,51.5004070103163],[0.312425824314019,51.5003999137584],[0.312437195526028,51.5006245218756],[0.312448566036009,51.5008491298239],[0.312088695677077,51.5008562264851],[0.31210006456862,51.5010808344812],[0.312459936693352,51.5010737377617],[0.31247130749806,51.501298345689],[0.312831181241299,51.5012912478079],[0.312819808670771,51.5010666399388],[0.313179680500853,51.5010595410125],[0.313539552183578,51.5010524409828],[0.313550928285736,51.5012770487353],[0.313910801586891,51.5012699475439],[0.314270674740639,51.5012628452491],[0.314259295106858,51.5010382376131],[0.314247915620556,51.5008136299666],[0.313888045998404,51.5008207321448],[0.313876668425343,51.5005961244295],[0.313865289848093,51.5003715164884],[0.314225155857166,51.5003644144113],[0.314585021716416,51.5003573112303],[0.314573639078596,51.5001327032684],[0.31421377502288,51.5001398063984],[0.313853910817341,51.5001469084245],[0.313494046462005,51.5001540093468],[0.313134181956893,51.5001611091652],[0.313122806683015,51.4999365009893],[0.312762943831672,51.499943599653],[0.312751570511085,51.499718991416],[0.312740197340265,51.4994943831691],[0.312380337946172,51.499501480627],[0.31202047840238,51.4995085769811],[0.311660618708914,51.4995156722314],[0.311649251098227,51.4992910638215],[0.311289393058572,51.499298157917],[0.310929534869291,51.4993052509088],[0.310918171015175,51.499080642387],[0.311278027401014,51.4990735494462],[0.311266661893124,51.4988489409653],[0.311255296534898,51.4986243324743],[0.311243931326334,51.4983997239733],[0.310884080350676,51.4984068167614],[0.310524229225426,51.4984139084457],[0.310512867773218,51.4981892998328],[0.310153018301754,51.4981963903625],[0.310141658802487,51.4979717816886],[0.309781810984811,51.4979788710636],[0.309421963017621,51.4979859593348],[0.309062114900938,51.4979930465023],[0.309073468990201,51.4982176553288],[0.30871361892071,51.4982247414433],[0.308353768701769,51.4982318264542],[0.308342418219187,51.498007217526],[0.307982569654167,51.4980143013822],[0.307622720939747,51.4980213841346],[0.30761137421328,51.4977967750947],[0.307600027636233,51.4975721660447],[0.307588681208603,51.4973475569847],[0.307577334930387,51.4971229479147],[0.307565988801585,51.4968983388346],[0.30755464282219,51.4966737297445],[0.307543296992205,51.4964491206443],[0.30718346075121,51.4964562019371],[0.307172116873792,51.4962315927761],[0.306812282286631,51.4962386729145],[0.306800940361735,51.4960140636926],[0.306441107428412,51.4960211426764],[0.306081274345805,51.4960282205566],[0.306092612664405,51.4962528298801],[0.306103951132313,51.4964774391936],[0.306115289749534,51.496702048497],[0.306126628516068,51.4969266577904],[0.306486468811409,51.496919579707],[0.306497809530503,51.4971441889396],[0.306509150398938,51.4973687981621],[0.306520491416719,51.4975934073745],[0.306531832583848,51.4978180165769],[0.3061719850754,51.4978250948635],[0.306183324588545,51.4980497041067],[0.30582347512748,51.4980567813403],[0.305463625517156,51.4980638574702],[0.305103775757597,51.4980709324963],[0.305092441654471,51.4978463231007],[0.304732593549045,51.4978533969723],[0.304721261398498,51.497628787516],[0.304709929397184,51.4974041780496],[0.304698597545099,51.4971795685732],[0.30468726584224,51.4969549590867],[0.304675934288606,51.4967303495902],[0.304664602884193,51.4965057400837],[0.304653271628999,51.4962811305671],[0.304641940523022,51.4960565210405],[0.305001774202525,51.4960494475751],[0.304990441442625,51.4958248380892],[0.30497910883196,51.4956002285932],[0.30533893875603,51.4955931541257],[0.305350273169806,51.4958177635708],[0.305710104747776,51.4958106879488],[0.306069936176513,51.4958036112231],[0.306429767455993,51.4957965333937],[0.306418427632902,51.4955719241009],[0.306058598156525,51.4955790018795],[0.306047260285837,51.4953543925258],[0.305687432463288,51.49536146915],[0.305327604491509,51.4953685446705],[0.305316270376243,51.4951439352052],[0.305676096544958,51.4951368597355],[0.305664760775903,51.494912250311],[0.305304936410225,51.4949193257299],[0.304945111895347,51.4949264000452],[0.304933779881595,51.4947017905091],[0.304573957020562,51.49470886367],[0.304562626959028,51.4944842540731],[0.304551297046691,51.4942596444661],[0.304191477642483,51.4942667164219],[0.304180149682292,51.4940421067542],[0.30416882187127,51.4938174970764],[0.304157494209413,51.4935928873886],[0.30451730820483,51.4935858155851],[0.304877122051109,51.493578742678],[0.304888453318778,51.4938033522643],[0.305248268818799,51.4937962782029],[0.305608084169632,51.4937892030378],[0.305967899371256,51.4937821267692],[0.306327714423647,51.493775049397],[0.306339053052212,51.4939996587701],[0.306698869758259,51.4939925802435],[0.307058686315024,51.4939855006132],[0.307418502722482,51.4939784198794],[0.307429846909161,51.4942030290901],[0.30778966497022,51.4941959472018],[0.308149482881924,51.4941888642099],[0.308509300644249,51.4941817801144],[0.308869118257171,51.4941746949153],[0.308880469805027,51.4943993039126],[0.309240289071468,51.494392217559],[0.309600108188457,51.4943851301018],[0.309959927155971,51.494378041541],[0.310319745973987,51.4943709518766],[0.310331104883167,51.4945955606603],[0.310690925354617,51.4945884698414],[0.31105074567652,51.4945813779189],[0.311410565848853,51.4945742848927],[0.311770385871591,51.4945671907629],[0.311781752142242,51.4947917993329],[0.312141573818331,51.4947847040486],[0.312501395344777,51.4947776076606],[0.312861216721556,51.494770510169],[0.313221037948645,51.4947634115738],[0.313232411580914,51.49498801993],[0.313592234461271,51.4949809201802],[0.313952057191889,51.4949738193268],[0.314311879772745,51.4949667173697],[0.314671702203813,51.494959614309],[0.315031524485073,51.4949525101447],[0.315391342926293,51.4949454040599],[0.315751161134855,51.4949382968528],[0.315762547561378,51.4951629048578],[0.316122367489533,51.4951557965157],[0.316482187263282,51.4951486870687],[0.316842006882597,51.4951415765167],[0.316830614834158,51.4949169686018],[0.317190432425052,51.4949098569749],[0.317179038657164,51.4946852490814],[0.317538854219638,51.4946781363797],[0.31752745873235,51.4944535285075],[0.317887272266411,51.4944464147309],[0.317875875059768,51.4942218068801],[0.317864478007682,51.4939971990206],[0.317504668221377,51.4940043127371],[0.317493273197689,51.4937797048388],[0.317481878328528,51.4935550969317],[0.317470483613895,51.4933304890159],[0.317459089053783,51.4931058810914],[0.317447694648192,51.4928812731582],[0.317436300397119,51.4926566652163],[0.31742490630056,51.4924320572656],[0.317065109476175,51.4924391696667],[0.317053717407807,51.4922145616773],[0.317042322119144,51.4919899527479],[0.317030926490393,51.4917653436739],[0.317019531003871,51.4915407345884],[0.317008135659576,51.4913161254914],[0.316996740457506,51.4910915163828],[0.316985345397658,51.4908669072626],[0.31697395048003,51.490642298131],[0.31696255570462,51.4904176889878],[0.316951161071424,51.4901930798331],[0.316939766580441,51.4899684706668],[0.316928372231669,51.489743861489],[0.316916978025103,51.4895192522997],[0.316905583960744,51.4892946430988],[0.317265356926305,51.4892875316563],[0.317253961323916,51.4890629225183],[0.317242565863751,51.4888383133687],[0.316882796258631,51.4888454246625],[0.316894190038587,51.4890700338864],[0.316534418611078,51.4890771441526],[0.316523026511334,51.4888525348544],[0.316163256621881,51.4888596439444],[0.315803486590293,51.4888667519325],[0.315443716416593,51.4888738588186],[0.315083946100801,51.4888809646029],[0.314724174187933,51.4888880689341],[0.314364401914127,51.4888951721106],[0.314004629485454,51.4889022741823],[0.31364485690194,51.4889093751491],[0.313633479125463,51.4886847654162],[0.313622101503823,51.4884601556746],[0.313981870321583,51.4884530547623],[0.313970490971933,51.4882284450395],[0.313610724037015,51.4882355459246],[0.313599346725036,51.488010936166],[0.313239581518129,51.488018035919],[0.313228206243773,51.4877934261246],[0.312868442764882,51.4878005247456],[0.312857069528103,51.4875759149155],[0.312497307777235,51.4875830124044],[0.31213754587164,51.4875901087884],[0.312126176555144,51.4873654988954],[0.311766416377605,51.4873725941474],[0.311755049098568,51.4871479842186],[0.311395290649091,51.4871550783387],[0.311035532044966,51.4871621713538],[0.310675773286217,51.4871692632642],[0.310664411810025,51.4869446532454],[0.310304654779398,51.4869517440238],[0.309944897594199,51.4869588336973],[0.309585140254453,51.486965922266],[0.309225382760183,51.4869730097299],[0.309214028969421,51.486748399594],[0.308854273203361,51.486755485926],[0.30849451728283,51.4867625711531],[0.308505867308171,51.4869871813432],[0.308146109350479,51.4869942654926],[0.308134761207852,51.4867696552754],[0.307775004978451,51.4867767382929],[0.307415248594652,51.4867838202056],[0.307403904371864,51.4865592099258],[0.30704414971639,51.4865662907065],[0.30668439490657,51.4865733703825],[0.306324639942429,51.4865804489536],[0.306335978517114,51.4868050593146],[0.306695735363959,51.4867979807164],[0.306707075975704,51.4870225910418],[0.30706683455095,51.4870155113118],[0.307078177199802,51.4872401216016],[0.306718416741808,51.4872472013587],[0.306729757662274,51.487471811667],[0.307089520003041,51.4874647318828],[0.30744928218945,51.4874576509938],[0.30746062702987,51.4876822612394],[0.307471972024705,51.4879068714766],[0.307483317173957,51.4881314817051],[0.307123549339094,51.4881385626753],[0.306763781349867,51.4881456425407],[0.306404013206298,51.4881527213011],[0.306044244908414,51.4881597989567],[0.306055582680608,51.4883844092849],[0.306066920607128,51.4886090196046],[0.306078258687978,51.4888336299157],[0.306089596923159,51.4890582402183],[0.305729820939335,51.4890653168771],[0.30574115744588,51.4892899271982],[0.305752494106738,51.4895145375107],[0.305763830921913,51.4897391478147],[0.305404049134815,51.4897462234496],[0.305415384221262,51.4899708337721],[0.305426719462006,51.490195444086],[0.30543805485705,51.4904200543914],[0.305078267266472,51.4904271290024],[0.305089600932698,51.4906517393263],[0.305100934753206,51.4908763496416],[0.304741143242111,51.4908834232017],[0.304729811304751,51.4906588128594],[0.304718479521649,51.4904342025085],[0.304707147892801,51.4902095921491],[0.305066933754524,51.49020251867],[0.305055600396854,51.4899779083291],[0.305044267193456,51.4897532979796],[0.305032934144329,51.4895286876216],[0.305021601249472,51.4893040772551],[0.305010268508878,51.48907946688],[0.305370044801234,51.489072392431],[0.305358710331951,51.4888477820744],[0.305347376016952,51.4886231717092],[0.305336041856234,51.4883985613355],[0.305695812345556,51.4883914858626],[0.305684476456239,51.4881668755074],[0.305673140721222,51.4879422651436],[0.305661805140502,51.4877176547713],[0.306021569826997,51.4877105782746],[0.306010232517769,51.4874859679208],[0.305998895362856,51.4872613575584],[0.305987558362257,51.4870367471875],[0.305976221515969,51.486812136808],[0.30561646436055,51.4868192131965],[0.305256707050879,51.4868262884802],[0.30524537412432,51.4866016780382],[0.304885618543137,51.4866087521901],[0.304525862807755,51.4866158252371],[0.304514533800836,51.4863912147325],[0.304154779793975,51.4863982866478],[0.303795025632967,51.4864053574582],[0.303783700545601,51.4861807468911],[0.303423948113148,51.4861878165697],[0.303064195526598,51.4861948851436],[0.303075516848608,51.4864194957646],[0.303086838324728,51.4866441063771],[0.303098159954963,51.4868687169811],[0.302738401566224,51.486875784531],[0.302749721467821,51.4871003951534],[0.303109481739315,51.4870933275765],[0.303120803677785,51.4873179381634],[0.303480565677972,51.4873108694548],[0.303491889653364,51.4875354800062],[0.303851653382239,51.4875284101657],[0.3038629793946,51.4877530206815],[0.303874305561137,51.4879776311889],[0.303885631881852,51.4882022416876],[0.303525862504444,51.4882093116091],[0.303537187096447,51.4884339221263],[0.303548511842609,51.488658532635],[0.303188738545268,51.4886656015054],[0.303200061562649,51.4888902120325],[0.303211384734171,51.4891148225511],[0.303222708059835,51.4893394330611],[0.302862928959486,51.4893465009075],[0.302503149705052,51.489353567649],[0.302514469418825,51.4895781782044],[0.302154688127308,51.4895852438679],[0.302166006112136,51.4898098544417],[0.302177324251043,51.490034465007],[0.302188642544031,51.4902590755637],[0.302199960991105,51.4904836861118],[0.30184017201321,51.4904907507781],[0.301851488731226,51.4907153613447],[0.301491697716159,51.4907224249329],[0.301503012705069,51.4909470355179],[0.301143219652827,51.490954098028],[0.301154532912583,51.4911787086314],[0.30079473782316,51.4911857700635],[0.300434942579778,51.4911928303906],[0.300446252227105,51.4914174410391],[0.30045756202841,51.4916420516792],[0.300817361038271,51.4916349912983],[0.300828672876832,51.4918596019029],[0.300468871983696,51.4918666623107],[0.300480182092965,51.4920912729337],[0.300120379162585,51.4920983322633],[0.300131686572127,51.4923229427062],[0.299771881606019,51.4923300009626],[0.299412076491094,51.4923370581155],[0.299052271227373,51.4923441141649],[0.299063572755272,51.4925687246224],[0.298703765539972,51.4925757796188],[0.29834395807095,51.4925828334941],[0.298332660105385,51.4923582229283],[0.297972853113862,51.4923652754542],[0.297961556825905,51.4921406647824],[0.297950259753343,51.491916053938],[0.297938962829012,51.4916914430836],[0.29792766605291,51.4914668322192],[0.297916369425032,51.4912422213449],[0.297905072945378,51.4910176104607],[0.297545276588743,51.4910246615896],[0.297533982051727,51.4908000506462],[0.297522687662907,51.4905754396927],[0.297511393422277,51.4903508287293],[0.297500099329838,51.490126217756],[0.297140310002596,51.4901332675842],[0.297129017852671,51.4899086565516],[0.297117725850909,51.4896840455091],[0.297106433997306,51.4894594344566],[0.297095142291859,51.4892348233942],[0.297083850734566,51.4890102123219],[0.29672407023063,51.4890172608002],[0.296712780615704,51.4887926496686],[0.297072559325424,51.4887856012396],[0.297061268064432,51.4885609901473],[0.297049976951585,51.4883363790451],[0.297038685986881,51.4881117679329],[0.29702739517032,51.4878871568108],[0.297016104501897,51.4876625456788],[0.29700481398161,51.4874379345368],[0.297364581778435,51.4874308852999],[0.297353289612231,51.4872062741972],[0.297341997594179,51.4869816630846],[0.297701761654819,51.4869746128429],[0.297690467990917,51.4867500017696],[0.298050230109426,51.4867429504737],[0.29803893479972,51.4865183394397],[0.298398694736853,51.486511287037],[0.298387397889919,51.4862866760662],[0.298027639638206,51.4862937283959],[0.297667881107627,51.4863007795931],[0.297656587888234,51.48607616849],[0.298016344624882,51.486069117342],[0.298376101196785,51.4860620650869],[0.298735853901655,51.4860550109024],[0.298724555479648,51.4858303999414],[0.298713257211458,51.4856057889719],[0.299073005997249,51.4855987337363],[0.299061706000257,51.4853741227851],[0.2990504061571,51.4851495118253],[0.299039106467775,51.4849249008571],[0.299398849452006,51.4849178445973],[0.299758592282427,51.4849107872327],[0.300118334959015,51.4849037287634],[0.300478077481743,51.4848966691894],[0.300837819850588,51.4848896085106],[0.301197562065525,51.484882546727],[0.301186251234822,51.4846579359115],[0.301174940558089,51.4844333250875],[0.301163630035325,51.4842087142549],[0.301152319666525,51.4839841034137],[0.300792584981556,51.4839911650897],[0.300781275113071,51.4837665538232],[0.300769962969083,51.4835419419317],[0.300410231937936,51.4835490024599],[0.300398921766181,51.4833243905166],[0.300387611744537,51.4830997785638],[0.300376301873,51.4828751666015],[0.300016576157995,51.4828822258992],[0.300005268258596,51.4826576138851],[0.299993960509275,51.4824330018616],[0.299982652910031,51.4822083898285],[0.299622932510997,51.4822154478958],[0.299611626883791,51.4819908358109],[0.299251908156695,51.4819978927323],[0.29924060450148,51.4817732805957],[0.299229300996287,51.4815486684497],[0.299217997641114,51.4813240562941],[0.299206694435958,51.481099444129],[0.299195391380817,51.4808748319544],[0.299184088475688,51.4806502197703],[0.299172785720568,51.4804256075767],[0.299161483115456,51.4802009953737],[0.299150180660348,51.479976383161],[0.299138878355241,51.4797517709389],[0.299127576200134,51.4795271587073],[0.299116274195024,51.4793025464662],[0.299104972339907,51.4790779342155],[0.299093670634784,51.4788533219554],[0.299082369079648,51.4786287096858],[0.299071067674498,51.4784040974066],[0.299430757253313,51.4783970411608],[0.299442060480054,51.4786216533978],[0.299453363856806,51.4788462656252],[0.299813056928839,51.4788392081914],[0.299824362277239,51.4790638203671],[0.299835667775678,51.4792884325333],[0.30019536434099,51.4792813739115],[0.30020667181115,51.4795059860259],[0.300217979431377,51.4797305981308],[0.299858279222681,51.4797376568371],[0.299869585171249,51.4799622689748],[0.299880891269867,51.4801868811029],[0.300240595122041,51.4801798223121],[0.300251903192484,51.4804044343885],[0.300263211413003,51.4806290464554],[0.300274519783602,51.4808536585128],[0.300285828304284,51.4810782705607],[0.30029713697505,51.4813028825991],[0.300656849786263,51.4812958224934],[0.300668160429006,51.48152043448],[0.30067947122186,51.4817450464571],[0.30069078216483,51.4819696584247],[0.301050500291682,51.4819625970886],[0.301061813206727,51.4821872090045],[0.301421533005412,51.4821801465224],[0.30178125265395,51.4821730829367],[0.302140972152319,51.4821660182473],[0.30215229068343,51.4823906300267],[0.302512011853574,51.4823835641913],[0.302523332356893,51.482608175919],[0.302883055198807,51.4826011089376],[0.302894377674382,51.4828257206134],[0.302905700300226,51.4830503322798],[0.302917023076342,51.4832749439366],[0.30327675123411,51.4832678757245],[0.303636479241602,51.4832608064088],[0.303996207098792,51.4832537359893],[0.303984878856513,51.4830291244594],[0.303973550764577,51.4828045129201],[0.303962222822978,51.4825799013712],[0.303950895031716,51.4823552898129],[0.303939567390788,51.482130678245],[0.30392823990019,51.4819060666676],[0.303916912559921,51.4816814550807],[0.303905585369979,51.4814568434843],[0.304265298501104,51.4814497722998],[0.304253969639622,51.4812251607362],[0.304242640928484,51.4810005491631],[0.304231312367688,51.4807759375805],[0.30421998395723,51.4805513259884],[0.304208655697108,51.4803267143868],[0.304197327587321,51.4801021027757],[0.304557029637311,51.4800950307416],[0.304545699856134,51.4798704191633],[0.30453437022531,51.4796458075755],[0.304894068481553,51.4796387345226],[0.304905399934071,51.4798633460681],[0.305265099861651,51.4798562718692],[0.30562479963885,51.4798491965668],[0.305984499265645,51.4798421201608],[0.305973162348062,51.4796175087425],[0.305961825580921,51.4793928973146],[0.30595048896422,51.4791682858773],[0.305939152497957,51.4789436744304],[0.305927816182127,51.478719062974],[0.305916480016732,51.4784944515082],[0.305905144001766,51.4782698400327],[0.305893808137227,51.4780452285478],[0.305534123083267,51.4780523046148],[0.305522789190652,51.477827693078],[0.30516310580781,51.477834767999],[0.304803422274612,51.4778418418166],[0.30444373859108,51.4778489145306],[0.304432410313307,51.4776243028572],[0.304421082185861,51.4773996911743],[0.304409754208739,51.4771750794819],[0.304398426381938,51.4769504677799],[0.304387098705455,51.4767258560685],[0.304027423978811,51.4767329274673],[0.303667749101895,51.4767399977626],[0.303308074074728,51.4767470669545],[0.303296752012677,51.4765224551066],[0.303656425218469,51.476515385957],[0.303645101485311,51.4762907741418],[0.303633777902416,51.4760661623172],[0.303993447315287,51.4760590921488],[0.304353116577891,51.476052020877],[0.304341789502656,51.4758274091275],[0.304330462577728,51.4756027973685],[0.303970796957699,51.4756098685556],[0.303959472792181,51.4753852569113],[0.30359980858111,51.4753923268905],[0.303240144244098,51.4753993957721],[0.302880479781162,51.4754064635562],[0.302520815192319,51.4754135302427],[0.30216115047759,51.4754205958317],[0.301801485636988,51.4754276603232],[0.301790170733598,51.47520304796],[0.301430507203173,51.4752101112183],[0.301070843546916,51.4752171733791],[0.300711179764845,51.4752242344424],[0.300351515856978,51.4752312944082],[0.299991851823333,51.4752383532764],[0.299632187663928,51.475245411047],[0.29927252337878,51.4752524677201],[0.298912858967908,51.4752595232957],[0.298924162383017,51.4754841367433],[0.29893546251071,51.4757087493154],[0.298946762116224,51.4759333617086],[0.298587092423455,51.4759404163865],[0.298575794639258,51.4757158039511],[0.298564496410394,51.4754911913568],[0.298204828926341,51.4754982445805],[0.29784515974852,51.4755052963752],[0.297485490416534,51.4755123470656],[0.297125820930407,51.4755193966515],[0.297137111254495,51.4757440092542],[0.296777439605278,51.4757510577302],[0.296417767803518,51.4757581051021],[0.296406481242033,51.4755334924459],[0.296395190536455,51.4753088786911],[0.296383899731144,51.4750842648632],[0.296372609079898,51.4748596510269],[0.296732273206018,51.4748526037311],[0.297091937178057,51.4748455553309],[0.297103231608061,51.475070169113],[0.297462897315365,51.4750631195814],[0.297822562868536,51.4750560689454],[0.297811264659786,51.4748314552176],[0.297451600995988,51.4748385058264],[0.297440304830744,51.4746138920629],[0.297429008819633,51.4743892782909],[0.29778866870476,51.4743822277364],[0.297777370958477,51.4741576139829],[0.297766073366345,51.4739330002209],[0.297754775928361,51.4737083864504],[0.297743478644522,51.4734837726712],[0.297732181514824,51.4732591588836],[0.297720884539267,51.4730345450873],[0.297709587717847,51.4728099312825],[0.297698291050561,51.4725853174691],[0.297686994537407,51.4723607036472],[0.297675698178382,51.4721360898167],[0.297664401973483,51.4719114759777],[0.297304762869334,51.4719185262334],[0.296945123611088,51.4719255753848],[0.296933831338387,51.4717009614829],[0.296574193815109,51.471708009503],[0.296562903585499,51.4714833955654],[0.296203267797195,51.4714904424541],[0.296191979610628,51.4712658284808],[0.295832345557304,51.4712728742381],[0.295472711349989,51.4712799188913],[0.295461427095393,51.4710553048551],[0.295101794623093,51.471062348377],[0.295090512411423,51.4708377343052],[0.29473088167414,51.4708447766957],[0.294371250782947,51.470851817982],[0.294359972503091,51.4706272038475],[0.294000343346952,51.4706342440025],[0.293640714036951,51.4706412830534],[0.293629439688821,51.4704166688561],[0.293269812113906,51.4704237067757],[0.293258539808515,51.4701990925428],[0.292898913968694,51.4702061293312],[0.292539287975091,51.4702131650154],[0.292528019601269,51.4699885507199],[0.292168395342791,51.4699955852728],[0.291808770930584,51.4700026187217],[0.291449146364673,51.4700096510663],[0.291460409071844,51.4702342654429],[0.291471671932708,51.470458879811],[0.291482934947271,51.4706834941705],[0.291494198115534,51.4709081085215],[0.291505461437499,51.4711327228639],[0.291516724913169,51.4713573371977],[0.291527988542548,51.471581951523],[0.291168350600229,51.4715889829525],[0.290808712504236,51.4715960132779],[0.290797452652926,51.4713713988986],[0.290786192955277,51.4711467845107],[0.290774933411285,51.4709221701143],[0.290415300828687,51.4709291992544],[0.290404043327317,51.4707045848225],[0.290763674020947,51.4706975557093],[0.290752414784262,51.4704729412958],[0.290741155701226,51.4702483268737],[0.290729896771838,51.4700237124431],[0.290370271744962,51.4700307414752],[0.290010646564481,51.4700377694032],[0.289651021230418,51.470044796227],[0.289639768121293,51.4698201817069],[0.289628515165737,51.4695955671782],[0.289617262363749,51.4693709526409],[0.289976882031255,51.469363925898],[0.289965627494027,51.4691393113792],[0.289954373110384,51.4689146968518],[0.289943118880324,51.4686900823159],[0.289931864803845,51.4684654677714],[0.28957225269141,51.4684724944063],[0.289561000657215,51.4682478798263],[0.289201390279954,51.4682549053302],[0.289190140287997,51.4680302907147],[0.288830531645914,51.4680373150875],[0.288819283696147,51.4678127004365],[0.289178890449566,51.4678056760906],[0.289167640764656,51.4675810614579],[0.28952724547593,51.4675740360349],[0.289515994055925,51.4673494214207],[0.28987559672506,51.4673423949205],[0.290235199240646,51.4673353673164],[0.290223943776942,51.4671107526717],[0.290583544281811,51.4671037239987],[0.290594801602658,51.4673283386081],[0.290954403811071,51.4673213087958],[0.29094314464465,51.4670966942243],[0.2909318851217,51.4668720795601],[0.290572286462842,51.4668791092672],[0.29056102878591,51.4666544945246],[0.290201431688985,51.4666615230629],[0.290212687661956,51.4668861378728],[0.289853088719063,51.4668931653769],[0.289864343130063,51.4671177802431],[0.289504742341199,51.467124806713],[0.289145141410368,51.4671318320813],[0.289156391233265,51.4673564468167],[0.288796788257106,51.4673634711087],[0.288808035899879,51.4675880857769],[0.288448430881623,51.4675951089917],[0.288088825709915,51.4676021311025],[0.288077581844385,51.4673775163805],[0.287717978407873,51.4673845373603],[0.287706736267835,51.4671599225394],[0.287347134627508,51.4671669424001],[0.287335892144476,51.466942327063],[0.286976292066319,51.4669493457549],[0.286965051429108,51.4667247303395],[0.286605452913129,51.4667317478626],[0.286594214121694,51.4665071323689],[0.286582975472046,51.466282516864],[0.286571736964185,51.4660579013482],[0.28621214341825,51.4660649175681],[0.286200906756071,51.4658403019739],[0.286189670235652,51.4656156863686],[0.285830079955742,51.4656227013527],[0.285818845280935,51.4653980856691],[0.285807610747861,51.4651734699745],[0.285448023733918,51.4651804837226],[0.285088436578273,51.4651874963693],[0.285099667703671,51.4654121121983],[0.284740078702503,51.4654191238107],[0.284751308265724,51.4656437396959],[0.284391717419028,51.465650750274],[0.284402945420027,51.4658753662152],[0.284762537970613,51.4658683555699],[0.284773767817171,51.4660929714329],[0.284414173562676,51.4660999821454],[0.284054579166534,51.4661069917563],[0.284065805746896,51.4663316077426],[0.283706209505192,51.4663386163192],[0.283346613121883,51.4663456237943],[0.283357836435953,51.4665702399038],[0.282998238207095,51.4665772463445],[0.283009459958768,51.4668018625101],[0.283020681852009,51.4670264786646],[0.282661080073587,51.4670334841381],[0.282672298817955,51.4672581000164],[0.282312694971646,51.4672651044083],[0.281953090972306,51.4672721076962],[0.281593484992004,51.467279109433],[0.28123387506071,51.4672861091371],[0.280874264979125,51.4672931077375],[0.280885471192144,51.4675177230619],[0.28052585911433,51.4675247205915],[0.280537063631664,51.4677493359399],[0.280896677555464,51.4677423383775],[0.280907884069087,51.4679669536841],[0.281267499688621,51.467959954985],[0.281278708198579,51.4681845702498],[0.28128991685887,51.4684091855056],[0.281649536020182,51.4684021856371],[0.281660746676881,51.4686268008511],[0.282020362900925,51.468619798691],[0.282031575424687,51.4688444138268],[0.282391192645036,51.4688374103515],[0.282402407210664,51.469062025452],[0.28241362192937,51.469286640544],[0.282773242774314,51.4692796359109],[0.282784459534958,51.4695042509675],[0.283144082115679,51.4694972452035],[0.283155300918311,51.4697218602248],[0.283514925234801,51.4697148533298],[0.283526146079467,51.4699394683157],[0.283537367077295,51.4701640832931],[0.283896995018471,51.4701570752403],[0.283908218058409,51.4703816901823],[0.284267847735364,51.4703746809984],[0.284279072817459,51.470599295905],[0.284290298052772,51.4708239108031],[0.284649931354489,51.4708169004614],[0.284661158632033,51.471041515324],[0.28502079366954,51.4710345038513],[0.285032022989364,51.4712591186785],[0.285391659762653,51.4712521060747],[0.285402891124805,51.4714767208665],[0.285414122640258,51.4717013356498],[0.285773763038401,51.471694321888],[0.285784996596256,51.4719189366359],[0.28614463873019,51.471911921743],[0.286155874330496,51.4721365364554],[0.286515518200217,51.4721295204313],[0.286875161916581,51.472122503303],[0.286886401448524,51.4723471179531],[0.286897641133875,51.4725717325947],[0.286537993639208,51.4725787497768],[0.286526755843022,51.4723541351083],[0.286167110084158,51.4723611511593],[0.285807464171956,51.472368166106],[0.285447818106442,51.4723751799484],[0.285088171887642,51.4723821926866],[0.284728525515577,51.4723892043204],[0.284368878990274,51.4723962148501],[0.284380105451423,51.4726208296797],[0.284020456883724,51.4726278391319],[0.283660808162834,51.4726348474798],[0.283649585480052,51.4724102325965],[0.283289938495182,51.4724172398133],[0.282930291357171,51.4724242459259],[0.282570644066046,51.4724312509341],[0.282210996621829,51.4724382548381],[0.281851349024547,51.4724452576379],[0.281491698453782,51.4724522585835],[0.281132045909172,51.4724592579404],[0.281120836388945,51.4722346428125],[0.281480487087078,51.4722276434884],[0.281840135940801,51.472220642612],[0.282199781648909,51.472213639839],[0.282559427203954,51.4722066359618],[0.28291907260591,51.4721996309804],[0.282907854007791,51.4719750160263],[0.282896635562808,51.4717504010637],[0.28288541727096,51.4715257860926],[0.282874199132244,51.4713011711129],[0.282862981146658,51.4710765561247],[0.282503345190185,51.4710835609721],[0.282492129246751,51.4708589459485],[0.282132495026232,51.470865949665],[0.282121281124902,51.4706413346061],[0.281761648640342,51.4706483371915],[0.281402011730593,51.4706553375728],[0.281413222044704,51.4708799527304],[0.281053582424943,51.4708869518571],[0.280693942654873,51.4708939498799],[0.280334302734517,51.4709009467989],[0.279974662663902,51.4709079426141],[0.279615022443049,51.4709149373255],[0.279255382071983,51.470921930933],[0.278895741550728,51.4709289234367],[0.278536100879307,51.4709359148366],[0.278176460057746,51.4709429051326],[0.278187653905099,51.471167520577],[0.27782801108706,51.4711745098021],[0.277816819086067,51.4709498943248],[0.277457177964296,51.4709568824132],[0.277097536692456,51.4709638693977],[0.27673789527057,51.4709708552784],[0.276378253698663,51.4709778400552],[0.276018611976759,51.4709848237283],[0.275658970104882,51.4709918062974],[0.275299328083055,51.4709987877628],[0.274939685911303,51.4710057681243],[0.27458004358965,51.4710127473819],[0.274220401118121,51.4710197255357],[0.273860758496738,51.4710267025857],[0.273501115725525,51.4710336785318],[0.273141472804508,51.4710406533741],[0.272781829733709,51.4710476271126],[0.272422186513153,51.4710545997471],[0.272062543142863,51.4710615712779],[0.272051380833726,51.4708369552679],[0.271691739160107,51.4708439256621],[0.271332097336806,51.4708508949525],[0.27134325595318,51.4710755110278],[0.270983612133835,51.4710824792471],[0.270623968164853,51.4710894463624],[0.27063512323811,51.4713140624941],[0.270275477273099,51.4713210285383],[0.270286630649577,51.4715456446937],[0.269926982688534,51.4715526096666],[0.269938134368185,51.4717772258458],[0.269578484411107,51.4717841897474],[0.269589634393883,51.4720088059503],[0.269229982440763,51.4720157687807],[0.269241130726618,51.4722403850072],[0.269252279162048,51.4724650012248],[0.268892623366339,51.4724719630165],[0.268532967421122,51.4724789237042],[0.268544112312994,51.4727035399781],[0.26818445437172,51.4727104995946],[0.26819559756653,51.4729351158921],[0.267835937629196,51.4729420744372],[0.267847079126895,51.4731666907584],[0.267487417193497,51.4731736482322],[0.26749855699404,51.473398264577],[0.26750969694405,51.4736228809129],[0.267520837043534,51.4738474972399],[0.267161169420696,51.4738544537074],[0.267172307822932,51.474079070058],[0.267531977292491,51.474072113558],[0.267891646612618,51.474065155954],[0.267902788857792,51.4742897722306],[0.268262459875204,51.47428281349],[0.268273604116644,51.4745074297251],[0.268633276831333,51.474500469848],[0.268992949396514,51.4744935088669],[0.269352621812164,51.4744865467818],[0.269363771743474,51.4747111629102],[0.269723445856343,51.4747041996885],[0.269712294078257,51.4744795835927],[0.27007196619477,51.4744726192997],[0.27043163816168,51.4744656539026],[0.270791309978962,51.4744586874016],[0.271150981646591,51.4744517197966],[0.271139822631146,51.4742271038224],[0.271499492302361,51.4742201351461],[0.271510653164543,51.4744447510876],[0.271521814176468,51.4746693670202],[0.271162140811752,51.4746763357618],[0.271173300126634,51.4749009517182],[0.27081362476545,51.4749079193885],[0.27045394925461,51.4749148859548],[0.270094273594137,51.4749218514171],[0.269734597784054,51.4749288157754],[0.269374921824386,51.4749357790297],[0.269015245715158,51.47494274118],[0.268655569456392,51.4749497022262],[0.268295893048112,51.4749566621685],[0.267936216490343,51.4749636210068],[0.267947359333544,51.4751882372477],[0.267958502326258,51.4754128534797],[0.267598821925329,51.4754198112791],[0.267587680779474,51.4751951950146],[0.267576539783109,51.4749705787411],[0.267216862926434,51.4749775353714],[0.267228002075962,51.4752021516774],[0.266868323223029,51.4752091072362],[0.2665086442207,51.475216061691],[0.266497508764857,51.4749914453199],[0.26648637345843,51.4747668289399],[0.266846048767095,51.4747598745501],[0.266834911763285,51.4745352581937],[0.266475238301416,51.4745422125509],[0.266464103293813,51.474317596153],[0.266104431529354,51.4743245493737],[0.266093298517912,51.4740999329343],[0.265733628450868,51.4741068850185],[0.265744759615558,51.4743315014903],[0.265755890929608,51.4745561179533],[0.265767022393022,51.4747807344073],[0.265778154005802,51.4750053508524],[0.266137831460002,51.4749983986382],[0.266148965069,51.4752230150418],[0.266160098827392,51.4754476314366],[0.266171232138759,51.4756722477288],[0.266182365309895,51.4758968639661],[0.266193498626599,51.4761214801933],[0.266553185029738,51.4761145266638],[0.266564320277153,51.4763391428283],[0.266204632088874,51.4763460964103],[0.266215765696723,51.4765707126172],[0.266226899450148,51.4767953288139],[0.26623803334915,51.4770199450004],[0.266597726892986,51.4770129912608],[0.26695742029127,51.4770060364183],[0.266946282821853,51.4767814203368],[0.266935145498059,51.4765568042452],[0.266924008319887,51.4763321881434],[0.267283696217054,51.4763252323557],[0.267294835180383,51.4765498484049],[0.267305974289358,51.476774464444],[0.267317113543979,51.4769990804729],[0.267328252944251,51.4772236964917],[0.267339392490174,51.4774483125003],[0.267350532181752,51.4776729284987],[0.266990833573294,51.4776798846017],[0.266631134819253,51.4776868396018],[0.266271435919652,51.4776937934991],[0.266282570400993,51.477918409645],[0.265922869570553,51.4779253624919],[0.265911736874515,51.4777007462935],[0.265900604324043,51.4774761300849],[0.265889471919133,51.4772515138661],[0.265878339659785,51.4770268976372],[0.265867207545993,51.4768022813981],[0.265507515496336,51.4768092328796],[0.265147823301198,51.4768161832582],[0.265158951844559,51.4770407996023],[0.264799259845054,51.4770477499122],[0.264788133226457,51.4768231335798],[0.264428443908511,51.4768300832149],[0.264439568681464,51.4770546995722],[0.264079877368716,51.4770616481278],[0.263720185906834,51.4770685955788],[0.263731307137654,51.4772932119774],[0.263371613680987,51.4773001583487],[0.263382733215274,51.4775247747638],[0.263023037763816,51.4775317200554],[0.262663342163293,51.4775386642425],[0.262652226320412,51.4773140477776],[0.262641110626627,51.4770894313043],[0.263000802535766,51.477082487167],[0.262989685145415,51.4768578707101],[0.262629995081933,51.4768648148226],[0.262270304869416,51.4768717578304],[0.261910614507888,51.4768786997337],[0.261921726361259,51.4771033162652],[0.26228141856845,51.477096374337],[0.262292532416552,51.4773209908352],[0.262303646413725,51.4775456073249],[0.262314760559972,51.4777702238062],[0.262325874855297,51.477994840279],[0.26196617526522,51.4780017823066],[0.261606475526144,51.4780087232296],[0.261617586278984,51.4782333397436],[0.261257884545146,51.4782402795868],[0.261246775638092,51.4780156630479],[0.260887075601088,51.4780226017617],[0.260527375415155,51.4780295393709],[0.26053848063063,51.4782541559594],[0.260549585995071,51.4784787725395],[0.260909289872608,51.4784718348807],[0.260920397231851,51.4786964514276],[0.260560691508477,51.4787033891112],[0.260571797170852,51.4789280056744],[0.260931504740087,51.478921067966],[0.261291212160386,51.4789141291529],[0.261302321663499,51.4791387456581],[0.261313431315633,51.4793633621548],[0.261324541116792,51.479587978643],[0.261335651066977,51.4798125951228],[0.261695365721973,51.4798056551057],[0.261684253925837,51.4795810386508],[0.262043966585889,51.4795740975539],[0.262055080227972,51.479798713984],[0.262066194019131,51.4800233304057],[0.262077307959369,51.4802479468189],[0.262437026008309,51.4802410045428],[0.262448141943644,51.4804656209228],[0.262459258028086,51.4806902372942],[0.26209953628709,51.4806971796201],[0.262088422048687,51.4804725632237],[0.261728702004703,51.48047950442],[0.261739814397063,51.4807041208412],[0.261750926938486,51.4809287372539],[0.261762039628974,51.4811533536582],[0.26177315246853,51.4813779700541],[0.261784265457156,51.4816025864415],[0.261795378594855,51.4818272028205],[0.261806491881629,51.482051819191],[0.261446758765831,51.4820587594565],[0.261435647325243,51.4818341430611],[0.261424536033707,51.4816095266573],[0.26141342489122,51.481384910245],[0.261402313897779,51.4811602938243],[0.261391203053383,51.4809356773952],[0.261031479019296,51.4809426164317],[0.260671754836246,51.4809495543636],[0.26031203050426,51.4809564911907],[0.259952306023359,51.480963426913],[0.259941202712304,51.4807388103762],[0.260300925347126,51.4807318746786],[0.260660647833036,51.4807249378763],[0.260649540978819,51.4805003213806],[0.261009261469745,51.4804933834985],[0.260998152918489,51.4802687670191],[0.260987044516245,51.4800441505314],[0.260627327717348,51.4800510883639],[0.26061622131009,51.4798264718429],[0.260605115051815,51.4796018553135],[0.260594008942518,51.4793772387756],[0.260582902982198,51.4791526222292],[0.260223193418159,51.4791595588578],[0.259863483705227,51.4791664943818],[0.259503773843427,51.4791734288011],[0.259144063832782,51.4791803621158],[0.259155162409443,51.4794049787613],[0.258795450404055,51.4794119109961],[0.258806547283653,51.479636527658],[0.258446833283518,51.4796434588129],[0.258087119134605,51.4796503888632],[0.258098212471119,51.4798750055661],[0.257738496327475,51.4798819345364],[0.257378780035099,51.4798888624021],[0.257389869828428,51.4801134791461],[0.257030151541338,51.4801204059318],[0.25704123963741,51.4803450226921],[0.256681519355602,51.4803519483978],[0.256321798925127,51.4803588729988],[0.256332883477839,51.4805834898001],[0.255973161052663,51.4805904133212],[0.255984243907997,51.4808150301387],[0.255624519488114,51.4808219525797],[0.255264794919632,51.4808288739161],[0.25527587423143,51.4810534907746],[0.254916147668259,51.4810604110308],[0.254927225282559,51.4812850279056],[0.254567496724693,51.4812919470818],[0.254207768018295,51.4812988651533],[0.254218842088884,51.4815234820689],[0.253859111387807,51.4815303990603],[0.253870183760779,51.4817550159922],[0.25351045106502,51.4817619319035],[0.253521521740326,51.4819865488515],[0.25316178704988,51.4819934636827],[0.253150718220795,51.48176884671],[0.252790985228129,51.4817757604118],[0.252779918393752,51.4815511434061],[0.252420187098873,51.4815580559785],[0.252431252087046,51.4817826730089],[0.252442317223679,51.4820072900308],[0.252082582087973,51.4820142015477],[0.252093645526815,51.4822388185858],[0.251733908396481,51.4822457290225],[0.251374171117797,51.4822526383545],[0.251014433690785,51.4822595465817],[0.250654696115472,51.4822664537041],[0.250665752317622,51.4824910708321],[0.251025491739223,51.4824841636851],[0.251385231012519,51.4824772554333],[0.251396291055637,51.4827018725038],[0.251036549936034,51.4827087807801],[0.25104760828122,51.4829333978667],[0.251058666774786,51.4831580149448],[0.251069725416731,51.4833826320145],[0.251080784207058,51.4836072490758],[0.251091843145772,51.4838318661286],[0.251102903896365,51.4840564837008],[0.251462655997261,51.4840495752449],[0.25147371886477,51.4842741928212],[0.251833472620352,51.4842672832207],[0.252193226230405,51.4842603725163],[0.252552979694904,51.4842534607081],[0.252912733013829,51.484246547796],[0.253272486187152,51.4842396337801],[0.253632239214853,51.4842327186603],[0.253991992096909,51.4842258024366],[0.254351744833295,51.4842188851091],[0.254711497423987,51.4842119666777],[0.255071249868964,51.4842050471424],[0.255431002168202,51.4841981265034],[0.255790754321676,51.4841912047604],[0.256150506329364,51.4841842819136],[0.256161592745001,51.4844088989504],[0.255801838937131,51.484415821838],[0.255442084983471,51.4844227436218],[0.255082330884047,51.4844296643017],[0.254722576638881,51.4844365838777],[0.254362822247996,51.4844435023499],[0.254003067711415,51.4844504197182],[0.253643313029163,51.4844573359827],[0.253283558201261,51.4844642511433],[0.252923803227735,51.4844711652],[0.252564048108607,51.4844780781528],[0.2522042928439,51.4844849900018],[0.251844537433637,51.4844919007469],[0.251484781877843,51.4844988103881],[0.25112502617654,51.4845057189255],[0.250765270329751,51.484512626359],[0.2504055143375,51.4845195326886],[0.250394456725079,51.4842949149995],[0.250383399258153,51.484070297301],[0.25037234199784,51.4838456796126],[0.250361286751987,51.4836210625107],[0.25035023165447,51.4833964454002],[0.25033917670529,51.4831718282814],[0.250328121904443,51.4829472111541],[0.24996837849365,51.4829541161407],[0.249608634934618,51.4829610200224],[0.249248891227371,51.4829679227993],[0.249259940489123,51.4831925400002],[0.248900194787314,51.4831994416968],[0.248540448937339,51.4832063422887],[0.248551494654561,51.4834309595302],[0.248191752908191,51.4834378611353],[0.248202796675355,51.4836624783254],[0.247843058718088,51.483669380876],[0.247483320626006,51.4836762823287],[0.247494361645647,51.4839008998813],[0.247134621800873,51.4839078003661],[0.247145662548923,51.4841324183348],[0.246785920758384,51.4841393177639],[0.246426178822625,51.4841462160896],[0.246437216114882,51.4843708341439],[0.246077472233374,51.4843777314139],[0.246088507870314,51.484602349506],[0.245728762043053,51.4846092457202],[0.245739796024632,51.4848338638502],[0.245380048251612,51.4848407590086],[0.245391080577782,51.4850653771764],[0.245031330859,51.485072271279],[0.244671580995104,51.4850791642782],[0.244682609865165,51.4853037825315],[0.244322858055522,51.4853106744749],[0.244333885270055,51.485535292766],[0.243974131514661,51.4855421836535],[0.243985157073622,51.4857668019824],[0.243625401372471,51.485773691814],[0.243636425275812,51.4859983101807],[0.243276667628899,51.4860051989565],[0.243287689876574,51.486229817361],[0.24329871226932,51.4864544357555],[0.24365847351777,51.4864475468844],[0.243669497856394,51.4866721652215],[0.24402926076061,51.4866652751993],[0.244389023519767,51.4866583840735],[0.244377995579544,51.4864337658317],[0.24473775639282,51.48642687365],[0.245097517060992,51.4864199803649],[0.245457277584037,51.4864130859761],[0.24581703796193,51.4864061904839],[0.245806002963771,51.486181572423],[0.246165761395727,51.4861746758749],[0.246525519682487,51.4861677782234],[0.24653655828217,51.4863923961889],[0.246896318224469,51.4863854973861],[0.246885277824028,51.4861608794683],[0.247245035820328,51.4861539796097],[0.247256078021525,51.4863785974798],[0.247615837673312,51.48637169647],[0.247975597179807,51.4863647943567],[0.248335356540991,51.4863578911399],[0.248695126319373,51.4863509905784],[0.249054897441275,51.4863440894429]]],[[[0.260560691508477,51.4787033891112],[0.260549585995071,51.4784787725395],[0.260189881968623,51.4784857090937],[0.260178778450001,51.4782610924888],[0.259819076120488,51.4782680279136],[0.259830177793292,51.4784926445433],[0.259841279615014,51.4787172611646],[0.259852381585659,51.4789418777774],[0.2602120894527,51.4789349422782],[0.260200985636189,51.4787103256902],[0.260560691508477,51.4787033891112]]],[[[0.289976882031255,51.469363925898],[0.289988136722072,51.4695885404083],[0.289999391566479,51.46981315491],[0.290359014858088,51.469806127009],[0.290718637996092,51.4697990980039],[0.290707379373989,51.4695744835561],[0.290696120905525,51.4693498690998],[0.290336501545189,51.469356898051],[0.289976882031255,51.469363925898]]],[[[0.30258482326405,51.4981204267733],[0.302573501784391,51.4978958170226],[0.302213652635151,51.4979028831678],[0.301853803336888,51.4979099482093],[0.301865121209819,51.4981345580614],[0.301505269959189,51.4981416220497],[0.301516586177781,51.4983662319425],[0.301527902545403,51.4985908418252],[0.301539219062058,51.4988154516979],[0.3011793622522,51.4988225147345],[0.301190677114429,51.4990471246479],[0.300830818352142,51.4990541866314],[0.300842131559896,51.4992787965853],[0.300482270845176,51.4992858575157],[0.300122409981535,51.4992929173422],[0.300133719731253,51.4995175273875],[0.300493582398411,51.4995104675103],[0.300853444916647,51.4995034065293],[0.301213307285934,51.4994963444444],[0.301573169506251,51.4994892812558],[0.30156185254248,51.4992646714132],[0.30155053572775,51.4990400615606],[0.301910394192083,51.4990329973694],[0.301899075722931,51.4988083875575],[0.301887757402838,51.4985837777355],[0.302247612111265,51.4985767125419],[0.302236292136818,51.4983521027606],[0.302224972311447,51.4981274929692],[0.30258482326405,51.4981204267733]]],[[[0.258419994050068,51.4863888891429],[0.258431092726926,51.4866135058401],[0.258442191549816,51.4868381225279],[0.258801964139854,51.4868311914634],[0.25881306490922,51.4870558081008],[0.258824165824647,51.4872804247288],[0.259183941869585,51.4872734924785],[0.259543717768492,51.4872665591242],[0.259903493521343,51.4872596246659],[0.259892387204534,51.4870350081607],[0.259881281033856,51.486810391646],[0.259870175009303,51.4865857751219],[0.260229945214781,51.4865788396825],[0.260218837535968,51.4863542231899],[0.259859069130875,51.4863611585884],[0.259499300579717,51.4863680928829],[0.259139531882514,51.4863750260735],[0.258779763039289,51.4863819581602],[0.258419994050068,51.4863888891429]]],[[[0.292808756173008,51.4684092149436],[0.292797487140538,51.4681846006067],[0.292437878145979,51.4681916360475],[0.292426611155938,51.467967021675],[0.292067003896312,51.4679740559846],[0.292055738948654,51.4677494415765],[0.291696133423967,51.467756474755],[0.291707396482982,51.4679810891902],[0.291718659695689,51.4682057036168],[0.292078268997687,51.4681986703842],[0.292089534252781,51.4684232847752],[0.292449145289761,51.4684162504115],[0.292808756173008,51.4684092149436]]],[[[0.291215333824894,51.4940713451767],[0.291204070335579,51.4938467335845],[0.291192806992386,51.4936221219821],[0.291181543795311,51.4933975103693],[0.291170280744353,51.4931728987464],[0.291159017839508,51.4929482871131],[0.291147755080775,51.4927236754696],[0.290787943396148,51.4927307059833],[0.290428131565485,51.4927377353938],[0.290439390788824,51.4929623471459],[0.29007957704445,51.4929693755073],[0.289719763154085,51.4929764027653],[0.289731018988039,51.4932010146157],[0.289742274968016,51.4934256264559],[0.289753531094017,51.4936502382858],[0.289764787366046,51.4938748501055],[0.290124608327454,51.4938678226303],[0.290135866513331,51.4940924343854],[0.290147124845262,51.4943170461303],[0.290506949196321,51.4943100174431],[0.290866773401353,51.4943029876526],[0.291226597460332,51.4942959567587],[0.291215333824894,51.4940713451767]]],[[[0.286785040098582,51.4919095194803],[0.286773798952771,51.4916849070919],[0.286762557954469,51.4914602946936],[0.28640275522142,51.4914673116599],[0.286042952340938,51.4914743275226],[0.285683149313044,51.4914813422817],[0.28569438492771,51.491705954827],[0.286054189750151,51.4916989400189],[0.286065427306828,51.4919235525053],[0.286076665010971,51.4921481649818],[0.286436473275159,51.492141148972],[0.286796281391906,51.4921341318587],[0.286785040098582,51.4919095194803]]],[[[0.271910017472037,51.4897255527371],[0.271921184416382,51.4899501674634],[0.271561389792659,51.4899571387139],[0.271572555117827,51.490181753487],[0.271583720587608,51.4904063682497],[0.271943518738979,51.4903993968847],[0.271954686117234,51.4906240115797],[0.272314485887871,51.4906170390544],[0.272674285513896,51.490610065426],[0.273034084995285,51.4906030906945],[0.273022912325473,51.4903784761713],[0.273011739800368,51.4901538616376],[0.273000567419969,51.4899292470934],[0.272640773230061,51.4899362216531],[0.272280978895524,51.4899431951098],[0.272269810187392,51.4897185804407],[0.272629602758145,51.4897116070413],[0.272618432430907,51.4894869924189],[0.272258641623916,51.4894939657611],[0.271898850672324,51.4895009380003],[0.271910017472037,51.4897255527371]]],[[[0.272741313988189,51.4919577526897],[0.272730142214066,51.4917331381718],[0.272718970584643,51.4915085236436],[0.272707799099917,51.4912839091049],[0.272696627759885,51.4910592945557],[0.272685456564546,51.4908346799961],[0.272325655174645,51.4908416536817],[0.271965853640131,51.4908486262642],[0.271606051961024,51.4908555977437],[0.271594886202007,51.4906309830019],[0.271235086142213,51.4906379533211],[0.271223922291674,51.4904133385116],[0.271212758585729,51.4901887236917],[0.270852961909092,51.4901956927934],[0.270864123851198,51.4904203076704],[0.270504325266202,51.4904272757262],[0.270515485589016,51.49065189065],[0.270526646056378,51.4908765055634],[0.270166843799129,51.4908834726305],[0.269807041397403,51.4908904385944],[0.26981819848149,51.4911150536117],[0.269458394171391,51.4911220185297],[0.269469549636049,51.4913466335938],[0.269480705245195,51.4915712486474],[0.269120897262753,51.4915782125766],[0.269132051252403,51.4918028276769],[0.269491860998833,51.4917958636905],[0.269503016896968,51.4920204787232],[0.269514172938306,51.4922450937315],[0.269525329120616,51.4924697086908],[0.269536485447529,51.4926943236399],[0.269547641919047,51.4929189385786],[0.269558798535172,51.493143553507],[0.269569955295907,51.4933681684251],[0.269929777255053,51.4933612029498],[0.269940935926186,51.4935858178029],[0.270300759506531,51.4935788511695],[0.270311920088108,51.4938034659575],[0.270671745289649,51.493796498166],[0.271031570346555,51.4937895292711],[0.271042734604446,51.4940141439394],[0.271402561282517,51.4940071738864],[0.271762387815907,51.4940002027299],[0.272122214204592,51.4939932304702],[0.272111044649245,51.4937686159662],[0.272470869127389,51.4937616426579],[0.272459697951028,51.4935370281984],[0.272448526919464,51.4933124137287],[0.272437356032695,51.4930877992487],[0.272426185290718,51.4928631847584],[0.272786002561096,51.4928562105659],[0.272774830198212,51.49263159612],[0.272763657980137,51.4924069816639],[0.272752485907015,51.492182367197],[0.272741313988189,51.4919577526897]]],[[[0.264736396498938,51.4903139988693],[0.265096195444155,51.4903070484009],[0.265455994430321,51.4903000969485],[0.265815793272313,51.4902931443931],[0.265804656168466,51.4900685287056],[0.266164453102409,51.4900615751042],[0.266153314378981,51.4898369594634],[0.26614217579982,51.4896123438121],[0.266501969061917,51.4896053892218],[0.26649082886324,51.4893807736171],[0.266479688808848,51.4891561580021],[0.266468548898739,51.4889315423766],[0.266457409132911,51.4887069267407],[0.266097622925798,51.4887138811026],[0.265737836574483,51.4887208343616],[0.265726700480313,51.4884962186011],[0.265366915748511,51.4885031706999],[0.265355781562241,51.4882785548719],[0.264995998524191,51.488285505849],[0.264984866268928,51.4880608899649],[0.264973734160133,51.4878362740714],[0.264613955053081,51.4878432241083],[0.264254175799642,51.4878501730412],[0.264265304307405,51.4880747890168],[0.26390552310708,51.4880817368868],[0.263916649960719,51.488306352894],[0.263927776960756,51.4885309688918],[0.263567992012972,51.4885379157398],[0.263579117358819,51.4887625317692],[0.263590242851046,51.4889871477891],[0.263230454155723,51.4889940936151],[0.262870665314093,51.4890010383371],[0.262859543423103,51.4887764222352],[0.262848421678449,51.4885518061238],[0.262488636291757,51.4885587496598],[0.262477516494011,51.4883341334979],[0.262117732761642,51.4883410758889],[0.262106614910759,51.4881164596766],[0.261746832832719,51.4881234009226],[0.261387050608475,51.4881303410646],[0.261027268238049,51.4881372801025],[0.261038380687248,51.4883618964377],[0.260678596370099,51.4883688344127],[0.260689707164923,51.4885934507794],[0.261049493282662,51.4885865127635],[0.261060606024291,51.4888111290798],[0.261071718912139,51.4890357453866],[0.261082831946208,51.4892603616841],[0.261442623319684,51.4892534224413],[0.261802414546967,51.4892464820944],[0.261813531328617,51.4894710983005],[0.262173324210356,51.4894641568086],[0.262533116945853,51.4894572142127],[0.262521996562857,51.4892325980886],[0.262881787351419,51.4892256544296],[0.263241577993693,51.4892187096666],[0.263252701978026,51.4894433257087],[0.263263826108724,51.4896679417413],[0.263623620206041,51.4896609957922],[0.263634746283817,51.4898856117743],[0.263994542035503,51.4898786646801],[0.264354337640825,51.4898717164819],[0.264365467466455,51.4900963323725],[0.264725264726116,51.4900893830292],[0.264736396498938,51.4903139988693]]],[[[0.263152591387881,51.4874217809902],[0.263141468720722,51.4871971648632],[0.263130346199904,51.4869725487267],[0.262770573563025,51.4869794930796],[0.262781694283408,51.4872041092571],[0.262792815150108,51.4874287254252],[0.262803936163127,51.4876533415838],[0.262815057322467,51.4878779577329],[0.262826178628134,51.4881025738727],[0.262837300080127,51.4883271900029],[0.263197083519965,51.488320245404],[0.263185960267421,51.4880956293147],[0.263174837161227,51.487871013216],[0.263163714201381,51.4876463971078],[0.263152591387881,51.4874217809902]]]]}}