{"type":"Feature","properties":{"code":"E63005214","name":"Ramsgate"},"geometry":{"type":"MultiPolygon","coordinates":[[[[1.38556135647114,51.3535611912837],[1.38591973037235,51.3535508268614],[1.3859031742472,51.3533264283976],[1.38626154620123,51.353316062935],[1.38624498855452,51.3530916645181],[1.38660335856136,51.3530812980154],[1.38696172835541,51.3530709304154],[1.38694516745282,51.3528465321026],[1.38730353529967,51.3528361634624],[1.38728697287564,51.3526117651965],[1.38692860676312,51.3526221337796],[1.3869120462863,51.3523977354466],[1.38689548602236,51.3521733371036],[1.38687892597129,51.3519489387505],[1.38723728688094,51.3519385703385],[1.3872207253085,51.3517141720323],[1.38757908427108,51.3517038025802],[1.38756252117731,51.3514794043211],[1.38754595829645,51.3512550060518],[1.38718760280229,51.3512653753899],[1.38682924709531,51.3512757436307],[1.38684580650777,51.351500142014],[1.38648744885378,51.3515105092148],[1.38612909098701,51.3515208753183],[1.38611253504296,51.351296476821],[1.38575417869764,51.3513068417704],[1.38539582213959,51.3513172056226],[1.38541237461521,51.351541604234],[1.38542892730361,51.3517660028354],[1.38544548020478,51.3519904014266],[1.38546203331874,51.3522148000078],[1.38547858664549,51.3524391985789],[1.3851202212034,51.352449561619],[1.38476185554861,51.3524599235619],[1.38440348968113,51.3524702844076],[1.38404512360099,51.3524806441561],[1.38406167020319,51.3527050429451],[1.38407821701808,51.3529294417241],[1.38443658656693,51.3529190818616],[1.38479495590311,51.352908720902],[1.38515332502659,51.3528983588451],[1.38516987725734,51.3531227574431],[1.38518642970087,51.353347156031],[1.38520298235718,51.3535715546088],[1.38556135647114,51.3535611912837]]],[[[1.38611253504296,51.351296476821],[1.38647089117553,51.3512861107744],[1.38645433371011,51.351061712324],[1.38681268789571,51.3510513452373],[1.38679612890897,51.3508269468339],[1.38677957013508,51.3506025484204],[1.38676301219612,51.3503781463216],[1.38674645460574,51.3501537433888],[1.38672989722373,51.3499293404483],[1.38671334005009,51.3497049374999],[1.38669678308481,51.3494805345436],[1.3870551251888,51.3494701664342],[1.38707168383988,51.3496945693574],[1.38743002742134,51.3496842001156],[1.38744658796662,51.3499086029979],[1.38780493302556,51.3498982326237],[1.3878214954651,51.3501226354651],[1.3881798420015,51.3501122639586],[1.38819640633533,51.350336666759],[1.38821297087763,51.3505610695517],[1.38857132057737,51.3505506968796],[1.38858788797382,51.3507750952287],[1.38894623914817,51.3507647216163],[1.38896280853979,51.3509891196774],[1.38897937814441,51.3512135177284],[1.38933773257411,51.3512031429046],[1.3893543041259,51.3514275408885],[1.38971266007683,51.3514171649105],[1.39007101581477,51.3514067878354],[1.39005444079463,51.3511823899657],[1.3904127945854,51.3511720118506],[1.39077114816315,51.3511616326383],[1.39075456988778,51.3509372348728],[1.39111292151834,51.3509268546205],[1.39147127293584,51.3509164732711],[1.39182962414025,51.3509060908245],[1.39184620761801,51.3511304884186],[1.39220456034344,51.3511201048177],[1.39218797513155,51.3508957072809],[1.39254632590972,51.3508853226401],[1.39290467647473,51.3508749369021],[1.39326302682657,51.3508645500671],[1.39362137696521,51.3508541621349],[1.39360478503012,51.3506297648167],[1.39396313322145,51.3506193758446],[1.39432148119955,51.3506089857754],[1.39467982896438,51.3505985946091],[1.39503817651593,51.3505882023457],[1.39505477538734,51.3508125994351],[1.39541312445966,51.3508022060173],[1.39577147331864,51.3507918115024],[1.39578807587161,51.3510162084672],[1.39614642625133,51.351005812798],[1.39650477641767,51.3509954160316],[1.39648817039652,51.3507710191814],[1.39684651861538,51.3507606213752],[1.39720486662082,51.3507502224718],[1.39718825769097,51.3505258248961],[1.39717165079381,51.3503014229409],[1.39715504410566,51.3500770209779],[1.39679670109987,51.3500874200013],[1.39678009630651,51.3498630179971],[1.39676349172212,51.3496386159851],[1.39674688734672,51.3494142139652],[1.3967302831803,51.3491898119375],[1.39637194670855,51.3492002097284],[1.39635534443679,51.3489758076596],[1.39671367922285,51.348965409902],[1.39707201380001,51.348955011045],[1.39743034816824,51.3489446110888],[1.39744695549706,51.3491690130578],[1.39780529134203,51.3491586119689],[1.39816362697803,51.3491482097808],[1.39818023788725,51.3493726116753],[1.39819684900554,51.349597013562],[1.39821346033289,51.3498214154408],[1.39823007186931,51.3500458173117],[1.3985884061698,51.350035405845],[1.39860501931514,51.3502598071541],[1.39862163267959,51.350484208444],[1.39863824774923,51.3507086063298],[1.39865486381829,51.3509330024194],[1.39901320433614,51.3509225890527],[1.399029822375,51.351146985072],[1.39904644062937,51.3513713810809],[1.39868809660284,51.3513817945677],[1.39870471331835,51.3516061906263],[1.39906305909924,51.3515957770796],[1.39907967778463,51.3518201730678],[1.39872133024935,51.3518305866746],[1.39836298249863,51.3518409991845],[1.3983795978907,51.3520653952825],[1.39802124293935,51.3520758009491],[1.39766288495607,51.3520862023904],[1.39767949746067,51.3523105990083],[1.39769611017883,51.3525349956161],[1.39771272311054,51.3527593922138],[1.39772933625581,51.3529837888015],[1.39774594961465,51.353208185379],[1.39738758274662,51.3532185860097],[1.3974041945847,51.3534429826345],[1.39742080663633,51.3536673792492],[1.39706243608616,51.3536777788972],[1.39707904661697,51.3539021755592],[1.39672067411896,51.3539125741673],[1.39673728312891,51.3541369708764],[1.39675389235237,51.3543613675754],[1.3963955161721,51.3543717652009],[1.39641212387464,51.3545961619471],[1.39642873179068,51.3548205586832],[1.39607035192806,51.354830955326],[1.39608695832311,51.3550553521093],[1.39610356493165,51.3552797488826],[1.39612017175367,51.3555041456457],[1.39576178647409,51.355514541363],[1.39577839177505,51.3557389381733],[1.39579499728947,51.3559633349736],[1.39581160301738,51.3561877317638],[1.39582820895876,51.3564121285439],[1.39546981652738,51.3564225233929],[1.39545321232062,51.3561981265555],[1.39509482141048,51.3562085202499],[1.3950782191518,51.3559841233452],[1.39506161710655,51.3557597264304],[1.39504501527472,51.3555353295055],[1.39468662935498,51.3555457219309],[1.39467002947112,51.3553213249387],[1.39465342980067,51.3550969279365],[1.39429504713667,51.3551073191501],[1.39393666425936,51.3551177092663],[1.39392006827131,51.3548933121396],[1.39356168691523,51.3549037011014],[1.39320330534588,51.3549140889659],[1.39321989786489,51.3551384862071],[1.39286151434777,51.3551488730315],[1.39287810534555,51.3553732703198],[1.3928946965566,51.355597667598],[1.39253630935715,51.3556080534396],[1.39217792194449,51.3556184381838],[1.39219450989965,51.3558428355663],[1.39183612053921,51.3558532192703],[1.39185270697299,51.3560776166999],[1.39186929362001,51.3563020141194],[1.39151090057713,51.3563123968405],[1.39115250732109,51.3563227784642],[1.39113592414337,51.3560983809304],[1.39111934117884,51.3558739833865],[1.39110275842749,51.3556495858325],[1.39108617588931,51.3554251882685],[1.39106959356432,51.3552007906944],[1.3907112087682,51.3552111709351],[1.39069462839092,51.3549867732937],[1.39033624511626,51.35499715238],[1.38997786162854,51.355007530369],[1.38961947792779,51.3550179072607],[1.389261094014,51.3550282830551],[1.38927766745308,51.3552526809248],[1.38891928159174,51.355263055679],[1.38890270988723,51.3550386577522],[1.38888613839575,51.3548142598152],[1.38852775579054,51.3548246333579],[1.38816937297239,51.3548350058034],[1.38781098994131,51.3548453771515],[1.38779442386643,51.3546209790333],[1.38777785800452,51.354396580905],[1.38776129235556,51.3541721827666],[1.38774472691955,51.3539477846182],[1.38772816169649,51.3537233864597],[1.38736978712494,51.3537337564253],[1.38735322384925,51.3535093581997],[1.38733666078648,51.353284959964],[1.38697828947088,51.3532953287182],[1.38661991794246,51.3533056963752],[1.38626154620123,51.353316062935],[1.38627810406078,51.3535404613418],[1.3862946621332,51.3537648597385],[1.38631122041847,51.3539892581252],[1.38666959736299,51.3539788913943],[1.3866861575956,51.3542032897139],[1.38670271804108,51.3544276880234],[1.38671927869946,51.3546520863229],[1.38707766063465,51.3546417183236],[1.38709422324046,51.354866116556],[1.38745260669732,51.3548557474024],[1.38746917125061,51.3550801455676],[1.38711078605919,51.3550905147783],[1.38712734909084,51.3553149129905],[1.38748573601684,51.3553045437228],[1.38750230099602,51.3555289418679],[1.38751886618815,51.3557533400029],[1.38753543159324,51.3559777381279],[1.38755199721128,51.3562021362428],[1.38756856304229,51.3564265343476],[1.38758512908627,51.3566509324424],[1.38760169534321,51.3568753305271],[1.38796009419898,51.3568649597627],[1.38797666240365,51.3570893577803],[1.38799323082133,51.3573137557878],[1.38835163293368,51.3573033838119],[1.38836820329915,51.3575277817522],[1.38838477387765,51.3577521796825],[1.38874317924665,51.3577418064951],[1.38875975177302,51.3579662043582],[1.38911815866386,51.3579558300162],[1.38913473313814,51.3581802278122],[1.38877632451245,51.3581906022113],[1.38879289746494,51.3584150000543],[1.38915130782551,51.3584046255982],[1.38916788272596,51.358629023374],[1.38918445783951,51.3588534211398],[1.38954287145686,51.3588430454721],[1.38955944833482,51.359067435316],[1.38957602537311,51.359291822853],[1.38959260262552,51.3595162103776],[1.38995102127472,51.3595058338441],[1.39030943970984,51.3594954562155],[1.39032602066766,51.3597198435646],[1.39068444063431,51.3597094647593],[1.39070102355195,51.3599338520145],[1.39071760668378,51.3601582392574],[1.39107602992765,51.3601478591936],[1.39143445295736,51.3601374780347],[1.39145103979479,51.3603618651021],[1.39180946435602,51.3603514827664],[1.39216788870304,51.3603410993355],[1.39218447924614,51.3605654862273],[1.39254290512465,51.3605551016196],[1.39255949762777,51.3607794884174],[1.39291792503775,51.3607691026329],[1.39290133078891,51.3605447159168],[1.39325975623889,51.3605343291188],[1.39324316045868,51.360309942472],[1.39322656489282,51.3600855558128],[1.39358498663713,51.3600751680829],[1.39356838953997,51.3598507814931],[1.39355179265718,51.3596263948909],[1.39353519598875,51.3594020082763],[1.39389361228187,51.3593916196963],[1.39387701408222,51.3591672331511],[1.39386041609695,51.3589428465935],[1.39421882868461,51.3589324570817],[1.39420222908607,51.3587080619243],[1.394185629684,51.3584836649588],[1.39416903049533,51.3582592679831],[1.39452743765813,51.3582488770657],[1.39451083694804,51.3580244801373],[1.39486924216266,51.3580140881797],[1.39488584460758,51.3582384850509],[1.39524425134363,51.3582280919387],[1.39560265786628,51.3582176977291],[1.39596106417551,51.3582073024221],[1.39594445652616,51.3579829057226],[1.39630286088712,51.3579725093755],[1.39631947027128,51.3581969060177],[1.39667787615357,51.3581865085159],[1.39703628182238,51.3581761099167],[1.39739468727766,51.3581657102201],[1.39737807268911,51.3579413137497],[1.39701966896862,51.357951713389],[1.39700305632845,51.3577273168512],[1.39736145831417,51.3577169172692],[1.39771986008635,51.3577065165898],[1.39773647619607,51.357930913013],[1.39809487948946,51.3579205111789],[1.39807826164498,51.357696114813],[1.39843665914261,51.3576857073465],[1.39842004011758,51.3574613114469],[1.39877843195099,51.3574508985338],[1.39876181138654,51.3572265026838],[1.39912020124949,51.3572160887336],[1.39910357914566,51.3569916929333],[1.39946196703817,51.3569812779461],[1.399445343395,51.3567568821955],[1.39980372931706,51.3567464661711],[1.40016211502357,51.3567360490497],[1.40052050051449,51.3567256308312],[1.40050387182228,51.3565012352504],[1.40086225534273,51.3564908159949],[1.40122063864756,51.3564803956423],[1.40157902173675,51.3564699741926],[1.40193740461026,51.3564595516459],[1.40195404032194,51.3566839469864],[1.40231242473462,51.3566735232825],[1.40229578726809,51.3564491280021],[1.40265416971021,51.3564387032612],[1.40301255193659,51.3564282774232],[1.40337093394722,51.3564178504882],[1.40335429143198,51.3561934553778],[1.40299591117617,51.3562038822527],[1.40297927063157,51.3559794870719],[1.40296263030277,51.3557550918807],[1.40294599018979,51.3555306966792],[1.40330436518125,51.3555202699847],[1.40366273995695,51.3555098421931],[1.40402111451687,51.3554994133045],[1.40400446935549,51.355275018273],[1.40436284194487,51.3552645883476],[1.40472121431842,51.3552541573251],[1.40507958647613,51.3552437252056],[1.40543795841796,51.3552332919891],[1.40579633014389,51.3552228576755],[1.40577967642491,51.3549984629345],[1.40613804618024,51.3549880275842],[1.40612139092258,51.354763632893],[1.40610473588092,51.3545392381915],[1.40608808105524,51.3543148434797],[1.40644644533074,51.3543044072129],[1.40642978896646,51.3540800125509],[1.40678815127142,51.3540695752474],[1.40714651336041,51.3540591368469],[1.40712985370302,51.353834742295],[1.40748821382147,51.3538243028578],[1.4078465737239,51.3538138623236],[1.4078299107735,51.3535894678817],[1.40818826870538,51.3535790263108],[1.40817160421655,51.3533546319189],[1.40852996017789,51.3533441893113],[1.40851329415069,51.3531197949693],[1.40887164814148,51.353109351325],[1.40923000191618,51.3530989065838],[1.40921333259622,51.3528745123519],[1.40957168440037,51.3528640665741],[1.40955501354215,51.3526396723921],[1.40991336337575,51.3526292255777],[1.40989669097933,51.3524048314457],[1.41025503884239,51.3523943835945],[1.41061338648928,51.3523839346466],[1.41059671080033,51.3521595406248],[1.41095505647668,51.3521490906402],[1.41131340193681,51.3521386395587],[1.41133008113448,51.3523630334599],[1.41134676054845,51.3525874273507],[1.41170510930108,51.3525769750517],[1.41172179068574,51.3528013688718],[1.41208014097651,51.3527909154156],[1.41206345783745,51.3525665216558],[1.41204677491474,51.3523421278857],[1.41203009220836,51.3521177341052],[1.41201340971832,51.3518933403143],[1.41237175277537,51.3518828860026],[1.41273009561613,51.3518724305939],[1.41271340983382,51.3516480369134],[1.41235506874737,51.3516584922617],[1.41233838493571,51.3514340985105],[1.41269672426789,51.3514236432225],[1.41305506338376,51.3514131868378],[1.41307175070397,51.3516375804683],[1.41308843824056,51.3518619740884],[1.41344678064866,51.3518515164861],[1.41380512284039,51.3518410577869],[1.41378843179522,51.3516166642874],[1.41377174096648,51.3513922707777],[1.4134134022833,51.3514027293561],[1.41339671342525,51.3511783357756],[1.41303837627995,51.3511887931969],[1.41268003891833,51.3511992495213],[1.41266335378513,51.3509748558097],[1.41230501796143,51.350985310977],[1.41228833479881,51.3507609171946],[1.41227165193939,51.3505365232327],[1.41225496998666,51.3503121279137],[1.41189663921489,51.3503225817713],[1.41187995927548,51.3500981862767],[1.41186327955604,51.3498737907628],[1.41184660005655,51.3496493952296],[1.4122049254484,51.3496389418409],[1.41256325062034,51.3496284873643],[1.41257993370639,51.349852882585],[1.41293826045167,51.3498424268643],[1.41292157557234,51.3496180317999],[1.41327990030438,51.3496075751477],[1.41363822481644,51.3495971174077],[1.41362153657063,51.3493727226366],[1.4136048485449,51.3491483278462],[1.41324652761931,51.3491587852736],[1.41322984160683,51.3489343903076],[1.41321315581439,51.3487099953223],[1.4135714731536,51.3486995382074],[1.41392979027282,51.3486890800048],[1.4139131011141,51.3484646853128],[1.41389641217545,51.3482402906014],[1.41353809864251,51.3482507484914],[1.41352141171704,51.3480263536044],[1.41350472501161,51.3478019586981],[1.41348803852622,51.3475775637725],[1.41347135226086,51.3473531688275],[1.41311304568024,51.3473636250046],[1.41309636142793,51.347139229884],[1.41307967739562,51.3469148347442],[1.41306299358332,51.346690439585],[1.41270469216174,51.3467008942055],[1.41268801036239,51.3464764988707],[1.412671328783,51.3462521035166],[1.41265464742358,51.3460277081432],[1.41263796628413,51.3458033127505],[1.41299626053403,51.345792858755],[1.41335455456401,51.3457824036719],[1.41371284837405,51.3457719475011],[1.41369616207598,51.3455475525579],[1.41405445387321,51.3455370954557],[1.41403776600233,51.3453127006495],[1.4140210783515,51.3450883058239],[1.41400439092071,51.3448639109791],[1.41436267711954,51.3448534532581],[1.41434598811603,51.3446290585502],[1.41432929933257,51.344404663823],[1.41468758172594,51.344394205327],[1.41470427230213,51.344618599898],[1.41506255947487,51.3446081419838],[1.41507925239457,51.3448325365867],[1.41543754583816,51.3448220801437],[1.4157958390704,51.3448116226141],[1.41581253560021,51.3450360168639],[1.41617083032046,51.3450255580811],[1.41618752876108,51.3452499521443],[1.41620422741315,51.3454743461872],[1.41584592929411,51.3454848053028],[1.41586262645821,51.3457091994918],[1.41622092627666,51.3456987402097],[1.41623762535164,51.3459231342121],[1.41625432463808,51.3461475281941],[1.41627102413598,51.3463719221559],[1.41591271921911,51.3463823819372],[1.41592941722896,51.3466067760452],[1.41594611545027,51.3468311701328],[1.41596281388302,51.3470555642002],[1.41597951252723,51.3472799582474],[1.4159962113829,51.3475043522742],[1.41601291045004,51.3477287462808],[1.41602960972864,51.3479531402671],[1.41604630921871,51.3481775342332],[1.41606300892025,51.348401928179],[1.41607970883328,51.3486263221045],[1.41609640895778,51.3488507160097],[1.41611310929377,51.3490751098946],[1.41612980984125,51.3492995037593],[1.41614651060022,51.3495238976037],[1.41616321157068,51.3497482914279],[1.41617991275264,51.3499726852317],[1.41619661414611,51.3501970790153],[1.41621331575108,51.3504214727786],[1.41657165126255,51.3504110100013],[1.41658835492797,51.3506354033552],[1.41660505910914,51.3508597962353],[1.41696339777916,51.3508493321036],[1.41732173623832,51.3508388668825],[1.41730502867077,51.3506144742827],[1.41766336522585,51.3506040081123],[1.41802170157001,51.3505935408527],[1.41838003770325,51.3505830725037],[1.4183633256474,51.3503586798115],[1.41872165988972,51.3503482105128],[1.41907999392044,51.3503377401274],[1.41943832773954,51.350327268655],[1.41942161083572,51.3501028763901],[1.41977994274332,51.3500924039974],[1.42013827443926,51.3500819305179],[1.42049660592352,51.3500714559515],[1.42085493719607,51.3500609802982],[1.42083821370464,51.3498365886792],[1.42119654306565,51.3498261121057],[1.42117981808621,51.349601720633],[1.42116309331859,51.34937732914],[1.42114636876276,51.3491529376266],[1.42112964441873,51.348928546093],[1.42111292028651,51.3487041545391],[1.42109619636606,51.3484797629649],[1.4214545153169,51.348469286304],[1.42143778990859,51.3482448948761],[1.42179610694802,51.3482344172949],[1.42177938005189,51.3480100260133],[1.42213769517993,51.3479995475119],[1.42249601009618,51.3479890679238],[1.42285432480064,51.3479785872489],[1.42321263929326,51.3479681054873],[1.42357095357405,51.3479576226389],[1.42392926764296,51.3479471387038],[1.42428758149998,51.3479366536819],[1.4246458951451,51.3479261675733],[1.42500420857827,51.3479156803779],[1.42502095077097,51.34814007016],[1.42537926569179,51.3481295817112],[1.42573758040063,51.3481190921757],[1.42609589489747,51.3481086015535],[1.42645420918228,51.3480981098445],[1.42643746019121,51.3478737207291],[1.42642071141225,51.3476493315933],[1.4264039628454,51.3474249424372],[1.42676227181948,51.3474144501415],[1.42674552176521,51.3471900611318],[1.42710382882771,51.3471795679162],[1.42708707728607,51.3469551790528],[1.42744538243701,51.3469446849172],[1.42742862940804,51.3467202962002],[1.42741187659123,51.3464959074629],[1.42777017813117,51.346485412574],[1.4277534238271,51.3462610239831],[1.42773666973519,51.3460366353719],[1.42809496766421,51.3460261397297],[1.42811172345551,51.3462505281742],[1.4284700228718,51.3462400312787],[1.42882832207595,51.3462295332965],[1.42884508147826,51.3464539213872],[1.42920338216964,51.3464434221516],[1.42918662106792,51.3462190342276],[1.4295449198477,51.3462085340721],[1.42952815725886,51.3459841462945],[1.42988645412705,51.3459736452192],[1.43024475078301,51.3459631430572],[1.43022798500774,51.3457387555928],[1.4305862797521,51.3457282525109],[1.43094457428419,51.3457177483424],[1.43130286860399,51.3457072430873],[1.43128609794306,51.3454828561029],[1.43164439095949,51.3454723503598],[1.43200268672134,51.345461845627],[1.43198591266084,51.3452374587415],[1.43234420646607,51.3452269529958],[1.43232743088148,51.3450025661798],[1.43268572273011,51.3449920594212],[1.43266894562148,51.3447676726746],[1.43302723551351,51.3447571649032],[1.43338552518927,51.3447466560373],[1.43336874481632,51.3445222694418],[1.43372703253547,51.3445117595631],[1.43371025063859,51.3442873730371],[1.43406853640114,51.3442768621456],[1.43405175298037,51.344052475689],[1.43369346895808,51.3440629864987],[1.43333518471949,51.3440734962138],[1.43297690026461,51.3440840048344],[1.43296012228098,51.3438596181201],[1.43294334451368,51.3436352313934],[1.43292656696271,51.3434108446544],[1.43256828751227,51.3434213519352],[1.4325515119178,51.3431969651021],[1.43290978962805,51.343186457903],[1.43326806712206,51.3431759496095],[1.4332848461969,51.3434003362791],[1.43364312521481,51.3433898268093],[1.43400140401644,51.3433793162449],[1.43435968260175,51.3433688045861],[1.43434289830638,51.3431444181619],[1.43432611422742,51.3429200317252],[1.43396783912243,51.3429305432205],[1.43360956380114,51.3429410536212],[1.43359278341884,51.3427166670087],[1.43323450962139,51.3427271762332],[1.43321773119556,51.3425027895265],[1.43285945892198,51.3425132975748],[1.43284268245257,51.342288910774],[1.43282590651967,51.3420645239079],[1.43318417532545,51.3420540160221],[1.43316739797438,51.3418296292091],[1.4331506208406,51.3416052423834],[1.4327923555354,51.3416157501],[1.43243409001303,51.3416262567223],[1.43207582427349,51.3416367622505],[1.43205905260777,51.3414123751583],[1.43170078840137,51.3414228795077],[1.4316840187031,51.3411984923182],[1.43166724922202,51.3409741051161],[1.43202550992795,51.340963600936],[1.43200873891383,51.3407392138058],[1.43236699765244,51.3407287086162],[1.43235022510535,51.3405043215581],[1.43270848187664,51.3404938153591],[1.43306673843077,51.3404833080658],[1.43342499476771,51.3404727996785],[1.43340821718739,51.3402484128618],[1.43339143982435,51.3400240260324],[1.43337466267859,51.3397996391904],[1.43301641159201,51.3398101473237],[1.43299963641359,51.3395857603845],[1.43298286145241,51.3393613734325],[1.43262461364879,51.3393718803025],[1.43260784065489,51.3391474932533],[1.43224959438416,51.3391579989445],[1.43223282335749,51.338933611798],[1.432216052548,51.3387092246389],[1.43185780956017,51.3387197290668],[1.43184104071785,51.3384953418104],[1.43182427209268,51.3382709545414],[1.43146603311868,51.3382814580415],[1.4314492665488,51.338057070717],[1.43109103056071,51.3380675737086],[1.43107426591141,51.3378431862696],[1.43071603141773,51.3378536880681],[1.43069926868896,51.3376293005144],[1.43034103568968,51.3376398011198],[1.43032427488141,51.3374154134515],[1.43068250617328,51.3374049129465],[1.43104073725214,51.3373944113491],[1.43139896811797,51.3373839086591],[1.43138220240062,51.3371595212782],[1.4313654368964,51.3369351338832],[1.4310072094453,51.3369456363721],[1.43099044586153,51.3367212488625],[1.43063221990474,51.3367317501584],[1.43061545824138,51.3365073625341],[1.4305986967911,51.3362829748957],[1.43024047403591,51.3362934748981],[1.42988225106775,51.336303973808],[1.42986549324508,51.3360795859545],[1.42950727177125,51.3360900836714],[1.42949051586885,51.3358656957033],[1.42913229588936,51.3358761922273],[1.42911554190719,51.3356518041446],[1.42875732342204,51.3356622994756],[1.42874057136006,51.3354379112783],[1.42838235436926,51.3354484054165],[1.42836560422743,51.3352240171046],[1.42834885429851,51.3349996287786],[1.42799064050925,51.3350101216234],[1.42797389250041,51.3347857331829],[1.42761568020549,51.3347962248348],[1.42759893411668,51.3345718362797],[1.42724072331612,51.3345823267388],[1.42722397914729,51.3343579380691],[1.4272072351913,51.3341335493854],[1.4268490275922,51.3341440385512],[1.42649081978036,51.3341545266246],[1.42647407945138,51.3339301377259],[1.42645733933187,51.3337057489301],[1.42609913473952,51.3337162357108],[1.42608239656329,51.33349184683],[1.42606565860188,51.3332674579359],[1.42570745725307,51.3332779434398],[1.42569072123561,51.3330535544405],[1.42533252140119,51.3330640387594],[1.42531578732762,51.3328396496551],[1.42495758900759,51.332850132789],[1.42494085687788,51.3326257435795],[1.42492412496291,51.3324013543567],[1.42490739326269,51.3321769651207],[1.42454919991516,51.3321874468861],[1.4245324701587,51.3319630575449],[1.42451574061694,51.3317386681905],[1.42415755051279,51.3317491486791],[1.42414082291472,51.3315247592196],[1.42378263432492,51.3315352385234],[1.42376590867049,51.3313108489588],[1.42374918323073,51.3310864593809],[1.42339099788424,51.331096937408],[1.42303281232318,51.3311074143421],[1.42304953430506,51.3313318041035],[1.42269134680052,51.3313422800362],[1.42233315908146,51.3313527548758],[1.42231644055747,51.3311283649309],[1.42195825435285,51.3311388385856],[1.42194153777236,51.3309144485357],[1.4219248214064,51.3306900584725],[1.42156663844516,51.3307005308507],[1.42120845526948,51.3307110021358],[1.42122516817761,51.3309353923824],[1.42086698305858,51.3309458626662],[1.42088369445226,51.3311702529912],[1.42124188130023,51.3311597826158],[1.42125859463736,51.3313841728358],[1.42161678299985,51.3313737012756],[1.42163349828046,51.3315980913906],[1.42199168815748,51.3315876186456],[1.42200840538162,51.3318120086556],[1.42202512282032,51.3320363986523],[1.42166692948528,51.3320468715809],[1.42168364540949,51.3322712616561],[1.42132545013093,51.3322817335832],[1.42096725463793,51.3322922044171],[1.42095054217182,51.3320678141585],[1.42059234819344,51.3320782838076],[1.42023415400067,51.3320887523636],[1.42021744520712,51.3318643619083],[1.41985925252901,51.3318748292794],[1.41950105963654,51.3318852955574],[1.41948435451548,51.3316609049055],[1.41912616313771,51.3316713699987],[1.41876797154564,51.3316818339987],[1.41875127009699,51.3314574431502],[1.41839308001965,51.3314679059655],[1.41837638051433,51.3312435150121],[1.41801819195172,51.3312539766426],[1.4180014943897,51.3310295855842],[1.41798479704196,51.3308051945126],[1.41796809990853,51.3305808034277],[1.41760991631854,51.3305912636902],[1.4175932211283,51.3303668725004],[1.41757652615232,51.3301424812973],[1.41721834580594,51.3301529402835],[1.41720165277309,51.3299285489756],[1.41718495995447,51.3297041576543],[1.41716826735008,51.3294797663198],[1.41752644250993,51.3294693076084],[1.4178846174556,51.329458847804],[1.41790131351763,51.3296832389553],[1.41825948997791,51.3296727779662],[1.41827618798305,51.3298971690126],[1.41863436595794,51.3298867068388],[1.41865106590624,51.3301110977803],[1.41900924539572,51.3301006344218],[1.41902594728722,51.3303250252583],[1.4193841282913,51.3303145607151],[1.41940083212604,51.3305389514467],[1.41975901464471,51.3305284857187],[1.42011719694904,51.3305180188976],[1.42010048965652,51.3302936283494],[1.42008378257843,51.3300692377878],[1.41972560373184,51.3300797044255],[1.419708898597,51.329855313759],[1.41935072126494,51.329865779212],[1.41933401807331,51.3296413884405],[1.41969219367655,51.3296309230792],[1.41967548897049,51.3294065323861],[1.42003366263062,51.3293960660234],[1.42001695641016,51.3291716754087],[1.4200002504041,51.3289472847807],[1.41998354461244,51.3287228941395],[1.41962537613857,51.3287333602272],[1.4196420802015,51.3289577509601],[1.41928390978459,51.3289682160465],[1.41930061233314,51.3291926068578],[1.41931731509604,51.3294169976558],[1.41895914100731,51.3294274618324],[1.41860096670431,51.329437924916],[1.41824279218707,51.3294483869065],[1.41822609461051,51.3292239958336],[1.41820939724826,51.3289996047473],[1.41819270010028,51.3287752136478],[1.41855086943122,51.3287647519322],[1.41853417076881,51.328540360911],[1.41817600316658,51.328550822535],[1.41815930644717,51.3283264314089],[1.41780114035944,51.3283368918483],[1.41744297405752,51.3283473511947],[1.41742628100975,51.3281229598721],[1.41706811622236,51.3281334180338],[1.41705142511748,51.3279090266063],[1.4170347342268,51.3276846351656],[1.41739289555688,51.3276741771871],[1.4177510566728,51.3276637181155],[1.41773436253908,51.3274393268447],[1.41737620315177,51.3274497858246],[1.41701804355032,51.3274602437116],[1.41700135308802,51.3272358522443],[1.41664319500105,51.3272463089466],[1.41665988373474,51.3274707005055],[1.41630172370506,51.3274811562065],[1.41628503669998,51.327256764556],[1.41592687818483,51.3272672190724],[1.41556871945563,51.3272776724959],[1.41521056051239,51.3272881248263],[1.41522724233163,51.3275125167515],[1.41486908312508,51.3275229683334],[1.4148524035934,51.3272985763902],[1.41449425610756,51.3273090282707],[1.41447757855596,51.3270846361666],[1.41446090122157,51.3268602440446],[1.41481904518181,51.3268497924496],[1.41517719751615,51.3268393409362],[1.41516051633913,51.3266149489712],[1.41514383537619,51.3263905569929],[1.41512715462731,51.3261661650014],[1.41548530492779,51.3261557131287],[1.41584345501426,51.3261452601631],[1.41620160488669,51.3261348061045],[1.41655975454506,51.326124350953],[1.41691790398935,51.3261138947086],[1.41690121481214,51.3258895031617],[1.41654306709632,51.3258999593145],[1.41618491916642,51.3259104143744],[1.41582677102247,51.3259208683414],[1.41546862266448,51.3259313212154],[1.41511047409249,51.3259417729966],[1.41509379377173,51.3257173809785],[1.41473565295451,51.3257278322821],[1.41471897511273,51.3255034402303],[1.41507711361537,51.3254929889776],[1.41543525872439,51.3254825373832],[1.41541857695079,51.3252581455234],[1.41506043356698,51.3252685970285],[1.41470229735802,51.3252790482599],[1.41434416570307,51.3252894989264],[1.41432748989089,51.3250651068638],[1.41468561981734,51.3250546562773],[1.41466894249069,51.3248302642825],[1.41502707411142,51.324819813091],[1.41501039470425,51.3245954211026],[1.41499371551082,51.3243710291012],[1.41535185199404,51.3243605779535],[1.41533517128924,51.3241361860283],[1.41569330583368,51.3241257338768],[1.41567662361757,51.3239013420279],[1.41603475622325,51.3238908888727],[1.4163928886152,51.3238804346244],[1.4167510207934,51.3238699792831],[1.41710915275784,51.3238595228488],[1.41746728450849,51.3238490653214],[1.41782541604534,51.3238386067009],[1.41818354736834,51.3238281469874],[1.4185416784775,51.3238176861809],[1.41889980937277,51.3238072242813],[1.41891650711434,51.3240316153258],[1.41927463952075,51.3240211522438],[1.41963277171323,51.3240106880687],[1.41999090369177,51.3240002228006],[1.42034903545634,51.3239897564395],[1.42070716700692,51.3239792889853],[1.42106529834348,51.3239688204381],[1.42142342946601,51.3239583507978],[1.42178156037448,51.3239478800645],[1.42213969106888,51.3239374082382],[1.42249782154917,51.3239269353188],[1.42251453675508,51.3241513254556],[1.42287266874627,51.3241408513537],[1.42288938589142,51.324365241388],[1.42324751939349,51.3243547661035],[1.42326423847793,51.3245791560351],[1.42362237349088,51.3245686795681],[1.42360565268139,51.324344289726],[1.42358893208617,51.3241198998709],[1.4232308005233,51.3241303761588],[1.42321408186736,51.3239059862011],[1.42285595181533,51.3239164613065],[1.42283923509862,51.3236920712461],[1.42248110655744,51.3237025451689],[1.42212297780215,51.3237130179988],[1.42176484883276,51.3237234897356],[1.4214067196493,51.3237339603794],[1.42104859025178,51.3237444299302],[1.42069046064023,51.323754898388],[1.42067375448762,51.3235305077776],[1.42031562638705,51.3235409750529],[1.41995749807251,51.3235514412351],[1.41959936954399,51.3235619063244],[1.41924124080154,51.3235723703206],[1.41888311184518,51.3235828332238],[1.41852498267491,51.3235932950339],[1.41816685329078,51.3236037557511],[1.41780872369279,51.3236142153752],[1.41745059388097,51.3236246739062],[1.41709246385535,51.3236351313442],[1.41673433361594,51.3236455876892],[1.41637620316277,51.3236560429412],[1.41601807249586,51.3236664971001],[1.41565994161523,51.323676950166],[1.4153018105209,51.3236874021388],[1.4149436792129,51.3236978530186],[1.41458555906771,51.3237083041256],[1.41422743951177,51.323718754232],[1.41386931974192,51.3237292032444],[1.41351119975817,51.3237396511629],[1.41315307956055,51.3237500979875],[1.41279495914909,51.3237605437182],[1.4124368385238,51.323770988355],[1.4120787176847,51.3237814318978],[1.41172059663182,51.3237918743467],[1.41136247536518,51.3238023157017],[1.41100435388481,51.3238127559627],[1.41102101285758,51.3240371488183],[1.41103767204414,51.3242615416617],[1.41067954689323,51.3242719809887],[1.41069620456514,51.3244963738999],[1.41071286245081,51.3247207667988],[1.41035473362928,51.3247312051917],[1.41037139000024,51.3249555981584],[1.41038804658497,51.3251799911129],[1.41002991409273,51.3251904285717],[1.41004656916268,51.3254148215939],[1.41006322423976,51.3256392149198],[1.40970508803489,51.3256496515124],[1.40972174115112,51.3258740455978],[1.40973839448425,51.3260984396652],[1.4093802545371,51.3261088754549],[1.4093969063244,51.3263332696469],[1.40941355832859,51.3265576638208],[1.40905541463908,51.3265680988076],[1.40907206509737,51.3267924931062],[1.40908871577253,51.3270168873866],[1.40873056834058,51.3270273215705],[1.40837242069185,51.3270377546661],[1.40835577354234,51.3268133601004],[1.40799762743968,51.3268237919652],[1.40763948112027,51.3268342227418],[1.40765612474409,51.3270586175927],[1.40801427282634,51.3270481866735],[1.40803091842982,51.3272725813638],[1.40838906805818,51.3272621492138],[1.40874721746978,51.3272517159756],[1.40910536666458,51.3272412816491],[1.40912201777351,51.3274656758935],[1.40948016851436,51.3274552403362],[1.40949682160308,51.3276796344199],[1.40985497388998,51.3276691976317],[1.41021312596002,51.3276587597553],[1.41022978279147,51.3278831535357],[1.40987162895853,51.3278935915548],[1.40988828424402,51.3281179854598],[1.40953012843127,51.3281284225333],[1.40951347490871,51.3279040284857],[1.40915532064205,51.3279144643282],[1.40917197240167,51.3281388585186],[1.40881381615524,51.3281492934155],[1.40845565969199,51.3281597272242],[1.40843901145827,51.3279353327487],[1.40842236344139,51.3277109382551],[1.40806421028724,51.3277213706903],[1.40808085654119,51.3279457653265],[1.40809750301197,51.3281701599447],[1.40773934611518,51.3281805915769],[1.40772270140735,51.3279561968161],[1.40736454605678,51.3279666272174],[1.4073479033287,51.327742232296],[1.40698974952435,51.3277526614665],[1.40700639048949,51.3279770565305],[1.40664823470552,51.3279874847553],[1.40663159550331,51.3277630895487],[1.40627344126561,51.3277735165427],[1.40591528681127,51.3277839424484],[1.40589865135165,51.3275595469387],[1.40554049844362,51.3275699716136],[1.40555713214031,51.3277943672659],[1.40519897725275,51.3278047909951],[1.40484082214861,51.327815213636],[1.4048241919778,51.3275908176987],[1.4048075620236,51.3273664217433],[1.40444941022877,51.3273768430109],[1.40443278225409,51.327152446895],[1.404416154496,51.3269280507611],[1.40405800601043,51.3269384706555],[1.40404138023177,51.326714074361],[1.40368323329257,51.3267244930246],[1.4033250861369,51.3267349106],[1.40296693876479,51.3267453270871],[1.40260879117626,51.326755742486],[1.40262540990346,51.3269801393504],[1.40226726033566,51.3269905538035],[1.40190911055148,51.3270009671683],[1.40189249535003,51.326776570019],[1.40153434711237,51.3267869821532],[1.40117619865839,51.3267973931991],[1.40119281033407,51.3270217906333],[1.40155096055094,51.3270113794449],[1.40156757420591,51.3272357767187],[1.40158418807729,51.3274601739744],[1.40160080216509,51.3276845712121],[1.4016174164693,51.3279089684319],[1.40163403098993,51.3281333656336],[1.4012758719583,51.3281437775341],[1.40125925920067,51.32791938019],[1.40124264665943,51.3276949828278],[1.40122603433459,51.3274705854476],[1.40120942222614,51.3272461880495],[1.40085127003005,51.327256598292],[1.40086788037556,51.3274809958326],[1.40050972620025,51.3274914051293],[1.40049311761767,51.3272670074462],[1.40013496498902,51.3272774155122],[1.40011835838569,51.3270530176687],[1.39976020730372,51.327063424504],[1.39977681214412,51.3272878224899],[1.399418659083,51.3272982283793],[1.39906050580568,51.3273086331805],[1.39870235231218,51.3273190368933],[1.39868575276057,51.3270946384803],[1.39832760081385,51.3271050409625],[1.39796943945726,51.3271154385157],[1.39798603598908,51.3273398374461],[1.39800263274046,51.3275642363573],[1.39801922971141,51.3277886352494],[1.39803582690192,51.3280130341222],[1.39767765582113,51.3280234302454],[1.39731948452085,51.3280338252815],[1.39696131300112,51.3280442192304],[1.39660314126196,51.3280546120922],[1.39658655126879,51.3278302125981],[1.39656996149509,51.3276058130847],[1.39655337194087,51.3273814135522],[1.39653678260612,51.3271570140004],[1.3961786178448,51.3271674051539],[1.39619520538027,51.327391804861],[1.3958370386003,51.3274021950826],[1.39547887160098,51.3274125842173],[1.39512070438234,51.3274229722647],[1.39510412224471,51.3271985720918],[1.39546228766407,51.3271881841996],[1.39544570394656,51.3269637841628],[1.39542912044844,51.3267393841068],[1.39507095862759,51.3267497716885],[1.39471279658744,51.3267601581831],[1.39472937648708,51.3269845585496],[1.39474595660606,51.327208958897],[1.39438779074813,51.327219344615],[1.39437121242842,51.3269949441124],[1.39435463432803,51.3267705435906],[1.39433805644697,51.3265461430496],[1.39397989576755,51.3265565272148],[1.3936217348689,51.3265669102929],[1.3936383091515,51.3267913111443],[1.39328014623443,51.3268016932906],[1.39326357375107,51.3265772922839],[1.39290541241406,51.3265876731878],[1.39292198309817,51.3268120743498],[1.39256381974277,51.3268224543218],[1.3925472508579,51.3265980530047],[1.39218908908262,51.3266084317344],[1.39220565616824,51.3268328332068],[1.3918474923746,51.3268432110047],[1.39183092708823,51.3266188093771],[1.39147276487477,51.3266291859327],[1.39148932836188,51.3268535877154],[1.39113116413011,51.3268639633391],[1.39077299967929,51.3268743378757],[1.39078955978698,51.3270987399496],[1.39043139331786,51.3271091135542],[1.39044795184533,51.3273335157641],[1.39046451059187,51.3275579179548],[1.39082268065964,51.3275475440399],[1.39083924142462,51.3277719460563],[1.3904810695575,51.3277823201264],[1.39049762874221,51.3280067222788],[1.39051418814601,51.3282311244121],[1.3905307477689,51.3284555265261],[1.39054730761089,51.328679928621],[1.39056386767198,51.3289043306968],[1.39092204853624,51.3288939558508],[1.39093861061593,51.3291183577522],[1.39095517291475,51.3293427596344],[1.3909717354327,51.3295671614975],[1.39098829816979,51.3297915633414],[1.39134648601312,51.3297811867874],[1.39136305076893,51.3300055884569],[1.39137961574391,51.3302299901073],[1.39139618093807,51.3304543917385],[1.3914127463514,51.3306787933505],[1.39142931198391,51.3309031949433],[1.39178750860628,51.3308928165262],[1.39180407625767,51.3311172179446],[1.3914458778356,51.331127596517],[1.39108767919442,51.3311379740021],[1.39072948033416,51.3311483503999],[1.39074604280559,51.3313727522648],[1.39076260549617,51.3315971541105],[1.39077916840589,51.331821555937],[1.39079573153477,51.3320459577444],[1.3908122948828,51.3322703595326],[1.39082885844999,51.3324947613016],[1.39084542223635,51.3327191630515],[1.39120363369517,51.3327087855673],[1.39122019950058,51.3329331871428],[1.39157841254017,51.3329228084161],[1.39193662536063,51.332912428602],[1.39229483796192,51.3329020477005],[1.39265305034404,51.3328916657118],[1.39263647733912,51.3326672647572],[1.39299468770216,51.3326568818364],[1.39301126250694,51.3328812826357],[1.39302783753103,51.3331056834159],[1.39304441277443,51.3333300841769],[1.39306098823715,51.3335544849187],[1.3927027706745,51.3335648684605],[1.39234455289264,51.333575250915],[1.39198633489158,51.3335856322821],[1.39200290517373,51.3338100334704],[1.39164468515353,51.3338204139054],[1.39128646491418,51.333830793253],[1.3909282444557,51.3338411715132],[1.39094481109625,51.3340655730477],[1.39058658875553,51.3340759503567],[1.39060315436746,51.3343003519796],[1.39096137845542,51.3342899745315],[1.39131960232915,51.3342795959945],[1.39167782598863,51.3342692163687],[1.39169439705658,51.3344936175565],[1.39133617164985,51.3345039973215],[1.39097794602887,51.3345143759976],[1.39099451381663,51.334738777446],[1.39063628623414,51.3347491551723],[1.39027805843745,51.3347595318097],[1.39026149414425,51.334535130083],[1.38990326788065,51.3345455054924],[1.38954504140288,51.3345558798129],[1.38956160220151,51.3347802818177],[1.38957816321436,51.3350046838048],[1.38921993302785,51.3350150573145],[1.38886170262722,51.3350254297353],[1.38887826035961,51.3352498319828],[1.38852002799753,51.3352602034537],[1.38816179542138,51.3352705738357],[1.38780356263116,51.3352809431287],[1.38778701014082,51.335056540464],[1.38742877888391,51.3350669085291],[1.387412228355,51.3348425057077],[1.38705399863143,51.3348528725448],[1.38669576869386,51.334863238293],[1.3867123157281,51.3350876413924],[1.38672886297637,51.3353120444741],[1.38674541043869,51.3355364475382],[1.38638717504507,51.3355468126144],[1.38602893943749,51.3355571766017],[1.38567070361599,51.3355675395],[1.38568724605011,51.3357919429634],[1.38532900826728,51.3358023049118],[1.38497077027056,51.3358126657711],[1.38461253205998,51.3358230255415],[1.38462906946574,51.3360474294041],[1.38427082929386,51.3360577882245],[1.38391258890816,51.3360681459558],[1.38355434830865,51.3360785025982],[1.38319610749536,51.3360888581516],[1.38321263812512,51.3363132625523],[1.3832291689687,51.3365376669354],[1.38358741327698,51.3365273111042],[1.38360394608194,51.3367517153306],[1.38396219192396,51.3367413582715],[1.38397872669032,51.3369657623414],[1.38399526167057,51.3371901663937],[1.3843535107939,51.3371798079676],[1.38437004773563,51.3374042118632],[1.3847282983927,51.3373938522091],[1.38474483729596,51.3376182559482],[1.38476137641316,51.3378426596695],[1.3851196303516,51.3378322986485],[1.3851361714304,51.3380567022132],[1.38477791574431,51.3380670633733],[1.38441965984433,51.3380774234442],[1.38443619764175,51.3383018272693],[1.3844527356531,51.3385262310767],[1.38481099504845,51.3385158707277],[1.38482753502146,51.3387402743785],[1.38518579595064,51.3387299128015],[1.38554405666591,51.3387195501355],[1.38590231716724,51.3387091863803],[1.38591886259742,51.3389335895965],[1.38627712463252,51.3389232246132],[1.38629367202448,51.3391476276727],[1.38593540824163,51.339157992795],[1.38595195409987,51.3393823959758],[1.38631021963051,51.3393720307145],[1.38632676745059,51.3395964337387],[1.38634331548474,51.3398208367452],[1.38670158429699,51.3398104701168],[1.38671813429304,51.3400348729666],[1.38707640463911,51.34002450511],[1.38709295659711,51.3402489078031],[1.38710950876924,51.3404733104786],[1.38675123492744,51.3404836786132],[1.38676778556579,51.34070808141],[1.38640950976205,51.3407184485945],[1.38642605886658,51.3409428515127],[1.38678433641825,51.3409324841892],[1.38680088748481,51.3411568869506],[1.38715916657038,51.3411465183989],[1.38751744544189,51.3411361487581],[1.38750089087944,51.3409117462746],[1.38785916778892,51.3409013756837],[1.3878426116927,51.3406769733216],[1.38820088664017,51.3406666017805],[1.3882174444843,51.3408910040035],[1.38857572096554,51.3408806312342],[1.38859228077181,51.3411050333004],[1.3886088407923,51.341329435349],[1.38896712055527,51.3413190612123],[1.38898368253796,51.3415434631041],[1.38862540102702,51.3415538373798],[1.38864196147596,51.3417782393931],[1.38828367800285,51.3417886127187],[1.3879253943156,51.3417989849551],[1.38794195148273,51.3420233872287],[1.38758366583333,51.342033758515],[1.38760022162254,51.3422581610003],[1.38761677866234,51.3424825640753],[1.38797506768428,51.3424721925939],[1.38799162661753,51.342696595628],[1.38834991711628,51.3426862230144],[1.38836647794302,51.3429106260075],[1.38872476991858,51.3429002522618],[1.38874133263886,51.343124655214],[1.38909962609121,51.3431142803362],[1.38911619070508,51.3433386832474],[1.3891327555274,51.3435630861509],[1.38914932055816,51.3437874890465],[1.38879102205025,51.3437978640237],[1.38880758560422,51.3440222669445],[1.38844928520271,51.3440326408557],[1.38809098459285,51.3440430136678],[1.38773268377466,51.3440533853807],[1.38774924248129,51.344277788393],[1.38739093976954,51.3442881590398],[1.3870326368495,51.3442985285876],[1.3866743337212,51.3443088970363],[1.38669088758031,51.3445333001398],[1.38633258255847,51.3445436675224],[1.3859742773284,51.3445540338058],[1.38561597189014,51.3445643989901],[1.38525766624369,51.3445747630753],[1.3852742135698,51.3447991663031],[1.38491590602986,51.3448095293221],[1.38455759828178,51.344819891242],[1.38419929032558,51.3448302520627],[1.38421583280382,51.3450546553817],[1.38423237549023,51.3452790586928],[1.38459068681718,51.3452686978061],[1.38460723139716,51.3454931010764],[1.38462377618533,51.3457175043388],[1.38464032118169,51.3459419075934],[1.38465686638626,51.3461663108402],[1.38467341179902,51.3463907140791],[1.3843150920448,51.3464010751307],[1.38433163598025,51.3466254783948],[1.38397331433239,51.3466358383802],[1.38398985679048,51.3468602416694],[1.38400639945674,51.3470846449508],[1.38364807422966,51.3470950039029],[1.38363153324897,51.3468706005886],[1.38327320949937,51.3468809584085],[1.38328974879449,51.3471053617558],[1.38330628829774,51.3473297650952],[1.38332282800911,51.3475541684268],[1.38333936792863,51.3477785717506],[1.38335590805628,51.3480029750666],[1.38337244839207,51.3482273783747],[1.38373078225544,51.348217020357],[1.38374732448508,51.3484414236243],[1.38410565982604,51.3484310644743],[1.38446399495886,51.3484207042251],[1.38448054076812,51.3486451074186],[1.3848388773785,51.3486347460371],[1.38519721378071,51.3486243835563],[1.38521376316965,51.348848786676],[1.38557210104939,51.3488384230629],[1.3859304387209,51.3488280583506],[1.3859138859605,51.3486036552969],[1.38627222173804,51.3485932895182],[1.38663055730732,51.3485829226403],[1.38698889266831,51.348572554663],[1.38700545048587,51.3487969576176],[1.38664711343916,51.3488073256279],[1.38666366977936,51.3490317286076],[1.38630533083862,51.3490420955517],[1.38594699168961,51.3490524613964],[1.38596354486663,51.3492768644344],[1.3856052038236,51.3492872292128],[1.38524686257234,51.3492975928919],[1.38488852111286,51.3493079554717],[1.3845301794452,51.3493183169521],[1.38454672608735,51.3495427201143],[1.38456327293774,51.3497671232686],[1.38492161797702,51.3497567617222],[1.38493816672149,51.3499811648357],[1.38529651323842,51.3499708021569],[1.38565485954713,51.3499604383787],[1.3860132056476,51.3499500735013],[1.38602975965791,51.3501744765079],[1.38604631387654,51.3503988795067],[1.3860628684877,51.3506232812685],[1.38607942379331,51.350847679796],[1.38609597931173,51.3510720783135],[1.38611253504296,51.351296476821]]],[[[1.38954504140288,51.3345558798129],[1.38952848081846,51.3343314777905],[1.38988670554896,51.3343211036091],[1.3902449300653,51.3343107283388],[1.3902283662006,51.3340863265768],[1.39021180288144,51.3338619247716],[1.39057002377811,51.3338515486861],[1.39055346069586,51.3336271468769],[1.39019524159918,51.3336375228072],[1.39017868053606,51.3334131208236],[1.38982046302028,51.3334234955114],[1.38983702228344,51.3336478976501],[1.38985358176571,51.3338722997697],[1.3898701434315,51.334096701708],[1.38951192044825,51.3341070757504],[1.38915369725086,51.3341174487038],[1.38917025587383,51.334341850883],[1.38881203071508,51.3343522228866],[1.38882858780496,51.3345766251872],[1.38918681471098,51.3345662530445],[1.38954504140288,51.3345558798129]]],[[[1.43182427209268,51.3382709545414],[1.43218251158059,51.3382604502828],[1.43219928195571,51.3384848374672],[1.43255752297646,51.3384743320299],[1.43291576378008,51.3384638254986],[1.43289898990507,51.3382394384836],[1.43254075085139,51.3382499449302],[1.43252397894352,51.3380255578179],[1.43216574142265,51.3380360630859],[1.43214897148188,51.3378116758763],[1.43179073549381,51.3378221799656],[1.43180750368467,51.3380465672598],[1.43182427209268,51.3382709545414]]],[[[1.43260784065489,51.3391474932533],[1.43296608670848,51.339136986468],[1.4333243325449,51.3391264785887],[1.43330755626819,51.3389020916962],[1.43329078020874,51.338677704791],[1.43293253787231,51.338688212501],[1.43257429531872,51.338698719117],[1.4325910678782,51.3389231061915],[1.43260784065489,51.3391474932533]]],[[[1.40402475466968,51.3264896780486],[1.40438289962956,51.3264792584393],[1.40474104437294,51.3264688377417],[1.40509918889979,51.326458415956],[1.40508255826583,51.3262340200531],[1.4050659278485,51.3260096241322],[1.40470778684724,51.3260200456329],[1.40434964562945,51.3260304660454],[1.40399150419516,51.3260408853697],[1.40400812932415,51.3262652817181],[1.40402475466968,51.3264896780486]]],[[[1.38385752295416,51.3450650151363],[1.38384098216128,51.3448406117843],[1.38382444157654,51.3446162084246],[1.38380790119994,51.344391805057],[1.38344959619825,51.3444021636135],[1.38309129098851,51.3444125210709],[1.38310782799445,51.3446369245044],[1.38274952089135,51.3446472808956],[1.38239121358024,51.3446576361876],[1.38240774742355,51.3448820396792],[1.38204943821909,51.3448923939051],[1.38206597058507,51.3451167974217],[1.38170765948725,51.3451271505813],[1.38172419037584,51.3453515541231],[1.38136587838821,51.3453619039355],[1.38138240769134,51.3455863076926],[1.38174072147245,51.345575957657],[1.38175725277707,51.3458003611831],[1.38211556893119,51.3457900079247],[1.38247388487733,51.3457796535671],[1.3824573502018,51.3455552501069],[1.38209903594111,51.3455656044315],[1.38208250315907,51.3453412009305],[1.38244081573433,51.3453308466388],[1.38279912810159,51.345320491248],[1.38315744026083,51.3453101347579],[1.38351575221203,51.3452997771687],[1.38387406395517,51.3452894184803],[1.38385752295416,51.3450650151363]]],[[[1.38224784034161,51.3475852355877],[1.3822313056871,51.3473608321573],[1.38221477124066,51.347136428719],[1.38219823700227,51.3469120252729],[1.38183991242055,51.3469223786959],[1.38148158799173,51.3469327299974],[1.38112326418586,51.3469430778382],[1.38110673534629,51.3467186740786],[1.38109020672013,51.3464942703077],[1.38107367830736,51.3462698665255],[1.38105715010798,51.346045462732],[1.38104062212199,51.3458210589272],[1.38102409434939,51.3455966551111],[1.38100756679016,51.3453722512836],[1.38064925497879,51.345382597536],[1.38063272937683,51.3451581936269],[1.38027441909605,51.3451685387132],[1.38025789545132,51.3449441347224],[1.37989958670114,51.3449544786427],[1.37991610860201,51.3451788827038],[1.37993263071618,51.3454032867536],[1.37994915304366,51.3456276907922],[1.37959083884855,51.3456380338278],[1.3796073596454,51.3458624379254],[1.37962388065555,51.3460868420117],[1.37998219833857,51.3460764988353],[1.37999872130601,51.34630090284],[1.38035704051975,51.3462905584976],[1.38037356544452,51.3465149624205],[1.38039009058264,51.3467393663322],[1.38003176788086,51.3467497108153],[1.38004829148828,51.3469741147861],[1.37968996682917,51.3469844582438],[1.37970648890585,51.3472088622736],[1.37972301119585,51.3474332662921],[1.37973953369917,51.3476576702992],[1.38009786359058,51.3476473266304],[1.3804561932687,51.3476369818658],[1.38081452273351,51.3476266360054],[1.38117285198499,51.3476162890491],[1.38153118102311,51.3476059409971],[1.38188951070305,51.3475955891095],[1.38224784034161,51.3475852355877]]]]}}