{"type":"Feature","properties":{"code":"E63004944","name":"Hammersmith and Fulham"},"geometry":{"type":"MultiPolygon","coordinates":[[[[-0.248902323756849,51.4973111583041],[-0.248910938166169,51.4970864720554],[-0.249270907494882,51.4970918439405],[-0.249262294872809,51.4973165302288],[-0.249253682138189,51.4975412165076],[-0.249613655153941,51.4975465873674],[-0.249605044094067,51.4977712736762],[-0.249596432921664,51.4979959599756],[-0.249956409624531,51.49800132981],[-0.249947800126942,51.4982260161395],[-0.249939190516844,51.4984507024594],[-0.250299170906903,51.4984560712683],[-0.250290562971686,51.4986807576184],[-0.250281954923978,51.498905443959],[-0.250273346763779,51.49913013029],[-0.250633332628547,51.499135498113],[-0.250624726143317,51.4993601844741],[-0.250984713907991,51.499365551232],[-0.250976109097776,51.4995902376232],[-0.250967504175109,51.499814924005],[-0.25095889913999,51.5000396103772],[-0.251318892379622,51.5000449761491],[-0.251310289019606,51.5002696625514],[-0.251670283764718,51.5002750273484],[-0.251661682108512,51.500499713774],[-0.251653080133894,51.5007244002682],[-0.252013077518563,51.5007297642759],[-0.252004477194228,51.5009544508038],[-0.252364476462647,51.5009598137461],[-0.25235587779881,51.501184500304],[-0.252715878950981,51.5011898621809],[-0.252707281947689,51.5014145487686],[-0.252698684832787,51.5016392353468],[-0.253058689640916,51.5016445961976],[-0.253050094186624,51.5018692828057],[-0.253041498620743,51.5020939694043],[-0.25303290294327,51.5023186559934],[-0.253024307154201,51.502543342573],[-0.253015711253538,51.5027680291432],[-0.253007115241275,51.5029927157038],[-0.253367130794654,51.5029980756859],[-0.253358536443154,51.5032227622764],[-0.253718553880447,51.503228121193],[-0.253709961189754,51.5034528078133],[-0.253701368387503,51.5036774944242],[-0.254061389481125,51.5036828523146],[-0.254052798339748,51.5039075389553],[-0.254412821317317,51.5039128957801],[-0.254404231836861,51.5041375824506],[-0.254044207086833,51.5041322255865],[-0.253684182448319,51.5041268676175],[-0.253692775473692,51.5039021810256],[-0.25333275271917,51.5038968219911],[-0.252972730076206,51.5038914618517],[-0.252964133505925,51.504116148365],[-0.253324157921342,51.5041215085437],[-0.253315563011927,51.5043461950868],[-0.253306967990924,51.5045708816204],[-0.252946940030531,51.504565521363],[-0.252586912181724,51.5045601600008],[-0.252595510747724,51.5043354735458],[-0.252235484783023,51.504330111118],[-0.251875458929951,51.5043247475854],[-0.251866856818962,51.5045494339616],[-0.251506829018761,51.5045440693444],[-0.251146799961991,51.5045387039074],[-0.250786771017544,51.5045333373656],[-0.250795378513435,51.5043086510968],[-0.250435351466782,51.5043032834883],[-0.250075324532495,51.5042979147749],[-0.249715297710598,51.5042925449565],[-0.249706684858364,51.5045172311104],[-0.249346656363434,51.5045118601489],[-0.249355271001113,51.5042871740333],[-0.248995244404063,51.5042818020051],[-0.248635217919472,51.504276428872],[-0.248626599710912,51.5045011149109],[-0.248266571553365,51.5044957406346],[-0.248275191547363,51.504271054634],[-0.247915165287759,51.504265679291],[-0.247555139140683,51.5042603028432],[-0.247195113106158,51.5042549252904],[-0.246835087184208,51.5042495466328],[-0.246826460048477,51.50447423248],[-0.246466432453696,51.504468852679],[-0.246106404971537,51.5044634717732],[-0.245746377602024,51.5044580897624],[-0.245386350345179,51.5044527066467],[-0.245377715955029,51.5046773923309],[-0.245369081452161,51.5049020780057],[-0.24572911227992,51.5049074611982],[-0.245720479449821,51.505132146902],[-0.245711846507023,51.5053568325963],[-0.245703213451522,51.5055815182812],[-0.246063249748503,51.505586900484],[-0.246054618365861,51.5058115861978],[-0.246045986870536,51.5060362719022],[-0.246037355262527,51.5062609575972],[-0.246028723541831,51.5064856432828],[-0.246388767093864,51.5064910245341],[-0.246380137046136,51.5067157102486],[-0.246020091708446,51.5067103289589],[-0.24566004648342,51.5067049465642],[-0.245300001371083,51.5066995630644],[-0.244939956371457,51.5066941784597],[-0.244931319068353,51.5069188640112],[-0.244922681652488,51.5071435495532],[-0.244914044123859,51.5073682350858],[-0.245274094480577,51.5073736198058],[-0.245265458624926,51.5075983053673],[-0.245256822656531,51.5078229909195],[-0.245248186575388,51.5080476764622],[-0.245239550381499,51.5082723619954],[-0.245230914074858,51.5084970475193],[-0.245590973473249,51.5085024313262],[-0.245582338839718,51.508727116879],[-0.245573703801286,51.5089518024918],[-0.245565068338984,51.5091764881691],[-0.245556432763414,51.5094011738371],[-0.245547797074574,51.5096258594959],[-0.245907865539714,51.5096312423818],[-0.245899231534686,51.5098559280664],[-0.245890597416406,51.5100806137418],[-0.245881963184875,51.5103052994078],[-0.245873328840088,51.5105299850646],[-0.246233404606937,51.5105353669859],[-0.246224771946072,51.5107600526686],[-0.246216139171971,51.5109847383419],[-0.246207506284634,51.511209424006],[-0.246567587556304,51.5112148049274],[-0.246558956352976,51.5114394906174],[-0.246550325036431,51.5116641762981],[-0.246910410015821,51.5116695561844],[-0.246901780383354,51.511894241891],[-0.246893150637688,51.5121189275882],[-0.247253239324874,51.5121243064395],[-0.247244611263354,51.5123489921626],[-0.247604701861044,51.5123543699436],[-0.247596075483716,51.5125790556925],[-0.24758744899323,51.5128037414322],[-0.247947543298821,51.512809118178],[-0.247938918492594,51.5130338039435],[-0.247930293573229,51.5132584896998],[-0.248290391586801,51.5132638654104],[-0.248281768351763,51.5134885511925],[-0.248273145003604,51.5137132369652],[-0.248633246725234,51.5137186116407],[-0.24862462506147,51.5139432974392],[-0.248984728693693,51.5139486710443],[-0.248976108714371,51.5141733568687],[-0.248967488621969,51.5143980426838],[-0.248958868416486,51.5146227284897],[-0.248950248097921,51.5148474142863],[-0.248941627666271,51.5150721000736],[-0.249301740399495,51.5150774727486],[-0.249293121652417,51.5153021585617],[-0.249284502792274,51.5155268443655],[-0.249275883819062,51.5157515301601],[-0.249267264732782,51.5159762159453],[-0.249627384769829,51.5159815876551],[-0.249618767368231,51.5162062734662],[-0.249610149853583,51.516430959268],[-0.249601532225882,51.5166556450605],[-0.249592914485128,51.5168803308437],[-0.249953041826362,51.5168857015883],[-0.2499444257704,51.5171103873973],[-0.249935809275755,51.517335073377],[-0.249927192535058,51.5175597594208],[-0.249918575680709,51.5177844454553],[-0.25027871035055,51.517789815237],[-0.250270095193296,51.5180145012961],[-0.250261479922407,51.5182391873459],[-0.249901341631046,51.5182338174967],[-0.249892724435729,51.5184585035036],[-0.250252864537885,51.5184638733866],[-0.250244249039726,51.518688559418],[-0.250235633427929,51.5189132454402],[-0.250595777265363,51.518918614285],[-0.250587163350792,51.5191433003318],[-0.250578549322602,51.5193679863694],[-0.250218401863411,51.519362617457],[-0.250227017702491,51.5191379314532],[-0.249866872167811,51.5191325614689],[-0.249858254517843,51.5193572474389],[-0.249849636754206,51.5195819333997],[-0.250209785910687,51.5195873034516],[-0.250201169844316,51.519811989437],[-0.250192553664297,51.5200366754131],[-0.250183937370628,51.5202613613801],[-0.250175320963307,51.5204860473378],[-0.249815164562947,51.5204806771509],[-0.249823782781273,51.5202559912269],[-0.249832400885924,51.5200313052937],[-0.2498410188769,51.5198066193513],[-0.249480868023135,51.51980124816],[-0.249472248221202,51.5200259340686],[-0.249112095670156,51.5200205617377],[-0.248751943232808,51.520015188301],[-0.248391790909182,51.5200098137586],[-0.248031638699303,51.5200044381105],[-0.247671486603192,51.5199990613566],[-0.247311334620874,51.5199936834969],[-0.246951182752372,51.5199883045315],[-0.24659103099771,51.5199829244603],[-0.246230879356912,51.5199775432834],[-0.246239515457362,51.5197528576792],[-0.245879365741386,51.5197474754304],[-0.245888003538845,51.5195227898508],[-0.24552785574769,51.5195174065302],[-0.245167708070463,51.5195120221038],[-0.24517634937577,51.5192873365828],[-0.244816203623381,51.5192819510846],[-0.244824846625579,51.5190572655882],[-0.244464702798024,51.5190518790182],[-0.244473347497064,51.5188271935465],[-0.244113205594339,51.5188218059047],[-0.244121851990176,51.5185971204577],[-0.243761712012278,51.5185917317441],[-0.243753063805632,51.5188164171571],[-0.243392922130966,51.5188110273038],[-0.243032780570366,51.5188056363449],[-0.243041432398623,51.5185809509997],[-0.242681292762913,51.518575558969],[-0.242689946287844,51.5183508736485],[-0.242698599698649,51.5181261883189],[-0.242707252995329,51.51790150298],[-0.242347118905991,51.5178961099454],[-0.241986984930781,51.5178907158052],[-0.241626851069721,51.5178853205594],[-0.241266717322836,51.5178799242078],[-0.241258056783246,51.5181046094109],[-0.240897921339836,51.5180992119197],[-0.24053778601065,51.5180938133228],[-0.240177650795712,51.5180884136203],[-0.239817515695044,51.5180830128122],[-0.239457380708671,51.5180776108983],[-0.239097245836615,51.5180722078788],[-0.2387371110789,51.5180668037536],[-0.23837697643555,51.5180613985228],[-0.238368301295829,51.5182860834444],[-0.238008164956137,51.5182806770739],[-0.237999487891256,51.5185053619522],[-0.237639349855227,51.5184999544419],[-0.237279211933636,51.5184945458259],[-0.237270531132777,51.5187192306269],[-0.237630670865141,51.518724639277],[-0.237621991760598,51.5189493241029],[-0.237613312541598,51.5191740089195],[-0.237604633208138,51.5193986937269],[-0.237964778487407,51.5194041013735],[-0.237956100850353,51.5196287862058],[-0.237947423098858,51.5198534710288],[-0.238307572114314,51.5198588776378],[-0.238298896059293,51.5200835624856],[-0.23793874523292,51.5200781558426],[-0.237578594520977,51.5200727480938],[-0.237218443923486,51.5200673392393],[-0.236858293440472,51.520061929279],[-0.236498143071957,51.520056518213],[-0.236489457847835,51.5202812028812],[-0.236129305782913,51.5202757906753],[-0.235769153832541,51.5202703773637],[-0.235409001996741,51.5202649629464],[-0.235048850275536,51.5202595474233],[-0.234688700058449,51.5202541297928],[-0.234328550885521,51.5202487103857],[-0.234337246820488,51.5200240259914],[-0.234345942643804,51.519799341587],[-0.234354638355473,51.5195746571725],[-0.233994494538923,51.5195692368178],[-0.234003191887148,51.5193445524457],[-0.233643049930452,51.5193391310386],[-0.233282908085432,51.5193337085267],[-0.232922766352109,51.51932828491],[-0.232562624730506,51.5193228601885],[-0.232202483220647,51.5193174343621],[-0.232193777131446,51.5195421184719],[-0.232553920389497,51.5195475443507],[-0.232545215936728,51.5197722285029],[-0.232185070930462,51.5197668025715],[-0.232176364617696,51.5199914866611],[-0.231816217974965,51.5199860595724],[-0.231456071444027,51.5199806313789],[-0.231095925024907,51.5199752020805],[-0.230735778717624,51.5199697716773],[-0.230375632522204,51.5199643401692],[-0.230015486438668,51.5199589075563],[-0.230006769524597,51.5201835913206],[-0.229646621804721,51.5201781575503],[-0.229286474196777,51.5201727226752],[-0.228926326700786,51.5201672866952],[-0.228566179316772,51.5201618496103],[-0.228557455297714,51.5203865331542],[-0.228917604429991,51.5203919702916],[-0.228908882047202,51.520616653878],[-0.228900159552418,51.5208413374543],[-0.229260312293273,51.520846773592],[-0.229251591434823,51.5210714572107],[-0.228891436945636,51.5210660210204],[-0.228531282568433,51.5210605837252],[-0.228540006923546,51.5208359002117],[-0.228548731166639,51.520611216688],[-0.228188580398078,51.5206057783931],[-0.228197306277436,51.520381094912],[-0.227837157369183,51.5203756555648],[-0.227845884884762,51.5201509721261],[-0.227485737836813,51.5201455317267],[-0.227494466988566,51.5199208483305],[-0.227134321800916,51.5199154068789],[-0.227125590900929,51.5201400902225],[-0.226765444077135,51.5201346476135],[-0.226774176725353,51.5199099643225],[-0.2264140317619,51.5199045206612],[-0.226422766046198,51.5196798374128],[-0.226062622943082,51.5196743926993],[-0.226071358863416,51.5194497094933],[-0.225711217620633,51.5194442637277],[-0.225719955176955,51.5192195805643],[-0.22572869262109,51.5189948973908],[-0.226088830367581,51.5190003430511],[-0.226080094671581,51.5192250262773],[-0.226440234278356,51.5192304708855],[-0.22644896822622,51.5190057876066],[-0.226457702061942,51.5187811043177],[-0.226097565951417,51.5187756598148],[-0.226106301423092,51.5185509765683],[-0.225746167172801,51.5185455310133],[-0.225754904280382,51.5183208478094],[-0.225394771890323,51.5183154012023],[-0.225403510633765,51.5180907180409],[-0.225412249265005,51.5178660348694],[-0.225052120483189,51.5178605872628],[-0.225060860750225,51.5176359041338],[-0.224700733828608,51.5176304554752],[-0.224709475731393,51.5174057723887],[-0.224718217521937,51.5171810892922],[-0.224358094207999,51.5171756396343],[-0.22436683726914,51.5169509567119],[-0.224006715828964,51.5169455059989],[-0.223997970998458,51.5171701888746],[-0.223637847902227,51.5171647370099],[-0.223646594502094,51.5169400541809],[-0.223286473288553,51.5169346012579],[-0.22329522154441,51.5167099184657],[-0.223303969686897,51.5164852356637],[-0.222943852125356,51.5164797817292],[-0.222952601923766,51.516255098964],[-0.222961351608788,51.5160304161891],[-0.22260123769917,51.516024961243],[-0.222609989040048,51.5158002785049],[-0.22224987701306,51.5157948225006],[-0.222258630009748,51.5155701397994],[-0.222267382893007,51.5153454570885],[-0.22227613566284,51.5151207743676],[-0.221916029056839,51.5151153173986],[-0.221924783482395,51.5148906347146],[-0.221933537794505,51.5146659520209],[-0.221573434840199,51.5146604940404],[-0.221582190807965,51.5144358113835],[-0.221590946662267,51.5142111287168],[-0.221230847359577,51.514205669725],[-0.221239604869468,51.5139809870952],[-0.221248362265875,51.5137563044556],[-0.221257119548802,51.5135316218061],[-0.220897025666657,51.5135261618497],[-0.220905784605085,51.5133014792371],[-0.220914543430012,51.5130767966148],[-0.221274633774219,51.5130822564777],[-0.221283390716714,51.5128575737987],[-0.220923302141441,51.5128521139826],[-0.220932060739373,51.5126274313405],[-0.220940819223812,51.5124027486886],[-0.220580734299812,51.5123972878612],[-0.220589494439622,51.5121726052462],[-0.220598254465919,51.5119479226214],[-0.220607014378704,51.5117232399868],[-0.220246934874718,51.5117177781948],[-0.219886855484245,51.5117123152981],[-0.219895618821106,51.5114876327472],[-0.219904382044413,51.5112629501865],[-0.219544306305032,51.5112574862785],[-0.219553071183531,51.5110328037548],[-0.219561835948458,51.5108081212211],[-0.219570600599815,51.5105834386776],[-0.219930671033034,51.5105889024452],[-0.219939433802147,51.5103642198451],[-0.219579365137603,51.5103587561243],[-0.219219296586607,51.5103532912988],[-0.219228062779479,51.5101286087825],[-0.219236828858764,51.5099039262563],[-0.219245594824463,51.5096792437203],[-0.218885531692912,51.5096737779305],[-0.218525468674949,51.509668311036],[-0.218516699172048,51.5098929934784],[-0.218156634929153,51.5098875252109],[-0.218147863591514,51.5101122075735],[-0.218139092140547,51.5103368899265],[-0.217779025937128,51.5103314197178],[-0.217770252610884,51.5105561020162],[-0.217410184758854,51.510550630658],[-0.217050117020184,51.5105451581949],[-0.217058893870314,51.510320475986],[-0.216698828006966,51.5103150024629],[-0.216707606505615,51.510090320289],[-0.216716384890844,51.5098656381055],[-0.216725163162657,51.5096409559122],[-0.216365102698389,51.5096354814186],[-0.216373882618633,51.5094107992603],[-0.216382662425439,51.5091861170923],[-0.216022605598259,51.5091806415835],[-0.215662548884517,51.50917516497],[-0.215671332101487,51.5089504828818],[-0.215311277263001,51.5089450052083],[-0.215320062057091,51.5087203231589],[-0.215328846678845,51.5084956411027],[-0.215337631186808,51.5082709590368],[-0.215346415580983,51.5080462769611],[-0.214986367921251,51.5080407983617],[-0.214995153969333,51.507816116321],[-0.215003939903607,51.5075914342705],[-0.215363984027972,51.5075969127806],[-0.215372768080791,51.5073722306758],[-0.215732810551269,51.5073777080365],[-0.216092853135484,51.5073831842926],[-0.216101633539264,51.5071585020887],[-0.21611041382931,51.5069338198751],[-0.215750374780331,51.5069283437083],[-0.21575915672423,51.5067036615296],[-0.215767938554376,51.5064789793411],[-0.215776720270772,51.506254297143],[-0.216136754017067,51.5062597731759],[-0.216496787877068,51.5062652481041],[-0.216856821850753,51.5062707219276],[-0.217216855938098,51.5062761946464],[-0.21722563047067,51.5060515122601],[-0.21758566290413,51.5060569838296],[-0.217594435555547,51.5058323013889],[-0.217603208093333,51.5056076189384],[-0.217243179194852,51.505602147458],[-0.217251953386466,51.5053774650424],[-0.217260727464429,51.5051527826171],[-0.217269501428745,51.504928100182],[-0.216909477946186,51.5049226277308],[-0.216918253564241,51.5046979453306],[-0.217278275279416,51.5047034177372],[-0.217287049016443,51.5044787352827],[-0.216927029068629,51.5044732629207],[-0.216935804459354,51.504248580501],[-0.216575786392521,51.504243107079],[-0.216584563436896,51.5040184246942],[-0.216593340367588,51.5037937422997],[-0.216233325949023,51.5037882678623],[-0.215873311644141,51.5037827923204],[-0.215882091995681,51.5035581100053],[-0.215890872233496,51.5033334276806],[-0.215530861576824,51.5033279511233],[-0.215539643468132,51.5031032688334],[-0.215179634692401,51.5030977912163],[-0.215188418237156,51.5028731089613],[-0.215197201668146,51.5026484266966],[-0.214837196540519,51.5026429480642],[-0.214845981624889,51.5024182658344],[-0.214854766595477,51.5021935835949],[-0.214863551452281,51.5019689013457],[-0.214503551739777,51.5019634217427],[-0.214512338249875,51.5017387395284],[-0.214521124646171,51.5015140573043],[-0.214529910928668,51.5012893750705],[-0.214169916631093,51.501283894497],[-0.214178704566796,51.5010592122982],[-0.21418749238868,51.5008345300895],[-0.213827501738885,51.5008290485009],[-0.213836291213909,51.5006043663273],[-0.213476302444885,51.5005988836789],[-0.213485093528327,51.5003742015689],[-0.213125106635104,51.5003687178625],[-0.213133899338088,51.5001440358068],[-0.212773914320373,51.5001385510414],[-0.212782708671592,51.4999138690215],[-0.212791502909157,51.4996891869917],[-0.21243152152879,51.499683701213],[-0.212440317414523,51.499459019219],[-0.212080337909631,51.4994535323814],[-0.211720358518415,51.4994480444395],[-0.211729157814066,51.4992233625268],[-0.211369180298342,51.499217873526],[-0.211377981242046,51.498993191649],[-0.21101800560181,51.4989877015895],[-0.211026808193521,51.4987630197483],[-0.210666834428769,51.49875752863],[-0.210675638668441,51.4985328468246],[-0.21031566677917,51.4985273546475],[-0.210324472666758,51.4983026728778],[-0.209964502652963,51.498297179642],[-0.20997331018842,51.4980724979082],[-0.209982117610057,51.4978478161645],[-0.209622151233381,51.4978423219156],[-0.209630960302821,51.4976176402077],[-0.209270995801588,51.4976121449001],[-0.209279806518786,51.497387463228],[-0.209288617122122,51.4971627815462],[-0.208928656257903,51.4971572852255],[-0.208937468508932,51.4969326035795],[-0.208577509520124,51.4969271062001],[-0.208586323418798,51.4967024245899],[-0.208226366305397,51.4966969261519],[-0.208235181851671,51.4964722445775],[-0.20859513720357,51.49647774297],[-0.208603950874444,51.4962530613402],[-0.208243997284024,51.4962475629934],[-0.207884043807503,51.4962420635424],[-0.20789286088739,51.4960173819941],[-0.207532909286243,51.4960118814844],[-0.207541728013618,51.495787199972],[-0.207550546627031,51.4955625184498],[-0.20719059866266,51.4955570169272],[-0.207181778287843,51.4957816984038],[-0.207172957799041,51.4960063798706],[-0.206813006425804,51.4960008771525],[-0.206821828676032,51.4957761957314],[-0.206461879178207,51.4957706919547],[-0.206470703075828,51.4955460105695],[-0.206110755453412,51.4955405057343],[-0.206119580998379,51.4953158243849],[-0.205759635251368,51.4953103184912],[-0.205768462443638,51.4950856371777],[-0.205777289521838,51.4948609558544],[-0.205417347411554,51.4948554489479],[-0.205408518572027,51.4950801302255],[-0.205048574814487,51.4950746221691],[-0.205057405415339,51.4948499409372],[-0.204697463533217,51.4948444318224],[-0.204706295781254,51.4946197506264],[-0.204346355774546,51.4946142404531],[-0.204355189669723,51.494389559293],[-0.203995251538424,51.4943840480612],[-0.204004087080697,51.4941593669371],[-0.203644150824804,51.4941538546469],[-0.203652988014125,51.4939291735587],[-0.204012922508793,51.4939346858032],[-0.204021757822715,51.4937100046594],[-0.20366182508925,51.4937044924607],[-0.203670662050179,51.4934798113529],[-0.203679498896915,51.4932551302353],[-0.203319569799958,51.493249617024],[-0.203310731192066,51.4934742980958],[-0.203301892469959,51.4936989791579],[-0.202941959964865,51.4936934647509],[-0.202950800448148,51.4934687837346],[-0.202959640817193,51.4932441027085],[-0.202599711948644,51.4932385872889],[-0.20260855396458,51.4930139062988],[-0.202617395866258,51.4927892252988],[-0.202257470634178,51.4927837088667],[-0.202266314182681,51.4925590279027],[-0.201906390825938,51.4925535104122],[-0.201915236021221,51.4923288294842],[-0.201924079783896,51.4921041487868],[-0.201564159950973,51.4920986303037],[-0.201573002702876,51.4918739501382],[-0.201932920776467,51.4918794685635],[-0.201941761655316,51.4916547883299],[-0.202301678092539,51.4916603055952],[-0.202310517108344,51.491435625295],[-0.201950602420447,51.4914301080859],[-0.201959443071861,51.4912054278317],[-0.201968283609559,51.4909807475671],[-0.201608372533917,51.4909752293671],[-0.201617214707158,51.4907505491485],[-0.201626056766665,51.4905258689196],[-0.20163489871244,51.4903011886804],[-0.201274992754811,51.4902956694092],[-0.201266149040818,51.4905203495988],[-0.200906241384545,51.4905148291518],[-0.200915086861544,51.4902901490061],[-0.200555181082691,51.4902846274988],[-0.200564028208216,51.4900599473873],[-0.200572875219266,51.4898352672661],[-0.200212973080786,51.4898297447425],[-0.20020412430678,51.4900544248198],[-0.199844220519801,51.4900489011483],[-0.199853071056762,51.4898242211148],[-0.199861921479204,51.4895995410716],[-0.199502021332587,51.4895940163838],[-0.19951087340342,51.4893693363748],[-0.199150975134207,51.4893638106268],[-0.199159828853383,51.489139130652],[-0.198799932461572,51.4891336038438],[-0.198808787829046,51.4889089239032],[-0.198817643081941,51.4886842439529],[-0.198457750330359,51.4886787161285],[-0.198466607231486,51.4884540362124],[-0.198106716357271,51.4884485073279],[-0.198115574906584,51.488223827446],[-0.197755685909734,51.4882182975015],[-0.197764546107188,51.4879936176538],[-0.197404658987697,51.4879880866492],[-0.197413520833246,51.4877634068357],[-0.197053635591112,51.4877578747711],[-0.19706249908471,51.4875331949918],[-0.196702615719927,51.4875276618672],[-0.19671148086153,51.4873029821222],[-0.196351599374096,51.4872974479375],[-0.196342732469808,51.4875221276386],[-0.195982849334376,51.487516592306],[-0.195622966313653,51.4875110558695],[-0.195631836743303,51.4872863762564],[-0.195271955599991,51.4872808387599],[-0.195280827677524,51.487056159181],[-0.194920948411619,51.4870506206246],[-0.194929822136991,51.48682594108],[-0.194569944748488,51.4868204014636],[-0.194578820121652,51.4865957219533],[-0.194218944610548,51.486590181277],[-0.19422782163146,51.486365501801],[-0.19386794799775,51.4863599600648],[-0.193876826666364,51.4861352806231],[-0.193885705220102,51.4859106011717],[-0.193525835226315,51.4859050584196],[-0.193534715427688,51.4856803790026],[-0.193543595514166,51.4854556995758],[-0.193183729160225,51.4854501558079],[-0.193192610894273,51.4852254764154],[-0.192832746417665,51.4852199315876],[-0.192841629799235,51.4849952522295],[-0.192850513065872,51.4847705728617],[-0.192490652229005,51.4847650270182],[-0.192499537143098,51.4845403476846],[-0.192139678183532,51.4845348007813],[-0.192148564745036,51.4843101214822],[-0.192157451191565,51.4840854421733],[-0.191797595871636,51.4840798942543],[-0.19180648396551,51.4838552149797],[-0.191446630522849,51.483849666001],[-0.191086777121032,51.4838441159313],[-0.191095661134438,51.4836194380415],[-0.190735809489997,51.4836138869457],[-0.190744695142574,51.4833892091033],[-0.190753580680514,51.4831645312505],[-0.190393732658185,51.4831589791673],[-0.19040261983523,51.482934301362],[-0.190042773681219,51.4829287482336],[-0.190051662497324,51.4827040704757],[-0.189691818211629,51.4826985163021],[-0.189700708666748,51.4824738385917],[-0.189340866249364,51.4824682833729],[-0.189349758343452,51.48224360571],[-0.189358650322821,51.4820189280367],[-0.188998811527387,51.4820133718306],[-0.189007705145659,51.4817886942048],[-0.188647868218504,51.4817831369535],[-0.188656763475632,51.4815584593752],[-0.188296928416752,51.4815529010789],[-0.188305825312693,51.481328223548],[-0.188314722093854,51.4811035460068],[-0.18795489065679,51.4810979867232],[-0.187963789076697,51.4808733092295],[-0.187603959507875,51.4808677489009],[-0.187612859566483,51.4806430714547],[-0.187253031865899,51.480637510081],[-0.18726193356316,51.4804128326823],[-0.186902107730811,51.4804072702636],[-0.186911011066682,51.4801825929124],[-0.186919914287693,51.4799579155509],[-0.186560092076998,51.4799523521451],[-0.186200269981105,51.4799467876363],[-0.186209176594059,51.4797221103802],[-0.185849356366388,51.4797165448265],[-0.185858264617815,51.479491867618],[-0.185867172754319,51.4792671903991],[-0.185507356148217,51.4792616238583],[-0.185516265923128,51.479036946687],[-0.185525175583097,51.4788122695052],[-0.185165362598488,51.4788067019775],[-0.185174273896798,51.4785820248433],[-0.184814462836836,51.4785764562241],[-0.184823375771196,51.4783517791387],[-0.184463566754215,51.4783462093278],[-0.184472481339568,51.4781215322769],[-0.184112674204814,51.4781159614067],[-0.184121590441113,51.4778912843904],[-0.184130506561723,51.4776666073643],[-0.183770703075781,51.477661035479],[-0.183779620847271,51.4774363584875],[-0.184139422566647,51.4774419303286],[-0.184499224401627,51.4774475010661],[-0.184508138524321,51.4772228239764],[-0.184148338455886,51.4772172532831],[-0.183788538503054,51.4772116814863],[-0.183428738665848,51.4772061085859],[-0.18306893894429,51.4772005345821],[-0.183060017755427,51.4774252114948],[-0.182700216383003,51.4774196363431],[-0.182340415126276,51.4774140600879],[-0.181980613985267,51.4774084827292],[-0.181971687380975,51.4776331594993],[-0.181611884589154,51.4776275809928],[-0.181620812960001,51.4774029042669],[-0.1812610120505,51.4773973247011],[-0.181269942072032,51.4771726480099],[-0.180910143044845,51.4771670673849],[-0.180901211256786,51.4773917440318],[-0.180892279352835,51.477616420669],[-0.180532476908384,51.4776108388519],[-0.180523543121971,51.477835515435],[-0.180514609219641,51.4780601920084],[-0.180154803357862,51.478054608999],[-0.179794997611946,51.4780490248861],[-0.179435191981915,51.4780434396696],[-0.179075386467791,51.4780378533496],[-0.179084327436478,51.4778131769536],[-0.179444131184016,51.4778187632292],[-0.179803935047459,51.4778243484014],[-0.180163739026784,51.47782993247],[-0.180172674579767,51.4776052559312],[-0.179812872367009,51.4775996719069],[-0.179453070270131,51.4775940867792],[-0.179462009240263,51.4773694103194],[-0.179470948094414,51.4771447338498],[-0.179830746658229,51.4771503188889],[-0.179839683629903,51.4769256423653],[-0.179479886832584,51.4769200573706],[-0.179488825454777,51.4766953808816],[-0.179497763960995,51.4764707043829],[-0.179506702351239,51.4762460278744],[-0.179515640625512,51.4760213513563],[-0.179875430357071,51.4760269361735],[-0.179884366748991,51.4758022596013],[-0.179893303024966,51.4755775830193],[-0.179902239291213,51.4753529063051],[-0.179911175483755,51.4751282295327],[-0.1799201115608,51.4749035527504],[-0.18027989259671,51.4749091362362],[-0.180288826800849,51.4746844593958],[-0.180297760889519,51.4744597825453],[-0.180306694862718,51.474235105685],[-0.179946919098967,51.4742295223439],[-0.179937983368404,51.474454199156],[-0.179578205962702,51.4744486146634],[-0.179587143450627,51.4742239378995],[-0.17959608082304,51.4739992611257],[-0.179605018079942,51.4737745843421],[-0.179964790213628,51.4737801686899],[-0.179955854714041,51.4740048455219],[-0.180315628720452,51.4740104288148],[-0.18032456246272,51.4737857519346],[-0.180333496089525,51.4735610750446],[-0.180693266696703,51.4735666571378],[-0.180702198450773,51.4733419801896],[-0.180711130089406,51.4731173032315],[-0.180720061612604,51.4728926262635],[-0.180728993020371,51.4726679492855],[-0.18108875671394,51.4726735300827],[-0.18109768624909,51.4724488530466],[-0.181106615668835,51.4722241760006],[-0.181115544973175,51.4719994989447],[-0.181475303510579,51.4720050784942],[-0.181466375963379,51.4722297555983],[-0.1814574483008,51.4724544326925],[-0.181817210467814,51.4724600112353],[-0.181826136373226,51.4722353340929],[-0.181835062163281,51.4720106569406],[-0.181843987837981,51.4717859797783],[-0.182203744848838,51.4717915570734],[-0.182212668651081,51.471566879853],[-0.182572424020089,51.4715724559968],[-0.182932179504326,51.4715780310375],[-0.183291935103767,51.471583604975],[-0.183283016572836,51.4718082823398],[-0.183642774044569,51.4718138552224],[-0.183651690818391,51.4715891778094],[-0.184011446648176,51.4715947495408],[-0.184020361549672,51.4713700720697],[-0.184029276335953,51.4711453945888],[-0.183669524020321,51.4711398229537],[-0.183678440448433,51.470915145511],[-0.183318690004998,51.470909572821],[-0.182958939676739,51.4709039990279],[-0.182967859503651,51.4706793216716],[-0.182976779215287,51.4704546443054],[-0.183336526029538,51.4704602180021],[-0.18334544386893,51.4702355405778],[-0.182985698811649,51.4702299669292],[-0.182994618292738,51.4700052895431],[-0.182634875107596,51.4699997148396],[-0.182643796230338,51.4697750374918],[-0.182652717237789,51.469550360134],[-0.183012456909108,51.4695559347412],[-0.183021376044393,51.4693312573254],[-0.183030295064412,51.4691065798997],[-0.18303921396917,51.468881902464],[-0.183398948485108,51.4688874758237],[-0.183407865517795,51.46866279833],[-0.183416782435245,51.4684381208264],[-0.183776513552739,51.4684436929868],[-0.183785428598189,51.4682190154251],[-0.18379434352843,51.4679943378535],[-0.183803258343463,51.467769660272],[-0.18416298430585,51.467775231185],[-0.184171897248977,51.4675505535455],[-0.184180810076923,51.467325875896],[-0.184540532641032,51.4673314456098],[-0.184549444887681,51.4671067670358],[-0.184909165749127,51.4671123356352],[-0.185268889198932,51.4671179011963],[-0.185277800555752,51.4668932206603],[-0.1856375223827,51.4668987850569],[-0.185646431888486,51.466674104448],[-0.186006152092573,51.4666796676801],[-0.186015059747369,51.4664549869982],[-0.186374778328591,51.4664605490658],[-0.18673449702381,51.4664661100312],[-0.186743401090796,51.4662414292141],[-0.187103118163123,51.466246989015],[-0.187462835349401,51.4662525477137],[-0.187471735828659,51.4660278667615],[-0.187831451392016,51.4660334242957],[-0.187840350020462,51.4658087432707],[-0.188200063960894,51.4658142996404],[-0.188559778015205,51.465819854908],[-0.188919492183375,51.4658254090733],[-0.188928385487433,51.465600727851],[-0.189288098032626,51.4656062808519],[-0.189296989486004,51.4653815995568],[-0.189656700408214,51.4653871513934],[-0.190016411444212,51.4653927021277],[-0.190025299310182,51.4651680206976],[-0.190385008723171,51.4651735702676],[-0.190744718249899,51.4651791187353],[-0.191104427890345,51.4651846661009],[-0.191113310432237,51.4649599844737],[-0.191473018449621,51.464965530675],[-0.191832726580677,51.4649710757741],[-0.192192434825381,51.464976619771],[-0.192552143183711,51.4649821626657],[-0.192911851655645,51.4649877044583],[-0.192920725400095,51.4647630225097],[-0.193280432248867,51.464768563138],[-0.193640139211195,51.4647741026641],[-0.193999846287058,51.464779641088],[-0.194359553476434,51.4647851784097],[-0.194719260779299,51.4647907146293],[-0.195078968195632,51.4647962497467],[-0.195438675725408,51.4648017837619],[-0.195798383368609,51.4648073166749],[-0.196158091125209,51.4648128484857],[-0.196517798995187,51.4648183791944],[-0.196508942618266,51.4650430617636],[-0.196868652338363,51.4650485914321],[-0.197228362171795,51.4650541199984],[-0.197219509155036,51.465278802681],[-0.19757922083857,51.4652843302072],[-0.197570369445255,51.4655090129412],[-0.197561517938592,51.4657336956647],[-0.197552666318579,51.4659583783775],[-0.197912383325916,51.4659639049874],[-0.197903533329433,51.4661885877517],[-0.19826325218693,51.4661941133214],[-0.198254403814022,51.466418796137],[-0.19789468321962,51.4664132705054],[-0.197885832996473,51.4666379532484],[-0.198245555327804,51.4666434789421],[-0.198236706728274,51.4668681617365],[-0.198596430909817,51.4668736863899],[-0.1989561552046,51.466879209941],[-0.198947309965709,51.4671038928488],[-0.199307036110687,51.4671094153596],[-0.199666762368861,51.4671149367681],[-0.200026488740208,51.4671204570744],[-0.200035328768154,51.4668957739807],[-0.200044168682898,51.4666710908764],[-0.199684445785496,51.466665570694],[-0.199693287323979,51.4664408876411],[-0.199702128749242,51.4662162045776],[-0.199710970061286,51.4659915215035],[-0.199719811260114,51.4657668384187],[-0.200079527209896,51.4657723583533],[-0.20007068774794,51.4659970414999],[-0.200430405547735,51.4660025603942],[-0.200439243272818,51.4657778771856],[-0.200798959448858,51.4657833949157],[-0.200790123460648,51.4660080781862],[-0.201149841486658,51.466013594876],[-0.201509559625742,51.4660191104635],[-0.201500726998184,51.4662437938473],[-0.201860447031158,51.4662493081055],[-0.201851616066663,51.4664739915316],[-0.201491894257521,51.4664684772205],[-0.201483061403751,51.4666931605831],[-0.201842784986513,51.4666986749482],[-0.201833953790706,51.4669233583554],[-0.201825122479241,51.4671480417531],[-0.201465395356878,51.4671425272765],[-0.201456564022384,51.4673672095007],[-0.201447732961957,51.4675918914836],[-0.201088002675635,51.4675863754436],[-0.20072827250057,51.4675808583028],[-0.200719437928694,51.4678055400924],[-0.200359706164835,51.46780002176],[-0.200350869781521,51.4680247034469],[-0.200342033286838,51.4682493851217],[-0.199982298234074,51.4682438655071],[-0.199973459927884,51.4684685470793],[-0.199613723286313,51.4684630262731],[-0.199604883168572,51.4686877077425],[-0.199596042939413,51.4689123892],[-0.199587202598835,51.4691370706454],[-0.199946944340945,51.4691425917237],[-0.199938105589168,51.4693672732478],[-0.199929266725989,51.4695919547599],[-0.200289011979907,51.4695974749186],[-0.200297849142838,51.4693727933158],[-0.200657592807824,51.4693783122829],[-0.200648757345142,51.4696029939764],[-0.200639921771102,51.4698276756579],[-0.200999668947905,51.4698331937053],[-0.2009908349628,51.4700578754655],[-0.200982000866353,51.4702825572136],[-0.201341751555049,51.4702880743414],[-0.201332919047602,51.4705127561682],[-0.201692671780564,51.4705182720325],[-0.20205242508952,51.4705237862902],[-0.202412178511098,51.4705292994459],[-0.20242100586719,51.4703046173765],[-0.202780757672426,51.4703101293599],[-0.202789583186942,51.4700854472092],[-0.202429833110622,51.4700799352961],[-0.202438660241397,51.4698552532046],[-0.202447487259515,51.4696305711022],[-0.20245631416498,51.4694058889888],[-0.202816059054682,51.469411400691],[-0.202807233878068,51.4696360828747],[-0.203166980609189,51.4696415935453],[-0.203158157048817,51.4698662757883],[-0.203517905621361,51.4698717854272],[-0.203526727452857,51.4696471031139],[-0.203886474409049,51.4696526115805],[-0.204246221477743,51.4696581189451],[-0.204605968658917,51.4696636252078],[-0.204614785191254,51.4694389426727],[-0.204255039738939,51.4694334364803],[-0.203895294399102,51.4694279291859],[-0.203535549171765,51.4694224207896],[-0.20354437077809,51.4691977384542],[-0.203184627392107,51.4691922290262],[-0.203193450614656,51.4689675467502],[-0.202833709070023,51.4689620362905],[-0.202473967637954,51.4689565247289],[-0.202482794205466,51.4687318425825],[-0.202123054614763,51.4687263299892],[-0.202131882798388,51.4685016479021],[-0.202140710869345,51.4682769658039],[-0.202500447002556,51.4682824782566],[-0.202491620660333,51.468507160425],[-0.202851358634861,51.468512671846],[-0.203211096721948,51.4685181821651],[-0.203570834921572,51.4685236913823],[-0.203579656077576,51.468299009003],[-0.203219919606693,51.4682934998561],[-0.202860183248345,51.4682879896073],[-0.20286900774921,51.4680633073576],[-0.202509273232134,51.4680577960771],[-0.202518099349074,51.4678331138867],[-0.202526925353373,51.4676084316852],[-0.202535751245036,51.4673837494728],[-0.2028954805761,51.4673892605423],[-0.203255210019715,51.46739477051],[-0.203246387585349,51.4676194528631],[-0.203606118870143,51.4676249617991],[-0.20359729805186,51.4678496442114],[-0.203957031177836,51.4678551521159],[-0.203948211975679,51.4680798345874],[-0.204307946942843,51.4680853414602],[-0.204667682022473,51.4680908472311],[-0.204676497767227,51.4678661646191],[-0.204685313399478,51.467641481996],[-0.204694128919226,51.4674167993619],[-0.205053858925255,51.4674223038202],[-0.205062672603867,51.4671976211049],[-0.205071487690842,51.4669729374325],[-0.205080302783676,51.4667482536752],[-0.20508911776106,51.4665235699085],[-0.205448840748826,51.4665290731001],[-0.20545765382158,51.4663043892851],[-0.205817375135531,51.4663098913344],[-0.206177096564828,51.4663153922804],[-0.206536818109446,51.4663208921229],[-0.206528010404253,51.4665455760544],[-0.206887733853361,51.4665510748324],[-0.207247457417747,51.466556572507],[-0.207607181097388,51.4665620690782],[-0.20796690489226,51.466567564546],[-0.20795810422858,51.4667922486232],[-0.208317829927883,51.4667977430264],[-0.208677555742372,51.4668032363261],[-0.209037281672025,51.4668087285225],[-0.209397007716819,51.4668142196154],[-0.209756733876731,51.4668197096049],[-0.210116460151736,51.466825198491],[-0.210107670108291,51.4670498827913],[-0.210467398287625,51.4670553706127],[-0.210827126582008,51.4670608573307],[-0.21081834031533,51.467285541457],[-0.211178070500734,51.4672910271129],[-0.211537800798173,51.467296511667],[-0.211529018235349,51.4675211956451],[-0.211888750373474,51.4675266791673],[-0.212248482623592,51.4675321615876],[-0.212239703406087,51.4677568456949],[-0.211879969427272,51.4677513632045],[-0.211871188369017,51.4679760472308],[-0.211862407198706,51.468200731246],[-0.212222144634984,51.4682062138765],[-0.212581882183238,51.4682116954051],[-0.212941619843445,51.4682171758317],[-0.212932843747379,51.4684418600462],[-0.213292583248288,51.4684473394409],[-0.213283808769023,51.4686720237144],[-0.21292406753932,51.4686665442497],[-0.212915291219269,51.4688912284422],[-0.212906514787223,51.4691159126237],[-0.212546770211806,51.4691104319168],[-0.212537991938905,51.4693351160173],[-0.212178245746593,51.4693296341384],[-0.212169465632791,51.4695543181579],[-0.212160685406943,51.4697790021663],[-0.212151905069048,51.4700036861638],[-0.211792153802024,51.4699982029727],[-0.211783371623135,51.4702228868891],[-0.211774589332172,51.4704475707946],[-0.211765806929133,51.470672254689],[-0.211757024414016,51.4708969385725],[-0.21174824178682,51.4711216224449],[-0.211739459047542,51.4713463063064],[-0.21209922068857,51.4713517899179],[-0.212090439566288,51.4715764738385],[-0.212081658331943,51.4718011577481],[-0.211721893232734,51.4717956739964],[-0.211362128245554,51.4717901891427],[-0.211353343440897,51.4720148729012],[-0.2117131101572,51.472020357825],[-0.211704326969576,51.4722450416425],[-0.211695543669863,51.4724697254491],[-0.212055313956512,51.472475209411],[-0.212046532273896,51.4726998932767],[-0.212037750479208,51.4729245771313],[-0.212397524336279,51.4729300601313],[-0.212388744158755,51.4731547440451],[-0.21274851985706,51.4731602260129],[-0.212739741296745,51.4733849099858],[-0.212730962624397,51.4736095939477],[-0.213090741893228,51.4736150749535],[-0.213099518836289,51.4733903909216],[-0.213459296487785,51.4733958707553],[-0.213819074251213,51.4734013494868],[-0.214178852126549,51.4734068271162],[-0.214187623769794,51.4731821428631],[-0.213827847623728,51.4731766653038],[-0.213468071589569,51.4731711866423],[-0.213108295667339,51.4731657068787],[-0.21311707238638,51.4729410228248],[-0.213125848993415,51.4727163387599],[-0.212766076641598,51.4727108580343],[-0.212774854865825,51.4724861740285],[-0.213134625488444,51.4724916546841],[-0.213494396223009,51.4724971342375],[-0.213503170876859,51.4722724500807],[-0.213862939994168,51.472277928462],[-0.214222709223377,51.4722834057412],[-0.214231480306933,51.4720587214333],[-0.214591247918858,51.4720641975404],[-0.214951015642636,51.4720696725454],[-0.214942248017401,51.4722943569934],[-0.214933480280278,51.4725190414303],[-0.215293251574236,51.4725245154733],[-0.215653022980006,51.4725299884141],[-0.216012794497565,51.4725354602528],[-0.216021557047124,51.4723107756058],[-0.216030319484861,51.4720860909479],[-0.216390087655827,51.4720915615445],[-0.216398848252598,51.4718668768056],[-0.216758614806155,51.4718723462302],[-0.216767373562004,51.4716476614104],[-0.216407608737573,51.4716421920558],[-0.21604784402488,51.4716367215991],[-0.21603908181078,51.471861406279],[-0.215679315480723,51.4718559346503],[-0.215688079423946,51.4716312500404],[-0.21569684325533,51.4714065654195],[-0.215337080495276,51.4714010928286],[-0.215345845943901,51.4711764082668],[-0.215705606974879,51.4711818807876],[-0.215714370582593,51.4709571961448],[-0.215354611280668,51.4709517236939],[-0.215363376505581,51.4707270391101],[-0.215003619044483,51.4707215656272],[-0.215012385886549,51.4704968811024],[-0.215021152616742,51.4702721965666],[-0.215380906619848,51.4702776699096],[-0.215389671509207,51.4700529852928],[-0.215749423895143,51.4700584574638],[-0.216109176392847,51.4700639285327],[-0.216100414961417,51.4702886132894],[-0.216460169299835,51.4702940833263],[-0.21645140948559,51.470518768142],[-0.216442649559562,51.4707434529467],[-0.216082891763142,51.4707379827699],[-0.216074129996293,51.4709626674937],[-0.216433889521748,51.4709681377404],[-0.216425129372146,51.4711928225232],[-0.216784890738391,51.4711982917379],[-0.216793649158934,51.4709736068851],[-0.216802407467711,51.4707489220214],[-0.217162165487568,51.4707543899941],[-0.217521923619111,51.4707598568648],[-0.217513168768412,51.4709845418684],[-0.217504413805993,51.471209226861],[-0.217144652216348,51.4712037598505],[-0.217135895413122,51.4714284447622],[-0.217127138498149,51.4716531296629],[-0.217486903545988,51.4716585968133],[-0.217478148248398,51.471883281773],[-0.217837915137039,51.4718887478913],[-0.217829161456875,51.47211343291],[-0.218188930186323,51.4721188979961],[-0.218180178123631,51.4723435830737],[-0.218539946328032,51.4723490471183],[-0.218531196010249,51.4725737322269],[-0.218522445577291,51.4727984173262],[-0.218882217048157,51.4728038803359],[-0.218873468301307,51.4730285654612],[-0.219233241688563,51.4730340274024],[-0.219224494627869,51.4732587125537],[-0.219215747452039,51.4734833976958],[-0.219575524557026,51.4734888586037],[-0.21956677906742,51.4737135437717],[-0.219558033462696,51.4739382289305],[-0.219917814285492,51.473943688805],[-0.220277595223327,51.4739491475757],[-0.220286337225276,51.4737244623465],[-0.220646116476738,51.473729919978],[-0.22100589584319,51.4737353765058],[-0.221014634127332,51.4735106911967],[-0.221374411807382,51.4735161465853],[-0.221734189602374,51.4735216008701],[-0.221725454920976,51.4737462862496],[-0.222085234632262,51.4737517394657],[-0.222076501637284,51.4739764248712],[-0.222436283264868,51.4739818770187],[-0.222427551956357,51.4742065624501],[-0.22241882053291,51.4744312478722],[-0.222778605878244,51.4744366989862],[-0.222769876141333,51.4746613844342],[-0.222761146289504,51.474886069873],[-0.223120935352665,51.4748915199535],[-0.22311220718744,51.4751162054181],[-0.223103478907316,51.4753408908735],[-0.223094750887023,51.4755655760866],[-0.222734956390068,51.4755601259172],[-0.222726227734713,51.4757848102818],[-0.22308602398594,51.4757902605228],[-0.223077296972255,51.4760149449479],[-0.223068569845965,51.4762396293619],[-0.223428369718346,51.4762450786439],[-0.223419644233792,51.4764697631185],[-0.223410918636652,51.4766944475821],[-0.223402192926924,51.4769191320345],[-0.223393467104608,51.477143816476],[-0.22375327410702,51.4771492649421],[-0.223744549926546,51.477373949444],[-0.223735825633502,51.477598633935],[-0.223727101227886,51.4778233184149],[-0.223718376709695,51.4780480028837],[-0.223709652078929,51.4782726873415],[-0.223700927335583,51.4784973717882],[-0.223692202479657,51.4787220562239],[-0.223683477511149,51.4789467406485],[-0.223674752430056,51.4791714250621],[-0.223314929636912,51.4791659759519],[-0.223306202688594,51.4793906602829],[-0.223297475627666,51.4796153446028],[-0.223657301930113,51.4796207938562],[-0.224017128345084,51.4796262420073],[-0.224008404680916,51.4798509264593],[-0.223999680904177,51.4800756109003],[-0.223990957014869,51.4803002953302],[-0.223982233012987,51.4805249797491],[-0.22397350889853,51.480749664157],[-0.223964784671496,51.4809743485538],[-0.223956060331885,51.4811990329395],[-0.224315899142657,51.4812044804892],[-0.224307176445312,51.4814291649355],[-0.224298453635408,51.4816538493707],[-0.224289730712942,51.4818785337949],[-0.223929886637557,51.4818730860305],[-0.223921161847611,51.482097770372],[-0.223912436945077,51.4823224547025],[-0.224272284530317,51.4823279026101],[-0.224263561270154,51.4825525870012],[-0.224254837897421,51.4827772713811],[-0.224246114412117,51.4830019557501],[-0.224605967374819,51.4830074027699],[-0.224597245531973,51.4832320871994],[-0.224237390814241,51.483226640108],[-0.224228667103789,51.4834513244548],[-0.224588523576576,51.4834567716178],[-0.224579801508624,51.4836814560252],[-0.224939659848979,51.4836869021573],[-0.22493093776887,51.4839115865325],[-0.224571077805925,51.4839061403409],[-0.224562349851656,51.4841308244268],[-0.224922211586374,51.4841362706738],[-0.224913485290532,51.4843609548049],[-0.225273348910356,51.484366400004],[-0.225264624272987,51.4845910841801],[-0.22562448977792,51.4845965283313],[-0.22561576679907,51.4848212125526],[-0.225607043706913,51.4850458967637],[-0.22596691286883,51.4850513399223],[-0.225958191435259,51.4852760241784],[-0.2259494698884,51.4855007084243],[-0.225940748228253,51.4857253926599],[-0.226300622819171,51.4857308348813],[-0.226291902817697,51.485955519162],[-0.226283182702953,51.4861802034325],[-0.226643060951055,51.4861856446612],[-0.226634342495051,51.4864103289768],[-0.226625623925797,51.4866350132821],[-0.226985505831159,51.4866404535181],[-0.22697678892071,51.4868651378686],[-0.22696807189703,51.4870898222087],[-0.226959354760117,51.4873145065386],[-0.227319242094923,51.4873199458372],[-0.227679129542905,51.4873253840325],[-0.227670415837016,51.4875500684628],[-0.227661702017937,51.4877747528828],[-0.228021593123361,51.4877801900853],[-0.228381484341918,51.4877856261843],[-0.228372773954005,51.4880103107048],[-0.228364063452943,51.4882349952149],[-0.228723958329,51.4882404303211],[-0.228715249487015,51.4884651148764],[-0.228706540531899,51.4886897994213],[-0.228697831463651,51.4889144839561],[-0.229057731769561,51.4889199181247],[-0.229417632188544,51.4889253511898],[-0.229408926551763,51.4891500358249],[-0.229768828856101,51.4891554678418],[-0.23012873127347,51.4891608987553],[-0.230488633803846,51.4891663285653],[-0.230479933370959,51.4893910133559],[-0.230839837786652,51.4893964421176],[-0.231199742315307,51.4894018697758],[-0.231191045314108,51.4896265546667],[-0.231550951728064,51.4896319812766],[-0.231910858254939,51.489637406783],[-0.231902164685526,51.4898620917741],[-0.232262073097683,51.4898675162322],[-0.232253381187742,51.4900922012683],[-0.232244689164886,51.4903168862941],[-0.232235997029113,51.4905415713097],[-0.231876083299661,51.4905361466859],[-0.231884777207889,51.4903114617255],[-0.231524865363793,51.4903060360534],[-0.231516169683113,51.4905307209585],[-0.231156256179493,51.4905252941276],[-0.230796342788822,51.4905198661932],[-0.230787643450232,51.4907445509775],[-0.231147558613374,51.4907499789672],[-0.231507473889469,51.4907554058534],[-0.231498777982857,51.490980090738],[-0.231858695144378,51.4909855165758],[-0.231867389278491,51.490760831636],[-0.232227304780421,51.490766256315],[-0.232587220395233,51.4907716798904],[-0.232578529806123,51.4909963649407],[-0.2329384473063,51.4910017874678],[-0.232947136122907,51.4907771023623],[-0.233307051963417,51.4907825237307],[-0.233315738894665,51.4905578385597],[-0.233675653075505,51.4905632587693],[-0.233666967916742,51.4907879439954],[-0.233658282645149,51.4910126292113],[-0.234018200483775,51.4910180484277],[-0.234378118435173,51.4910234665405],[-0.234369436595817,51.4912481518564],[-0.234729356432497,51.4912535689208],[-0.234738036499317,51.4910288835497],[-0.234746716453375,51.4908041981683],[-0.234386800161744,51.4907987812142],[-0.234395481775531,51.4905740958778],[-0.234404163276537,51.4903494105311],[-0.234764076023209,51.4903548273748],[-0.235123988976655,51.4903602424852],[-0.235483902103174,51.4903656560934],[-0.235843815343325,51.4903710685986],[-0.236203728697087,51.4903764800007],[-0.236563642164435,51.4903818902998],[-0.236923555745347,51.4903872994958],[-0.237283469439799,51.4903927075888],[-0.237643383247769,51.4903981145788],[-0.238003297169232,51.4904035204657],[-0.238363211204166,51.4904089252495],[-0.238371872907425,51.4901842391588],[-0.23873178526345,51.4901896427739],[-0.239091697732897,51.4901950452859],[-0.239451610315743,51.4902004466949],[-0.239811523011965,51.4902058470009],[-0.240171435821539,51.4902112462038],[-0.240531348744443,51.4902166443037],[-0.240539999580189,51.489991957808],[-0.240899910824053,51.4899973547392],[-0.241259822181199,51.4900027505673],[-0.241268469318955,51.4897780639296],[-0.241628378997034,51.489783458589],[-0.241637024229191,51.4895587718749],[-0.241996932228196,51.4895641653657],[-0.242356840340409,51.4895695577534],[-0.242716748565806,51.4895749490382],[-0.242725388307842,51.4893502621164],[-0.243085294854113,51.4893556522325],[-0.243093932690686,51.4891309652345],[-0.243453837557826,51.4891363541819],[-0.243462473488981,51.4889116671075],[-0.243822376676987,51.4889170548864],[-0.243831010702771,51.4886923677356],[-0.244190912211638,51.4886977543459],[-0.244182279978078,51.4889224415622],[-0.244542183392231,51.4889278271351],[-0.244533552837817,51.4891525144062],[-0.244893458157261,51.4891578989416],[-0.244884829282038,51.4893825862676],[-0.245244736506776,51.4893879697656],[-0.245236109310791,51.4896126571463],[-0.245227482001768,51.4898373445164],[-0.245218854579703,51.4900620318757],[-0.245210227044594,51.4902867192243],[-0.24557014155167,51.4902921018814],[-0.245561515695909,51.4905167892847],[-0.24520159939644,51.4905114065621],[-0.245192971635238,51.4907360938892],[-0.245184343760987,51.4909607812055],[-0.245175715773685,51.4911854685111],[-0.245167087673329,51.491410155806],[-0.245158459459919,51.4916348430901],[-0.245149831133451,51.4918595303635],[-0.245141202693924,51.4920842176261],[-0.245132572371295,51.4923089041605],[-0.245123940671243,51.4925335901724],[-0.245115308858407,51.4927582761749],[-0.245106676932786,51.4929829621679],[-0.245098044894379,51.4932076481514],[-0.245089412743181,51.4934323341254],[-0.245080780479193,51.4936570200898],[-0.245072148102411,51.4938817060448],[-0.24471220514443,51.4938763214607],[-0.244703570867953,51.4941010073665],[-0.244694936478656,51.4943256932628],[-0.244686301976537,51.4945503791496],[-0.244677667361594,51.4947750650268],[-0.244669032633826,51.4949997508946],[-0.244660397793229,51.4952244367529],[-0.244651762839804,51.4954491226017],[-0.244643127773547,51.495673808441],[-0.24428317063252,51.4956684224347],[-0.244274533666345,51.4958931082248],[-0.244265896587314,51.4961177940054],[-0.24462585730253,51.496123180091],[-0.244617221897767,51.4963478659018],[-0.244608586380165,51.4965725517031],[-0.244599950749721,51.4967972374949],[-0.244591315006434,51.4970219232772],[-0.244582679150303,51.49724660905],[-0.244574043181324,51.4974712948133],[-0.244214071742984,51.4974659084893],[-0.244205433873888,51.4976905942034],[-0.244196795891919,51.497915279908],[-0.244188157797074,51.498139965603],[-0.244548134597287,51.4981453520461],[-0.244908111510328,51.4981507373846],[-0.244899476877281,51.4983754231496],[-0.245259455690469,51.4983808074232],[-0.245619434616441,51.4983861905922],[-0.245979413655174,51.4983915726565],[-0.245988042926192,51.4981668867724],[-0.246348020290316,51.4981722676925],[-0.246356647661248,51.4979475817593],[-0.24671662335076,51.497952961535],[-0.247076599152959,51.4979583402062],[-0.247085222836546,51.4977336541842],[-0.247445196964104,51.4977390317111],[-0.247453818747719,51.4975143456399],[-0.24781379120063,51.4975197220226],[-0.248173763766156,51.4975250973008],[-0.24818238186258,51.4973004111408],[-0.248542352753432,51.4973057852747],[-0.248902323756849,51.4973111583041]]],[[[-0.228531282568433,51.5210605837252],[-0.228522558101297,51.5212852672286],[-0.228513833522138,51.5215099507219],[-0.228873991396072,51.5215153881222],[-0.228865268453287,51.521740071658],[-0.22922542818761,51.521745508006],[-0.229216706881243,51.5219701915842],[-0.228856545398495,51.5219647551836],[-0.228496384027739,51.5219593176781],[-0.228136222768997,51.5219538790677],[-0.228144949320631,51.5217291956472],[-0.228153675760214,51.5215045122167],[-0.227793518110323,51.5214990726065],[-0.227433360572487,51.5214936318915],[-0.227442090396765,51.521268948556],[-0.22780224618623,51.5212743892184],[-0.227810974150068,51.5210497058202],[-0.227819702001838,51.5208250224119],[-0.227459549709047,51.5208195818547],[-0.227468279197055,51.5205948984888],[-0.227108128764638,51.5205894568793],[-0.227116859888837,51.520364773556],[-0.227125590900929,51.5201400902225],[-0.227485737836813,51.5201455317267],[-0.227477008572976,51.5203702151128],[-0.227837157369183,51.5203756555648],[-0.227828429741542,51.5206003389934],[-0.228188580398078,51.5206057783931],[-0.228179854406678,51.5208304618642],[-0.228171128303236,51.5210551453251],[-0.228531282568433,51.5210605837252]]],[[[-0.22572869262109,51.5189948973908],[-0.225368554986769,51.5189894506256],[-0.225377294066827,51.5187647674946],[-0.225017158292806,51.5187593196774],[-0.225025899008743,51.5185346365889],[-0.22503463961245,51.5183099534903],[-0.225394771890323,51.5183154012023],[-0.225386033034678,51.5185400843535],[-0.225746167172801,51.5185455310133],[-0.225737429953038,51.5187702142071],[-0.22572869262109,51.5189948973908]]],[[[-0.225052120483189,51.5178605872628],[-0.225043380103932,51.5180852703816],[-0.22503463961245,51.5183099534903],[-0.224674507446787,51.5183045046737],[-0.224683249686306,51.5180798216176],[-0.224323119380911,51.5180743717489],[-0.224331863256198,51.5178496887354],[-0.224340607019216,51.5176250057118],[-0.224700733828608,51.5176304554752],[-0.22469199181358,51.5178551385515],[-0.225052120483189,51.5178605872628]]],[[[-0.20545765382158,51.4663043892851],[-0.205097932622997,51.4662988861324],[-0.204738211539806,51.4662933818762],[-0.20437849057203,51.4662878765168],[-0.204387308896836,51.4660631928089],[-0.204747028075457,51.4660686981295],[-0.205106747369489,51.4660742023467],[-0.205115562000538,51.4658495185517],[-0.205475279620824,51.4658550216267],[-0.205466466778912,51.4660797054606],[-0.20545765382158,51.4663043892851]]],[[[-0.217504413805993,51.471209226861],[-0.217864175507305,51.4712146927695],[-0.218223937320262,51.4712201575759],[-0.218232688824549,51.4709954724434],[-0.218592445816126,51.4710009362717],[-0.218583696189362,51.471225621436],[-0.218943455051862,51.4712310841987],[-0.218934707111059,51.471455769389],[-0.218925959055112,51.47168045457],[-0.21891721088402,51.4719051397418],[-0.218557446618073,51.4718996768732],[-0.218566196590337,51.4716749917368],[-0.218206433976654,51.4716695278079],[-0.21819768213733,51.4718942129075],[-0.217837915137039,51.4718887478913],[-0.217846668705497,51.4716640628617],[-0.217855422162252,51.4714393778211],[-0.217495658731853,51.4714339118427],[-0.217504413805993,51.471209226861]]],[[[-0.251760881956696,51.5261300320744],[-0.251752271611513,51.5263547179249],[-0.251392069188207,51.5263493521243],[-0.251383456850808,51.5265740379471],[-0.251023251091384,51.526568671289],[-0.251014636828465,51.5267933570725],[-0.251006022451895,51.5270180428469],[-0.250645813182283,51.5270126750219],[-0.250637196880121,51.5272373607569],[-0.250276985912223,51.5272319917954],[-0.25026836768442,51.527456677491],[-0.250259749342915,51.5276813631776],[-0.249899534864752,51.5276759930491],[-0.249890914597535,51.5279006786963],[-0.249530698421072,51.5278953074313],[-0.249170482358341,51.52788993506],[-0.249161858353338,51.5281146206374],[-0.248801640592338,51.5281092471295],[-0.248441422945118,51.5281038725153],[-0.248450050574168,51.5278791869987],[-0.248089834852773,51.5278738113088],[-0.248081205411702,51.528098496795],[-0.247720987992113,51.5280931199684],[-0.247729619245205,51.5278684345126],[-0.247738250384426,51.5276437490477],[-0.2473780367027,51.5276383711757],[-0.247017823134845,51.5276329921975],[-0.247026457784138,51.5274083067845],[-0.247386669540024,51.5274136857322],[-0.247395302263459,51.5271890002797],[-0.247403934873007,51.5269643148181],[-0.247764143118892,51.5269696925989],[-0.247772773802654,51.5267450070978],[-0.247781404372557,51.5265203215877],[-0.247421199750451,51.5265149438678],[-0.247060995242206,51.5265095650417],[-0.246700790847845,51.5265041851095],[-0.246709426739446,51.5262794996816],[-0.246349224270842,51.5262741186736],[-0.246357861860342,51.5260494332672],[-0.246718062517122,51.5260548142447],[-0.246726698180873,51.5258301287987],[-0.246735333730703,51.5256054433437],[-0.246375136697502,51.525600062427],[-0.246014939778226,51.5255946804043],[-0.245654742972897,51.5255892972753],[-0.245294546281539,51.5255839130403],[-0.244934349704175,51.5255785276991],[-0.244574153240829,51.5255731412518],[-0.244213956891525,51.5255677536983],[-0.243853760656285,51.5255623650388],[-0.243493564535134,51.5255569752731],[-0.243133368528095,51.5255515844012],[-0.242773172635192,51.5255461924232],[-0.242412976856448,51.5255407993391],[-0.24240431956541,51.5257654844283],[-0.242044122089094,51.5257600902075],[-0.242035462872077,51.525984775257],[-0.242395662160172,51.5259901695083],[-0.242755861562452,51.5259955626535],[-0.242747205854813,51.5262202477551],[-0.242738550032992,51.5264449328476],[-0.242378347007081,51.5264395396413],[-0.242369689259226,51.5266642246942],[-0.242361031397161,51.526888909738],[-0.242721238046794,51.5268943030054],[-0.242712581882414,51.5271189880707],[-0.243072790458116,51.5271243802624],[-0.243064135991467,51.5273490653492],[-0.243424346493242,51.5273544564653],[-0.243415693724372,51.5275791415735],[-0.243775906152224,51.5275845316139],[-0.243767255081178,51.5278092167436],[-0.24412746943511,51.5278146057083],[-0.244487683903127,51.5278199935667],[-0.244847898485206,51.5278253803189],[-0.245208113181321,51.5278307659649],[-0.24556832799145,51.5278361505047],[-0.245928542915571,51.5278415339382],[-0.246288757953657,51.5278469162655],[-0.24628011945251,51.5280716015996],[-0.246640336416552,51.5280769828511],[-0.247000553494515,51.5280823629964],[-0.247360770686377,51.5280877420355],[-0.247352137507374,51.5283124274518],[-0.247712356625152,51.5283178054151],[-0.247703725144317,51.5285424908528],[-0.247343504214475,51.5285371128591],[-0.246983283398513,51.5285317337592],[-0.246623062696453,51.528526353553],[-0.246614425665486,51.5287510388903],[-0.246254203265271,51.5287456575475],[-0.245893980979007,51.5287402750983],[-0.245885340209886,51.5289649603657],[-0.245525116225495,51.5289595767798],[-0.245516473530255,51.5291842620077],[-0.245156247847744,51.5291788772851],[-0.245147603226336,51.5294035624734],[-0.244787375845706,51.5293981766141],[-0.244427148579128,51.5293927896484],[-0.244066921426625,51.5293874015765],[-0.244075571484457,51.5291627164796],[-0.244084221428173,51.5289380313737],[-0.24372399801402,51.5289326422565],[-0.243715346258189,51.5291573273319],[-0.24370669438822,51.5293820123983],[-0.243698042404111,51.5296066974556],[-0.244058271254677,51.5296120866643],[-0.24404962096861,51.5298367717431],[-0.244040970568424,51.5300614568128],[-0.244032320054115,51.5302861418734],[-0.244023669425681,51.530510826925],[-0.244015018683122,51.5307355119676],[-0.244006367826434,51.5309601970011],[-0.243646128102413,51.5309548076093],[-0.243285888492528,51.5309494171111],[-0.242925648996802,51.5309440255066],[-0.242934305290386,51.5307193405647],[-0.242574067721137,51.5307139478844],[-0.242213830266093,51.5307085540978],[-0.241853592925277,51.5307031592048],[-0.241493355698711,51.5306977632056],[-0.241133118586421,51.5306923660999],[-0.240772881588429,51.530686967888],[-0.240781548641415,51.5304622831204],[-0.240421313570005,51.5304568838327],[-0.240061078612938,51.5304514834387],[-0.240069749176058,51.5302267987232],[-0.239709516145592,51.5302213972535],[-0.239349283229512,51.5302159946775],[-0.239340609041928,51.5304406793317],[-0.238980374428033,51.5304352756188],[-0.238620139928575,51.5304298707995],[-0.238259905543579,51.5304244648739],[-0.237899671273066,51.530419057842],[-0.237539437117063,51.5304136497038],[-0.237530753753809,51.5306383341957],[-0.237890989722057,51.5306437423646],[-0.237882308056523,51.5308684268782],[-0.237522070276007,51.5308630186787],[-0.237513386683655,51.5310877031525],[-0.237873626276461,51.5310931113827],[-0.237864944381872,51.5313177958782],[-0.238225185901508,51.5313232030327],[-0.238216505704727,51.5315478875497],[-0.238576749151197,51.5315532936286],[-0.238585427535637,51.5313286090809],[-0.238594105805592,51.5311039245241],[-0.23895434574187,51.5311093294353],[-0.238963022085047,51.5308846448389],[-0.238602783961066,51.5308792399583],[-0.23861146200206,51.5306545553834],[-0.238971698313767,51.5306599602334],[-0.239331934739915,51.5306653639769],[-0.23932326032347,51.5308900486131],[-0.239683498676311,51.5308954512809],[-0.240043737143546,51.5309008528425],[-0.240403975725151,51.5309062532977],[-0.240764214421105,51.5309116526466],[-0.240755547139441,51.5311363373961],[-0.240746879743434,51.5313610221365],[-0.240386637422844,51.5313556227265],[-0.240377968100141,51.5315803074272],[-0.240369298663068,51.531804992119],[-0.240009052832104,51.5317995915414],[-0.239648807115519,51.5317941898574],[-0.239657480177339,51.5315695052269],[-0.239297236387527,51.5315641024671],[-0.239288561513336,51.531788787067],[-0.238928316025579,51.5317833831703],[-0.238568070652272,51.5317779781672],[-0.238207825393437,51.5317725720577],[-0.237847580249099,51.5317671648419],[-0.23748733521928,51.5317617565197],[-0.237478651168709,51.5319864409573],[-0.237118404441052,51.531981031498],[-0.236758157827964,51.5319756209324],[-0.236397911329469,51.5319702092604],[-0.236389221727127,51.5321948935969],[-0.236028973530848,51.5321894807878],[-0.235668725449212,51.5321840668724],[-0.23530847748224,51.5321786518505],[-0.235299782328003,51.5324033360858],[-0.234939532663304,51.5323979199269],[-0.234579288423633,51.5323925001377],[-0.234219044869187,51.5323870789705],[-0.234227745190072,51.5321623949375],[-0.233867503491098,51.5321569727185],[-0.233507261903598,51.5321515493942],[-0.233515965601006,51.5319268654579],[-0.233155725868994,51.5319214410817],[-0.233164431198864,51.5316967571888],[-0.232804193322336,51.5316913317608],[-0.232812900284621,51.5314666479112],[-0.232452664263574,51.5314612214314],[-0.232461372858228,51.531236537625],[-0.232101138692657,51.5312311100935],[-0.231740904638666,51.5312256814567],[-0.231749616609538,51.5310009977471],[-0.231389384411039,51.5309955680586],[-0.231398098014166,51.5307708843924],[-0.231037867671156,51.5307654536521],[-0.230677637439789,51.5307600218066],[-0.230317407320089,51.5307545888559],[-0.230326126043107,51.53052990534],[-0.230686354418968,51.5305353382372],[-0.231046582906492,51.5305407700292],[-0.231406811505658,51.530546200716],[-0.231767040216441,51.5305516302975],[-0.232127269038822,51.5305570587739],[-0.232487497972775,51.530562486145],[-0.232496206121159,51.530337802298],[-0.232856433422834,51.5303432285105],[-0.232865139715848,51.5301185445998],[-0.233225365385242,51.5301239696536],[-0.233585591166138,51.5301293936022],[-0.233945817058513,51.5301348164456],[-0.234306043062346,51.5301402381837],[-0.234666269177613,51.5301456588167],[-0.235026497167437,51.5301510774732],[-0.23501780123324,51.5303757617594],[-0.235378034587028,51.5303811776418],[-0.235738268055489,51.5303865924179],[-0.236098501638599,51.5303920060877],[-0.236458735336335,51.5303974186512],[-0.236818969148674,51.5304028301084],[-0.236827656021817,51.5301781456687],[-0.237187888136517,51.5301835559889],[-0.237196573082875,51.5299588715095],[-0.236836342780368,51.52995346122],[-0.236476112592437,51.5299480498242],[-0.236484801048568,51.5297233653971],[-0.2361245727874,51.5297179529257],[-0.236133262941064,51.5294932685202],[-0.236141952980096,51.5292685841057],[-0.235781728457808,51.5292631705894],[-0.235790420194305,51.5290384861965],[-0.235799111816151,51.5288138017946],[-0.235438891032663,51.5288083872335],[-0.235447584351905,51.5285837028532],[-0.235087365495119,51.5285782872165],[-0.235096060511712,51.5283536028579],[-0.235104755413613,51.5281289184902],[-0.235113450200824,51.5279042341134],[-0.235122144873348,51.5276795497276],[-0.234761935137463,51.5276741321904],[-0.234770631374441,51.5274494478906],[-0.234410426183197,51.5274440278987],[-0.234419124052294,51.5272193436422],[-0.234427821809968,51.5269946593756],[-0.234788023514191,51.5270000792608],[-0.234796719416968,51.5267753949306],[-0.234805415208347,51.5265507105902],[-0.234445216991054,51.5265452908119],[-0.234085018885163,51.5265398699285],[-0.233724820890699,51.5265344479401],[-0.233364623007686,51.5265290248466],[-0.233004425236143,51.526523600648],[-0.232644227576095,51.5265181753443],[-0.232652933716636,51.5262934913144],[-0.232292737911524,51.5262880649592],[-0.232301445683933,51.5260633809726],[-0.232661639745649,51.5260688072744],[-0.233021833918877,51.5260742324711],[-0.233382028203596,51.5260796565628],[-0.233742222599783,51.5260850795494],[-0.234102417107415,51.526090501431],[-0.23446261172647,51.5260959222076],[-0.234822806456926,51.5261013418791],[-0.235183004369919,51.5261067587731],[-0.235191698125011,51.5258820743148],[-0.235200391765433,51.5256573898474],[-0.235560587067773,51.5256628050847],[-0.235920782484746,51.5256682192158],[-0.235912092467807,51.5258929037447],[-0.235903402336244,51.5261175882644],[-0.236263601491337,51.5261230013508],[-0.236623800761017,51.5261284133311],[-0.236984000145262,51.5261338242052],[-0.23734419964405,51.5261392339732],[-0.237352882528529,51.5259145493307],[-0.237713080330058,51.5259199579619],[-0.237704399257354,51.526144642635],[-0.238064598985153,51.5261500501907],[-0.238424798827422,51.5261554566403],[-0.238784998784139,51.5261608619837],[-0.238793674421505,51.5259361772186],[-0.239153872680861,51.5259415814252],[-0.239514071054617,51.5259469845257],[-0.239874269542747,51.52595238652],[-0.240234468145228,51.5259577874082],[-0.240594666862036,51.5259631871903],[-0.24095486569315,51.5259685858662],[-0.241315064638543,51.5259739834359],[-0.241306401683703,51.5261986684152],[-0.241666602555151,51.5262040649094],[-0.241675263698193,51.5259793798995],[-0.241683924726986,51.5257546948806],[-0.241323727479109,51.5257492984475],[-0.240963530345488,51.5257439009083],[-0.240603333326145,51.525738502263],[-0.240243136421104,51.5257331025116],[-0.239882939630389,51.525727701654],[-0.239522742954023,51.5257222996903],[-0.23916254639203,51.5257168966204],[-0.238802349944433,51.5257114924444],[-0.238442153611256,51.5257060871623],[-0.238081957392523,51.525700680774],[-0.237721761288256,51.5256952732797],[-0.237361565298479,51.5256898646792],[-0.237370247931623,51.5254651800399],[-0.237730442112513,51.5254705886065],[-0.23809063640788,51.5254759960671],[-0.238099315209555,51.5252513114406],[-0.238459507807896,51.5252567177612],[-0.238819700520665,51.5252621229759],[-0.239179893347839,51.5252675270846],[-0.239540086289393,51.5252729300874],[-0.239548757730769,51.5250482453155],[-0.239557429057775,51.5248235605344],[-0.239917618490784,51.5248289623631],[-0.239926287892004,51.5246042775388],[-0.240286475627925,51.5246096782276],[-0.240277808038122,51.524834363086],[-0.240269140333997,51.5250590479351],[-0.240629331807086,51.525064447586],[-0.240989523394459,51.525069846131],[-0.240998187475694,51.5248451612138],[-0.241358377365881,51.5248505586189],[-0.241718567370303,51.524855954918],[-0.242078757488936,51.5248613501111],[-0.242438947721759,51.5248667441984],[-0.242799138068746,51.5248721371796],[-0.243159328529875,51.524877529055],[-0.243167981628262,51.5246528439248],[-0.243528170392074,51.5246582346603],[-0.243888359269977,51.5246636242898],[-0.24424854826195,51.5246690128134],[-0.24425719581196,51.5244443275722],[-0.244617383106559,51.524449714956],[-0.244977570515179,51.5244551012338],[-0.244986214328335,51.5242304159156],[-0.245346400039552,51.5242358010537],[-0.245706585864741,51.5242411850858],[-0.245715225941129,51.5240164996906],[-0.246075410068886,51.5240218825829],[-0.246435594310564,51.5240272643693],[-0.246444230650274,51.5238025788972],[-0.246804413194491,51.5238079595438],[-0.24716459585258,51.5238133390846],[-0.247524778624519,51.5238187175194],[-0.247884961510285,51.5238240948484],[-0.248245144509852,51.5238294710714],[-0.248253771678942,51.5236047854208],[-0.248613952980942,51.5236101605042],[-0.248974134396696,51.5236155344816],[-0.248982757829339,51.5233908487542],[-0.249342937547495,51.5233962215919],[-0.249703117379355,51.5234015933238],[-0.24971173707564,51.5231769075196],[-0.250071915209874,51.5231822781118],[-0.250432093457763,51.5231876475981],[-0.250792271819285,51.5231930159786],[-0.251152450294414,51.5231983832531],[-0.251512628883129,51.5232037494218],[-0.251504018243404,51.5234284353947],[-0.251864196334071,51.5234338009218],[-0.251855587446311,51.5236584869078],[-0.252215766901359,51.5236638514599],[-0.25220715969148,51.5238885374719],[-0.252198552369059,51.5241132234745],[-0.252189944934093,51.5243379094679],[-0.252550129873065,51.5243432730197],[-0.252541524116069,51.5245679590389],[-0.252532918246549,51.5247926450489],[-0.252172729726523,51.5247872814268],[-0.252164121953914,51.5250119673923],[-0.252155514068752,51.5252366533486],[-0.252146906071038,51.5254613392955],[-0.25178671229179,51.5254559744621],[-0.251778102309111,51.5256806603458],[-0.251769492189229,51.5259053462147],[-0.251760881956696,51.5261300320744]]],[[[-0.246444230650274,51.5238025788972],[-0.246084048219954,51.5237971971446],[-0.245723865903554,51.5237918142862],[-0.245363683701097,51.5237864303218],[-0.245355041927319,51.5240111156923],[-0.244994858027477,51.5240057305882],[-0.244634674241628,51.5240003443782],[-0.244626028731112,51.5242250296717],[-0.244265843247907,51.5242196423218],[-0.243905657878744,51.5242142538661],[-0.243545472623646,51.5242088643044],[-0.243536821564914,51.5244335494869],[-0.243176634612515,51.5244281587854],[-0.242816447774231,51.5244227669779],[-0.242807792978567,51.5246474520834],[-0.242447604443011,51.5246420591361],[-0.242087416021619,51.5246366650828],[-0.241727227714413,51.5246312699236],[-0.241367039521418,51.5246258736585],[-0.241006851442655,51.5246204762875],[-0.241015515295341,51.5243957913518],[-0.241024179033755,51.524171106407],[-0.241384363489739,51.5241765037101],[-0.241744548059953,51.5241818999072],[-0.241753208061388,51.5239572148852],[-0.24211339093445,51.5239626099425],[-0.242473573921693,51.5239680038939],[-0.242833757023093,51.5239733967393],[-0.242842411476296,51.5237487116062],[-0.243202592880489,51.5237541033119],[-0.24356277439879,51.5237594939116],[-0.243571425115207,51.5235348087014],[-0.243931604936272,51.5235401981613],[-0.244291784871397,51.5235455865153],[-0.244651964920556,51.5235509737634],[-0.244660610088973,51.5233262884423],[-0.245020788440841,51.5233316745506],[-0.245380966906696,51.5233370595531],[-0.245389608338521,51.5231123741549],[-0.245749785107055,51.5231177580176],[-0.246109961989526,51.5231231407744],[-0.246470138985912,51.5231285224254],[-0.246478774869967,51.5229038369164],[-0.246838950168977,51.5229092174276],[-0.247199125581852,51.522914596833],[-0.247190493320331,51.5231392824097],[-0.247181860944947,51.5233639679772],[-0.247173228455698,51.5235886535355],[-0.246813047608947,51.5235832740286],[-0.246452866876067,51.5235778934158],[-0.246444230650274,51.5238025788972]]],[[[-0.245147603226336,51.5294035624734],[-0.245507830720993,51.5294089472265],[-0.245516473530255,51.5291842620077],[-0.245876699326769,51.529189645624],[-0.245885340209886,51.5289649603657],[-0.246245564308253,51.5289703428453],[-0.246236925237262,51.5291950281341],[-0.246228286052297,51.5294197134138],[-0.246588513888896,51.5294250948481],[-0.24659715126171,51.5292004095379],[-0.24695737740009,51.5292057898354],[-0.246966012846823,51.5289811044857],[-0.247326237286979,51.5289864836465],[-0.247686461841017,51.528991861701],[-0.248046686508915,51.5289972386493],[-0.248055316405391,51.5287725531993],[-0.24841553937501,51.5287779290109],[-0.24877576245844,51.5287833037162],[-0.248767136186194,51.529007989227],[-0.24875850980014,51.5292326747287],[-0.248398283092455,51.5292272999626],[-0.248389654780427,51.5294519854249],[-0.248029426374395,51.5294466095221],[-0.247669198082202,51.5294412325131],[-0.24766056603197,51.5296659179055],[-0.24730033604146,51.5296605397597],[-0.24729170206514,51.5298852251127],[-0.246931470376316,51.5298798458301],[-0.24692283447386,51.5301045311436],[-0.246562601086727,51.5300991507243],[-0.246553963258089,51.5303238359983],[-0.246193728172651,51.5303184544423],[-0.245833493201179,51.53031307178],[-0.245824851634046,51.530537756984],[-0.245816209952903,51.530762442179],[-0.245455971470868,51.5307570583493],[-0.245447327863403,51.5309817435048],[-0.245087087683075,51.5309763585384],[-0.244726847616788,51.5309709724656],[-0.244735494848869,51.5307462873711],[-0.244744141966867,51.5305216022676],[-0.244752788970787,51.530296917155],[-0.244761435860628,51.5300722320333],[-0.244770082636394,51.5298475469026],[-0.24513031364138,51.529852932823],[-0.245138958490882,51.5296282476527],[-0.245147603226336,51.5294035624734]]],[[[-0.232513622083238,51.5298884345735],[-0.232522329896938,51.5296637506961],[-0.232882551967263,51.5296691767481],[-0.232891257925667,51.529444492807],[-0.233251478363772,51.5294499177004],[-0.233242774149108,51.529674601695],[-0.233602996442452,51.5296800255367],[-0.23359429386004,51.5299047095745],[-0.233234069822932,51.5298992856794],[-0.232873845897324,51.529893860679],[-0.232513622083238,51.5298884345735]]],[[[-0.235938162023801,51.5252188502921],[-0.2359294723533,51.525443534714],[-0.235569278745146,51.5254381206177],[-0.235209085251609,51.5254327054153],[-0.234848892452181,51.5254272887847],[-0.234857587458023,51.5252026045181],[-0.234866282352216,51.5249779202414],[-0.235226471723813,51.5249833366988],[-0.235586661594448,51.5249887518328],[-0.235946851579697,51.5249941658609],[-0.235938162023801,51.5252188502921]]],[[[-0.236658545960934,51.5252296750987],[-0.236298353935084,51.5252242632484],[-0.236307041679536,51.5249995787831],[-0.236667231893942,51.5250049905993],[-0.237027422222891,51.5250104013096],[-0.237036106229917,51.5247857167669],[-0.23739629486196,51.5247911263372],[-0.237756483608498,51.5247965348016],[-0.237747803224325,51.5250212194124],[-0.237739122725664,51.5252459040141],[-0.237378930356248,51.5252404954815],[-0.23701873810133,51.5252350858431],[-0.237010053865234,51.5254597703673],[-0.237001369423216,51.5256844549725],[-0.236641173662491,51.5256790441598],[-0.236649859913367,51.5254543595888],[-0.236658545960934,51.5252296750987]]]]}}