{"type":"Feature","properties":{"code":"E63000534","name":"Boroughbridge"},"geometry":{"type":"MultiPolygon","coordinates":[[[[-1.38838497111036,54.0937621747778],[-1.38838167084564,54.0939868463117],[-1.38799945521382,54.0939849053452],[-1.3879961529186,54.0942095768395],[-1.38761393534395,54.0942076346284],[-1.38723171781314,54.0942056912035],[-1.38723502408163,54.0939810197706],[-1.38685280858133,54.0939790751626],[-1.38647059312491,54.0939771293408],[-1.38608837771242,54.0939751823051],[-1.38609168989679,54.0937505109557],[-1.38609500203715,54.0935258395974],[-1.38647721347645,54.0935277865715],[-1.38685942495968,54.0935297323318],[-1.38724163648679,54.0935316768784],[-1.38762384805777,54.0935336202111],[-1.38800605967259,54.09353556233],[-1.38800275746514,54.093760233842],[-1.38838497111036,54.0937621747778]]],[[[-1.39845899969677,54.0843759552405],[-1.39845575122611,54.0846006283012],[-1.39845250271225,54.084825301353],[-1.39883463789589,54.0848272082201],[-1.39883139133001,54.0850518812961],[-1.39882814472094,54.0852765543632],[-1.39921028393012,54.085278460083],[-1.39920703926912,54.0855031331743],[-1.39882489806869,54.0855012274216],[-1.39882165137326,54.085725900471],[-1.39843950822469,54.0857239934719],[-1.39843625949478,54.0859486664795],[-1.39843301072164,54.0861733394783],[-1.39881515785283,54.0861752465435],[-1.39881840463464,54.0859505735117],[-1.39920054981763,54.0859524793304],[-1.39958269504374,54.0859543839357],[-1.39957945224459,54.0861790570335],[-1.3995762094023,54.0864037301225],[-1.39995835865418,54.0864056335803],[-1.39995511776014,54.0866303066934],[-1.40033726904646,54.0866322089708],[-1.40033403010073,54.086856882108],[-1.40033079111192,54.0870815552364],[-1.40032755208003,54.087306228356],[-1.40070970938369,54.0873081295188],[-1.40109186673036,54.0873100294681],[-1.40108863163838,54.0875347026448],[-1.40147079101953,54.0875366014135],[-1.40146755787604,54.0877612746143],[-1.40108539650337,54.0877593758126],[-1.40070323517369,54.0877574757974],[-1.4006999980041,54.0879821489234],[-1.40108216132534,54.0879840489716],[-1.40107892610427,54.0882087221217],[-1.40107569084017,54.088433395263],[-1.40145785818758,54.0884352941636],[-1.40145462487208,54.0886599673291],[-1.40145139151359,54.0888846404856],[-1.40183356474197,54.0888865378853],[-1.40183033335173,54.0891112110604],[-1.40221250953932,54.0891131071006],[-1.40220928015991,54.0893377802853],[-1.40220605073648,54.0895624534614],[-1.40182387043911,54.0895605573849],[-1.40182063891673,54.0897852305342],[-1.40143845764953,54.0897833330236],[-1.401435224076,54.0900080061359],[-1.40105304278659,54.0900061070047],[-1.40104980717823,54.0902307800753],[-1.40104657152683,54.090455453137],[-1.40104333583239,54.0906801261899],[-1.40104010009491,54.090904799234],[-1.40103686431439,54.0911294722692],[-1.40103362849083,54.0913541452956],[-1.40103039262423,54.0915788183131],[-1.40102715671459,54.0918034913218],[-1.40102392190698,54.092028164056],[-1.4010206875445,54.0922528366682],[-1.40101745313907,54.0924775092716],[-1.40101421869069,54.0927021818662],[-1.40101098419936,54.092926854452],[-1.40139319137188,54.0929287539963],[-1.40177540055284,54.0929306519386],[-1.40177863108529,54.092705979288],[-1.40216084003114,54.0927078756461],[-1.40254304902035,54.0927097707905],[-1.40253982252518,54.0929344434939],[-1.40253659598661,54.0931591161886],[-1.40253336940466,54.0933837888745],[-1.40253014277932,54.0936084615518],[-1.40252691611059,54.0938331342203],[-1.40252368939848,54.0940578068801],[-1.40252046264297,54.0942824795311],[-1.40251723584408,54.0945071521734],[-1.40251400900179,54.094731824807],[-1.40251078211611,54.0949564974319],[-1.40250755518704,54.095181170048],[-1.40250432821457,54.0954058426554],[-1.40250110119871,54.0956305152541],[-1.40249787413945,54.095855187844],[-1.4024946470368,54.0960798604253],[-1.40249141989075,54.0963045329978],[-1.40248819270131,54.0965292055615],[-1.40248496546846,54.0967538781166],[-1.40248173819222,54.0969785506629],[-1.40247851087257,54.0972032232005],[-1.40286076028304,54.0972051176588],[-1.40324300973682,54.097207010903],[-1.40324623301814,54.0969823383126],[-1.40362848049605,54.0969842303164],[-1.40401072801722,54.0969861211062],[-1.40400750877422,54.0972107937493],[-1.40400428948793,54.0974354663836],[-1.40362203792841,54.0974335755412],[-1.4036188165796,54.0976582481404],[-1.40323656304413,54.0976563560575],[-1.40285430955194,54.0976544627605],[-1.40247205610308,54.0976525682495],[-1.40208980269756,54.0976506725244],[-1.40170754933542,54.0976487755852],[-1.401325298854,54.097646876904],[-1.40094304995863,54.0976449767218],[-1.40094628535209,54.0974203043207],[-1.40056403848671,54.0974184029548],[-1.40056080110617,54.0976430753255],[-1.40017855229665,54.0976411727153],[-1.39979630353009,54.097639268891],[-1.39979306213236,54.0978639411921],[-1.39978982069158,54.0980886134844],[-1.39940756799378,54.0980867083853],[-1.39902531533901,54.0980848020722],[-1.39864306272728,54.0980828945451],[-1.39864631012944,54.0978582223441],[-1.39826405954791,54.0978563136334],[-1.39826730889404,54.097631641454],[-1.39788506034271,54.0976297315598],[-1.3975028118345,54.0976278204515],[-1.39750606511161,54.0974031483243],[-1.39712381863362,54.0974012360326],[-1.39674157219881,54.0973993225268],[-1.39635932580721,54.0973974078071],[-1.39597707945883,54.0973954918734],[-1.39598034064089,54.0971708198594],[-1.39559809632281,54.0971689027422],[-1.39521585204802,54.097166984411],[-1.39483360781655,54.0971650648659],[-1.39445136362841,54.0971631441068],[-1.39445463271518,54.0969384722061],[-1.39407239055741,54.0969365502636],[-1.39407566158773,54.0967118783846],[-1.39445790175851,54.0967138002966],[-1.39484014197266,54.0967157209946],[-1.39484340898562,54.0964910490457],[-1.39484667595517,54.096266377088],[-1.39484994288133,54.0960417051216],[-1.39446770862796,54.0960397845152],[-1.3944644397149,54.0962644564511],[-1.39446117075842,54.0964891283783],[-1.39407893257459,54.0964872064969],[-1.39369669443415,54.0964852834015],[-1.39369996736448,54.0962606115355],[-1.39331773125437,54.0962586872568],[-1.39293549518772,54.0962567617642],[-1.39293877204836,54.0960320899506],[-1.39294204886546,54.0958074181281],[-1.39294532563903,54.0955827462969],[-1.39332755574508,54.0955846716978],[-1.3933308304883,54.0953599998271],[-1.39294860236906,54.0953580744568],[-1.39295187905556,54.095133402608],[-1.39256965296658,54.0951314760544],[-1.3925729315963,54.0949068042273],[-1.39219070753756,54.0949048764905],[-1.39219398811046,54.0946802046852],[-1.39219726863977,54.0944555328712],[-1.3922005491255,54.0942308610483],[-1.39181833107038,54.0942289321894],[-1.39181504859798,54.0944536039817],[-1.39143282859974,54.0944516738783],[-1.39105060864507,54.0944497425611],[-1.39105389509081,54.0942250708301],[-1.39067167716641,54.0942231383297],[-1.39067496555514,54.0939984666206],[-1.39067825390017,54.0937737949026],[-1.39068154220151,54.0935491231759],[-1.39029933028058,54.0935471895536],[-1.3899171184033,54.0935452547175],[-1.3895349065697,54.0935433186676],[-1.38953820078703,54.093318647024],[-1.38915599098369,54.093316709791],[-1.38915928714378,54.0930920381693],[-1.3887770793707,54.0930900997532],[-1.3887803774735,54.0928654281534],[-1.38839817173068,54.0928634885542],[-1.38839487164138,54.0930881601233],[-1.38839157150823,54.0933128316836],[-1.38800936183615,54.0933108908092],[-1.38801266395584,54.0930862192796],[-1.3876304563141,54.0930842772221],[-1.38763376037641,54.0928596057144],[-1.3876370643948,54.092634934198],[-1.38801926806356,54.092636876194],[-1.3880225700516,54.092412204638],[-1.38802587199576,54.0921875330731],[-1.38840807173546,54.092189473794],[-1.38841137164935,54.0919648021896],[-1.38879356944643,54.091966741666],[-1.38879686837007,54.0917420698525],[-1.38880016802382,54.0915173979038],[-1.38841797422411,54.0915154584903],[-1.3884212758259,54.0912907865661],[-1.38803908406203,54.0912888459722],[-1.38804238761182,54.0910641740724],[-1.3876601978838,54.0910622322982],[-1.38766350338152,54.0908375604228],[-1.38766680883525,54.0906128885386],[-1.38804899457949,54.0906148302462],[-1.38805229799736,54.0903901583198],[-1.38843448179366,54.0903920987805],[-1.38843118036764,54.0906167707402],[-1.38881336619967,54.0906187100205],[-1.38919555207555,54.0906206480872],[-1.38919884951787,54.0903959760609],[-1.38958103344572,54.0903979128807],[-1.38958432885233,54.0901732408124],[-1.38996651083215,54.0901751763853],[-1.3899698042031,54.0899505042748],[-1.39035198423489,54.0899524386009],[-1.39035527557023,54.0897277664483],[-1.39035856686176,54.0895030942869],[-1.39074074295378,54.0895050273329],[-1.3907440322098,54.0892803551294],[-1.39074732142203,54.089055682917],[-1.39112949357435,54.089057614683],[-1.39151166577036,54.0890595452353],[-1.39189383801002,54.0890614745741],[-1.39227601029332,54.0890634026994],[-1.39265818262022,54.089065329611],[-1.39266146183035,54.0888406572238],[-1.39227929149511,54.0888387303453],[-1.39228257265325,54.0886140579824],[-1.39228585376772,54.0883893856107],[-1.39228913483853,54.0881647132301],[-1.39229241586568,54.0879400408407],[-1.39229569684918,54.0877153684424],[-1.39229897778901,54.0874906960353],[-1.39230225868519,54.0872660236193],[-1.39192010233448,54.0872640957596],[-1.39192338517845,54.087039423368],[-1.39192666797873,54.0868147509675],[-1.39192995073534,54.0865900785582],[-1.39193323344826,54.08636540614],[-1.39155108510681,54.0863634771997],[-1.39155436976739,54.0861388048058],[-1.39155765438426,54.0859141324032],[-1.39117551006911,54.0859122023158],[-1.39117879663356,54.0856875299375],[-1.39118208315428,54.0854628575503],[-1.39118536963127,54.0852381851543],[-1.39080323133356,54.0852362539532],[-1.39080651975801,54.0850115815815],[-1.39080980813871,54.084786909201],[-1.39042767386707,54.0847849768529],[-1.39043096419516,54.0845603044968],[-1.39004883195839,54.0845583709686],[-1.39005212423381,54.0843336986369],[-1.38966999403191,54.0843317639286],[-1.38967328825461,54.0841070916212],[-1.38967658243347,54.083882419305],[-1.3892944562575,54.0838804834499],[-1.38929775238356,54.0836558111581],[-1.38891562824242,54.0836538741228],[-1.38891892720029,54.083429201589],[-1.3889222270453,54.0832045287658],[-1.38854010701209,54.0832025905641],[-1.38854340884777,54.0829779177555],[-1.38816129089454,54.0829759783637],[-1.38816459472084,54.0827513055697],[-1.38778247884756,54.0827493649877],[-1.38778578466443,54.0825246922084],[-1.38778909043655,54.0823000194204],[-1.38740697867849,54.0822980776717],[-1.3874102864411,54.0820734048983],[-1.38779239616394,54.0820753466238],[-1.38817450593147,54.0820772871358],[-1.38817780957893,54.0818526143071],[-1.38855991735592,54.0818545535823],[-1.38894202517754,54.0818564916442],[-1.38932413304376,54.0818584284926],[-1.38970624095456,54.0818603641276],[-1.38970294544788,54.0820850370495],[-1.39008505543842,54.0820869714943],[-1.39008176192236,54.0823116444308],[-1.39046387399265,54.0823135776855],[-1.39084598610742,54.0823155097267],[-1.39084927555302,54.0820908367437],[-1.39123138567704,54.0820927675483],[-1.39123467304293,54.0818680945334],[-1.39161678117618,54.0818700241013],[-1.39199888935383,54.0818719524557],[-1.3920021726049,54.0816472793857],[-1.39238427879176,54.0816492065035],[-1.39238755996325,54.0814245334016],[-1.39276966415932,54.0814264592828],[-1.39277294325128,54.081201786149],[-1.39277622229888,54.0809771130065],[-1.39239412217302,54.0809751871716],[-1.39239740321131,54.0807505140437],[-1.3924006842052,54.080525840907],[-1.39278278026097,54.0805277666954],[-1.39278605917545,54.0803030935269],[-1.39278933804557,54.0800784203497],[-1.39279261687133,54.0798537471638],[-1.39317470686647,54.0798556716692],[-1.3935567969059,54.0798575949614],[-1.39356007161743,54.0796329217204],[-1.39356334628466,54.0794082484708],[-1.39318126031505,54.0794063252251],[-1.39318453697284,54.0791816519899],[-1.39318781358629,54.0789569787461],[-1.39319109015541,54.0787323054937],[-1.39280901033461,54.0787303811042],[-1.39281228889418,54.0785057078662],[-1.39319436668019,54.0785076322326],[-1.39357644451048,54.0785095553856],[-1.39357317002049,54.0787342286699],[-1.39395524992983,54.0787361506328],[-1.39395197743034,54.0789608239316],[-1.39394870488657,54.0791854972218],[-1.39394543229853,54.0794101705033],[-1.39432751835663,54.0794120913224],[-1.3943242477592,54.0796367646183],[-1.3947063358964,54.0796386842473],[-1.39470960445893,54.0794140109282],[-1.39509169060541,54.0794159293207],[-1.39547377679604,54.0794178464999],[-1.39547051230332,54.0796425198652],[-1.39585260057297,54.0796444358542],[-1.3958558630308,54.0794197624657],[-1.39623794930964,54.0794216772183],[-1.39623468888672,54.0796463506299],[-1.39623142841968,54.0798710240328],[-1.39622816790853,54.0800956974271],[-1.39661026033624,54.0800976110356],[-1.39660700181596,54.0803222844443],[-1.39660374325159,54.0805469578443],[-1.39660048464312,54.0807716312357],[-1.39621838611037,54.0807697175578],[-1.39621512542275,54.0809943909174],[-1.396211864691,54.0812190642683],[-1.39659396729392,54.0812209779924],[-1.39659070855319,54.0814456513577],[-1.39658744976835,54.0816703247143],[-1.39658419093943,54.0818949980623],[-1.39620208223104,54.0818930842689],[-1.39581997356673,54.0818911692621],[-1.39581671062328,54.0821158425552],[-1.39543459996787,54.0821139263119],[-1.39543133494504,54.0823385995731],[-1.39504922229852,54.0823366820932],[-1.39504595519624,54.0825613553227],[-1.39542806987803,54.0825632728257],[-1.39581018460394,54.0825651891153],[-1.39580692152804,54.0827898623824],[-1.39618903833336,54.0827917774817],[-1.39657115518276,54.0827936913674],[-1.39656789613334,54.0830183646721],[-1.39695001506211,54.0830202773675],[-1.39694675800395,54.0832449506865],[-1.3973288790121,54.0832468621915],[-1.39732562394524,54.083471535525],[-1.39732236942422,54.0836962086195],[-1.39770449452277,54.0836981189615],[-1.39770124219964,54.0839227919827],[-1.39808336933245,54.0839247011443],[-1.39808011895714,54.0841493741897],[-1.39807686853858,54.0843740472261],[-1.39845899969677,54.0843759552405]]],[[[-1.38888594360846,54.0856759241307],[-1.38926808566987,54.0856778614654],[-1.38927138214686,54.0854531892444],[-1.38965352226084,54.0854551253324],[-1.39003566241859,54.085457060207],[-1.39003236992411,54.0856817324945],[-1.39002907738581,54.0859064047731],[-1.38964693324552,54.085904469832],[-1.3896436386721,54.0861291420685],[-1.38926149258428,54.0861272058808],[-1.38925819597568,54.0863518780752],[-1.38887604794034,54.0863499406407],[-1.38849389994884,54.0863480019928],[-1.38849720054011,54.0861233298649],[-1.38850050108746,54.0858986577282],[-1.38850380159088,54.0856739855827],[-1.38888594360846,54.0856759241307]]],[[[-1.40255272824559,54.0920357526279],[-1.40255595497276,54.0918110797938],[-1.40255918278127,54.0915864066855],[-1.40256241054578,54.0913617335686],[-1.40256563826628,54.091137060443],[-1.40294783303671,54.0911389542188],[-1.40333002785107,54.0911408467806],[-1.40332680424083,54.0913655199423],[-1.40370900115422,54.0913674113083],[-1.4037057795552,54.0915920844796],[-1.40370255791226,54.0918167576423],[-1.40369933730588,54.0920414305404],[-1.40369611699651,54.0922661033491],[-1.40331391191457,54.0922642118991],[-1.40331068954332,54.0924888846727],[-1.40292848248608,54.0924869919824],[-1.40254627547215,54.0924850980783],[-1.40254950188056,54.0922604253575],[-1.40255272824559,54.0920357526279]]]]}}