{"type":"Feature","properties":{"code":"E63005498","name":"Westerham"},"geometry":{"type":"MultiPolygon","coordinates":[[[[0.0831817711376708,51.2598610589268],[0.0828237321829598,51.2598674304773],[0.082813573304195,51.2596427805807],[0.0824555359745866,51.2596491509849],[0.0824453789846004,51.2594245010263],[0.082087343280099,51.2594308702842],[0.0820974985131644,51.2596555202947],[0.0821076538780469,51.259880170295],[0.0821178093747468,51.2601048202852],[0.0824758503500762,51.2600984508718],[0.0824860077355856,51.2603231008],[0.08249616525294,51.2605477507181],[0.0828542096104452,51.2605413801064],[0.0832122538361061,51.2605350084003],[0.0832020928047374,51.2603103585859],[0.0835601351415273,51.2603039858372],[0.0835499724850687,51.2600793360645],[0.0835398099605208,51.2598546862818],[0.0838978486514888,51.2598483125423],[0.0838876845019159,51.2596236628012],[0.0835296475678815,51.2596300364888],[0.083171610501968,51.259636409082],[0.0831817711376708,51.2598610589268]]],[[[0.0590557577562186,51.2652342127619],[0.0586976712088552,51.2652405112104],[0.0586876291712356,51.2650158581036],[0.0583295442545162,51.2650221554069],[0.0583395845309435,51.2652468085641],[0.0579814977225054,51.2652531048231],[0.0579915363682725,51.2654777580206],[0.0576334476681124,51.2654840532352],[0.0572753588374686,51.265490347355],[0.0572853940912871,51.2657150006433],[0.056927303368937,51.2657212937187],[0.05693733699198,51.2659459470473],[0.0569473707454974,51.2661706003659],[0.0569574046294906,51.2663952536744],[0.0573155006357161,51.2663889604478],[0.0573054649904081,51.2661643071897],[0.0576635591048527,51.2661580129187],[0.0580216530888073,51.2661517175529],[0.0583797469422497,51.2661454210923],[0.0587378406651578,51.2661391235369],[0.0587478833557001,51.2663637765934],[0.0591059787093542,51.2663574778927],[0.0591160232918132,51.2665821308887],[0.0594741202762072,51.2665758310428],[0.0594841667506286,51.2668004839783],[0.05984226536576,51.2667941829871],[0.0602003638502582,51.266787880901],[0.0602104139780522,51.2670125337255],[0.060568514093258,51.2670062304942],[0.0609266140777827,51.266999926168],[0.0612847139316056,51.266993620747],[0.0612947696505358,51.2672182734076],[0.0613048285968668,51.2674429260157],[0.0609467253296526,51.2674492315357],[0.0609567826605152,51.2676738841837],[0.0613148876730521,51.2676675786137],[0.0613249468790944,51.2678922312017],[0.0609668401212135,51.2678985368215],[0.0609768977117479,51.2681231894494],[0.0609869554321214,51.2683478420672],[0.0613450656807597,51.2683415363477],[0.0613551252763869,51.2685661889056],[0.0617132371405862,51.2685598820412],[0.0617232986115125,51.2687845345392],[0.0620814120912683,51.26877822653],[0.0620914754375374,51.2690028789681],[0.0617333602123289,51.2690091870272],[0.0617434219430383,51.2692338395051],[0.0617534838036421,51.2694584919731],[0.0621116025198236,51.2694521838142],[0.0621216662558458,51.2696768362221],[0.0624797865876407,51.2696705269184],[0.0624898521991243,51.2698951792664],[0.0628479741465274,51.2698888688177],[0.0628379067895052,51.2696642165196],[0.0631960268614174,51.2696579050259],[0.0635541468033564,51.2696515924372],[0.0635642176514478,51.2698762446354],[0.0639223392089202,51.2698699309018],[0.0639122666152969,51.2696452787535],[0.0642703862972183,51.2696389639749],[0.0646285058490972,51.2696326481013],[0.0646184298944961,51.2694079960428],[0.0649765475708082,51.2694016791242],[0.0653346651542158,51.269395361163],[0.0653245858383078,51.2691707091906],[0.065682701561738,51.2691643902016],[0.0660408171551229,51.2691580701174],[0.0660508999590663,51.269382721995],[0.065692782621665,51.2693890421266],[0.0657028638116548,51.2696136940417],[0.0657129451317086,51.2698383459469],[0.0660710659572109,51.2698320257205],[0.0664291866526389,51.269825704399],[0.0667873072179692,51.2698193819824],[0.0671454276531804,51.2698130584707],[0.067155516079624,51.2700377101764],[0.0675136381287685,51.2700313855221],[0.0675237284294688,51.2702560371704],[0.0675338188603526,51.2704806888088],[0.0671756933229902,51.2704870135579],[0.0671857821399167,51.2707116652339],[0.0671958710870088,51.2709363169],[0.0672059601642684,51.2711609685562],[0.0672160493716975,51.2713856202024],[0.0672261387092986,51.2716102718388],[0.0668680043208392,51.27161659573],[0.0668780920443578,51.271841247404],[0.06688817989803,51.272065899068],[0.0668982678818583,51.2722905507222],[0.0669083559958458,51.2725152023664],[0.067266497361468,51.2725088782855],[0.0672765873499617,51.2727335298724],[0.0676347303297605,51.2727272046488],[0.0679928731793663,51.27272087833],[0.0680029667867777,51.2729455298121],[0.0683611112505306,51.2729392023506],[0.0687192555840431,51.2729328737938],[0.069077399787293,51.2729265441418],[0.0690874987580853,51.2731511954716],[0.0694456445754291,51.2731448646769],[0.0698037902624621,51.2731385327869],[0.0701619358191637,51.2731321998017],[0.0701720401534548,51.2733568509791],[0.0705301873241951,51.2733505168511],[0.0708883343645566,51.2733441816279],[0.0712464812745168,51.2733378453094],[0.0712363717070497,51.2731131942746],[0.0715945167421966,51.2731068569084],[0.0719526616469,51.273100518447],[0.0723108064211364,51.2730941788903],[0.0723209212217598,51.2733188297825],[0.0726790676098874,51.2733124890831],[0.0730372138675014,51.2733061472884],[0.0733953599945786,51.2732998043984],[0.0733852399608185,51.273075153649],[0.0737433842129624,51.2730688097114],[0.0741015283345259,51.2730624646786],[0.0744596723254893,51.2730561185505],[0.0748178161858274,51.2730497713273],[0.0748279431970722,51.2732744218863],[0.0748380703389803,51.2734990724354],[0.0744799229898832,51.2735054197539],[0.0744900485180443,51.2737300703407],[0.0741318992939043,51.2737364166116],[0.0737737499391561,51.2737427617872],[0.0734156004538221,51.2737491058676],[0.073057450837924,51.2737554488527],[0.0730675695189683,51.2739800996201],[0.0730776883305696,51.2742047503775],[0.0730878072727313,51.274429401125],[0.0734459621220282,51.2744230579971],[0.0738041168407552,51.274416713774],[0.0738142394024996,51.2746413644164],[0.0738243620948533,51.2748660150489],[0.0741825201720236,51.2748596696353],[0.0745406781185751,51.2748533231263],[0.0745305519371648,51.274628672589],[0.0745204258864083,51.2744040220418],[0.0745102999663047,51.2741793714846],[0.0748684525487064,51.2741730240233],[0.0748785802132907,51.2743976745327],[0.0752367344095125,51.2743913259284],[0.075594888475051,51.2743849762289],[0.0756050197593083,51.2746096266332],[0.0759631754386386,51.2746032757906],[0.07632133098724,51.2745969238528],[0.0766794864050878,51.2745905708197],[0.0766896230536147,51.2748152210712],[0.0770477800852007,51.2748088668951],[0.0774059369859877,51.2748025116238],[0.0777640937559531,51.2747961552571],[0.0777742357688659,51.2750208053556],[0.078132394152515,51.2750144478459],[0.0781425380408391,51.2752390978868],[0.0785006980381664,51.2752327392341],[0.0788588579046005,51.2752263794862],[0.0788690054129486,51.2754510294217],[0.0792271668930318,51.2754446685307],[0.079585328242175,51.2754383065444],[0.079575177244699,51.2752136567043],[0.0799333367183173,51.2752072936705],[0.0799231841072777,51.2749826438683],[0.0802813417053775,51.2749762797869],[0.0802711874808194,51.2747516300225],[0.0806293432034036,51.2747452648936],[0.0806191873653721,51.2745206151671],[0.080977341212445,51.2745142489906],[0.0809671837609848,51.274289599302],[0.0809570264405807,51.2740649496035],[0.0805988760824142,51.2740713156844],[0.0805887206374843,51.2738466659282],[0.0802305718927232,51.2738530308661],[0.0802204183232219,51.2736283810522],[0.0798622711918694,51.2736347448471],[0.0798521194977528,51.2734100949756],[0.0794939739798136,51.2734164576275],[0.0794838241610362,51.2731918076983],[0.0791256802565163,51.2731981692072],[0.079115532313033,51.2729735192203],[0.0791053845004801,51.2727488692236],[0.0787472439537004,51.2727552295418],[0.0787370980163725,51.2725305794875],[0.078378959083001,51.2725369386628],[0.078368815020852,51.2723122885508],[0.0780106777008918,51.2723186465832],[0.0780005355138779,51.2720939964135],[0.0779903934577181,51.271869346234],[0.0783485272891893,51.271862988297],[0.0783383836196717,51.2716383381553],[0.078328240081026,51.2714136880037],[0.07831809667325,51.2711890378421],[0.0779599680743441,51.271195395636],[0.0776018393446064,51.2712017523347],[0.0775916995559889,51.2709771020679],[0.0772335724395902,51.2709834576237],[0.0768754451924092,51.2709898120844],[0.0768653090228641,51.2707651617123],[0.0768551729840944,51.2705405113303],[0.0772132967430428,51.2705341569649],[0.0772031590909606,51.2703095066207],[0.0771930215696701,51.2700848562665],[0.0771828841791697,51.2698602059025],[0.0771727469194562,51.2696355555285],[0.0775308635714386,51.2696292002588],[0.0775207246985196,51.2694045499226],[0.0778788394757198,51.2693981936054],[0.0778686989896401,51.269173543307],[0.0778585586343859,51.2689488929987],[0.077500447345095,51.2689552492205],[0.0774903088645855,51.2687305988546],[0.0771321991884317,51.2687369539336],[0.076774089381516,51.2687433079175],[0.0767639545196094,51.2685186574464],[0.0764058463258597,51.2685250102876],[0.0763957133385878,51.2683003597589],[0.0767538197884531,51.2682940069653],[0.0771119261075851,51.2682876530767],[0.0774700322959591,51.2682812980931],[0.0778281383535545,51.2682749420144],[0.0781862442803469,51.2682685848407],[0.078176102704521,51.2680439345405],[0.0781659612595316,51.2678192842303],[0.0778078588204195,51.2678256413086],[0.0774497562505101,51.2678319972919],[0.0770916535498257,51.2678383521802],[0.0770815174670977,51.2676137017171],[0.0770713815151352,51.2673890512441],[0.0774294807282199,51.2673826964512],[0.0777875798105348,51.2673763405633],[0.0777774411064393,51.2671516901916],[0.0777673044090729,51.2669270398591],[0.0774092087653774,51.2669333956462],[0.0770511129899335,51.2669397503385],[0.0770409799469231,51.2667150998948],[0.0770308470356649,51.2664904494409],[0.0770207142561553,51.266265798977],[0.0773788047478267,51.2662594444365],[0.0773686703388514,51.2660347940131],[0.0777267589375714,51.2660284384283],[0.0780848474045267,51.2660220817488],[0.0784429357396974,51.2660157239745],[0.0788010239430591,51.2660093651054],[0.0787908826211149,51.2657847148744],[0.0787807414310263,51.2655600646333],[0.0791388259802228,51.2655537047707],[0.0791286831608543,51.2653290545702],[0.0791185404733593,51.2651044043596],[0.0791083979177343,51.264879754139],[0.079466477051757,51.2648733933335],[0.0794563328669386,51.2646487431534],[0.0794461888140106,51.2644240929633],[0.0790881132020926,51.2644304536674],[0.0790779710420695,51.2642058034165],[0.0794360448929689,51.264199442763],[0.0797941186120107,51.2641930810148],[0.0797839730618618,51.2639684308551],[0.0797738276436177,51.2637437806854],[0.0794157574465388,51.2637501423323],[0.0790576871176076,51.2637565028845],[0.0790475453531635,51.2635318526034],[0.0790374037205765,51.2633072023123],[0.0790272622198419,51.263082552011],[0.0790171208509588,51.2628579016997],[0.0790069796139256,51.2626332513783],[0.0786489179576972,51.2626396105827],[0.0786387786133494,51.2624149602006],[0.0789968385087383,51.2624086010469],[0.0793548982723087,51.2624022407985],[0.0797129579040391,51.2623958794554],[0.0797231025308981,51.2626205296856],[0.0800811637915983,51.2626141671972],[0.0804392249204092,51.2626078036143],[0.0804290767718865,51.2623831534854],[0.0807871360079592,51.2623767888584],[0.0807769862305663,51.2621521387702],[0.0811350435739033,51.2621457730993],[0.0814931007852898,51.2621394063337],[0.0818511578564068,51.2621330385261],[0.0818410029304093,51.2619083885754],[0.0821990580940855,51.2619020198417],[0.0821889015427563,51.2616773699327],[0.0821787451232633,51.2614527200134],[0.0818206934738611,51.2614590886434],[0.0818105389433049,51.2612344386622],[0.0818003845445588,51.2610097886709],[0.0817902302776195,51.2607851386695],[0.0817800761424856,51.2605604886579],[0.0817699221391539,51.2603358386361],[0.081759768267623,51.2601111886042],[0.0817496145278895,51.2598865385622],[0.0817394609199712,51.2596618885103],[0.0817293074443046,51.2594372384532],[0.0813712714927151,51.259443605705],[0.0810132354091779,51.2594499718623],[0.0806551991937163,51.2594563369251],[0.0806653473877938,51.2596809871343],[0.0803073092798964,51.2596873511532],[0.080297162846352,51.2594627008934],[0.0802870165447139,51.2592380506235],[0.0806450511315664,51.2592316867059],[0.0810030855865186,51.2592253216938],[0.081361119909548,51.2592189555871],[0.0813509684583525,51.2589943054592],[0.0817090008889549,51.2589879383087],[0.0816988486114878,51.2587632882842],[0.0820568792249844,51.2587569202568],[0.082046726154938,51.2585322703303],[0.0820365732162007,51.2583076203939],[0.0820264204087706,51.2580829704475],[0.0816683950411747,51.2580893383429],[0.0813103695606982,51.2580957052776],[0.0813205188722773,51.2583203553216],[0.0809624915133329,51.2583267212154],[0.0809726392088225,51.2585513713026],[0.0806146099714059,51.2585577361554],[0.0806044640232274,51.2583330860148],[0.0802464364019826,51.2583394497199],[0.0802565806028478,51.2585640999139],[0.0802667249348662,51.2587887500977],[0.0799086936878522,51.2587951128152],[0.0795506623097388,51.2588014744384],[0.0795608043266501,51.2590261247939],[0.0792027711047298,51.2590324853773],[0.0792129119929837,51.2592571358092],[0.0792230530130742,51.2594817862311],[0.0792331941650018,51.2597064366428],[0.0792433354487705,51.2599310870445],[0.0788852950529157,51.259937446736],[0.0788954347079379,51.2601620971782],[0.0785373924196994,51.2601684558257],[0.0781793499996873,51.2601748133787],[0.0781692138658494,51.2599501628352],[0.0778111730746825,51.259956519243],[0.0778213074479257,51.2601811698371],[0.0778314419529234,51.2604058204211],[0.0774733975088144,51.2604121758355],[0.0774835303849258,51.2606368264601],[0.077493663392773,51.2608614770746],[0.0775037965323587,51.261086127679],[0.0771457466745411,51.2610924821507],[0.0767876966850311,51.2610988355277],[0.0767978264349298,51.2613234862232],[0.0764397745530354,51.2613298385562],[0.0764499026738921,51.2615544892923],[0.0764600309264261,51.2617791400182],[0.0761019753913764,51.2617854913578],[0.0757439197246978,51.2617918416027],[0.0753858639264121,51.261798190753],[0.0750278079965421,51.2618045388087],[0.0750176867870799,51.2615798878805],[0.0746596324864221,51.261586234791],[0.0746697519351105,51.2618108857697],[0.0746798715153653,51.2620355367383],[0.0746899912271891,51.2622601876969],[0.0747001110705833,51.2624848386454],[0.0747102310455502,51.2627094895838],[0.0750682941503019,51.2627031424206],[0.075078416017732,51.2629277932985],[0.0754364807517976,51.2629214449901],[0.0757945453542673,51.262915095587],[0.0761526098251199,51.2629087450893],[0.0765106741643312,51.2629023934969],[0.0768687383718787,51.2628960408099],[0.0768586077000496,51.2626713901849],[0.077216670015038,51.2626650364537],[0.0772065377140702,51.2624403858692],[0.0775645981365035,51.262434031094],[0.0779226584272091,51.2624276752242],[0.0779327942498723,51.2626523257075],[0.0779429302043137,51.2628769761808],[0.0775848663918923,51.2628833321518],[0.077595000717224,51.2631079826656],[0.0776051351743162,51.2633326331693],[0.0776152697631711,51.2635572836629],[0.0772572005362699,51.2635636386911],[0.0768991311776535,51.2635699926246],[0.0765410616873439,51.2635763454633],[0.0761829920653645,51.2635826972074],[0.075824922311737,51.2635890478568],[0.0754668524264847,51.2635953974115],[0.0754567284032958,51.2633707466144],[0.0750986601473933,51.2633770950239],[0.0747405917599143,51.2633834423387],[0.0747507122611967,51.2636080932368],[0.0747608328940638,51.2638327441249],[0.0747709536585161,51.264057395003],[0.0751290273289271,51.2640510475366],[0.0751391499859915,51.264275698354],[0.0754972252858381,51.2642693497424],[0.0758553004540752,51.264263000036],[0.0758654267648368,51.2644876507423],[0.0762235035624805,51.2644812998906],[0.0762336317659633,51.2647059505362],[0.0765917101930098,51.2646995985393],[0.0766018402892598,51.2649242491243],[0.0766119705172195,51.2651488996992],[0.0769700523347655,51.2651425465064],[0.0769801844555624,51.2653671970206],[0.0766221008768937,51.2653735502641],[0.0762640171665367,51.2653799024127],[0.0762741458967764,51.2656045530181],[0.0762842747587114,51.2658292036133],[0.0759261873943636,51.2658355547684],[0.0759363146267991,51.2660602054041],[0.0755782253696056,51.2660665555149],[0.0752201359807853,51.266072904531],[0.0752100122707494,51.2658482537941],[0.0748519245115278,51.2658546016647],[0.0748418026943011,51.2656299508673],[0.0748316810086792,51.2654053000597],[0.0744735966402218,51.2654116467345],[0.0744837165646833,51.2656362975926],[0.0744938366207272,51.2658609484406],[0.0741357485983694,51.2658672941217],[0.073777660444479,51.2658736387081],[0.0734195721590768,51.2658799821996],[0.0730614837421862,51.2658863245964],[0.0727033951938304,51.2658926658983],[0.0726932839437339,51.2656680147978],[0.0726831728251067,51.2654433636872],[0.0726730618379454,51.2652187125665],[0.0723149784416676,51.2652250526222],[0.0719568949139756,51.2652313915832],[0.0715988112548932,51.2652377294494],[0.0715887056825885,51.2650130781673],[0.0712306236532723,51.2650194148883],[0.0712205199734744,51.2647947635456],[0.0708624395739297,51.2648010991214],[0.070504359043067,51.2648074336025],[0.0704942590168246,51.2645827821489],[0.0701361801157628,51.2645891154848],[0.0701260819819168,51.2643644639707],[0.0697680047106599,51.2643707961614],[0.0694099273081578,51.2643771272574],[0.0693998328277184,51.2641524756324],[0.0690417570550511,51.2641588055833],[0.0690316644668955,51.2639341538979],[0.0686735903240679,51.2639404827036],[0.0683155160500675,51.2639468104146],[0.0679574416449155,51.2639531370309],[0.0675993671086365,51.2639594625525],[0.067241292441253,51.2639657869793],[0.0668832176427859,51.2639721103114],[0.0668932996646813,51.264196762299],[0.0665352229741041,51.2642030845868],[0.0661771461524874,51.2642094057797],[0.0658190691998539,51.264215725878],[0.0654609921162277,51.2642220448815],[0.0654509171385496,51.2639973926926],[0.06544084229187,51.2637727404937],[0.0650827685993694,51.2637790583019],[0.0647246948399671,51.263785375057],[0.0647146236481573,51.2635607227483],[0.0643565515202692,51.2635670383591],[0.0639984792614841,51.2635733528752],[0.0636404068718248,51.2635796662965],[0.0636303410939609,51.2633550138261],[0.0632722703344541,51.2633613261022],[0.0629141994441206,51.2633676372837],[0.0629242616999769,51.2635922898552],[0.0629343240866698,51.2638169424166],[0.0625762495434953,51.2638232526044],[0.0622181748695368,51.2638295616974],[0.0618601000648164,51.2638358696958],[0.061502025129355,51.2638421765994],[0.0611439500631775,51.2638484824084],[0.0611540037754221,51.2640731352123],[0.0611640576183948,51.2642977880061],[0.0611741115920962,51.2645224407899],[0.0608160311119656,51.2645287456555],[0.0608260834552677,51.2647533984797],[0.0608361359292813,51.2649780512938],[0.0604780517961815,51.2649843551657],[0.0601199675324216,51.2649906579428],[0.0601300166147879,51.2652153108478],[0.0597719304592073,51.2652216125806],[0.0594138441730106,51.2652279132187],[0.0590557577562186,51.2652342127619]]],[[[0.0621216662558458,51.2696768362221],[0.0617635457941437,51.2696831444309],[0.0614054252025573,51.2696894515448],[0.0614154855774132,51.2699141040425],[0.0614255460821488,51.2701387565302],[0.0617836701648482,51.2701324493166],[0.0617937325450539,51.2703571017444],[0.0621518582434514,51.2703507933859],[0.0621417941176573,51.270126141008],[0.0624999179405553,51.2701198316044],[0.0624898521991243,51.2698951792664],[0.0621317301217896,51.2699014886201],[0.0621216662558458,51.2696768362221]]],[[[0.0787839137576412,51.2576909423133],[0.0787737770702793,51.2574662918649],[0.0784157557827474,51.257472649885],[0.0780577343642201,51.2574790068108],[0.0776997128147203,51.2574853626423],[0.0773416911342701,51.2574917173795],[0.0773518208326819,51.2577163680412],[0.0769937972740605,51.2577227217374],[0.0766357735845327,51.2577290743393],[0.0766458999193746,51.2579537250974],[0.0766560263851392,51.2581783758452],[0.0770140535692257,51.2581720231367],[0.0770241819132259,51.258396673821],[0.0773822107137118,51.2583903199648],[0.0773923409359938,51.2586149705856],[0.0777503713528731,51.2586086155818],[0.0781084016387906,51.2586022594837],[0.0780982679218491,51.2583776089696],[0.0784562963294574,51.2583712518305],[0.0788143246060604,51.258364893597],[0.0788244618176518,51.2585895440045],[0.0791824917105505,51.2585831846233],[0.0795405214723981,51.2585768241479],[0.0795303807661644,51.2583521738471],[0.0795202401910371,51.2581275235361],[0.0795100997470135,51.2579028732149],[0.0794999594340911,51.2576782228835],[0.0791419366613871,51.2576845831455],[0.0787839137576412,51.2576909423133]]],[[[0.0592868490205727,51.2704012295938],[0.0589287222836738,51.2704075291923],[0.0589387708288268,51.2706321820089],[0.0589488195037084,51.2708568348155],[0.0593069497318858,51.2708505351174],[0.0592968993113534,51.2706258823606],[0.0596550276641438,51.2706195816173],[0.0596650798303242,51.2708442343243],[0.0600232097990014,51.2708379324361],[0.0600131558871762,51.270613279779],[0.0603712839804262,51.2706069768457],[0.0607294119438736,51.2706006728173],[0.0607193546706036,51.2703760202499],[0.0610774807586083,51.2703697151764],[0.0610674218695832,51.2701450626488],[0.0607092975271731,51.2701513676725],[0.0603511730549422,51.2701576716011],[0.0603612284527759,51.2703823242284],[0.0600031021051464,51.2703886271119],[0.0596449756277378,51.2703949289003],[0.0592868490205727,51.2704012295938]]]]}}