{"type":"Feature","properties":{"code":"E63004191","name":"Bishop's Stortford"},"geometry":{"type":"MultiPolygon","coordinates":[[[[0.143144446979304,51.8532116426198],[0.143507167527713,51.853205032388],[0.14386988793636,51.8531984210389],[0.143859214847434,51.85297380149],[0.144221933303906,51.8529671890839],[0.144211258542467,51.8527425695848],[0.144200583920901,51.8525179500751],[0.143837869089133,51.8525245623605],[0.143848541898359,51.8527491819306],[0.143485825114469,51.852755793159],[0.143123108190821,51.85276240327],[0.14313377751516,51.8529870229502],[0.143144446979304,51.8532116426198]]],[[[0.143144446979304,51.8532116426198],[0.142781726291154,51.8532182517341],[0.14241900546329,51.8532248597311],[0.142056284495732,51.8532314666108],[0.14204562046878,51.8530068467602],[0.141682901173957,51.8530134524622],[0.141672239099116,51.8527888325407],[0.142034956581562,51.8527822268991],[0.142397673924344,51.8527756201401],[0.142760391127438,51.8527690122637],[0.142749723755247,51.8525443925126],[0.142739056522834,51.8523197727509],[0.142728389430194,51.8520951529787],[0.142717722477325,51.8518705331958],[0.14235501252349,51.8518771408308],[0.142344347522647,51.851652520977],[0.141981639241392,51.8516591274344],[0.141618930820486,51.8516657327744],[0.141629592196811,51.8518903527489],[0.141266881824014,51.8518969570319],[0.14127754152775,51.8521215770561],[0.141288201371164,51.8523461970696],[0.141298861354257,51.8525708170726],[0.140936145404914,51.8525774204192],[0.140925487234158,51.8523528003559],[0.140562772957563,51.8523594025249],[0.140200058541403,51.8523660035765],[0.14021071308748,51.8525906237603],[0.140221367773168,51.8528152439336],[0.140584085814033,51.8528086427614],[0.140594742451723,51.8530332628638],[0.14023202259847,51.8530398640962],[0.139869302605669,51.8530464642113],[0.139879955758172,51.8532710844236],[0.139890609050271,51.8534957046254],[0.139527885293087,51.8535023037436],[0.13953853691232,51.853726923995],[0.139549188671128,51.8539515442359],[0.139186461149483,51.8539581423572],[0.139197111235358,51.8541827626477],[0.13883438176171,51.8541893597119],[0.138845030174603,51.8544139800521],[0.138482298748947,51.8544205760591],[0.138492945488811,51.8546451964489],[0.138130212111144,51.8546517913987],[0.137767478594053,51.854658385231],[0.137756835479327,51.8544337647208],[0.137394103635409,51.8544403573755],[0.137031371652116,51.8544469489127],[0.136668639529474,51.8544535393325],[0.136658001991866,51.8542289186311],[0.136295271542453,51.8542355078733],[0.135932540953739,51.854242095998],[0.135921907180592,51.8540174751656],[0.135559178265137,51.8540240621128],[0.135196449210432,51.8540306479426],[0.135185819201658,51.8538060269793],[0.134823091820243,51.8538126116314],[0.134460364299627,51.8538191951662],[0.134097636639833,51.8538257775836],[0.134108261211044,51.8540503987273],[0.133745531599569,51.8540569800873],[0.133382801848961,51.8540635603299],[0.133020071959244,51.8540701394551],[0.133030691232025,51.8542947607686],[0.133041310643964,51.8545193820715],[0.133051930195061,51.8547440033638],[0.133062549885321,51.8549686246456],[0.133073169714745,51.8551932459168],[0.133435908667468,51.855186666491],[0.133446530448731,51.8554112876915],[0.133457152369186,51.8556359088815],[0.133094409791095,51.8556424884274],[0.132731667073901,51.8556490668558],[0.132368924217629,51.8556556441667],[0.1320061812223,51.8556622203602],[0.131643440096696,51.8556687952842],[0.131654052775415,51.8558934167887],[0.131664665588469,51.8561180382827],[0.132027410978922,51.856111463189],[0.13203802606589,51.8563360845876],[0.13167527853586,51.8563426597662],[0.131685891617591,51.8565672812392],[0.131696504833663,51.8567919027017],[0.13170711818408,51.8570165241538],[0.131344375766083,51.8570230976135],[0.131354987518872,51.8572477191137],[0.131365599405987,51.8574723406033],[0.13137621142743,51.8576969620825],[0.131386823583204,51.8579215835512],[0.131397435873311,51.8581462050094],[0.131034684660948,51.8581527776445],[0.131045295353299,51.8583773991508],[0.131055906179966,51.8586020206467],[0.131066517372237,51.8588266421264],[0.131077132830955,51.8590512634963],[0.131087748422066,51.8592758848567],[0.131098364145568,51.8595005062076],[0.131108980001466,51.859725127549],[0.131119595989763,51.859949748881],[0.13113021211046,51.8601743702035],[0.131140828363559,51.8603989915165],[0.131151444749063,51.86062361282],[0.131162061266974,51.8608482341141],[0.131172677917293,51.8610728553987],[0.131183294700026,51.8612974766738],[0.131193911615171,51.8615220979394],[0.131204528662733,51.8617467191956],[0.131215145842712,51.8619713404422],[0.131577925914062,51.861964767056],[0.131940714020232,51.8619581918063],[0.132303506553554,51.861951615023],[0.132666298952969,51.861945037122],[0.133029091218454,51.8619384581033],[0.133391883349987,51.8619318779671],[0.133754675347545,51.8619252967132],[0.134117467211107,51.8619187143417],[0.13448025894065,51.8619121308526],[0.134843050536151,51.8619055462458],[0.134832415772877,51.8616809256251],[0.134821781143715,51.8614563049938],[0.135184569156192,51.8614497193937],[0.135173932936692,51.8612250988137],[0.135536719090642,51.8612185121581],[0.135899505110491,51.8612119243849],[0.136262290996217,51.8612053354941],[0.136272932389043,51.8614299558876],[0.136635719865061,51.861423365817],[0.136646363116548,51.8616479861377],[0.136657006502261,51.8618726064477],[0.137019797293047,51.8618660151352],[0.137382587949636,51.8618594227051],[0.137745378472006,51.8618528291573],[0.138108168860134,51.861846234492],[0.138470959113998,51.861839638709],[0.138833749233575,51.8618330418085],[0.139196539218843,51.8618264437903],[0.139559329069781,51.8618198446545],[0.139922118786365,51.8618132444011],[0.140284908368573,51.8618066430301],[0.140647697816384,51.8618000405415],[0.140637035461509,51.8615754209158],[0.140999823050444,51.8615688173719],[0.141010487129776,51.8617934369353],[0.141373276308725,51.8617868322114],[0.141736065353208,51.86178022637],[0.14174673301599,51.8620048457981],[0.141757400813319,51.8622294652156],[0.141768068745197,51.8624540846223],[0.141405274527224,51.8624606906506],[0.141415940869114,51.8626853101088],[0.141053144792125,51.8626919150818],[0.141063809543979,51.8629165345916],[0.140701011607969,51.8629231385092],[0.140711674769743,51.8631477580706],[0.140348874974708,51.8631543609328],[0.140359536546357,51.8633789805457],[0.139996734892291,51.8633855823525],[0.140007394873768,51.863610202017],[0.139644591360666,51.8636168027683],[0.139655249751927,51.8638414224844],[0.139665908277618,51.8640660421898],[0.139303101180784,51.8640726419479],[0.139292444379785,51.8638480221803],[0.138929638873292,51.8638546207585],[0.138918983931371,51.8636300009179],[0.138556180015222,51.8636365983162],[0.138193375964767,51.8636431945968],[0.138182724606534,51.8634185746211],[0.137819922146453,51.8634251697218],[0.137457119552114,51.8634317637049],[0.137446471777483,51.8632071435941],[0.137083670773545,51.8632137363973],[0.136720869635397,51.8632203280828],[0.13635806836306,51.8632269186506],[0.135995266956557,51.8632335081008],[0.13563246541591,51.8632400964332],[0.13526966374114,51.863246683648],[0.135259026448519,51.8630220631537],[0.134896226364278,51.8630286491887],[0.134533426145963,51.863035234106],[0.134544059989326,51.8632598547246],[0.134906861932271,51.8632532697452],[0.134917497634392,51.863477890291],[0.134554693966793,51.8634844753325],[0.134191890165136,51.8634910592564],[0.133829086229444,51.8634976420626],[0.13346628215974,51.8635042237511],[0.133103477956045,51.8635108043219],[0.132740673618382,51.863517383775],[0.132377869146773,51.8635239621104],[0.13201506454124,51.8635305393281],[0.132025686580018,51.8637551603599],[0.131662881718219,51.8637617363576],[0.131300088049887,51.8637683100746],[0.131310706421734,51.863992931236],[0.131321324926023,51.8642175523879],[0.131331943562755,51.8644421735304],[0.131342562331933,51.8646667946633],[0.131353181233558,51.8648914157869],[0.131363800267634,51.8651160369009],[0.131726604812965,51.8651094628605],[0.131737226064596,51.8653340838795],[0.13174784745017,51.8655587048878],[0.132110667712671,51.8655521282294],[0.132121290957092,51.8657767491649],[0.132484112810568,51.8657701713267],[0.132494737913879,51.8659947921895],[0.132857561358326,51.8659882131713],[0.132868188320573,51.8662128339614],[0.133231013355986,51.8662062537634],[0.133593838257403,51.8661996724476],[0.13360446880359,51.8664242931028],[0.133967295295945,51.8664177106071],[0.13397792770118,51.8666423311895],[0.133988560240509,51.8668669517612],[0.134351390048795,51.8668603680235],[0.134362024447243,51.8670849885224],[0.134724855846478,51.8670784036047],[0.134735501245371,51.8673030230953],[0.135098333929603,51.8672964370424],[0.135461166472487,51.8672898498713],[0.135823998873997,51.8672832615819],[0.136186831134111,51.8672766721742],[0.136549663252804,51.8672700816482],[0.136912495230052,51.8672634900039],[0.137275327065831,51.8672568972414],[0.137638158760116,51.8672503033605],[0.138000990312884,51.8672437083613],[0.13836382172411,51.8672371122439],[0.138726652993771,51.8672305150082],[0.139089484121842,51.8672239166542],[0.139452315108299,51.867217317182],[0.139815145953118,51.8672107165914],[0.139825821395871,51.8674353348963],[0.140188653946,51.867428733133],[0.140177976656275,51.8672041148826],[0.140167310731253,51.8669794957005],[0.14015664873278,51.8667548761966],[0.140519476258854,51.866748273456],[0.14088230365048,51.8667416695976],[0.140892969098916,51.8669662889771],[0.141255798081049,51.8669596839386],[0.141618626928686,51.8669530777823],[0.141981455641806,51.8669464705083],[0.142344284220386,51.8669398621164],[0.142354957898962,51.8671644811459],[0.142717787609809,51.8671578716092],[0.1430806171788,51.8671512609542],[0.143091309244206,51.8673758787687],[0.143454140518268,51.8673692669409],[0.143816971650424,51.8673626539948],[0.14417980264065,51.8673560399305],[0.144169106202294,51.8671314221977],[0.144158425094408,51.8669068033898],[0.14452125286528,51.8669001882911],[0.144510570167172,51.8666755695348],[0.144499887603819,51.8664509507679],[0.144489205175219,51.8662263319902],[0.1448520276366,51.8662197159608],[0.14521484996327,51.8662130988136],[0.145577672155206,51.8662064805486],[0.145588359758526,51.8664310991392],[0.145951183540609,51.8664244796941],[0.14631400718791,51.8664178591312],[0.146324698375899,51.8666424775862],[0.146687523613319,51.8666358558431],[0.146698216661119,51.866860474225],[0.146708909843813,51.8670850925962],[0.146719615596173,51.8673097101684],[0.146730326273059,51.867534327427],[0.146741037092047,51.8677589446753],[0.14637820340208,51.8677655666768],[0.146388912516175,51.8679901839695],[0.146026076837102,51.8679968049073],[0.145663241015948,51.8680034247268],[0.145300405052735,51.868010043428],[0.14493756894749,51.8680166610108],[0.144574732700235,51.8680232774754],[0.144585432721263,51.8682478950308],[0.144948270815554,51.8682412785116],[0.144958972825608,51.8684658960022],[0.145321812624943,51.8684592783101],[0.145332516624069,51.8686838957358],[0.145695358128443,51.8686772768709],[0.145706064116691,51.8689018942318],[0.146068907326098,51.8688952741939],[0.146431750393414,51.8688886530377],[0.146442460217952,51.8691132702792],[0.14680530499027,51.86910664795],[0.147168149620446,51.8691000245026],[0.147530994108454,51.8690933999368],[0.147541709616507,51.8693180170041],[0.14717886328136,51.8693246416245],[0.146816016804045,51.8693312651266],[0.146826728759942,51.8695558822929],[0.146837440857964,51.869780499449],[0.146474590544148,51.8697871219419],[0.146485300937083,51.8700117391424],[0.146122448633926,51.8700183605716],[0.146133157321726,51.8702429778163],[0.145770303029222,51.8702495981818],[0.14578101001184,51.8704742154709],[0.145791717136521,51.8706988327497],[0.145802424403268,51.8709234500183],[0.145439564426802,51.8709300694291],[0.145076704308271,51.8709366877215],[0.144713844047697,51.8709433048955],[0.144703142322909,51.8707186874632],[0.144340283767642,51.8707253034641],[0.144350983645106,51.8709499209511],[0.144361683664543,51.8711745384277],[0.143998821272608,51.8711811534194],[0.143635958738701,51.8711877672927],[0.143273096062847,51.8711943800475],[0.142910233245069,51.8712009916839],[0.142547370285392,51.8712076022019],[0.14218450718384,51.8712142116014],[0.141821643940437,51.8712208198825],[0.141458780555206,51.8712274270452],[0.141469465937552,51.8714520449478],[0.141106600563124,51.8714586510465],[0.140743735046916,51.8714652560268],[0.14038086938895,51.8714718598887],[0.140018003589252,51.8714784626321],[0.139655137647844,51.871485064257],[0.139644461502493,51.8712604460821],[0.139281597266808,51.8712670465341],[0.139292271564751,51.8714916647635],[0.138929405339999,51.8714982641515],[0.138918732889463,51.8712736458677],[0.138555868370486,51.8712802440829],[0.138545197908954,51.8710556257344],[0.138534527589012,51.8708310073757],[0.138523857410657,51.8706063890068],[0.138513187373886,51.8703817706277],[0.138502517478698,51.8701571522382],[0.138865372760977,51.8701505542952],[0.139228227901635,51.8701439552337],[0.139217554453493,51.8699193369429],[0.139206881146977,51.8696947186418],[0.139196207982082,51.8694701003305],[0.138833358383149,51.8694766992287],[0.138470508642601,51.8694832970086],[0.138107658760464,51.86948989367],[0.137744808736761,51.8694964892131],[0.137734143102276,51.8692718706739],[0.137723477609314,51.8690472521245],[0.137360631138451,51.8690538464404],[0.137349967634164,51.8688292278264],[0.136987122868948,51.8688358209696],[0.136624277962244,51.8688424129944],[0.136634937772212,51.8690670317172],[0.136272090876883,51.8690736226781],[0.136282748981112,51.869298241445],[0.135919900097153,51.8693048313419],[0.135930556495594,51.8695294501529],[0.135567705623,51.8695360389857],[0.135578360315607,51.8697606578409],[0.135589015149598,51.8699852766858],[0.135599670124974,51.8702098955204],[0.135236813569184,51.8702164833979],[0.135247466838635,51.8704411022767],[0.134884608294149,51.8704476890901],[0.134521749608303,51.870454274785],[0.134158890781123,51.8704608593616],[0.134148243053629,51.8702362403198],[0.134137595467427,51.8700116212679],[0.134126948022516,51.8697870022057],[0.134116300718893,51.8695623831333],[0.134479152156931,51.8695557987739],[0.134842003453645,51.8695492132963],[0.134831352596859,51.8693245943222],[0.134468503147368,51.8693311797456],[0.134457854279112,51.869106560707],[0.134095006535501,51.8691131449577],[0.133732158650594,51.86911972809],[0.133369310624416,51.869126310104],[0.133379953951059,51.8693509293055],[0.133017103936424,51.8693575102553],[0.132654253780563,51.8693640900868],[0.132664893553973,51.8695887093866],[0.132302041409672,51.869595288154],[0.131939189124191,51.869601865803],[0.131949825344265,51.8698264852011],[0.131960461705483,51.870051104589],[0.132323317685517,51.8700445268315],[0.132686173524366,51.8700379479555],[0.133049029222005,51.8700313679612],[0.133059671266299,51.8702559871761],[0.133070313451815,51.8704806063807],[0.133433172702855,51.8704740251594],[0.133443816876946,51.8706986442995],[0.133080955778554,51.870705225575],[0.133091598246519,51.8709298447592],[0.132728735159507,51.8709364249706],[0.132365871931276,51.8709430040635],[0.132376510845661,51.871167623346],[0.132387149901229,51.8713922426182],[0.132750016824294,51.8713856634167],[0.132760657868501,51.8716102826244],[0.13277129905392,51.8718349018219],[0.132781940380552,51.8720595210091],[0.132792581848401,51.8722841401861],[0.13280322345747,51.8725087593529],[0.133166099476804,51.8725021787616],[0.133176743074665,51.8727267978638],[0.133187386813774,51.8729514169559],[0.133198030694132,51.8731760360377],[0.133208674715743,51.8734006551092],[0.133219318878611,51.8736252741706],[0.133582203994763,51.8736186921893],[0.133592850146575,51.8738433111861],[0.133603496439671,51.8740679301727],[0.133614142874053,51.874292549149],[0.133624789449726,51.8745171681151],[0.133987681815464,51.8745105847981],[0.134350574039873,51.8745040003624],[0.134361224452395,51.8747286192097],[0.133998330380208,51.8747352036996],[0.13400897908627,51.874959822591],[0.134371875006259,51.8749532380467],[0.134382525701466,51.8751778568735],[0.134393176538021,51.8754024756901],[0.134403827904545,51.8756270945392],[0.134766729208111,51.8756205087075],[0.134777382765784,51.8758451275078],[0.13514028577402,51.8758385404972],[0.135503188640949,51.8758319523683],[0.135866091366548,51.8758253631211],[0.135855432271031,51.8756007445028],[0.135844773586792,51.8753761258924],[0.136207672495392,51.8753695356464],[0.136218333009333,51.8755941541981],[0.136228993950792,51.8758187727557],[0.136239655033612,51.8760433913026],[0.136602559322441,51.8760367997582],[0.136613222392611,51.8762614182339],[0.136250316257792,51.876268009839],[0.13588740998159,51.8762746003258],[0.135876750603401,51.8760499817288],[0.135513846031832,51.8760565710366],[0.13515094131893,51.8760631592262],[0.135161597005131,51.8762877779447],[0.134798690304922,51.8762943650767],[0.134809344286394,51.8765189838452],[0.134819998409136,51.8767436026031],[0.134830652673152,51.8769682213505],[0.134841307078444,51.8771928400872],[0.135204221162885,51.8771862527124],[0.135214877555573,51.8774108713778],[0.135225534089566,51.8776354900326],[0.135236190764866,51.8778601086768],[0.135599110246404,51.8778535200016],[0.135609768909201,51.8780781385745],[0.135620427713334,51.8783027571368],[0.135631086658806,51.8785273756885],[0.135994011537616,51.8785207857128],[0.136004672470685,51.8787454041932],[0.136015333545122,51.8789700226629],[0.13637826197508,51.8789634314475],[0.136388925037187,51.8791880498459],[0.136751855172031,51.8791814574514],[0.137114785165435,51.8791748639384],[0.137125452061583,51.8793994822048],[0.136762520221858,51.8794060757784],[0.136773185413108,51.8796306940949],[0.136783850745782,51.8798553124007],[0.13714678627822,51.8798487187056],[0.137157453598714,51.8800733369401],[0.137520390836071,51.8800667420658],[0.137531060144432,51.8802913602289],[0.137541729594274,51.8805159783814],[0.13790467038298,51.8805093822672],[0.137915341820763,51.8807340003483],[0.138278284314399,51.8807274030549],[0.138288957740172,51.8809520210646],[0.13829963130748,51.8811766390638],[0.138662577352543,51.8811700405303],[0.138673252907915,51.8813946584581],[0.139036200657919,51.8813880587454],[0.139399148266314,51.8813814579142],[0.139388469017896,51.8811568401081],[0.13937778991109,51.8809322222913],[0.139367110945889,51.8807076044639],[0.139356432122293,51.8804829866259],[0.139345753440299,51.8802583687772],[0.139335074899905,51.880033750918],[0.139324396501108,51.8798091330481],[0.139687331042741,51.8798025315241],[0.139698011287912,51.8800271493332],[0.140060947534278,51.8800205466299],[0.140423883638977,51.8800139428083],[0.140786819601985,51.8800073378682],[0.140797505527961,51.8802319554842],[0.140808191595632,51.8804565730896],[0.140818877805002,51.8806811906843],[0.140829564156071,51.8809058082685],[0.140840250648843,51.881130425842],[0.141203195702321,51.8811238194793],[0.141213884183307,51.8813484369814],[0.141224572806025,51.8815730544728],[0.140861624059504,51.8815796609571],[0.140872310977398,51.8818042784988],[0.140882998037006,51.8820288960299],[0.140520045455611,51.8820355015174],[0.140530730810325,51.8822601190986],[0.140541416306734,51.8824847366693],[0.140904372581366,51.8824781310601],[0.141267328714257,51.8824715243323],[0.141278018045668,51.8826961417707],[0.141640975883443,51.8826895338636],[0.141651667203274,51.8829141512305],[0.142014626745927,51.882907542144],[0.14237758614676,51.882900931939],[0.142388281301752,51.8831255491735],[0.142751242407433,51.8831189377891],[0.142761939550962,51.8833435549521],[0.142398976598567,51.8833501663974],[0.142409672037206,51.8835747836106],[0.14277263683634,51.8835681721045],[0.142783334263569,51.8837927892463],[0.143146300767587,51.8837861765606],[0.143157000631601,51.8840107936163],[0.143519968797527,51.8840041797598],[0.143882936823455,51.8839975647842],[0.143893640514727,51.884222181725],[0.144256610214647,51.8842155655788],[0.144267315859949,51.8844401824581],[0.144630287233855,51.8844335651413],[0.14499325846769,51.8844269467053],[0.145003967881121,51.8846515634716],[0.14536694078891,51.884644943865],[0.145729913556578,51.8846383231393],[0.1460928861841,51.8846317012945],[0.146082171328525,51.8844070846827],[0.146445142001835,51.8844004617702],[0.146434425472381,51.8841758451999],[0.146423709083087,51.8839512286195],[0.146412992915293,51.8837266120552],[0.146402277020579,51.8835019955227],[0.146391561267955,51.8832773789797],[0.14638084565742,51.883052762426],[0.146370130188971,51.8828281458617],[0.146359414862605,51.8826035292867],[0.146348699678319,51.8823789127012],[0.146711653682189,51.8823722891959],[0.14670093679339,51.8821476726607],[0.146690220046692,51.8819230561148],[0.146679503442091,51.8816984395583],[0.147042451764137,51.8816918151176],[0.147031733455114,51.8814671986114],[0.147021015288208,51.8812425820947],[0.147010297263415,51.8810179655673],[0.147373239903843,51.881011340191],[0.147362520174718,51.880786723714],[0.147725460826546,51.8807800972803],[0.147714739393138,51.8805554808537],[0.147704018101885,51.8803308644164],[0.148066954918724,51.8803242369863],[0.148056231923256,51.8800996205994],[0.147693296952783,51.8801062479685],[0.147682575945832,51.8798816315099],[0.147319642679528,51.8798882576997],[0.146956709271076,51.879894882771],[0.146945992098917,51.8796702661798],[0.146583060394666,51.8796768900717],[0.146572345210905,51.879452273409],[0.14620941521086,51.8794588961216],[0.14619870201545,51.8792342793872],[0.145835773719617,51.8792409009205],[0.145825062512509,51.8790162841145],[0.145462135920894,51.8790229044684],[0.145451426702042,51.8787982875909],[0.145088501814648,51.8788049067655],[0.144725576785261,51.8788115248218],[0.14473628231163,51.8790361418212],[0.144373355294031,51.87904275882],[0.144010428134487,51.8790493747005],[0.14364750083302,51.8790559894626],[0.143284573389655,51.8790626031063],[0.142921645804415,51.8790692156317],[0.142558718077327,51.8790758270387],[0.142195790208414,51.8790824373273],[0.142185097605812,51.8788578199016],[0.141822171441359,51.878864429011],[0.141459245135131,51.878871037002],[0.141096318687153,51.8788776438747],[0.140733392097448,51.878884249629],[0.14037046536604,51.8788908542649],[0.140007538492954,51.8788974577825],[0.139644611478213,51.8789040601817],[0.139281684321842,51.8789106614625],[0.139271006630993,51.8786860435395],[0.139633931941109,51.8786794423195],[0.139996857109596,51.8786728399811],[0.13998617586787,51.8784482221692],[0.139975494767771,51.8782236043466],[0.139612573291718,51.8782302065634],[0.139249651674043,51.8782368076618],[0.139238974407935,51.878012189707],[0.139228297283401,51.8777875717416],[0.139217620300441,51.8775629537655],[0.139206943459052,51.8773383357789],[0.139196266759229,51.8771137177816],[0.139185590200971,51.8768890997738],[0.139174913784277,51.8766644817553],[0.139164237509143,51.8764398637262],[0.139153561375567,51.8762152456864],[0.139142885383547,51.8759906276361],[0.139505788540457,51.8759840271456],[0.139868691555771,51.8759774255369],[0.140231594429461,51.8759708228099],[0.140594497161505,51.8759642189646],[0.140957399751879,51.8759576140012],[0.141320302200557,51.8759510079194],[0.141683204507518,51.8759444007194],[0.142046106672735,51.8759377924012],[0.142409008696185,51.8759311829647],[0.142419701301837,51.8761558004676],[0.142782605029442,51.876149189852],[0.143145508615231,51.8761425781181],[0.143156205054592,51.8763671954886],[0.143166901635774,51.8765918128485],[0.142803994358025,51.8765984247042],[0.142814689235015,51.8768230421143],[0.143177598358779,51.8768164301978],[0.14318829522361,51.8770410475365],[0.142825384253806,51.8770476595139],[0.142836079414401,51.8772722769028],[0.142473166456703,51.8772788878228],[0.1421102533572,51.8772854976244],[0.142120944967419,51.8775101151245],[0.142483859913015,51.8775035052619],[0.142494553511113,51.8777281226905],[0.142857470161015,51.8777215116487],[0.142868165747038,51.8779461290058],[0.143231084101241,51.8779395167849],[0.143594002313583,51.8779329034456],[0.143956920384038,51.877926288988],[0.144319838312584,51.8779196734121],[0.144309135342034,51.8776950562987],[0.143946219259616,51.8777016718137],[0.143935518277078,51.8774770546287],[0.143924817436419,51.8772524374331],[0.144287729826653,51.8772458220399],[0.144298432513391,51.8774704391746],[0.144661346607776,51.8774638226022],[0.144672051282521,51.8776884396654],[0.144682756099197,51.8779130567179],[0.145045673743851,51.8779064389054],[0.145034967081052,51.8776818219138],[0.145397882737604,51.8776752030439],[0.145760798252152,51.8776685830556],[0.145750088039117,51.8774439661753],[0.145739377968082,51.8772193492843],[0.145728668039045,51.8769947323827],[0.145717958252004,51.8767701154705],[0.14535505012169,51.876776735215],[0.144992141849381,51.8767833538411],[0.144629233435105,51.876789971349],[0.144266324878881,51.8767965877386],[0.143903416180737,51.87680320301],[0.143892715765707,51.8765785857825],[0.143882015492548,51.8763539685444],[0.143871315361258,51.8761293512957],[0.144234218521448,51.876122736207],[0.1442449204987,51.8763473533949],[0.144607825362934,51.8763407371271],[0.144970730085228,51.876334119741],[0.145333634665558,51.8763275012367],[0.145696539103899,51.8763208816142],[0.146059443400226,51.8763142608734],[0.146422347554517,51.8763076390143],[0.146785251566746,51.876301016037],[0.147148155436891,51.8762943919415],[0.147511059164926,51.8762877667277],[0.147873962750827,51.8762811403956],[0.148236866194572,51.8762745129453],[0.148247588619384,51.8764991294519],[0.148610494763323,51.8764925007352],[0.148599770476133,51.876267884286],[0.148962675205321,51.8762612544535],[0.14897340129287,51.8764858708537],[0.149336307682881,51.8764792398533],[0.149699213933333,51.8764726077339],[0.149709943761148,51.8766972240263],[0.149347035710319,51.8767038561947],[0.149357763877294,51.8769284725261],[0.148994853886499,51.8769351036245],[0.148631943756164,51.8769417336039],[0.148621219189999,51.8767171171745],[0.148258311186353,51.8767237459479],[0.147895404050671,51.8767303735202],[0.147532496772825,51.8767369999743],[0.147543215789943,51.8769616165816],[0.147906124913796,51.8769549900666],[0.14791684591906,51.8771796066023],[0.148279756746777,51.877172978908],[0.14864266846182,51.8771663500233],[0.149005580392584,51.877159719995],[0.149368492183805,51.8771530888476],[0.149379220629858,51.8773777051592],[0.149742134081959,51.8773710728438],[0.15010504739447,51.8773644394095],[0.150467960567364,51.8773578048561],[0.150457226719975,51.8771331886915],[0.150446493012197,51.876908572517],[0.150435759444027,51.8766839563325],[0.150425026015464,51.8764593401382],[0.150787931847098,51.8764527046619],[0.151150837539078,51.8764460680666],[0.15116157456838,51.8766706841629],[0.151524481921049,51.8766640463997],[0.151887389134017,51.8766574075175],[0.152250296207257,51.8766507675163],[0.15261320314075,51.8766441263961],[0.15297610993447,51.876637484157],[0.153339016588395,51.8766308407989],[0.153701923102499,51.8766241963219],[0.153712672874125,51.8768488120649],[0.154075581048759,51.8768421664198],[0.154064829476761,51.8766175507259],[0.154427735711157,51.8766109040109],[0.154438489083524,51.8768355196557],[0.154801396978397,51.8768288717727],[0.155164304733355,51.8768222227707],[0.155527212348375,51.8768155726497],[0.155890119823431,51.8768089214097],[0.155900880537212,51.8770335368482],[0.155911641390957,51.8772581522766],[0.155548730315109,51.8772648036149],[0.155185819099295,51.8772714538341],[0.155196576492141,51.8774960693509],[0.155207334024907,51.8777206848578],[0.15557024884161,51.8777140345403],[0.155581008314778,51.8779386499882],[0.155591767927895,51.8781632654261],[0.155602527680963,51.8783878808541],[0.155613287573985,51.8786124962721],[0.155976209452765,51.8786058446391],[0.155986971286313,51.8788304599981],[0.155997733259843,51.8790550753471],[0.156008495373358,51.8792796906863],[0.156019257626858,51.8795043060155],[0.155656328545654,51.8795109578451],[0.155293399324459,51.8795176085557],[0.154930469963295,51.8795242581471],[0.154919713111725,51.8792996426705],[0.154556785411265,51.8793062910938],[0.154193857570887,51.879312938398],[0.153830929590614,51.8793195845832],[0.153841681040231,51.8795442002071],[0.153852432629696,51.8797688158211],[0.153489500908215,51.8797754609853],[0.153126569046882,51.8797821050305],[0.153115821058778,51.8795574893183],[0.1527528908583,51.8795641321953],[0.152389960518017,51.8795707739533],[0.152027030037953,51.8795774145921],[0.151664099418134,51.8795840541119],[0.151674840203487,51.8798086700202],[0.151311907643239,51.8798153084699],[0.151322646767585,51.8800399244175],[0.15133338603162,51.880264540355],[0.151344125435348,51.8804891562827],[0.150981187333158,51.8804957937604],[0.150991925075788,51.8807204097272],[0.151002662958091,51.880945025684],[0.151013400980069,51.881169641631],[0.151376344484699,51.8811630040062],[0.151387084447215,51.8813876198942],[0.151750029612975,51.8813809811012],[0.152112974638983,51.8813743411891],[0.152475919525214,51.8813677001578],[0.152838864271646,51.8813610580074],[0.152828117105712,51.8811364423156],[0.153191059911472,51.8811297990951],[0.153554002577388,51.8811231547555],[0.153916945103436,51.8811165092967],[0.154279887489593,51.8811098627187],[0.154642829735836,51.8811032150216],[0.155005771842141,51.8810965662054],[0.155368713808484,51.8810899162701],[0.155731655634843,51.8810832652156],[0.156094597321193,51.8810766130419],[0.156457538867512,51.8810699597492],[0.156468304041819,51.8812945749498],[0.156479069356158,51.8815191901405],[0.156489834810531,51.8817438053212],[0.156500600404942,51.8819684204921],[0.156863549014642,51.8819617658835],[0.157226497484255,51.8819551101558],[0.157589445813756,51.8819484533089],[0.157600216950952,51.8821730683223],[0.157963166941228,51.882166410307],[0.158326116791344,51.8821597511726],[0.158689066501276,51.8821530909189],[0.159052016070999,51.8821464295461],[0.159414965500493,51.8821397670542],[0.159777914789731,51.882133103443],[0.159767132847107,51.8819084887249],[0.16013008019517,51.8819018240439],[0.160119296591925,51.8816772093651],[0.16048224199882,51.8816705436141],[0.160493027402936,51.8818951582436],[0.160855974470378,51.8818884913242],[0.160866761815683,51.8821131058946],[0.160503812947349,51.8821197728632],[0.160514598632062,51.8823443874729],[0.16087754930131,51.8823377204549],[0.161240499830208,51.8823310523179],[0.161229710543668,51.8821064378067],[0.161592659131281,51.8820997685998],[0.161581868184201,51.881875154128],[0.161571077377489,51.8816505396463],[0.161934022222963,51.8816438694187],[0.161923229755778,51.8814192549764],[0.162286172660004,51.8814125836789],[0.162296966928023,51.881637198072],[0.162659911492646,51.8816305256061],[0.162670707701932,51.8818551399399],[0.163033653926948,51.8818484663056],[0.16304445207755,51.8820730805801],[0.163407399962953,51.8820664057773],[0.163418200054916,51.8822910199926],[0.163429000287369,51.8825156341979],[0.163066048800147,51.8825223090994],[0.163076847372145,51.8827469233441],[0.163439800660313,51.8827402483933],[0.16380275380796,51.8827335723233],[0.163791951634073,51.8825089581772],[0.164154902840238,51.8825022810374],[0.164517853905838,51.8824956027784],[0.164528659681603,51.8827202168258],[0.164165706815065,51.8827268951341],[0.164176510930433,51.8829515092209],[0.164187315186345,51.8831761232978],[0.164198119582803,51.8834007373647],[0.164561077852294,51.8833940589082],[0.164571884190333,51.8836186729158],[0.164934844120255,51.8836119932908],[0.164945652074005,51.8838366072234],[0.165308610393204,51.8838299263712],[0.165671567438369,51.8838232443785],[0.165660756044518,51.8835986305429],[0.166023711180965,51.8835919474787],[0.166012898073649,51.8833673336785],[0.165649944624923,51.8833740166905],[0.165639133339217,51.8831494028281],[0.1656283221874,51.8829247889555],[0.165617511169466,51.8827001750728],[0.165606700285415,51.88247556118],[0.165243753453444,51.8824822428644],[0.165232944390884,51.8822576289093],[0.165595889535243,51.8822509472772],[0.165958834545701,51.882244264526],[0.165948022241821,51.8820196506652],[0.16631096543077,51.8820129668472],[0.166300151573225,51.8817883530284],[0.166663092940672,51.8817816681436],[0.166652277529508,51.8815570543669],[0.167015217075456,51.8815503684154],[0.167026034174155,51.8817749821398],[0.167388975273654,51.8817682950171],[0.167751916239147,51.8817616067754],[0.167741095765385,51.8815369931553],[0.167730275425627,51.8813123795251],[0.167367337835172,51.8813190676624],[0.167004400110718,51.8813257546808],[0.166641462252282,51.8813324405801],[0.166630647108992,51.8811078267832],[0.166619832099635,51.8808832129762],[0.166256897482206,51.8808898976523],[0.166267710804092,51.8811145115115],[0.166278524259889,51.8813391253606],[0.1662893378496,51.8815637391995],[0.165926398035752,51.8815704229132],[0.165937210071838,51.8817950367942],[0.165574268436533,51.8818017194411],[0.165563458087988,51.8815771055078],[0.165200518006329,51.8815837869835],[0.165189709479179,51.8813591729881],[0.165178901085873,51.8811345589825],[0.164815962322875,51.8811412392035],[0.164805155730226,51.8809166251359],[0.164442217411101,51.8809233041685],[0.164431412759769,51.8806986900417],[0.164068476100823,51.8807053679059],[0.163705539301333,51.8807120446509],[0.163716340351163,51.8809366588765],[0.163353401610397,51.8809433345518],[0.163364200999949,51.8811679488168],[0.163001260317902,51.8811746234223],[0.162990462729131,51.880950009108],[0.162627523707388,51.8809566825451],[0.162616728059829,51.8807320681715],[0.162605932552694,51.880507453788],[0.162242996991998,51.8805141260074],[0.162232203426003,51.8802895115646],[0.161869269525599,51.8802961826156],[0.161858477900695,51.8800715681136],[0.161495545660588,51.8800782379962],[0.161484755976729,51.879853623435],[0.161121825396924,51.8798602921491],[0.161111037654062,51.8796356775287],[0.161100250051519,51.8794110628984],[0.160737322932652,51.879417730395],[0.160726537271035,51.8791931157055],[0.161089462589295,51.8791864482581],[0.161078675267384,51.8789618336079],[0.161441598644722,51.8789551650909],[0.161430809662567,51.87873055048],[0.161420020820744,51.8785059358592],[0.161409232119253,51.8782813212284],[0.161772149954633,51.8782746517402],[0.162135067649635,51.8782679811329],[0.162124275487505,51.8780433665908],[0.162487191241626,51.8780366949138],[0.162476397419411,51.8778120804111],[0.162465603737591,51.8775874658984],[0.162102691584361,51.8775941374768],[0.162091899843343,51.8773695229049],[0.162081108242691,51.877144908323],[0.162070316782402,51.8769202937312],[0.162433223534472,51.8769136223008],[0.162422430414204,51.8766890077483],[0.162785335225528,51.8766823352482],[0.162774540445329,51.8764577207351],[0.162763745805533,51.8762331062121],[0.162400844594813,51.8762397786137],[0.162037943243692,51.8762464498963],[0.162027152344832,51.8760218352647],[0.161664252653603,51.8760285053791],[0.161301352822021,51.8760351743746],[0.161290565664012,51.8758105596346],[0.160927667492354,51.8758172274618],[0.160564769180392,51.8758238941702],[0.160201870728149,51.8758305597596],[0.160191089111138,51.8756059448619],[0.160180309165469,51.8753813298332],[0.160169531305089,51.8751567146408],[0.160532424593774,51.8751500491867],[0.160521645159011,51.8749254340308],[0.16088453660365,51.8749187675039],[0.160873755594548,51.8746941523846],[0.160862974720304,51.8744695372556],[0.160500086693994,51.8744762036898],[0.160489307663737,51.8742515885047],[0.160852193980916,51.8742449221168],[0.16084141337638,51.8740203069682],[0.160830632906696,51.8737956918099],[0.160819852571859,51.8735710766418],[0.160809072371869,51.8733464614639],[0.160798292306723,51.8731218462763],[0.160787512376419,51.872897231079],[0.161150388304439,51.87289056385],[0.161513264097589,51.8728838955021],[0.161524047445878,51.8731085106068],[0.161534830929054,51.8733331257017],[0.161897710005314,51.8733264561421],[0.162260588946658,51.8733197854635],[0.162623467753062,51.8733131136659],[0.162612679142859,51.8730884987101],[0.16260189066761,51.8728638837445],[0.162591102327313,51.872639268769],[0.162580314121966,51.8724146537839],[0.162217442151454,51.872421325396],[0.162206655789971,51.8721967103547],[0.161843785393448,51.8722033808016],[0.161833000875784,51.8719787657042],[0.161822216493017,51.871754150597],[0.16218508347177,51.8717474802429],[0.1625479503156,51.8717408087699],[0.162537162650029,51.8715161937457],[0.162526375119395,51.8712915787117],[0.162515587723697,51.871066963668],[0.162504800462933,51.8708423486145],[0.162141940454364,51.870849019902],[0.16213115503729,51.8706244047924],[0.1624940133371,51.8706177335512],[0.162483226346195,51.8703931184782],[0.162846082802337,51.8703864461645],[0.163208939123526,51.8703797727319],[0.163198148850128,51.8701551577419],[0.163561003327634,51.8701484832368],[0.16355021148052,51.8699238682834],[0.163913064114349,51.8699171927058],[0.164275916613164,51.8699105160094],[0.16428671187764,51.8701351308701],[0.163923857670146,51.8701418076128],[0.163934651360955,51.8703664225101],[0.16357179530974,51.8703730981804],[0.163582587426839,51.8705977131143],[0.163219729531897,51.8706043877122],[0.163230520075239,51.8708290026827],[0.163593379678936,51.8708223280384],[0.163956239147628,51.8708156522753],[0.163967033243495,51.8710402671433],[0.164329894285934,51.8710335902148],[0.164692755193323,51.8710269121675],[0.164681957679919,51.8708022973924],[0.165044816745555,51.8707956182731],[0.165055615970123,51.8710202330026],[0.165066415328659,51.8712448477224],[0.165077214821164,51.8714694624323],[0.16508801444764,51.8716940771325],[0.16509881420809,51.8719186918228],[0.165109614102517,51.8721433065034],[0.165120414130922,51.8723679211741],[0.165131214293307,51.8725925358351],[0.165142014589674,51.8728171504863],[0.165152815020028,51.8730417651277],[0.164789938892334,51.8730484447042],[0.164779140163228,51.872823830017],[0.164768341569209,51.87259921532],[0.164405468699814,51.8726058936922],[0.164042595695355,51.8726125709455],[0.164053390871476,51.8728371857353],[0.163690516023021,51.8728438619161],[0.163327641039544,51.8728505369778],[0.162964765921067,51.8728572109206],[0.162975556105298,51.8730818258399],[0.162986346424506,51.8733064407494],[0.163349224960965,51.8732997667138],[0.163360017124177,51.8735243815671],[0.163370809422392,51.8737489964107],[0.163733691241914,51.8737423211634],[0.164096572926404,51.873735644797],[0.16445945447584,51.8737289673117],[0.164822335890199,51.8737222887073],[0.164811536755818,51.8734976740494],[0.165174416282699,51.873490994381],[0.165185217115022,51.873715608993],[0.165548098125728,51.8737089281731],[0.165558900782224,51.8739335427284],[0.16556970357274,51.8741581572739],[0.165580506497277,51.8743827718096],[0.165943392444565,51.87437608973],[0.165954197193369,51.874600704209],[0.165591309555838,51.8746073863355],[0.165602112748424,51.8748320008517],[0.165612916075039,51.875056615358],[0.165975807093126,51.8750499331376],[0.165986612244083,51.8752745475872],[0.166349504818427,51.8752678642009],[0.166360312049112,51.8754924785756],[0.16672320604005,51.8754857940331],[0.166734019522627,51.8757104080305],[0.166371123844758,51.8757170926252],[0.16638193577428,51.8759417066647],[0.166019038275552,51.8759483901928],[0.166029848651977,51.8761730042744],[0.166392747837685,51.8761663206941],[0.166755646889486,51.876159635995],[0.16711854580736,51.8761529501772],[0.167129361378644,51.8763775640921],[0.166766460773772,51.8763842499621],[0.166777274791966,51.8766088639191],[0.166414372366143,51.8766155487225],[0.166425184831202,51.8768401627216],[0.166062280584423,51.8768468464584],[0.166073091496304,51.8770714604996],[0.166083902542053,51.8772960745306],[0.16572099478722,51.877302757253],[0.165731804279727,51.877527371326],[0.165742613906085,51.877751985389],[0.165753423666297,51.8779765994419],[0.165764233560367,51.8782012134846],[0.165775043588295,51.8784258275173],[0.166137959778929,51.8784191445341],[0.166148771627946,51.8786437585044],[0.166159583610848,51.8788683724647],[0.166170395727638,51.8790929864149],[0.166181207978319,51.8793176003549],[0.16654413078408,51.8793109160441],[0.166554944855967,51.8795355299219],[0.166565759061772,51.8797601437896],[0.166928685108242,51.8797534582555],[0.167291611020749,51.8797467716026],[0.167280793440278,51.8795221578393],[0.167643717531469,51.8795154701197],[0.167654536799269,51.8797400838308],[0.168017462443783,51.87973339494],[0.168380387954267,51.8797267049304],[0.168391210730751,51.8799513185269],[0.168402033641269,51.8801759321133],[0.168764962392416,51.8801692408803],[0.168775787124359,51.8803938544043],[0.169138717428817,51.8803871620002],[0.16914954398223,51.8806117754619],[0.168786611990364,51.8806184679183],[0.168797436990431,51.8808430814221],[0.169160370669729,51.8808363889135],[0.169171197491316,51.8810610023549],[0.169182024446992,51.8812856157863],[0.169544961367113,51.8812789220542],[0.169555790144378,51.8815035354232],[0.169918728617861,51.8814968405199],[0.16992955921676,51.8817214538265],[0.1699403899498,51.881946067123],[0.169951220816984,51.8821706804094],[0.169962051818313,51.8823952936857],[0.169599106594629,51.882401988798],[0.1696099360425,51.8826266021165],[0.169620765624499,51.8828512154248],[0.169983714223419,51.8828445202079],[0.1699945456272,51.8830691334538],[0.170005377165137,51.8832937466896],[0.170368329005207,51.8832870502491],[0.170731280711082,51.8832803526896],[0.170742115758559,51.8835049658108],[0.170752950940242,51.8837295789218],[0.171115905887299,51.8837228801386],[0.171126739187564,51.8839474931372],[0.171489695767217,51.8839407931874],[0.171500528224968,51.8841654060941],[0.171511360805952,51.884390018991],[0.171874320269021,51.8843833178251],[0.171885154476585,51.8846079306637],[0.172248115319761,51.8846012283301],[0.172258951153946,51.8848258411104],[0.172269787111412,51.8850504538808],[0.172632750838073,51.885043750331],[0.172995714441454,51.8850370456619],[0.173006553529005,51.8852616583255],[0.173017392739882,51.8854862709793],[0.17338035922678,51.8854795650939],[0.173391200064424,51.8857041776893],[0.173754167931436,51.8856974706361],[0.173765010395888,51.8859220831732],[0.174127979643013,51.8859153749522],[0.174138823734315,51.886139987431],[0.174501794361549,51.8861332780421],[0.174864764865398,51.8861265675339],[0.174875612087082,51.8863511799058],[0.175238583971017,51.8863444682297],[0.175249432819651,51.8865690805432],[0.17561240608367,51.8865623676992],[0.175623256559294,51.8867869799543],[0.175986231203393,51.8867802659424],[0.17599708330605,51.8870048781391],[0.176360059330228,51.8869981629593],[0.176370913059958,51.8872227750976],[0.176733890464212,51.8872160587499],[0.176723035230917,51.8869914466601],[0.177086011008098,51.8869847292415],[0.177448986661752,51.8869780107035],[0.17781196219186,51.8869712910461],[0.177801102571493,51.8867466790922],[0.177438128544923,51.886753398701],[0.17742727055168,51.8865287866886],[0.177064297905086,51.8865355051295],[0.177053441538926,51.8863108930586],[0.176690470272311,51.8863176103316],[0.176679615533192,51.8860929982023],[0.176668760917615,51.8858683860631],[0.176305792534442,51.8858751021196],[0.176294939545842,51.8856504899221],[0.175931972542633,51.8856572048107],[0.175921121180971,51.8854325925547],[0.1759102699428,51.8852079802888],[0.175547305822963,51.885214693961],[0.175536456211667,51.8849900816367],[0.175525606723837,51.8847654693026],[0.175888567836926,51.8847587557273],[0.176251528826566,51.8847520410328],[0.176614489692737,51.8847453252189],[0.176603635818349,51.8845207130204],[0.176592782067486,51.884296100812],[0.176581928440145,51.8840714885937],[0.176218972083929,51.884078204262],[0.176208120083385,51.8838535919853],[0.176197261040571,51.883628979675],[0.17583430797491,51.8836356941248],[0.17582344916548,51.8834110817467],[0.175460497652972,51.883417795025],[0.175449640665718,51.8831931825844],[0.175438783812956,51.8829685701337],[0.175075835541247,51.8829752821882],[0.175064980510592,51.8827506696749],[0.175427927094685,51.8827439576729],[0.17579087354428,51.8827372445519],[0.175780015272905,51.8825126321333],[0.176142959900394,51.8825059179457],[0.176132100075958,51.8822813055695],[0.176495042881345,51.8822745903153],[0.176484181503894,51.8820499779814],[0.176473320260993,51.8818253656373],[0.176462459152636,51.8816007532832],[0.176451598178822,51.8813761409189],[0.176814534099625,51.8813694247555],[0.177177469885859,51.8813627074731],[0.177166605671686,51.8811380952036],[0.177529539635882,51.8811313768548],[0.177518673868869,51.8809067646276],[0.177881606011034,51.8809000452123],[0.178244538018568,51.880893324678],[0.178607469891452,51.8808866030249],[0.178596599196849,51.880661990945],[0.178959529247666,51.8806552682254],[0.179322459163792,51.8806485443869],[0.179685388945203,51.8806418194295],[0.179674513323164,51.8804172074969],[0.17966363783586,51.8801925955543],[0.18002656410783,51.880185869583],[0.180037441282476,51.8804104814731],[0.180400369107032,51.8804037543304],[0.180763296796811,51.8803970260688],[0.180752416247489,51.8801724142837],[0.181115342115135,51.8801656849558],[0.181104460013297,51.8799410732131],[0.181467384058815,51.8799343428188],[0.181830305623902,51.8799276112626],[0.181819420534041,51.8797029996197],[0.181808535569507,51.8794783879664],[0.182171449598602,51.8794716553236],[0.182160563230897,51.8792470437159],[0.182523475606157,51.8792403100104],[0.182512587835324,51.8790156984484],[0.182501700189852,51.8787910868761],[0.182864609382831,51.8787843521639],[0.182853720334292,51.8785597406372],[0.18321662787347,51.8785530048623],[0.183579535287255,51.8785462679689],[0.183568643307284,51.8783216565439],[0.183557751452731,51.8780970451085],[0.183194847095734,51.8781037818899],[0.18318395689496,51.8778791703882],[0.183173066819581,51.8776545588762],[0.182810165393906,51.8776612944271],[0.182799276972241,51.8774366828487],[0.182436376949527,51.877443417225],[0.182425490181536,51.8772188055803],[0.18241460353889,51.8769941939253],[0.182051706447427,51.8770009270711],[0.18204082145839,51.8767763153498],[0.182029936594675,51.8765517036182],[0.182392830629628,51.8765449705843],[0.182381944363006,51.8763203588983],[0.182744836744404,51.8763136248018],[0.183107729000449,51.8763068895869],[0.183096839802765,51.8760822780025],[0.183459730405243,51.876075541725],[0.183822620882333,51.876068804329],[0.183811728753675,51.8758441928462],[0.184174617577185,51.8758374543877],[0.184163724045793,51.8756128429507],[0.18452661121573,51.8756061034297],[0.184889498260224,51.8755993627902],[0.184878603246016,51.8753747511983],[0.18524148864539,51.8753680094806],[0.185604373909233,51.8753612666445],[0.185593477264423,51.8751366548684],[0.18595636069722,51.8751299109711],[0.186319243994445,51.8751231659554],[0.186330144030242,51.875347777617],[0.186341045183395,51.8755723890474],[0.186351947883651,51.8757970001482],[0.186362850709469,51.8760216112387],[0.186725740182757,51.8760148648946],[0.186714835828782,51.8757902538602],[0.187077723648353,51.8757835064537],[0.187066817891825,51.875558895465],[0.187055913608866,51.8753342841159],[0.18741879819473,51.8753275356878],[0.187781682644932,51.8753207861412],[0.187770775827191,51.8750961747086],[0.18813365844623,51.8750894241009],[0.188122750068746,51.8748648127152],[0.188485630856626,51.8748580610464],[0.188474720919445,51.8746334497077],[0.188837599876172,51.8746266969778],[0.188826688379338,51.8744020856859],[0.189189565504917,51.874395331895],[0.189552442494733,51.8743885769857],[0.189915319348767,51.874381820958],[0.190278196066996,51.874375063812],[0.190267277924417,51.874150452739],[0.190630152811444,51.874143694532],[0.190619233109375,51.8739190835059],[0.190982106165206,51.8739123242379],[0.191344979085171,51.8739055638516],[0.191334056128333,51.8736809529298],[0.191696927217086,51.8736741914825],[0.192059798169933,51.8736674289168],[0.192422668986849,51.8736606652329],[0.192411741080044,51.8734360544728],[0.192774610065716,51.8734292897279],[0.193137478915417,51.8734225238647],[0.193148410212806,51.8736471345099],[0.193511280621804,51.8736403674709],[0.193874150894785,51.8736335993137],[0.19386321620682,51.8734089887833],[0.193500347629125,51.8734157568832],[0.193489414772504,51.873191146285],[0.193852281654935,51.8731843782425],[0.193841347239128,51.8729597676913],[0.194204212290284,51.8729529985881],[0.194567077205387,51.8729462283665],[0.194929941984415,51.8729394570266],[0.194940881485934,51.8731640674054],[0.195303747824096,51.8731572948898],[0.195314689157014,51.8733819052007],[0.195677557054308,51.8733751315093],[0.195666614026138,51.8731505212558],[0.196029480092036,51.8731437465036],[0.196040424815457,51.8733683566996],[0.196403292440438,51.8733615807715],[0.196766159929229,51.8733548037252],[0.196755211815315,51.8731301936442],[0.197118077472653,51.873123415537],[0.19748094299376,51.8731166363116],[0.197491894498158,51.8733412462775],[0.19785476157825,51.8733344658763],[0.197865714914212,51.8735590757743],[0.198228583553286,51.8735522941972],[0.198239538720859,51.8737769040272],[0.198250494024786,51.8740015138468],[0.198261449465067,51.874226123656],[0.198624320456854,51.8742193408022],[0.198635277693154,51.8744439505367],[0.198272405041708,51.8744507334547],[0.197909529621375,51.874457515262],[0.197898575740083,51.8742329054057],[0.197887621995127,51.874008295539],[0.197524749829183,51.8740150761129],[0.19716187752698,51.8740218555684],[0.197172827881277,51.8742464655502],[0.197183778371866,51.8744710755215],[0.196820902542734,51.8744778539738],[0.1968099537475,51.8742532439449],[0.196447079477503,51.8742600212213],[0.196436132513872,51.8740354111245],[0.196073259803014,51.874042187225],[0.196062314670943,51.8738175770603],[0.195699443519227,51.873824351985],[0.195336572231361,51.8738311257914],[0.195325630626102,51.8736065155013],[0.194962760897407,51.8736132881318],[0.194599891032608,51.8736200596441],[0.194237021031727,51.873626830038],[0.19424795755108,51.8738514405005],[0.194258894206542,51.8740760509526],[0.194269830998113,51.8743006613942],[0.194280767925796,51.8745252718254],[0.194291704989593,51.8747498822462],[0.194654583467219,51.874743111565],[0.195017461808752,51.8747363397655],[0.195380340014168,51.8747295668475],[0.195391282300323,51.8749541770855],[0.195754162065011,51.8749474029917],[0.196117041693538,51.8749406277796],[0.19612798750674,51.8751652378922],[0.19649086869451,51.8751584615041],[0.196853749746072,51.8751516839978],[0.196842800542017,51.8749270740002],[0.197205679761927,51.8749202954329],[0.197568558845587,51.8749135157473],[0.197931437792976,51.8749067349433],[0.198294316604073,51.8748999530209],[0.198283360754708,51.8746753432431],[0.19864623507204,51.8746685602602],[0.198657192593513,51.8748931699727],[0.198668150257575,51.8751177796741],[0.199031027216547,51.8751109954387],[0.199393904032954,51.8751042100854],[0.199756780706772,51.8750974236144],[0.200119657237979,51.8750906360257],[0.20010869238223,51.8748660265941],[0.200471566972886,51.874859237955],[0.20048253362655,51.8750838473191],[0.200845409872463,51.8750770574948],[0.200834441420886,51.8748524481982],[0.20082347311204,51.8746278388905],[0.20046060046193,51.8746346285798],[0.200449634093677,51.8744100191937],[0.200438667868127,51.8741854097964],[0.200427701785277,51.8739608003882],[0.200064834386048,51.8739675887573],[0.200053870243693,51.8737429792706],[0.200416735845124,51.8737361909689],[0.200405770047666,51.8735115815386],[0.200042906244009,51.8735183697728],[0.200031942386995,51.8732937602639],[0.200020978672646,51.8730691507441],[0.199658118321857,51.8730759377256],[0.199647156547879,51.8728513281273],[0.19963619491654,51.8726267185179],[0.199273338018556,51.8726335042468],[0.199284297852209,51.8728581139237],[0.198921439013975,51.8728648986024],[0.19891048097801,51.8726402888581],[0.198899523084634,51.8724156791028],[0.198536667699218,51.8724224625289],[0.198173809760648,51.8724292448905],[0.197810949597643,51.8724360261799],[0.197821902388313,51.8726606361197],[0.197459040393868,51.8726674163483],[0.197096178263176,51.8726741954588],[0.197085228862851,51.872449585404],[0.197448089298369,51.8724428063511],[0.197437138339166,51.8722181963434],[0.197426187516254,51.8719935863253],[0.197789044425252,51.8719868062692],[0.197778092043526,51.8717621962981],[0.197767139798111,51.8715375863167],[0.197756187689003,51.8713129763248],[0.198119039376501,51.8713061953231],[0.198108085708664,51.8710815853783],[0.198097132177153,51.8708569754231],[0.198459979020881,51.8708501934607],[0.198449024065607,51.8706255835497],[0.198438069252876,51.8704009736277],[0.198075225523099,51.8704077554813],[0.198064272400551,51.8701831454948],[0.198053319414319,51.8699585354979],[0.198042366564401,51.8697339254906],[0.197679526741675,51.8697407060896],[0.197668575722947,51.8695160960142],[0.197657624840504,51.8692914859285],[0.197294788271277,51.8692982652943],[0.197305737458861,51.8695228754376],[0.19694289905856,51.8695296537428],[0.196931951565837,51.869305043542],[0.196569114724204,51.8693118206715],[0.196558169062559,51.8690872104028],[0.19654722353713,51.8688626001237],[0.196184389948991,51.8688693760201],[0.19617344625457,51.868644765673],[0.196162502696339,51.8684201553155],[0.195799672361633,51.8684269299788],[0.195788730634342,51.8682023195534],[0.195777789043212,51.8679777091176],[0.195414961961882,51.8679844825479],[0.195425901858278,51.8682090930412],[0.195063072946122,51.8682158654108],[0.195074011283896,51.8684404759511],[0.194711180540908,51.8684472472601],[0.194722117320017,51.8686718578475],[0.194733054235224,51.8688964684244],[0.194370219966588,51.8689032387302],[0.194381155323065,51.8691278493541],[0.194018319223563,51.8691346185992],[0.194029253021263,51.8693592292702],[0.194040186955024,51.8695838399307],[0.193677347329767,51.8695906081725],[0.193688279704688,51.86981521888],[0.194051121024847,51.8698084505808],[0.194062055230735,51.8700330612205],[0.193699212215651,51.8700398295772],[0.19371014486266,51.8702644402639],[0.193721077645716,51.8704890509402],[0.19373201056482,51.870713661606],[0.193742943619978,51.8709382722615],[0.193380093688956,51.8709450397296],[0.193391025185128,51.8711696504321],[0.193401956817334,51.8713942611241],[0.193412888585578,51.8716188718057],[0.193050033433373,51.8716256383279],[0.192687178145193,51.8716324037318],[0.192324322721061,51.8716391680175],[0.191961467161,51.8716459311849],[0.19197239228483,51.8718705420857],[0.191609534893741,51.8718773041923],[0.191246677366762,51.8718840651806],[0.191235755633172,51.871659454165],[0.191598611465029,51.8716526932341],[0.191587688172245,51.8714280822655],[0.191576765015384,51.8712034712865],[0.191565841994447,51.8709788602971],[0.191202991247819,51.8709856210559],[0.191213912573702,51.8712102321027],[0.19085105999616,51.8712169918006],[0.190861979762865,51.8714416028944],[0.190499125354403,51.8714483615315],[0.190510043561884,51.8716729726722],[0.190872899665449,51.8716662139777],[0.190883819703916,51.8718908250506],[0.190520961905226,51.8718975838024],[0.190158103970711,51.8719043414359],[0.190147187322498,51.8716797302483],[0.190136270810122,51.8714551190503],[0.189773416130045,51.8714618754509],[0.18976250144859,51.8712372641851],[0.189751586902945,51.8710126529089],[0.189740672493109,51.8707880416223],[0.189377822762452,51.8707947967326],[0.189014972896049,51.8708015507248],[0.188652122893922,51.8708083035987],[0.188289272756092,51.8708150553544],[0.188300180385743,51.8710396668702],[0.188663032218622,51.8710329150573],[0.188673941679064,51.8712575265054],[0.188311088151112,51.8712642783757],[0.188321996052202,51.8714888898707],[0.188332904089014,51.8717135013554],[0.188695761007178,51.8717067493705],[0.188706670874857,51.8719313607874],[0.188717580878285,51.8721559721939],[0.188354720569819,51.8721627242934],[0.187991860125658,51.8721694752746],[0.188002766874469,51.8723940867853],[0.187639904599445,51.8724008367055],[0.187628999545826,51.8721762251375],[0.18761809462789,51.8719516135592],[0.187607189845638,51.8717270019704],[0.187596285199067,51.8715023903712],[0.187585380688173,51.8712777787616],[0.187574476312955,51.8710531671415],[0.187563572073412,51.8708285555111],[0.187200721528606,51.8708353039121],[0.186837870848183,51.8708420511949],[0.186475020032168,51.8708487973595],[0.186464121013406,51.8706241855468],[0.186826970134383,51.8706174394395],[0.186816069556206,51.8703928276737],[0.186453222130247,51.8703995737238],[0.18609037456872,51.8704063186556],[0.186079477516156,51.8701817067649],[0.185716631514084,51.8701884505213],[0.185705736292072,51.8699638385629],[0.185694841205608,51.8697392265941],[0.185331998457951,51.8697459691179],[0.18532110520197,51.8695213570815],[0.185310212081512,51.8692967450346],[0.18494737258821,51.8693034863258],[0.184936481298165,51.8690788742113],[0.184573643364288,51.8690856143271],[0.18456275390461,51.868861002145],[0.184199917530164,51.8688677410854],[0.183837081020298,51.8688744789076],[0.183474244375034,51.8688812156117],[0.183463360135388,51.8686566032476],[0.183100525049607,51.8686633387764],[0.182737689828474,51.868670073187],[0.182374854472011,51.8686768064794],[0.18201201898024,51.8686835386537],[0.182022896440438,51.8689081512464],[0.181660058676669,51.8689148823873],[0.181649182799458,51.8686902697459],[0.181286343327528,51.8686969999253],[0.181275469274875,51.8684723872269],[0.181264595357173,51.8682477745186],[0.181253721574417,51.8680231618005],[0.18161655597766,51.868016431763],[0.181605680640331,51.8677918190823],[0.181594805437967,51.8675672063919],[0.181957633708882,51.8675604755344],[0.181946757060521,51.8673358628793],[0.181935881768349,51.8671112501565],[0.181925012864018,51.8668866371299],[0.182287834839785,51.8668799054023],[0.182276964232855,51.8666552924225],[0.18191414410413,51.8666620240928],[0.18190327548868,51.8664374110454],[0.18226609377039,51.8664306794323],[0.182255223452384,51.8662060664317],[0.182618039742705,51.8661993337579],[0.182607167722193,51.8659747208041],[0.182596295846158,51.8657501078399],[0.182233483249746,51.8657568403992],[0.182222613365107,51.8655322273674],[0.181859802471225,51.8655389587515],[0.181848934577935,51.8653143456519],[0.181838066829069,51.865089732542],[0.181475256938433,51.8650964629038],[0.181486122981577,51.8653210760594],[0.181123309632974,51.8653278054815],[0.181134174004623,51.8655524186813],[0.181145038518671,51.8657770318708],[0.180782221399875,51.8657837602838],[0.18079308424236,51.8660083735175],[0.18043026516728,51.8660151008668],[0.180067445949906,51.8660218270978],[0.180056586735359,51.8657972137552],[0.180419404138762,51.8657904875786],[0.1804085432526,51.8655658742801],[0.18039768250879,51.8653412609714],[0.180386821907331,51.8651166476524],[0.180375961448219,51.8648920343232],[0.180365101131452,51.8646674209838],[0.180002292797546,51.864674146888],[0.179639484321384,51.8646808716741],[0.179628627774621,51.8644562582155],[0.179991434436952,51.8644495334839],[0.180354240957029,51.8644428076341],[0.180717047334828,51.8644360806662],[0.181079853570329,51.8644293525801],[0.181442659663504,51.8644226233759],[0.181453525279399,51.8646472365621],[0.1818163317646,51.8646405062909],[0.182179135271037,51.8646337751359],[0.182168266108627,51.864409162052],[0.182531067623888,51.8644024298362],[0.182520196759142,51.8641778167991],[0.182509326038856,51.8639532037516],[0.182872123716196,51.8639464705324],[0.182861251293641,51.8637218575318],[0.183224046979841,51.8637151232519],[0.183213172855066,51.8634905102981],[0.183202298874792,51.8632658973339],[0.183191425039015,51.8630412843593],[0.182828634892839,51.8630480184674],[0.182465844602255,51.8630547514576],[0.182103054167286,51.8630614833298],[0.182113922463103,51.8632860964762],[0.181751130037116,51.8632928272878],[0.181388333720141,51.863299557291],[0.18102553669572,51.8633062862227],[0.180662739528987,51.8633130140364],[0.180299942219965,51.8633197407319],[0.180289082899547,51.8630951273207],[0.179926287261948,51.8631018528437],[0.179915429897518,51.8628772393678],[0.179904572675389,51.8626526258817],[0.17954178052286,51.8626593501777],[0.179178988228122,51.8626660733556],[0.17916813477553,51.8624414597504],[0.179530925256647,51.8624347366269],[0.179893715595556,51.8624280123854],[0.179882858658018,51.8622033988787],[0.179872001862772,51.8619787853619],[0.179861145209816,51.8617541718348],[0.179850288699148,51.8615295582974],[0.17948750561448,51.8615362823211],[0.179124722387614,51.8615430052268],[0.178761939018574,51.8615497270145],[0.178399155507384,51.8615564476841],[0.178036371854067,51.8615631672357],[0.178047219297087,51.8617877810453],[0.178058066882276,51.8620123948445],[0.178068914609637,51.8622370086336],[0.178079762479172,51.8624616224123],[0.178090610490884,51.8626862361809],[0.178101458644775,51.8629108499392],[0.177738663967778,51.8629175686992],[0.177749510450172,51.8631421825017],[0.1773867138174,51.863148900198],[0.177375869148687,51.8629242863411],[0.177013074187525,51.8629310028649],[0.177002231474605,51.8627063889434],[0.176991388903796,51.8624817750117],[0.176980546475091,51.8622571610697],[0.176617756812799,51.8622638763123],[0.17660691633979,51.8620392623057],[0.176969704188492,51.8620325471175],[0.176958862043992,51.861807933155],[0.176596076008859,51.8618146482888],[0.176585235820003,51.8615900342617],[0.17657439577322,51.8613654202244],[0.176211613223147,51.8613721341315],[0.17584883053109,51.8613788469205],[0.175859666950825,51.8616034610665],[0.175870503512584,51.8618280752023],[0.175881340216371,51.8620526893279],[0.176244128349076,51.8620459763758],[0.17625496700849,51.8622705904368],[0.176265805809961,51.8624952044875],[0.175903014050039,51.8625019175484],[0.175540222148146,51.8625086294911],[0.175529386973919,51.8622840153317],[0.175166596743703,51.862290726102],[0.174803806371565,51.8622974357542],[0.174792974966552,51.8620728214758],[0.174430186266123,51.8620795299557],[0.174067397423822,51.8620862373175],[0.173704608439673,51.8620929435612],[0.173693782617376,51.8618683291096],[0.173330995304991,51.861875034181],[0.172968207850809,51.8618817381342],[0.172605420254851,51.8618884409695],[0.172242632517141,51.8618951426867],[0.171879844637705,51.8619018432858],[0.171517056616563,51.8619085427668],[0.17150624181759,51.8616839279794],[0.171143455468348,51.8616906262881],[0.170780668977454,51.8616973234788],[0.170791480149261,51.8619219383747],[0.170428691703149,51.8619286345016],[0.170417882344927,51.8617040195514],[0.170407073128377,51.861479404591],[0.170044288167809,51.8614860994914],[0.16968150306566,51.8614927932737],[0.169670697617864,51.8612681781946],[0.169307914187703,51.8612748708047],[0.168945130616011,51.8612815622967],[0.16858234690281,51.8612882526707],[0.168571547037212,51.8610636374188],[0.168208764996057,51.8610703266206],[0.168219563048125,51.8612949419266],[0.168230361241719,51.8615195572224],[0.168241159576841,51.861744172508],[0.168251958053495,51.8619687877833],[0.168262756671681,51.8621934030484],[0.168273555431402,51.8624180183033],[0.168284354332662,51.862642633548],[0.168295153375462,51.8628672487824],[0.167932356683927,51.8628739372994],[0.167921559454824,51.8626493220109],[0.167910762367239,51.862424706712],[0.167899965421168,51.862200091403],[0.167889168616609,51.8619754760837],[0.16787837195356,51.8617508607542],[0.167867575432017,51.8615262454145],[0.167856779051979,51.8613016300645],[0.167845982813444,51.8610770147043],[0.167835186716408,51.8608523993339],[0.167824390760871,51.8606277839532],[0.167813594946827,51.8604031685624],[0.167450818063243,51.8604098553656],[0.167440024204134,51.8601852399104],[0.167802799274276,51.8601785531613],[0.167792003743215,51.8599539377499],[0.167429230486489,51.8599606244449],[0.16741843691031,51.8597360089692],[0.167407643475592,51.8595113934832],[0.167396850182333,51.8592867779871],[0.167386057030531,51.8590621624807],[0.167023290885851,51.8590688478411],[0.167012499688804,51.8588442322703],[0.167001709044159,51.8586196166767],[0.166990918602704,51.858395001071],[0.16698012830365,51.8581703854551],[0.166969338146992,51.857945769829],[0.166606580976131,51.8579524538013],[0.166595792791439,51.8577278381108],[0.166585004749118,51.8575032224102],[0.166574216849162,51.8572786066993],[0.16656342909157,51.8570539909781],[0.16655264147634,51.8568293752468],[0.166189893310804,51.8568360578308],[0.166179107667388,51.8566114420352],[0.166168322166304,51.8563868262293],[0.166157536807553,51.8561622104132],[0.166146751591128,51.8559375945869],[0.16578401060101,51.8559442758368],[0.165773227356273,51.8557196599462],[0.165762444253836,51.8554950440453],[0.165751661293695,51.8552704281343],[0.165388925649367,51.8552771081041],[0.165378144660813,51.8550524921288],[0.16536736381453,51.8548278761433],[0.165356583110511,51.8546032601475],[0.164993852750414,51.8546099388309],[0.164983073998194,51.8543853227688],[0.164972295386298,51.8541607066961],[0.164609568044937,51.8541673841006],[0.164246840563348,51.8541740603875],[0.164257615581121,51.8543986765757],[0.16389488616226,51.8544053518028],[0.163532156603216,51.8544120259124],[0.16316942690401,51.8544186989044],[0.162806697064665,51.8544253707789],[0.162795929235171,51.8542007543595],[0.162785161545857,51.8539761379296],[0.162774393996721,51.8537515214894],[0.162411669408419,51.853758192073],[0.162400903796464,51.8535335755645],[0.162390138324658,51.8533089590455],[0.162027417190265,51.8533156283961],[0.162016653655567,51.8530910118089],[0.16200589026099,51.8528663952113],[0.161995127006532,51.8526417786033],[0.162357842750112,51.852635109426],[0.16234707783888,51.8524104928653],[0.162709791645499,51.8524038226283],[0.16269902507754,51.8521792061149],[0.162688258649737,51.851954589591],[0.162325548436825,51.8519612597125],[0.162314783945997,51.8517366431205],[0.162677492362092,51.8517299730567],[0.162666726214599,51.851505356512],[0.163029432693816,51.8514986853886],[0.163018664889705,51.8512740688912],[0.163007897225767,51.8510494523834],[0.162645194340064,51.8510561233912],[0.162282491314284,51.8510627932817],[0.162271727383961,51.8508381766479],[0.161909026014853,51.8508448453632],[0.161898264021355,51.8506202286612],[0.161535564308924,51.8506268962013],[0.161172864456489,51.850633562624],[0.160810164464075,51.8506402279293],[0.16079940794205,51.8504156110184],[0.16078865142233,51.8501909940379],[0.160425954893783,51.8501976581233],[0.160415200314592,51.8499730410833],[0.160777895042848,51.8499663770475],[0.161140589630936,51.8499597118938],[0.161129831591421,51.849735094943],[0.161492524239055,51.849728428721],[0.161855216746478,51.8497217613811],[0.161844455246739,51.8494971445194],[0.161481764539554,51.8495038118097],[0.16147100498033,51.8492791948885],[0.161460245561379,51.8490545779574],[0.161097558314396,51.8490612440307],[0.161086800835886,51.8488366270401],[0.161076043497622,51.8486120100395],[0.161065286299601,51.8483873930289],[0.16105452924182,51.8481627760084],[0.160691849055206,51.8481694407657],[0.160681093937742,51.8479448236857],[0.160670338960491,51.8477202065957],[0.16103301554697,51.8477135419375],[0.161022258909896,51.8474889248871],[0.161011502413054,51.8472643078268],[0.160648829426615,51.8472709723859],[0.160286156300038,51.8472776358273],[0.160275403543395,51.8470530186579],[0.160638074869986,51.8470463552661],[0.160627320453559,51.8468217381363],[0.160989989840051,51.8468150736763],[0.160979233763885,51.8465904565861],[0.160616566177332,51.8465971209966],[0.160253898450648,51.8466037842893],[0.159891230583855,51.8466104464644],[0.159880480047664,51.8463858292156],[0.15951781384071,51.8463924902234],[0.159155147493698,51.8463991501135],[0.158792481006651,51.8464058088858],[0.158781736010312,51.8461811914786],[0.158770991154048,51.8459565740614],[0.158760246437858,51.8457319566343],[0.158397585210447,51.8457386141404],[0.158386842434163,51.8455139966538],[0.158376099797925,51.8452893791573],[0.158365357301728,51.8450647616509],[0.158002701333782,51.8450714178908],[0.157991960777394,51.844846800325],[0.157629306469267,51.8448534553978],[0.157266652021217,51.844860109353],[0.157277388978061,51.8450847270178],[0.157288126074876,51.8453093446726],[0.15692546788735,51.845315997609],[0.156914732590334,51.8450913799047],[0.156552076062726,51.845098031674],[0.156562809559942,51.8453226494277],[0.156200151092674,51.8453293001287],[0.156210882929988,51.845553917922],[0.155848222523056,51.8455605675547],[0.155485561976309,51.8455672160697],[0.15549629035382,51.8457918339518],[0.155133627867425,51.8457984813986],[0.154770965241259,51.8458051277276],[0.154408302475348,51.8458117729389],[0.154419025593068,51.8460363909592],[0.154056360887544,51.8460430351022],[0.154067082345146,51.846267653162],[0.153704415700006,51.8462742962366],[0.153341748915185,51.8462809381934],[0.153352466912679,51.846505556342],[0.152989798188259,51.8465121972305],[0.1526271293242,51.8465188370012],[0.152637843861488,51.8467434552385],[0.152275173057846,51.8467500939408],[0.151912502114611,51.8467567315254],[0.151923213191591,51.8469813498514],[0.152285885934822,51.8469747122175],[0.152648558538459,51.8469680734659],[0.152659273355115,51.8471926916833],[0.152669988311457,51.8474173098909],[0.15268070340749,51.8476419280884],[0.152691418643215,51.847866546276],[0.152702134018634,51.8480911644537],[0.15271284953375,51.8483157826214],[0.153075532798208,51.848309142456],[0.153438215923011,51.8483025011726],[0.153800898908135,51.8482958587715],[0.15379017799263,51.8480712407519],[0.154152859037925,51.8480645972823],[0.154515539943496,51.8480579526949],[0.154878220709319,51.8480513069897],[0.155240901335372,51.8480446601667],[0.155230173359243,51.8478200423347],[0.15559285204541,51.8478133944433],[0.155955530591761,51.8478067454341],[0.155944799155357,51.8475821276909],[0.156307475761807,51.8475754776134],[0.156670152228396,51.847568826418],[0.157032828555102,51.8475621741049],[0.157395504741902,51.847555520674],[0.157758180788773,51.8475488661253],[0.15812085669569,51.8475422104589],[0.15848353246263,51.8475355536746],[0.158472788565899,51.8473109362677],[0.158835462392816,51.8473042784151],[0.159198136079711,51.8472976194448],[0.159208883576487,51.8475222367528],[0.15884620808957,51.8475288957726],[0.158856953926415,51.8477535131201],[0.158867699903352,51.8479781304576],[0.159230378990381,51.8479714713388],[0.159593057937358,51.8479648111023],[0.15960380765457,51.8481894283309],[0.159241126907504,51.848196088617],[0.15925187496475,51.8484207058851],[0.159262623162117,51.8486453231433],[0.159273371499612,51.8488699403915],[0.159284119977235,51.8490945576298],[0.159294868594988,51.8493191748582],[0.159305617352873,51.8495437920766],[0.159316366250895,51.849768409285],[0.159679059599236,51.8497617486523],[0.159689810437672,51.8499863658013],[0.159700561416271,51.8502109829403],[0.159711312535036,51.8504356000694],[0.159722063647186,51.8506602171407],[0.160084764059399,51.8506535551877],[0.160095517069343,51.8508781721783],[0.160106270219266,51.8511027891585],[0.160117023509172,51.8513274061282],[0.159754317706732,51.8513340682544],[0.159391611764399,51.8513407292631],[0.159402361600711,51.8515653463378],[0.159413111576962,51.851789963402],[0.159423861693157,51.8520145804558],[0.159434611949297,51.8522391974992],[0.159797325078933,51.8522325362597],[0.159786573025932,51.852007919274],[0.160149284218806,51.8520012569748],[0.160160038068666,51.8522258739028],[0.16017079205852,51.8524504908203],[0.160533506705206,51.8524438272882],[0.160896221211939,51.8524371626386],[0.161258935578697,51.8524304968715],[0.161621649805454,51.8524238299869],[0.161632411122903,51.8526484466631],[0.161269695099249,51.8526551136054],[0.160906978935594,51.8526617794303],[0.160917736799294,51.8528863962115],[0.160555018698737,51.8528930609765],[0.160192300458221,51.8528997246241],[0.159829582077773,51.8529063871541],[0.159840334690673,51.8531310040981],[0.159477614373358,51.8531376655683],[0.159114893916154,51.853144325921],[0.158752173319084,51.8531509851562],[0.15838945258217,51.8531576432739],[0.158026731705438,51.8531643002741],[0.157664010688907,51.8531709561567],[0.157653268857772,51.8529463388668],[0.157290549498438,51.8529529935742],[0.157279809604086,51.8527283762162],[0.156917091901954,51.8527350297486],[0.1565543740601,51.8527416821634],[0.156191656078549,51.8527483334607],[0.155828937957323,51.8527549836406],[0.155818205390496,51.8525303660416],[0.15618092171479,51.8525237159194],[0.156543637899412,51.8525170646797],[0.156906353944337,51.8525104123225],[0.157269069849546,51.8525037588478],[0.157258330234815,51.8522791414689],[0.157621044203381,51.8522724869343],[0.15763178561501,51.8524971042556],[0.15799450124071,51.8524904485459],[0.158005244589092,51.852715065799],[0.158367961871921,51.8527084089142],[0.158730679014933,51.8527017509118],[0.158741426097054,51.8529263680392],[0.159104144897165,51.8529197088617],[0.159093396018109,51.852695091792],[0.159082647278981,51.8524704747118],[0.158719932072719,51.852477133774],[0.158709185270407,51.8522525166257],[0.158698438607996,51.852027899467],[0.158687692085484,51.8518032822978],[0.158324982129991,51.8518099400695],[0.158314237544196,51.8515853228322],[0.157951529245722,51.8515919794288],[0.157588820807468,51.851598634908],[0.157599561799612,51.8518232522605],[0.157236851424774,51.8518299066798],[0.1568741409102,51.8518365599816],[0.156511430255914,51.851843212166],[0.15614871946194,51.8518498632329],[0.156159453406488,51.8520744808055],[0.155796740675988,51.8520811308125],[0.155434027805843,51.8520877797021],[0.155071314796078,51.8520944274741],[0.154708601646716,51.8521010741287],[0.15434588835778,51.8521077196658],[0.153983174929293,51.8521143640854],[0.153993898232228,51.852338981993],[0.153631182867315,51.8523456253527],[0.153268467362895,51.8523522675949],[0.152905751718992,51.8523589087196],[0.152895033806763,51.8521342906393],[0.152532319820307,51.852140930589],[0.152169605694418,51.8521475694211],[0.151806891429119,51.8521542071358],[0.151444177024433,51.852160843733],[0.151081462480382,51.8521674792127],[0.151070753692118,51.8519428608345],[0.150708040805623,51.8519494951392],[0.150345327779814,51.8519561283264],[0.150356032974284,51.8521807468196],[0.150366738308115,51.8524053653023],[0.150004021549191,51.8524119974869],[0.149993318012283,51.8521873789467],[0.149630602911012,51.8521940099564],[0.149267887670494,51.8522006398486],[0.149257187866732,51.8519760211832],[0.148894474283898,51.8519826499004],[0.148531760561866,51.8519892775002],[0.148542456771811,51.8522138962805],[0.148179743421132,51.8522205223357],[0.148190437838154,51.8524451411913],[0.147827724545518,51.8524517657674],[0.147838417290355,51.8526763846729],[0.147475702045364,51.8526830081922],[0.147112986660354,51.8526896305941],[0.14675027113535,51.8526962518786],[0.146739583827468,51.8524716327918],[0.146376869974817,51.8524782528986],[0.146014155982222,51.852484871888],[0.146003472438978,51.8522602526697],[0.146366184619271,51.8522536337407],[0.146728896659622,51.8522470136943],[0.146718209631808,51.8520223945863],[0.147080919719919,51.8520157734831],[0.147443629668043,51.8520091512625],[0.147432939155761,51.8517845322647],[0.147795647151629,51.8517779089873],[0.1477849549672,51.8515532900394],[0.147774262922867,51.8513286710809],[0.147411558551419,51.8513352942374],[0.147400868459355,51.8511106752079],[0.147038165760081,51.8511172971866],[0.147027477620238,51.850892678086],[0.146664776593144,51.8508992988871],[0.146302075426098,51.8509059185709],[0.146291391050565,51.8506812993388],[0.146280706815835,51.8504566801148],[0.145918009134065,51.8504632985552],[0.145555311311594,51.8504699158787],[0.145192613348445,51.8504765320852],[0.144829915244837,51.8504831471753],[0.144819238459329,51.8502585278193],[0.144456542040584,51.8502651417259],[0.144445867221629,51.8500405222933],[0.144083172487946,51.8500471350169],[0.143720477613688,51.8500537466236],[0.143731148781309,51.8502783661884],[0.143741820098915,51.8505029857534],[0.144104518620678,51.8504963740113],[0.144115191983498,51.8507209936163],[0.14412586548617,51.8509456132107],[0.144488567492428,51.8509390002306],[0.144499242947126,51.8511636197541],[0.144861946625745,51.8511570055963],[0.145224650164527,51.8511503903213],[0.145587353563452,51.8511437739289],[0.145598034594605,51.8513683932606],[0.14560871576571,51.8515930125817],[0.145246008742384,51.8515996290948],[0.145256688241208,51.8518242484657],[0.145267367879966,51.852048867826],[0.144904657092273,51.8520554833427],[0.144915335058681,51.8522801027528],[0.144926013165003,51.8525047221523],[0.144936691411243,51.8527293415412],[0.14457397504677,51.8527359561217],[0.14458465162057,51.8529605755604],[0.144595328334269,51.8531851949885],[0.14460600518787,51.853409814406],[0.144243283246411,51.8534164280503],[0.144253958427482,51.8536410475175],[0.144264633748436,51.8538656669743],[0.144275309209275,51.8540902864204],[0.14428598481,51.8543149058559],[0.144296660550616,51.8545395252808],[0.143933929406936,51.8545461381095],[0.143923255478849,51.8543215186242],[0.143560526007899,51.8543281302752],[0.143197796397175,51.8543347408087],[0.143187126233973,51.8541101211921],[0.142824398296009,51.8541167305479],[0.142813730085113,51.8538921108603],[0.142803062014006,51.8536674911622],[0.142792394082688,51.8534428714535],[0.143155116583255,51.8534362622787],[0.143144446979304,51.8532116426198]]],[[[0.164972295386298,51.8541607066961],[0.165335022129263,51.8541540281253],[0.165324241852027,51.8539294120988],[0.165686966520951,51.8539227324533],[0.166049691047662,51.85391605169],[0.166038907254383,51.8536914357614],[0.166401629809713,51.8536847539344],[0.166412415432138,51.8539093698089],[0.166423201196892,51.8541339856732],[0.166433987103974,51.8543586015272],[0.166444773153388,51.854583217371],[0.166807502883179,51.85457653421],[0.166818290904167,51.8548011499895],[0.166829079067515,51.8550257657587],[0.167191812313511,51.8550190813717],[0.167181022320902,51.8547944656565],[0.167543753595321,51.8547877802058],[0.167532961915863,51.8545631645345],[0.167522170378812,51.8543385488529],[0.167511378984163,51.8541139331612],[0.167874104628618,51.854107246755],[0.16786331154721,51.8538826311071],[0.167852518608224,51.853658015449],[0.167841725811657,51.8534333997807],[0.167830933157507,51.8532087841021],[0.167468214829551,51.8532154702919],[0.16710549635927,51.8532221553639],[0.167094707505668,51.8529975395669],[0.167457424146881,51.852990854549],[0.1674466336066,51.8527662387959],[0.167435843208705,51.8525416230326],[0.167073130225556,51.8525483079423],[0.167062341799042,51.8523236921147],[0.167425052953193,51.852317007259],[0.167414262840062,51.8520923914752],[0.16740347286931,51.8518677756812],[0.16704076537308,51.8518744604287],[0.166678057734565,51.8518811440585],[0.166667271564043,51.8516565281461],[0.166304565612197,51.8516632106041],[0.165941859518117,51.8516698919445],[0.165952642030776,51.8518945079651],[0.16558993396555,51.8519011882418],[0.165579153281826,51.8516765721672],[0.165216446903348,51.8516832512723],[0.165227225758134,51.8519078674009],[0.165238004755153,51.8521324835194],[0.164875294193355,51.8521391615725],[0.164886071542456,51.8523637777391],[0.16524878389441,51.8523570996276],[0.165259563175904,51.8525817157256],[0.165622276870276,51.8525750364043],[0.165633058123046,51.852799652438],[0.165643839518083,51.8530242684615],[0.166006556728341,51.8530175879145],[0.166017340094724,51.8532422038737],[0.165654621055388,51.8532488844748],[0.165291901873847,51.8532555639582],[0.16492918234189,51.8532622423012],[0.164939960392519,51.8534868584156],[0.164577238442203,51.8534935356466],[0.164588014836154,51.8537181518084],[0.164598791370399,51.8539427679597],[0.164961516914721,51.8539360906131],[0.164972295386298,51.8541607066961]]],[[[0.16740347286931,51.8518677756812],[0.167766180223231,51.8518610898161],[0.168128887434819,51.8518544028333],[0.168491594504051,51.8518477147328],[0.168854301430904,51.8518410255146],[0.168865098717428,51.8520656410922],[0.168875896146425,51.8522902566595],[0.16923860658877,51.8522835662154],[0.169601316888682,51.8522768746536],[0.169590515801766,51.8520522591946],[0.169953224130266,51.8520455665693],[0.170315932316287,51.8520388728263],[0.170678640359807,51.8520321779656],[0.171041348260801,51.8520254819873],[0.171030540000693,51.8518008667347],[0.171019731883198,51.8515762514719],[0.171008923908314,51.8513516361988],[0.170646221494022,51.8513583320146],[0.1706354154906,51.8511337166772],[0.170272714762646,51.8511404113211],[0.1699100138922,51.8511471048475],[0.169899211689027,51.8509224893914],[0.169536512504949,51.850929181746],[0.169547312879286,51.8511537972562],[0.169184611723927,51.8511604885472],[0.168821910426148,51.8511671787206],[0.168832707285266,51.8513917943289],[0.168470004016222,51.8513984834387],[0.168107300604803,51.851405171431],[0.167744597051032,51.8514118583056],[0.167733805678524,51.851187242535],[0.167371103811302,51.8511939282378],[0.167381893354932,51.8514185440625],[0.167392683040935,51.851643159877],[0.16740347286931,51.8518677756812]]],[[[0.168875896146425,51.8522902566595],[0.168513185561672,51.8522969459859],[0.168502389961637,51.8520723303645],[0.168139681063463,51.8520790185191],[0.16777697202293,51.852085705556],[0.167787763965031,51.8523103212857],[0.167798556049537,51.8525349370051],[0.16780934827645,51.8527595527144],[0.167820140645773,51.8529841684134],[0.16818285700232,51.85297748116],[0.168545573216498,51.8529707927889],[0.168534777189099,51.8527461771981],[0.168897491431851,51.8527394877635],[0.168886693717899,51.8525148722166],[0.168875896146425,51.8522902566595]]],[[[0.17523689209175,51.8562194289784],[0.175599633034082,51.8562127185564],[0.175610466099567,51.8564373329534],[0.175973208728382,51.8564306213593],[0.175984043766206,51.8566552356917],[0.175994878947007,51.8568798500139],[0.176005714270786,51.8571044643259],[0.175642966153728,51.8571111760829],[0.175653799791025,51.8573357904389],[0.175291049701609,51.8573425011323],[0.17530188165238,51.8575671155324],[0.175664633571282,51.8575604047847],[0.175675467494502,51.8577850191202],[0.175686301560686,51.8580096334455],[0.175697135769837,51.8582342477606],[0.17605989303444,51.858227535732],[0.176422650156114,51.8582208225855],[0.176433488167392,51.8584454367817],[0.176796246975689,51.858438722463],[0.176785407134835,51.8582141083211],[0.176774567437023,51.857989494169],[0.177137322443219,51.8579827788411],[0.177148163970581,51.8582073929389],[0.177510920663325,51.8582006764386],[0.177500077306417,51.8579760623952],[0.177489234092594,51.8577514483416],[0.177126481058919,51.8577581647331],[0.177115639817678,51.8575335506149],[0.17675288847051,51.8575402658341],[0.176742049201804,51.8573156516513],[0.177104798719495,51.8573089364864],[0.177093957764367,51.8570843223477],[0.177456705309616,51.8570776061192],[0.177467548094196,51.8573022202036],[0.177478391021855,51.8575268342777],[0.177841142083014,51.8575201168227],[0.177851986983251,51.8577447308322],[0.178214739730863,51.8577380122049],[0.178577492335408,51.8577312924597],[0.178566643776187,51.857506678559],[0.178929394408153,51.8574999577503],[0.179292144897005,51.8574932358238],[0.179281292822007,51.8572686220215],[0.179644041338264,51.8572618990315],[0.179633187577025,51.8570372852734],[0.179995934120691,51.8570305612199],[0.17998507867326,51.856805947506],[0.180347823244338,51.8567992223891],[0.180336966110762,51.8565746087194],[0.180699708709258,51.8565678825391],[0.180688849889584,51.8563432689135],[0.181051590515503,51.8563365416698],[0.181040730009779,51.8561119280884],[0.181403468663126,51.8561051997813],[0.181392606471399,51.8558805862441],[0.181755342425098,51.8558738569334],[0.181744478700028,51.8556492434279],[0.182107208257887,51.8556425134167],[0.182096342834963,51.8554178999562],[0.182459070406793,51.8554111688826],[0.182448203286065,51.855186555467],[0.182810928871871,51.855179823331],[0.182800060053383,51.8549552099605],[0.182437336309486,51.8549619420412],[0.182426469477055,51.8547373286051],[0.182063747430958,51.8547440595128],[0.182052882584536,51.8545194460111],[0.181690162036217,51.8545261757621],[0.18167929901857,51.8543015622077],[0.181316575142251,51.854308291197],[0.181305714097048,51.8540836775778],[0.1809429919066,51.854090405395],[0.180932132833795,51.8538657917111],[0.180569412329223,51.8538725183561],[0.180558555228767,51.8536479046076],[0.180195836410076,51.8536546300804],[0.179833117448221,51.8536613544355],[0.17982226414912,51.8534367405679],[0.179459546873177,51.8534434637509],[0.179448695546308,51.8532188498187],[0.179085979956284,51.8532255718295],[0.179075130601601,51.8530009578327],[0.1787124166975,51.8530076786714],[0.178349702650337,51.8530143983925],[0.177986988460135,51.8530211169959],[0.177997832327774,51.8532457311559],[0.177635116165538,51.853252448696],[0.177645958347213,51.8534770629],[0.17765680067195,51.8537016770939],[0.177294080708603,51.8537083936249],[0.177304921347308,51.8539330078629],[0.176942199411891,51.8539397233305],[0.176953038364518,51.8541643376126],[0.176590314457026,51.8541710520169],[0.176227590406601,51.8541777653034],[0.175864866213269,51.8541844774721],[0.175854032748016,51.8539598630271],[0.175491310240929,51.8539665740238],[0.175128587590984,51.8539732839027],[0.175139417397976,51.8541978984564],[0.175150247347868,51.8544225129998],[0.174787520896796,51.8544292218695],[0.174798349160411,51.854653836457],[0.174809177566907,51.8548784510342],[0.174820006116289,51.8551030656012],[0.174830834808558,51.8553276801579],[0.174841663643718,51.8555522947044],[0.174852492621769,51.8557769092407],[0.175215230048289,51.8557702000451],[0.175226060998559,51.8559948145169],[0.17523689209175,51.8562194289784]]],[[[0.168409568074401,51.8576944073405],[0.168420365406922,51.8579190227604],[0.168783121865906,51.8579123331985],[0.168793921170498,51.8581369485541],[0.169156679316616,51.8581302578201],[0.169145878182443,51.8579056425187],[0.169135077190808,51.8576810272071],[0.169124276341709,51.8574564118852],[0.168761523684259,51.8574631024567],[0.168772322703827,51.8576877178327],[0.168409568074401,51.8576944073405]]],[[[0.169156679316616,51.8581302578201],[0.169167480593327,51.8583548731113],[0.169178282012582,51.8585794883923],[0.169189083574382,51.858804103663],[0.168826319939384,51.8588107945594],[0.168837120195125,51.8590354098597],[0.168847920600206,51.8592600251494],[0.168858721146837,51.8594846404289],[0.1684959519412,51.8594913303695],[0.168506750816021,51.8597159456929],[0.168143979655553,51.8597226345697],[0.168154776858518,51.859947249937],[0.168517549832375,51.8599405610061],[0.168528348990263,51.8601651763091],[0.16889112363606,51.8601584862061],[0.169253898140361,51.860151794985],[0.169616672503143,51.8601451026459],[0.169605867905032,51.8599204875055],[0.169595063448526,51.8596958723548],[0.169957834042983,51.8596891790061],[0.170320604495878,51.8596824845395],[0.170683374807188,51.8596757889549],[0.170694184703823,51.8599004039429],[0.171056956686896,51.8598937071861],[0.171046144976889,51.8596690922523],[0.171408915004958,51.8596623944317],[0.171398101623301,51.859437779542],[0.171035333408579,51.8594444773083],[0.171024521981963,51.859219862354],[0.170661755438935,51.8592265589482],[0.170650945967313,51.8590019439294],[0.170640136689331,51.858777328898],[0.170629327808952,51.8585527138439],[0.170992088901671,51.858546017412],[0.171354849851791,51.8585393198621],[0.171344037454825,51.8583147049062],[0.171706796432715,51.8583080062926],[0.172069555267962,51.8583013065611],[0.172432313960542,51.8582946057117],[0.172421496217511,51.8580699909082],[0.172410678617232,51.8578453760945],[0.172047923583791,51.8578520768354],[0.172037107955797,51.8576274619573],[0.171674354609231,51.8576341615261],[0.171663540953473,51.8574095465835],[0.171300789293786,51.8574162449803],[0.171311601120028,51.8576408599771],[0.170948847488214,51.8576475573102],[0.170959657627591,51.857872172351],[0.170970467909625,51.8580967873815],[0.170607710476112,51.8581034837051],[0.170596902023646,51.8578788686203],[0.170234146277135,51.8578855637718],[0.170244952900032,51.8581101789107],[0.170255759665539,51.8583347940394],[0.169893000117317,51.8583414881813],[0.169882195181406,51.8581168729984],[0.169519437320259,51.8581235659682],[0.169156679316616,51.8581302578201]]],[[[0.162663991551771,51.8892740788293],[0.16302699579,51.8892674045478],[0.163389999891733,51.8892607291473],[0.163753003856949,51.8892540526276],[0.164116007685626,51.8892473749888],[0.164479011377739,51.8892406962309],[0.164842014933268,51.8892340163539],[0.165205013740837,51.8892273353963],[0.165568006994239,51.8892206533647],[0.165931000124704,51.8892139702136],[0.166293993132212,51.8892072859429],[0.166304805867968,51.8894318993477],[0.166667800256307,51.8894252139093],[0.167030794521651,51.8894185273513],[0.167393788663978,51.8894118396738],[0.167756782683271,51.8894051508769],[0.168119776579511,51.8893984609604],[0.168482770352679,51.8893917699244],[0.168471948594114,51.8891671568095],[0.168834940740396,51.8891604647023],[0.169197932763569,51.8891537714756],[0.169560924663615,51.8891470771294],[0.169923916440514,51.8891403816637],[0.169913088789962,51.8889157687324],[0.17027607893993,51.8889090721956],[0.170639068966716,51.8889023745393],[0.171002058870301,51.8888956757635],[0.170991226831693,51.8886710629674],[0.171354215108319,51.8886643631206],[0.171717203261707,51.8886576621542],[0.172080191291839,51.8886509600684],[0.172069354865316,51.8884263474077],[0.172058518562086,51.8882017347371],[0.171695533539363,51.8882084367261],[0.171684698863097,51.8879838239972],[0.1716738643101,51.8877592112584],[0.171310882171454,51.8877659120311],[0.171300049245358,51.8875412992341],[0.171289216442506,51.8873166864271],[0.170926237187883,51.8873233859836],[0.170915406011868,51.8870987731183],[0.170552428137636,51.887105471507],[0.170541598588418,51.8868808585835],[0.17017862209458,51.8868875558043],[0.170167794172116,51.8866629428226],[0.169804819058674,51.8866696388756],[0.169793992762924,51.8864450258356],[0.169783166590325,51.8862204127857],[0.169772340540875,51.8859957997259],[0.170135311143758,51.885989103818],[0.170124483713978,51.8857644907967],[0.170113656407362,51.8855398777655],[0.17010282922391,51.8853152647245],[0.169739863131401,51.8853219604873],[0.16937689691576,51.8853286551308],[0.169366072862305,51.8851040419831],[0.169003108026973,51.8851107354589],[0.168640143068552,51.8851174278153],[0.168277177987059,51.8851241190524],[0.168266358566929,51.8848995057499],[0.167903394865789,51.8849061958193],[0.167892577072101,51.8846815824585],[0.167529614751317,51.8846882713603],[0.167518798584028,51.8844636579414],[0.167155837643604,51.8844703456755],[0.167145023102673,51.8842457321984],[0.16678206354261,51.8842524187649],[0.166771250627996,51.8840278052296],[0.166760437668733,51.8838031916789],[0.166397481112445,51.8838098770334],[0.166034524360628,51.8838165612664],[0.166045334145652,51.8840411749082],[0.165682375720077,51.8840478580685],[0.165693184124687,51.8842724717486],[0.165330224072864,51.8842791538379],[0.164967262925666,51.8842858347943],[0.164978068556349,51.8845104485643],[0.164615101543482,51.8845171284007],[0.164252134394058,51.8845238071182],[0.164262936694522,51.8847484209884],[0.163899967675163,51.8847550986422],[0.163910768378733,51.8849797125573],[0.163547797489435,51.8849863891473],[0.163558596596066,51.8852110031073],[0.163195623836825,51.8852176786336],[0.163206421346471,51.8854422926385],[0.163217218992584,51.8856669066331],[0.163580195218792,51.8856602309964],[0.16359099473489,51.8858848449255],[0.16395397255811,51.8858781681146],[0.16396477394424,51.8861027819782],[0.164327753364467,51.8860961039932],[0.164338556620674,51.8863207177913],[0.164701537637905,51.8863140386321],[0.164712342764235,51.8865386523648],[0.164349360013425,51.8865453315792],[0.164360163542722,51.8867699453567],[0.163997178921753,51.8867766235074],[0.164007980853973,51.8870012373298],[0.163644994362838,51.8870079144166],[0.163655794697935,51.887232528284],[0.163292806336629,51.887239204307],[0.163303605074558,51.8874638182193],[0.162940614843076,51.8874704931785],[0.162577624475119,51.8874771670186],[0.162566829204551,51.887252552996],[0.162203840433823,51.8872592256619],[0.161840851526666,51.8872658972088],[0.161851643329864,51.8874905113417],[0.161862435269459,51.8877151254644],[0.161499442758496,51.8877217960025],[0.161510233100755,51.88794641017],[0.161521023579393,51.8881710243273],[0.161531814194411,51.8883956384742],[0.161542604945813,51.8886202526109],[0.161905604391849,51.8886135818521],[0.162268603701464,51.8886069099743],[0.162279398056898,51.8888315239904],[0.16191639701346,51.8888381959234],[0.161927189771482,51.8890628099843],[0.162290192548766,51.8890561379962],[0.162653195189602,51.889049464889],[0.162663991551771,51.8892740788293]]],[[[0.1716738643101,51.8877592112584],[0.172036846325498,51.8877525093663],[0.172399828217629,51.8877458063547],[0.172388990780636,51.8875211937029],[0.172378153466948,51.8872965810412],[0.172015174582058,51.8873032839559],[0.171652195573904,51.8873099857512],[0.17166302988037,51.8875345985098],[0.1716738643101,51.8877592112584]]],[[[0.16695854813273,51.8577211541926],[0.167321303331695,51.8577144691564],[0.167332095175526,51.8579390847387],[0.167694852061708,51.8579323985305],[0.167684058388311,51.8577077830024],[0.168046813302555,51.8577010957304],[0.168036017942059,51.8574764802461],[0.167673264857355,51.857483167464],[0.167310511630282,51.8574898535639],[0.16694775826086,51.857496538546],[0.16695854813273,51.8577211541926]]],[[[0.141053571848946,51.8779791733355],[0.14106425834595,51.8782037909862],[0.141074944984651,51.8784284086263],[0.141085631765051,51.8786530262558],[0.141448556366785,51.878646419444],[0.141811480826773,51.8786398115138],[0.142174405144988,51.8786332024653],[0.142537329321406,51.8786265922984],[0.142526635156142,51.8784019749124],[0.142515941132674,51.8781773575157],[0.142505247250998,51.8779527401084],[0.142142328613145,51.8779593500927],[0.141779409833502,51.8779659589586],[0.141416490912095,51.8779725667062],[0.141053571848946,51.8779791733355]]],[[[0.136678293676371,51.8623218470355],[0.136667650022201,51.8620972267469],[0.136304857372734,51.862103817004],[0.135942064589112,51.8621104061434],[0.135952704794223,51.8623350265562],[0.13596334513352,51.8625596469584],[0.135973985607007,51.8627842673499],[0.136336783564289,51.862777678024],[0.13669958138741,51.8627710875805],[0.136688937464773,51.8625464673134],[0.136678293676371,51.8623218470355]]]]}}