{"type":"Feature","properties":{"code":"E63001077","name":"Milnrow"},"geometry":{"type":"MultiPolygon","coordinates":[[[[-2.11936403260555,53.6103604775536],[-2.1197418919723,53.6103600987825],[-2.11974253187129,53.6105848040881],[-2.12012039317399,53.6105844241295],[-2.12049825446832,53.6105840429777],[-2.12049889826422,53.610808748286],[-2.12049954206846,53.6110334535859],[-2.12087740724306,53.6110330712521],[-2.12087676149448,53.6108083659467],[-2.12125462471632,53.6108079824143],[-2.12163248792971,53.6108075976887],[-2.12163313756698,53.6110323030052],[-2.12201100271625,53.6110319170921],[-2.12238886785702,53.6110315299858],[-2.12238821433106,53.6108068246582],[-2.12276607751895,53.6108064363533],[-2.1231439406983,53.6108060468552],[-2.12352180386908,53.6108056561641],[-2.12352246322807,53.6110303615081],[-2.12390032833459,53.6110299696293],[-2.12427819343247,53.6110295765573],[-2.12427885668876,53.6112542819039],[-2.1239009896465,53.6112546749703],[-2.12390165096698,53.611479380303],[-2.12427951995363,53.6114789872419],[-2.1242801832271,53.6117036925716],[-2.12465805414953,53.6117032983229],[-2.12465871937605,53.6119280036496],[-2.12465938461119,53.6121527089678],[-2.12503725941385,53.6121523135368],[-2.12503792660212,53.6123770188521],[-2.12541580334058,53.6123766222333],[-2.12579368007031,53.6123762244214],[-2.12579435115628,53.6126009297391],[-2.12579502225096,53.6128256350483],[-2.12617290286101,53.612825236054],[-2.12655078346227,53.6128248358665],[-2.12692866405473,53.6128244344858],[-2.12692934099185,53.6130491398029],[-2.12730722352004,53.6130487372343],[-2.12730790241055,53.6132734425483],[-2.12730858130987,53.6134981478538],[-2.127309260218,53.613722853151],[-2.12730993913494,53.6139475584396],[-2.12768782943286,53.6139471546994],[-2.12768851030331,53.614171859985],[-2.12731061806068,53.6141722637199],[-2.12731129699523,53.6143969689917],[-2.126933402799,53.6143973715279],[-2.12693407979759,53.6146220767858],[-2.1273119759386,53.614621674255],[-2.12731265489077,53.61484637951],[-2.12693475680497,53.6148467820354],[-2.12693543382113,53.6150714872765],[-2.12655753378167,53.6150718886032],[-2.12655820886177,53.6152965938305],[-2.12693611084608,53.6152961925092],[-2.1269367878798,53.6155208977334],[-2.12693746492231,53.6157456029492],[-2.12693814197361,53.6159703081566],[-2.12693881903369,53.6161950133555],[-2.1273167287888,53.6161946108624],[-2.12731740780264,53.6164193160583],[-2.12731808682529,53.6166440212457],[-2.12694017318019,53.6166444237281],[-2.12694085026662,53.6168691289017],[-2.12694152866569,53.6170938327768],[-2.12694220742369,53.6173185362972],[-2.12656428786513,53.6173189375564],[-2.12618636829761,53.6173193376222],[-2.12580844872114,53.6173197364946],[-2.12580777591967,53.6170950330083],[-2.1258071034433,53.6168703291722],[-2.12618501905987,53.6168699302754],[-2.12618434586351,53.6166452251126],[-2.12580643219197,53.6166456240148],[-2.12542851851166,53.6166460217236],[-2.12505060482262,53.6166464182391],[-2.12504993747,53.6164217130841],[-2.12504927012603,53.6161970079207],[-2.12467136031826,53.6161974032536],[-2.12429345050181,53.6161977973932],[-2.1239155406767,53.6161981903395],[-2.12353763084296,53.6161985820924],[-2.12353697128745,53.6159738769424],[-2.12315906339006,53.6159742675074],[-2.12315840578802,53.6157495623545],[-2.12278049982697,53.6157499517316],[-2.12240259385737,53.6157503399155],[-2.12240324756955,53.6159750450574],[-2.12202533964649,53.6159754320424],[-2.12202468787924,53.615750726906],[-2.12164678189261,53.6157511127031],[-2.1216461320787,53.6155264075638],[-2.12126822802849,53.6155267921731],[-2.1212688758975,53.6157514973069],[-2.1212695237749,53.6159762024323],[-2.12127017166068,53.6162009075493],[-2.12164808154567,53.6162005229565],[-2.12164873138482,53.6164252280706],[-2.12127081955485,53.6164256126578],[-2.12127146745741,53.6166503177579],[-2.12127211536835,53.6168750228495],[-2.1208941996399,53.6168754062323],[-2.12051628390301,53.6168757884217],[-2.12051692872257,53.6171004920731],[-2.12051757372694,53.6173251953992],[-2.12051821873977,53.6175498987169],[-2.12051886376108,53.6177746020261],[-2.12051950879086,53.617999305327],[-2.1205201538291,53.6182240086194],[-2.12052079887582,53.6184487119034],[-2.12089872850258,53.6184483297964],[-2.12089937554344,53.6186730330835],[-2.1209000225928,53.6188977363622],[-2.12090066965065,53.6191224396325],[-2.120901316717,53.6193471428943],[-2.1205233791474,53.6193475249553],[-2.12014544156926,53.6193479058228],[-2.11976750398261,53.6193482854967],[-2.11976686287351,53.6191235822695],[-2.11938892726412,53.6191239607614],[-2.11938828814916,53.6188992575373],[-2.11938764904259,53.6186745543047],[-2.11900971739617,53.6186749316263],[-2.11900908028366,53.6184502283968],[-2.11900844317952,53.618225525159],[-2.11863051549598,53.6182259013102],[-2.11862988038581,53.6180011980755],[-2.11862924528398,53.6177764948323],[-2.11862861019049,53.6175517915808],[-2.11825068845532,53.6175521665733],[-2.1182500553557,53.6173274633248],[-2.11824942226439,53.617102760068],[-2.11824878930628,53.6168780564969],[-2.11787087328596,53.6168784295074],[-2.11787024291987,53.6166537244883],[-2.11824815695561,53.6166533514499],[-2.11824752461311,53.6164286463944],[-2.11862543650995,53.6164282713541],[-2.11862480223064,53.6162035662846],[-2.11862416795954,53.6159788612067],[-2.11900207595817,53.6159784849618],[-2.11937998394851,53.6159781075236],[-2.11975789193053,53.615977728892],[-2.11975725183285,53.6157530237889],[-2.12013515786159,53.6157526439584],[-2.12013451582729,53.6155279388413],[-2.11975661174344,53.6155283186773],[-2.11975597166232,53.6153036135573],[-2.11937806951501,53.6153039922056],[-2.11900016735938,53.6153043696606],[-2.11899953117623,53.6150796645433],[-2.11862163095716,53.6150800408106],[-2.11862099672706,53.6148553356905],[-2.11824309844454,53.6148557107701],[-2.11824246616745,53.6146310056471],[-2.11786457000048,53.6146313789416],[-2.11748667390625,53.614631750772],[-2.11748604562789,53.6144070457113],[-2.11748541735785,53.6141823406423],[-2.11710752526383,53.6141827113625],[-2.11710689900635,53.6139580063269],[-2.11672900890822,53.6139583758954],[-2.11635111880177,53.6139587442706],[-2.11597322868702,53.6139591114524],[-2.11559533856399,53.6139594774408],[-2.1155947203317,53.6137347725636],[-2.11521683220465,53.6137351374003],[-2.11521621598474,53.6135104325565],[-2.11483832985367,53.6135107962416],[-2.11446044371441,53.6135111587334],[-2.11445983151099,53.6132864539646],[-2.11408194736774,53.6132868153048],[-2.11370406321635,53.6132871754516],[-2.11370345502931,53.613062470758],[-2.11332557287396,53.6130628297532],[-2.11294769071053,53.6130631875551],[-2.11256980853904,53.6130635441637],[-2.11257041071365,53.613288248732],[-2.11257101289623,53.613512953292],[-2.11294889907603,53.6135125967669],[-2.11294950327077,53.6137373013603],[-2.11332739144671,53.6137369436837],[-2.11370527961457,53.6137365848138],[-2.11370588782575,53.6139612894824],[-2.11408377798972,53.6139609294608],[-2.11408438821319,53.6141856341629],[-2.11446228037329,53.6141852729896],[-2.1144628926091,53.6144099777251],[-2.11484078676531,53.6144096154002],[-2.11484140101354,53.6146343201691],[-2.11521929716586,53.6146339566926],[-2.11521991342654,53.6148586614948],[-2.11559781157497,53.6148582968666],[-2.11559842984817,53.6150830017022],[-2.11559904812954,53.6153077065296],[-2.11597695027848,53.6153073407913],[-2.11597757057245,53.615532045652],[-2.11597819087462,53.6157567505044],[-2.11635609702414,53.6157563836561],[-2.11635671933899,53.6159810885419],[-2.11673462748467,53.6159807205418],[-2.11673525181225,53.6162054254609],[-2.1167358761481,53.6164301303718],[-2.1167365004922,53.6166548352742],[-2.11673712484457,53.6168795401684],[-2.11635920868075,53.6168799080017],[-2.11598129250862,53.6168802746415],[-2.1159819134279,53.6171049781543],[-2.11560399523916,53.6171053435912],[-2.11522607704216,53.6171057078348],[-2.11522546013958,53.6168810043406],[-2.11484754394272,53.6168813673999],[-2.11446962773766,53.6168817292658],[-2.11446901541275,53.6166570246219],[-2.11409110120411,53.6166573853359],[-2.11371318698732,53.6166577448565],[-2.11333527276243,53.6166581031836],[-2.11295735852945,53.6166584603172],[-2.11257944428841,53.6166588162574],[-2.11220153003935,53.616659171004],[-2.11182361578228,53.6166595245572],[-2.11182421407515,53.6168842289087],[-2.1118248129015,53.6171089323251],[-2.11220273117171,53.6171085788218],[-2.11220333210575,53.6173332820725],[-2.11220393304776,53.6175579853147],[-2.11258185533073,53.6175576306188],[-2.11295977760565,53.6175572747295],[-2.11296038257648,53.617781977964],[-2.11296098755533,53.61800668119],[-2.11296159254218,53.6182313844076],[-2.11296219753705,53.6184560876167],[-2.11258426722022,53.6184564435046],[-2.11220633689534,53.6184567981991],[-2.11220693787712,53.6186815013991],[-2.11258487021255,53.6186811467049],[-2.11258547321287,53.6189058498968],[-2.11258607622117,53.6191305530802],[-2.11258667923745,53.6193552562551],[-2.11220874087022,53.6193556109482],[-2.11220934188383,53.6195803141144],[-2.1122099429054,53.6198050172721],[-2.11221054393493,53.6200297204213],[-2.1125884883342,53.6200293657292],[-2.11296643272542,53.6200290098437],[-2.11334437710856,53.6200286527646],[-2.11334498417825,53.6202533559064],[-2.11372293056402,53.6202529976341],[-2.11372353965251,53.6204777007678],[-2.11372414874908,53.620702403893],[-2.1137247578537,53.6209271070098],[-2.11334680543557,53.620927465281],[-2.11296885300932,53.6209278223588],[-2.11296945810033,53.6211525254665],[-2.11259150365516,53.6211528813504],[-2.11221354920193,53.6211532360407],[-2.11183559474068,53.6211535895375],[-2.11145764027143,53.6211539418408],[-2.11145704322381,53.6209292387345],[-2.11183499568221,53.6209288864309],[-2.11183439663167,53.6207041833158],[-2.11221234707126,53.6207038298183],[-2.11221174601786,53.6204791266944],[-2.11183379758906,53.6204794801923],[-2.11183319855438,53.6202547770603],[-2.11183259952763,53.6200300739199],[-2.11145465511233,53.620030426225],[-2.11107671068906,53.6200307773366],[-2.11069876625785,53.6200311272547],[-2.11069817327116,53.619806424107],[-2.11107611569166,53.6198060741885],[-2.11107552070214,53.6195813710319],[-2.11107492572049,53.6193566678668],[-2.11107433074672,53.6191319646933],[-2.11107373578082,53.6189072615114],[-2.11145167015081,53.6189069103979],[-2.11145107318222,53.6186822072071],[-2.11145047622152,53.6184575040079],[-2.11182840656243,53.6184571517002],[-2.11182780759912,53.6182324484922],[-2.11182720864374,53.6180077452756],[-2.11182660969629,53.6177830420507],[-2.11182601075676,53.6175583388173],[-2.11144808845777,53.6175586911264],[-2.11144868538686,53.6177833943594],[-2.11107076106946,53.6177837454748],[-2.11107016615081,53.6175590422421],[-2.11106957124003,53.617334339001],[-2.11069165093554,53.6173346889238],[-2.11069105804302,53.6171099856746],[-2.11069046524246,53.6168852822818],[-2.11031254894908,53.6168856310192],[-2.11031195867451,53.616660926835],[-2.10993404437784,53.6166612744208],[-2.10993345611563,53.6164365702701],[-2.10993286786119,53.6162118661111],[-2.10955495756575,53.6162122125871],[-2.10955437132358,53.6159875084616],[-2.10955378508917,53.6157628043278],[-2.1095531988625,53.6155381001857],[-2.10917529457265,53.6155384455938],[-2.10879739027502,53.6155387898086],[-2.10879680806493,53.6153140857418],[-2.10841890576396,53.615314428805],[-2.10841832556595,53.6150897247718],[-2.10841774537561,53.6148650207304],[-2.10803984707565,53.6148653626839],[-2.107661948768,53.6148657034441],[-2.10766252494961,53.6150904074018],[-2.10766310113884,53.6153151113511],[-2.10766367733569,53.6155398152922],[-2.10766425354014,53.6157645192248],[-2.1076648297522,53.6159892231492],[-2.10728692141479,53.6159895625064],[-2.10690901306972,53.6159899006701],[-2.10653110471703,53.6159902376404],[-2.10615319635674,53.6159905734173],[-2.10615262816256,53.6157658696606],[-2.10615205997588,53.6155411658956],[-2.10615149179671,53.6153164621223],[-2.10577358944218,53.6153167968316],[-2.1057730232749,53.6150920930919],[-2.1057724571151,53.6148673893439],[-2.10577189096277,53.6146426855875],[-2.10539399461379,53.6146430192293],[-2.1050160982573,53.6146433516777],[-2.10463820189332,53.6146436829326],[-2.10426030552188,53.6146440129942],[-2.10388240914301,53.6146443418624],[-2.10388296527366,53.6148690454089],[-2.10350506688304,53.6148693730417],[-2.10350562101667,53.6150940765378],[-2.10312772061431,53.6150944029352],[-2.10312827275086,53.615319106381],[-2.10312882489469,53.6155438098184],[-2.10275092047617,53.6155441349383],[-2.10275147062285,53.6157688383254],[-2.10237356419256,53.6157691622099],[-2.10199565775497,53.6157694849009],[-2.10199511161719,53.615544781598],[-2.10199456548661,53.6153200782867],[-2.10161666305061,53.6153203998685],[-2.10161720717677,53.6155451031377],[-2.10123930371638,53.6155454211872],[-2.10123876164619,53.6153207179557],[-2.10086086096972,53.6153210332206],[-2.1008603209953,53.6150963300247],[-2.10085978102823,53.6148716268205],[-2.10085924106853,53.6146469236079],[-2.1004813466497,53.6146472378113],[-2.10048080878565,53.6144225346344],[-2.10048027092893,53.6141978314492],[-2.10047973307954,53.6139731282556],[-2.10010184491812,53.6139734413977],[-2.10010130916427,53.6137487382398],[-2.0997234230837,53.6137490502325],[-2.09972288942534,53.6135243471103],[-2.09934500542562,53.6135246579538],[-2.09934447386269,53.6132999548672],[-2.09896659194382,53.6133002645613],[-2.09896606247627,53.6130755615105],[-2.09896553301593,53.6128508584513],[-2.09858765526601,53.6128511670402],[-2.09858712790097,53.6126264640167],[-2.09820925223187,53.6126267714563],[-2.09820872696206,53.6124020684686],[-2.09783085337379,53.612402374759],[-2.09783033019916,53.6121776718069],[-2.09782980703166,53.6119529688465],[-2.0974519376122,53.6119532740318],[-2.0974514165398,53.6117285711071],[-2.09707354920114,53.6117288751432],[-2.09707303022378,53.6115041722543],[-2.0970725112535,53.611279469357],[-2.09745037441632,53.6112791652328],[-2.09744985336524,53.6110544622831],[-2.09744933232125,53.6108297593251],[-2.09744881128438,53.6106050563588],[-2.09744829025461,53.6103803533841],[-2.09782614505892,53.6103800478904],[-2.09782562194848,53.6101553448633],[-2.09820347465783,53.6101550381323],[-2.09858132735996,53.6101547302082],[-2.09895918005483,53.6101544210909],[-2.09933703274243,53.6101541107804],[-2.09971488542272,53.6101537992767],[-2.09971541897199,53.6103785025239],[-2.09971595252853,53.6106032057629],[-2.10009380937705,53.610602893154],[-2.1004716662182,53.6106025793519],[-2.10084952305196,53.6106022643567],[-2.10084898323204,53.6103775609858],[-2.10122683797059,53.6103772447533],[-2.1012273798783,53.6106019481682],[-2.10160523805919,53.610601629289],[-2.10198309840865,53.610601306824],[-2.10236095875084,53.6106009831659],[-2.10236150673399,53.6108256866942],[-2.10273936907274,53.6108253618849],[-2.10273881908574,53.6106006583145],[-2.102738269106,53.6103759547357],[-2.10236041077493,53.6103762796291],[-2.10235986280624,53.610151576084],[-2.10198200647166,53.6101518998263],[-2.10160415012982,53.6101522223753],[-2.1016036061759,53.609927518906],[-2.1012257541773,53.6099278378986],[-2.10084790361426,53.609928154219],[-2.10084736381641,53.6097034508231],[-2.10046951533365,53.6097037659943],[-2.10046897763083,53.609479062634],[-2.10046843993534,53.6092543592654],[-2.10084628424276,53.6092540440063],[-2.10084574446697,53.6090293405854],[-2.10122358667934,53.6090290240891],[-2.1012230448233,53.6088043206159],[-2.10122250294306,53.60857961711],[-2.10160034256997,53.6085792978889],[-2.10159979730029,53.6083545932833],[-2.10197763761663,53.6083542703973],[-2.10197709035623,53.6081295657424],[-2.10159925203777,53.6081298886693],[-2.1015987067824,53.607905184047],[-2.10122087328464,53.6079055034113],[-2.10122033007977,53.6076807988285],[-2.10084250028312,53.6076811156556],[-2.1008419591453,53.6074564111248],[-2.10046413140103,53.6074567268191],[-2.10008630364945,53.6074570413202],[-2.09970847589057,53.6074573546282],[-2.0997090108492,53.6076820589782],[-2.09933118102332,53.6076823710328],[-2.09895335119021,53.6076826818942],[-2.09857552134988,53.6076829915626],[-2.09857605013642,53.6079076957234],[-2.09819821822915,53.6079080041383],[-2.09782038631473,53.60790831136],[-2.09744255439319,53.6079086173886],[-2.09744203178594,53.6076839134089],[-2.09744150918571,53.6074592094208],[-2.09781933698776,53.6074589032715],[-2.09781881233486,53.6072341992148],[-2.09744098659252,53.6072345054244],[-2.09744046400635,53.6070098014198],[-2.09781828768901,53.6070094951498],[-2.09819611136455,53.6070091876867],[-2.09819663807008,53.607233891812],[-2.09857446379814,53.6072335832161],[-2.09857393503294,53.6070088790305],[-2.09895175869414,53.6070085691812],[-2.0989512278764,53.6067838649269],[-2.09932904947074,53.6067835538242],[-2.09932851660051,53.6065588495014],[-2.09895069706579,53.6065591606644],[-2.09895016626232,53.6063344563935],[-2.09932798373744,53.6063341451702],[-2.09970580120533,53.6063338327539],[-2.099706336128,53.6065585371453],[-2.09970687105785,53.6067832415285],[-2.10008469263769,53.6067829280396],[-2.10008415564822,53.6065582235962],[-2.10046197516114,53.6065579088539],[-2.10083979466675,53.6065575929186],[-2.10121761416501,53.6065572757903],[-2.10121707100397,53.6063325711577],[-2.10121652785023,53.6061078665169],[-2.10159434499715,53.6061075467683],[-2.10197216533588,53.6061072234721],[-2.10234998566735,53.6061068989828],[-2.10234943648118,53.6058821942034],[-2.10197161814732,53.6058825187337],[-2.10197107096594,53.6056578139869],[-2.10159325462241,53.6056581373653],[-2.10159270944577,53.6054334326512],[-2.10159216427629,53.6052087279288],[-2.10196997662473,53.6052084044684],[-2.10234778896592,53.6052080798151],[-2.10234723980859,53.6049833750023],[-2.10272505014498,53.604983049115],[-2.10272449899738,53.6047583442528],[-2.10310230732899,53.6047580171316],[-2.10310175419118,53.6045333122201],[-2.103479560518,53.6045329838648],[-2.10385736683746,53.6045326543167],[-2.10385680971207,53.6043079493149],[-2.10423461402671,53.6043076185328],[-2.10461241833394,53.6043072865578],[-2.10461297945418,53.6045319916415],[-2.10499078575139,53.6045316585144],[-2.10536859204112,53.6045313241945],[-2.10536802692604,53.6043066190289],[-2.10574583121085,53.6043062834751],[-2.10612363548814,53.6043059467283],[-2.10650143975788,53.6043056087886],[-2.10650086865803,53.6040809034919],[-2.10687867092279,53.6040805643183],[-2.10725647317995,53.6040802239518],[-2.10725589809288,53.603855518565],[-2.10725532301336,53.6036308131699],[-2.10725474794141,53.6034061077664],[-2.10687695167627,53.6034064482555],[-2.10687637860917,53.6031817428846],[-2.10725417287701,53.6031814023545],[-2.10725359782018,53.6029566969344],[-2.10763139008314,53.6029563551706],[-2.10800918233843,53.6029560122139],[-2.10800860329469,53.6027313067036],[-2.10838639354507,53.6027309625132],[-2.10838581251174,53.6025062569538],[-2.1087636007572,53.6025059115296],[-2.10914138899492,53.6025055649126],[-2.10951917722487,53.6025052171027],[-2.10951976424981,53.6027299227846],[-2.10989755446918,53.6027295738227],[-2.11027534468072,53.6027292236679],[-2.11027593570785,53.6029539294231],[-2.11065372790877,53.6029535781162],[-2.11065432094094,53.6031782839039],[-2.11027652674275,53.60317863517],[-2.11027711778544,53.6034033409086],[-2.11065491398091,53.6034029896833],[-2.1110327101685,53.6034026372651],[-2.11103330521358,53.603627343077],[-2.11141110339059,53.6036269895066],[-2.11141050634819,53.603402283654],[-2.11178830251995,53.60340192885],[-2.11216609868376,53.6034015728531],[-2.11216549765465,53.6031768669106],[-2.11254329181319,53.60317650968],[-2.11254268879473,53.6029518036884],[-2.112920480948,53.6029514452242],[-2.11291987594026,53.6027267391835],[-2.11329766608826,53.6027263794857],[-2.11329705909127,53.6025016733959],[-2.11329645210228,53.6022769672979],[-2.11367423824784,53.6022766063257],[-2.11367362926969,53.6020519001786],[-2.11405141341001,53.6020515379729],[-2.11405080244275,53.6018268317768],[-2.11442858457784,53.6018264683374],[-2.11442797162153,53.6016017620923],[-2.11480575175137,53.6016013974194],[-2.11518353187305,53.6016010315537],[-2.11518414882354,53.6018257378803],[-2.11518476578216,53.6020504441985],[-2.11518538274891,53.6022751505083],[-2.11480759663587,53.602275516252],[-2.11480821161357,53.6025002225129],[-2.11480882659937,53.6027249287654],[-2.11480944159327,53.6029496350096],[-2.11518723369791,53.602949269388],[-2.11518785069717,53.6031739756646],[-2.11556564479087,53.6031736088908],[-2.11556626379553,53.6033983151997],[-2.1159440598783,53.6033979472736],[-2.1163218559528,53.6033975781547],[-2.11632247896024,53.6036222845366],[-2.11632310197589,53.6038469909102],[-2.11670090203677,53.6038466206796],[-2.11670152705799,53.6040713270855],[-2.11670215208745,53.6042960334831],[-2.11707995613477,53.6042956621408],[-2.11708058316988,53.6045203685707],[-2.11745838920629,53.6045199960761],[-2.11745901824711,53.6047447025383],[-2.1178368262726,53.6047443288914],[-2.11821463490002,53.6047439542761],[-2.11821526793859,53.6049686608009],[-2.11821590098538,53.6051933673173],[-2.11783808837408,53.6051937418721],[-2.11783871943729,53.6054184483499],[-2.11783935050883,53.6056431548195],[-2.11746153449329,53.6056435283039],[-2.11708371846939,53.6056439005954],[-2.11708434555408,53.6058686069753],[-2.11670652752426,53.6058689780331],[-2.11632870948614,53.6058693478979],[-2.11595089143973,53.6058697165696],[-2.11595151253986,53.6060944228193],[-2.11595213364818,53.6063191290607],[-2.11557431159828,53.606319496458],[-2.11557369248759,53.6060947902573],[-2.1151958724271,53.6060951565023],[-2.11519648954015,53.6063198626624],[-2.11481866747382,53.6063202276736],[-2.11481928259733,53.6065449337846],[-2.11481989772895,53.6067696398873],[-2.11519772379063,53.6067692749574],[-2.11519834092807,53.6069939810924],[-2.11557616897926,53.6069936150101],[-2.11595399702223,53.6069932477348],[-2.11595461816328,53.6072179539428],[-2.11633244819574,53.6072175855151],[-2.11671027821991,53.6072172158942],[-2.11670965308338,53.6069925096048],[-2.1170874811015,53.6069921387503],[-2.11708685397549,53.6067674324119],[-2.11746467998756,53.6067670603237],[-2.11746405087212,53.6065423539364],[-2.11784187487814,53.6065419806144],[-2.11784124377334,53.6063172741781],[-2.1182190663425,53.6063168997719],[-2.11821843325465,53.6060921932979],[-2.11859625555424,53.6060918181521],[-2.11897407784552,53.6060914418134],[-2.11935190012846,53.6060910642819],[-2.11935126117599,53.6058663578244],[-2.11972908149295,53.6058659791083],[-2.12010690180153,53.6058655991993],[-2.12048472210169,53.6058652180975],[-2.120485366927,53.60608992453],[-2.12086318917633,53.6060895422269],[-2.12086383596765,53.6063142486426],[-2.12048601176068,53.606314630954],[-2.12048665660274,53.6065393373695],[-2.12010883042967,53.6065397184964],[-2.12010947332241,53.6067644249118],[-2.1201101162235,53.6069891313187],[-2.12048794631198,53.6069887501751],[-2.12048859117916,53.6072134565652],[-2.12086642321694,53.6072130742203],[-2.12086707005027,53.6074377805936],[-2.12048923605471,53.6074381629468],[-2.12048988093864,53.6076628693199],[-2.12011204497684,53.6076632504885],[-2.12011268791132,53.6078879568615],[-2.11973484998328,53.6078883368455],[-2.11973549096826,53.6081130432183],[-2.11935765107397,53.6081134220177],[-2.11897981117132,53.6081137996241],[-2.11898044824886,53.6083385060051],[-2.11860260638,53.6083388824269],[-2.1186032415079,53.6085635888077],[-2.11860387561392,53.6087882942584],[-2.11822602983163,53.6087886694895],[-2.11784818536211,53.6087890435774],[-2.117470341371,53.6087894164905],[-2.11747096944152,53.6090141217591],[-2.11784881543626,53.6090137488877],[-2.11822666189624,53.6090133748318],[-2.11822729396903,53.6092380801656],[-2.11822792604999,53.609462785491],[-2.11822855813912,53.609687490808],[-2.11822919023642,53.6099121961166],[-2.11785133581625,53.6099125700457],[-2.1178519659321,53.6101372753144],[-2.11822982234189,53.6101369014167],[-2.11860767978923,53.6101365262193],[-2.11898553722832,53.6101361498287],[-2.11898617323049,53.6103608551316],[-2.11936403260555,53.6103604775536]]],[[[-2.11069876625785,53.6200311272547],[-2.11069935925239,53.620255830394],[-2.11032141280252,53.6202561791182],[-2.11032200379415,53.6204808822487],[-2.10994405532562,53.620481229779],[-2.10994464431428,53.6207059329006],[-2.10994523331073,53.6209306360137],[-2.10956728081273,53.6209309823497],[-2.10956786780613,53.6211556854539],[-2.10918991328945,53.621156030596],[-2.1091893283069,53.6209313274921],[-2.10881137579326,53.620931671441],[-2.10843342327183,53.6209320141964],[-2.10843284231865,53.620707311085],[-2.10843226137316,53.6204826079651],[-2.10843168043536,53.6202579048368],[-2.10880962692441,53.6202575620801],[-2.10880904398355,53.6200328589429],[-2.10880846105041,53.6198081557972],[-2.10843051858281,53.6198084985548],[-2.10842993766806,53.6195837954011],[-2.108429356761,53.619359092239],[-2.10842877586163,53.6191343890684],[-2.10880671229726,53.6191340463095],[-2.10880729520726,53.6193587494805],[-2.10918523364575,53.6193584055285],[-2.10956317207642,53.6193580603831],[-2.10994111049926,53.6193577140442],[-2.10994169944894,53.6195824172081],[-2.11031963987457,53.6195820696762],[-2.11032023084273,53.619806772832],[-2.11032082181872,53.6200314759793],[-2.11069876625785,53.6200311272547]]],[[[-2.11329645210228,53.6022769672979],[-2.11291866594866,53.6022773270772],[-2.112540879787,53.6022776856637],[-2.11254148278164,53.6025023916803],[-2.11216369461479,53.6025027490331],[-2.11216309361733,53.6022780430573],[-2.11216249262778,53.6020533370731],[-2.11216189164613,53.6018286310807],[-2.1121612906724,53.6016039250799],[-2.11216068970658,53.6013792190707],[-2.11253846788781,53.6013788615141],[-2.11291624606103,53.6013785027647],[-2.11291685102099,53.6016032088553],[-2.11329463118325,53.6016028489538],[-2.11367241133744,53.6016024878595],[-2.11367302029956,53.6018271940232],[-2.11329523814827,53.6018275550769],[-2.11291745598892,53.6018279149376],[-2.11253967382153,53.6018282736056],[-2.11254027680029,53.6020529796388],[-2.1129180609648,53.6020526210116],[-2.11329584512128,53.6020522611916],[-2.11329645210228,53.6022769672979]]],[[[-2.09819979845198,53.6085821163899],[-2.09820032361896,53.6088068195304],[-2.09782248343563,53.6088071265257],[-2.0974446432451,53.6088074323278],[-2.09706680304741,53.6088077369368],[-2.09706628414901,53.6085830339326],[-2.09706576358052,53.6083583300381],[-2.09744359962877,53.6083580253233],[-2.09744307700746,53.6081333213601],[-2.0978209109888,53.6081330153918],[-2.09782143566992,53.6083577194154],[-2.09819927170395,53.6083574123143],[-2.09819979845198,53.6085821163899]]]]}}