{"type":"Feature","properties":{"code":"E63006175","name":"Littlestone-on-Sea"},"geometry":{"type":"MultiPolygon","coordinates":[[[[0.973804356529047,50.9278262491679],[0.973790032573201,50.927601742835],[0.974145261819742,50.9275926893075],[0.974500490883179,50.9275836346995],[0.974486163711647,50.9273591284783],[0.974130936347619,50.9273681830251],[0.974116611058648,50.927143676732],[0.97376138521091,50.927152730137],[0.973747061804458,50.926928223772],[0.973391837473015,50.9269372760353],[0.973036612958521,50.9269463272182],[0.973050932966226,50.9271708337056],[0.973065253157018,50.9273953401824],[0.973079573530897,50.9276198466485],[0.973093894087866,50.9278443531039],[0.97310821482793,50.9280688595486],[0.973122535751089,50.9282933659826],[0.972767300856975,50.9283024164523],[0.972412065779835,50.9283114658414],[0.97205683051969,50.9283205141501],[0.971701595076563,50.9283295613782],[0.971346359450475,50.9283386075258],[0.970991123641446,50.9283476525929],[0.971005434550613,50.9285721593834],[0.971360672059165,50.9285631142551],[0.971374984850849,50.9287876209738],[0.971730223876,50.9287785747038],[0.971744538550246,50.9290030813506],[0.972099779091989,50.9289940339389],[0.97211409564884,50.9292185405138],[0.972128412388737,50.929443047078],[0.972483656146668,50.9294339984633],[0.97283889972158,50.9294249487681],[0.97319414311345,50.9294158979924],[0.973208465135255,50.9296404043623],[0.97322278734018,50.9298649107215],[0.973237109728226,50.93008941707],[0.973251432299395,50.9303139234078],[0.972896182108931,50.9303229744284],[0.972910503163524,50.9305474808168],[0.972924824401229,50.9307719871945],[0.972939145822044,50.9309964935615],[0.972583890349342,50.9310055436851],[0.972598210253501,50.9312300501026],[0.972612530340758,50.9314545565094],[0.972626850611114,50.9316790629056],[0.972271589855981,50.9316881121322],[0.9722859086096,50.9319126185789],[0.972300227546303,50.9321371250149],[0.972314546666093,50.9323616314401],[0.972328865968974,50.9325861378547],[0.971973598231312,50.9325951862455],[0.971987916017356,50.9328196927106],[0.972002233986475,50.9330441991651],[0.972016552138672,50.9332687056088],[0.971661279118129,50.9332777531025],[0.971675595753408,50.9335022595967],[0.97168991257175,50.9337267660803],[0.971704229482122,50.93395127267],[0.971348951145587,50.9339603193078],[0.971363265781986,50.9341848269131],[0.971377580600477,50.9344093345095],[0.971391895601064,50.934633842097],[0.971406210783749,50.9348583496757],[0.971050925512175,50.9348673953864],[0.970695640058578,50.9348764400146],[0.970340354422977,50.9348854835602],[0.970354664722839,50.9351099912466],[0.970368975204741,50.9353344989241],[0.970724264216985,50.9353254553008],[0.971079553047222,50.9353164105949],[0.971093867087873,50.9355409181857],[0.970738576569285,50.9355499629305],[0.970752889103652,50.9357744705514],[0.970767201820089,50.9359989781634],[0.9707815147186,50.9362234857665],[0.970426218952808,50.9362325295453],[0.970440530344955,50.9364570371784],[0.97045484191916,50.9366815448026],[0.970469153675427,50.936906052418],[0.970483465613757,50.9371305600244],[0.970128162912059,50.937139602876],[0.970142473343926,50.9373641105125],[0.970156783957843,50.93758861814],[0.970171094753811,50.9378131257587],[0.969815786804457,50.9378221676442],[0.969830096093883,50.9380466752928],[0.969844405565345,50.9382711829326],[0.969858715218845,50.9384956905634],[0.969503402021645,50.9385047314828],[0.969517710168523,50.9387292391436],[0.969532018497424,50.9389537467956],[0.969546327008351,50.9391782544387],[0.969560635701311,50.9394027620729],[0.969205315567338,50.9394118020648],[0.969219622753574,50.939636309729],[0.969233930121824,50.9398608173843],[0.969248237672092,50.9400853250307],[0.968892912289823,50.9400943640563],[0.968907218333288,50.9403188717327],[0.968921524558756,50.9405433794002],[0.96893583096623,50.9407678870588],[0.96858050033547,50.9407769251182],[0.96859480523606,50.9410014328067],[0.96860911031864,50.9412259404863],[0.968623415583212,50.9414504481571],[0.96863772102978,50.941674955819],[0.968282383461382,50.9416839929508],[0.968296687400969,50.9419085006427],[0.968310991522535,50.9421330083256],[0.968325295327957,50.9423575168455],[0.967969952458488,50.9423665531026],[0.967984254098063,50.9425910627773],[0.967998555920622,50.9428155724408],[0.96801285792617,50.9430400820933],[0.967657509768721,50.9430491174703],[0.967671810255531,50.9432736271784],[0.967686110925316,50.9434981368753],[0.967700411778076,50.9437226465611],[0.967714712813816,50.9439471562358],[0.967359357666397,50.9439561907995],[0.967373657183299,50.9441807005299],[0.967018300151157,50.9441897340797],[0.966662942936134,50.9441987665488],[0.966307585538251,50.9442077979373],[0.96595222795753,50.944216828245],[0.96596652085,50.9444413382315],[0.96598081392535,50.9446658482069],[0.965995107183583,50.9448903581711],[0.965639744314411,50.9448993875985],[0.965654036053608,50.9451238976184],[0.965668327975672,50.9453484076271],[0.965682620080607,50.9455729176247],[0.965327251922791,50.9455819461717],[0.964971883558512,50.9455909736776],[0.96461651469276,50.9456000006348],[0.964602227663163,50.9453754904888],[0.964246860302741,50.9453845163223],[0.963891492760816,50.9453935410731],[0.963536125037406,50.945402564741],[0.963180757132535,50.9454115873261],[0.963166477031892,50.945187077008],[0.962811110632432,50.9451960984695],[0.962455744051555,50.9452051188482],[0.962100377289285,50.945214138144],[0.96211465232937,50.9454386485843],[0.961759283698868,50.945447666838],[0.961403914887012,50.9454566840089],[0.96141818673477,50.9456811945216],[0.961062816054694,50.9456902106504],[0.96107708639694,50.9459147211947],[0.961091356920562,50.9461392317301],[0.961105627625565,50.9463637422564],[0.961119898511949,50.9465882527736],[0.961134169579719,50.9468127632819],[0.96077879028356,50.9468217785312],[0.9607930598457,50.9470462890711],[0.960807329589212,50.9472707996019],[0.960821599514096,50.9474953101237],[0.960835869620358,50.9477198206365],[0.960850139907999,50.9479443311402],[0.960864410377021,50.9481688416349],[0.961219799795619,50.9481598261414],[0.96157518903287,50.948150809565],[0.961589463057573,50.9483753199692],[0.961603737263707,50.9485998303645],[0.961248344652145,50.9486088470223],[0.961262617352526,50.9488333574492],[0.961618011651279,50.9488243407507],[0.961973405768651,50.9488153229691],[0.962328799704625,50.9488063041046],[0.962684193459177,50.9487972841571],[0.962698473089798,50.9490217944121],[0.963053868350106,50.949012773341],[0.963409263428945,50.9490037511868],[0.963764658326297,50.9489947279497],[0.963778943200074,50.9492192380734],[0.963793228255425,50.949443748188],[0.963437829983624,50.9494527715067],[0.963452113533295,50.949677281653],[0.963466397264523,50.9499017917904],[0.963480681177313,50.9501263019187],[0.963494965271668,50.950350812038],[0.963509249547589,50.9505753221482],[0.963523533747312,50.9507998326622],[0.963537818108619,50.9510243431984],[0.963182407807285,50.9510333658001],[0.963196690650811,50.9512578763973],[0.963210973676942,50.9514823869829],[0.963225256885681,50.9517068975569],[0.96323954027703,50.9519314081194],[0.963253823850995,50.9521559186702],[0.962898404864858,50.9521649405546],[0.962912686920923,50.9523894511664],[0.962926969159585,50.9526139617667],[0.96294125158085,50.9528384723553],[0.962955534184719,50.9530629829323],[0.962600108213835,50.9530720040269],[0.962244682060425,50.9530810240409],[0.961889255724515,50.9530900429743],[0.961533829206122,50.9530990608271],[0.96117840250527,50.9531080775994],[0.961192676788679,50.953332588528],[0.96120695125459,50.953557099445],[0.961221225903006,50.9537816103504],[0.961235500733931,50.9540061212442],[0.960880067048019,50.9540151372264],[0.960894340360745,50.9542396481812],[0.960908613855965,50.9544641591244],[0.960553176586178,50.9544731741712],[0.960567448563137,50.9546976851754],[0.960581720722572,50.9549221961679],[0.960595993064489,50.9551467071489],[0.960610265588889,50.9553712181183],[0.960624538295775,50.9555957290761],[0.960638811185151,50.9558202400223],[0.960283363528069,50.9558292544241],[0.959927915688576,50.9558382677452],[0.959913646200939,50.9556137566538],[0.959558199879934,50.9556227688216],[0.959202753376564,50.9556317799088],[0.958847306690853,50.9556407899153],[0.958491859822824,50.9556497988411],[0.958506122506944,50.9558743102228],[0.958520385373428,50.9560988215928],[0.958164934921306,50.9561078295831],[0.958179196269224,50.9563323410141],[0.958193457799489,50.9565568524336],[0.958207719512105,50.9567813638414],[0.958221981407073,50.9570058752376],[0.958236243484396,50.9572303866222],[0.958250505744078,50.9574548979952],[0.958264768186123,50.9576794093567],[0.958279030810532,50.9579039207065],[0.958293293617309,50.9581284320447],[0.957937827673724,50.9581374396072],[0.957952088961745,50.9583619510064],[0.957966350432116,50.958586462394],[0.957980612084844,50.9588109737699],[0.957994873781824,50.9590354850608],[0.958009135520431,50.9592599962649],[0.958023397442484,50.9594845074575],[0.958037659547987,50.9597090186386],[0.958051921836943,50.9599335298082],[0.958066184309356,50.9601580409663],[0.958080446965227,50.960382552113],[0.958094709804562,50.9606070632482],[0.958108972827362,50.9608315743719],[0.958464459310898,50.9608225659572],[0.958478724232009,50.9610470769983],[0.958492989336615,50.961271588028],[0.95813749942337,50.9612805965848],[0.958151762996584,50.961505107674],[0.958166026753276,50.9617296187518],[0.95818029069345,50.9619541298181],[0.958535785751423,50.961945121048],[0.958891280625954,50.9619361111969],[0.959246775317017,50.9619271002648],[0.959261044585525,50.9621516111063],[0.959616540808046,50.962142599022],[0.959972036847054,50.9621335858567],[0.96032753270253,50.9621245716103],[0.960683028374449,50.9621155562829],[0.960697304686353,50.9623400668285],[0.960341807299477,50.962349082227],[0.960356082080047,50.9625735928322],[0.960370357044239,50.9627981034259],[0.960384632192061,50.9630226140082],[0.960398907523512,50.9632471245789],[0.960413183038598,50.9634716351382],[0.960427458737321,50.963696145686],[0.960071950876669,50.9637051604302],[0.960057676893038,50.9634806498113],[0.959702170563925,50.9634896634034],[0.959346664051282,50.9634986759143],[0.958991157355131,50.9635076873442],[0.958976888700339,50.9632831765004],[0.958621383535781,50.9632921867781],[0.958265878187761,50.9633011959747],[0.957910372656301,50.9633102040902],[0.957554866941424,50.9633192111246],[0.957540605330434,50.963094699985],[0.957185101147232,50.9631037058673],[0.95719936104315,50.9633282170779],[0.957213621122505,50.963552728277],[0.957227881385299,50.9637772394646],[0.956872371873435,50.963786244479],[0.956516862178213,50.9637952484122],[0.956531119194167,50.9640197597305],[0.956545376393522,50.9642442710372],[0.956559633776284,50.9644687823325],[0.956573891342454,50.9646932936163],[0.956588149092036,50.9649178048887],[0.956602407025033,50.9651423161496],[0.956616665141447,50.9653668273989],[0.956261143256404,50.9653758307483],[0.956275399840939,50.9656003420573],[0.956630923441283,50.9655913386368],[0.956645181924541,50.9658158498633],[0.957000707056843,50.9658068452906],[0.957356232005758,50.9657978396368],[0.957370494103122,50.9660223507096],[0.957726020583963,50.9660133439035],[0.95808154688137,50.9660043360163],[0.958437072995323,50.9659953270478],[0.958792598925798,50.9659863169981],[0.958778329967116,50.9657618062096],[0.958764061191991,50.9655372954096],[0.958749792600423,50.9653127845981],[0.959105313201499,50.9653037736806],[0.959091043078225,50.9650792629287],[0.959076773138524,50.9648547521654],[0.95906250338239,50.9646302413906],[0.959418018654261,50.9646212296052],[0.959773533742607,50.9646122167387],[0.960129048647408,50.964603202791],[0.960143323549161,50.9648277133525],[0.960157598634548,50.9650522239025],[0.96017187390357,50.965276734441],[0.960186149356234,50.965501244968],[0.959830627590488,50.9655102592002],[0.959844901511504,50.9657347697868],[0.960200424992539,50.9657257554836],[0.960214700812491,50.9659502659876],[0.960570225825252,50.965941250532],[0.960925750654405,50.9659322339952],[0.961281275299927,50.9659232163773],[0.961295556449512,50.9661477266564],[0.961309837782815,50.966372236924],[0.96132411929984,50.9665967471802],[0.960968589508276,50.9666057650116],[0.960982869493632,50.9668302753274],[0.960997149662695,50.9670547856318],[0.961011430099306,50.9672792960652],[0.961025711483546,50.9675038077684],[0.96067017476795,50.9675128250107],[0.960684454690739,50.9677373368947],[0.960698734791065,50.9679618487567],[0.960343194619956,50.9679708653343],[0.96035747325877,50.9681953773771],[0.960371752075108,50.9684198893978],[0.960016208448407,50.9684289053106],[0.960030485803173,50.9686534175122],[0.959674940359926,50.9686624325573],[0.959689216253078,50.9688869449397],[0.959333668993279,50.9688959591171],[0.959347943424775,50.9691204716804],[0.959362218033742,50.9693449842215],[0.959006667318216,50.9693539977341],[0.958651116425295,50.969363010176],[0.958665387933351,50.9695875231009],[0.958679659618843,50.9698120360038],[0.958324105270133,50.9698210477808],[0.958338375493823,50.9700455608645],[0.958352645894933,50.970270073926],[0.95799708809036,50.9702790850382],[0.958011357029608,50.9705035982806],[0.957655797408403,50.9705126085248],[0.957670064885747,50.9707371219481],[0.957314503447904,50.9707461313245],[0.957328769463302,50.9709706449286],[0.956973206208814,50.9709796534371],[0.956987470762224,50.971204167222],[0.956631905691086,50.9712131748626],[0.956646168782466,50.9714376888283],[0.95629060189467,50.971446695601],[0.956304863523976,50.9716712097475],[0.955949294819519,50.9716802156523],[0.955963554986709,50.9719047299796],[0.955607984465582,50.9719137350165],[0.955622243170617,50.9721382495246],[0.955266670832813,50.9721472536934],[0.955280928075647,50.9723717683824],[0.954925353921162,50.9723807716832],[0.954939609701753,50.9726052865529],[0.954584033730581,50.9726142889858],[0.954598288048888,50.9728388040363],[0.954242710261021,50.9728478056011],[0.954256963117001,50.9730723208324],[0.953901383512433,50.9730813215292],[0.953915634906043,50.9733058369413],[0.953560053484769,50.97331483677],[0.953574303415969,50.9735393523628],[0.953218720177981,50.9735483513235],[0.953232968646727,50.9737728670971],[0.95287738359202,50.9737818651897],[0.95289163059827,50.974006381144],[0.952536043726837,50.9740153783685],[0.952550289270549,50.9742398945036],[0.952194700582386,50.9742488908599],[0.952208944663516,50.9744734071758],[0.951853354158613,50.9744824026639],[0.951867596777121,50.9747069191606],[0.951512004455474,50.9747159137806],[0.951526245611317,50.9749404304579],[0.951881839572704,50.9749314356351],[0.951896082545367,50.9751559520876],[0.952251677969485,50.9751469559911],[0.952265922759011,50.9753714722187],[0.952621519645854,50.9753624748483],[0.952635766252285,50.975586990851],[0.952991364601847,50.9755779922068],[0.952977116355619,50.9753534764069],[0.953332712888285,50.9753444768945],[0.953318463179435,50.9751199612753],[0.953674057895214,50.9751109608948],[0.953659806723781,50.9748864454564],[0.954015399622678,50.9748774442078],[0.95437099234442,50.9748684418881],[0.954356738070728,50.9746439268334],[0.95434248397426,50.9744194117566],[0.954698073239412,50.9744104087718],[0.95468381768049,50.9741858938758],[0.955039405128779,50.9741768900229],[0.955025148107446,50.9739523753077],[0.955380733738877,50.9739433705867],[0.955366475255174,50.9737188560523],[0.955722059069756,50.9737098504633],[0.956077642707092,50.9737008438034],[0.956433226167164,50.9736918360726],[0.956788809449951,50.9736828272709],[0.956774544585129,50.973458313526],[0.956418962941937,50.9734673221248],[0.956404699894045,50.9732428081549],[0.956390437023487,50.973018294163],[0.956746015387553,50.97300928597],[0.956731751054796,50.9727847721588],[0.957087327602037,50.9727757630979],[0.957073061807121,50.9725512494676],[0.957428636537542,50.9725422395387],[0.95741436928051,50.9723177260892],[0.957769942194119,50.9723087152924],[0.958125514930377,50.9722997034247],[0.958139785466365,50.9725242164683],[0.958495359664724,50.9725152033269],[0.958509632017638,50.9727397161454],[0.958865207678094,50.9727307017302],[0.95922078316113,50.9727216862441],[0.959206507529234,50.9724971738314],[0.959562081195344,50.9724881574775],[0.959576358466724,50.9727126696872],[0.959931933594859,50.9727036520594],[0.959946212683262,50.972928164044],[0.960301789273415,50.9729191451424],[0.960316070178883,50.9731436569019],[0.959960491949208,50.9731526760065],[0.959974771392698,50.9733771879469],[0.959989051013736,50.9736016998652],[0.96034463252252,50.9735926803546],[0.960358913960695,50.9738171920479],[0.960714496931547,50.9738081712634],[0.960728780186903,50.9740326827315],[0.960743063619856,50.9742571941775],[0.961098649692394,50.9742481719161],[0.961454235587365,50.9742391485839],[0.961468522477206,50.9744636596017],[0.96182410983423,50.9744546349956],[0.961838398541377,50.9746791457883],[0.961482809544695,50.9746881705975],[0.961497096789833,50.9749126815711],[0.961852687426195,50.9749036565589],[0.96186697648869,50.9751281673073],[0.961881265728861,50.9753526780337],[0.962236859467025,50.9753436515444],[0.962251150524617,50.9755681620456],[0.962265445345359,50.975792676499],[0.96227974074204,50.9760171913734],[0.962635339472215,50.9760081635219],[0.962649636923931,50.9762326784578],[0.962663934571096,50.9764571933929],[0.962678232413713,50.9766817083272],[0.962692530451787,50.9769062232609],[0.96270682868532,50.9771307381937],[0.962721127114316,50.9773552531259],[0.962365517226128,50.9773642806041],[0.962351220656859,50.9771397657342],[0.961995612432998,50.9771487921822],[0.962009907142536,50.9773733069899],[0.961654296863565,50.9773823322833],[0.96129868638924,50.9773913564844],[0.960943075719584,50.977400379593],[0.96095736504526,50.9776248942133],[0.96060175232053,50.9776339161673],[0.960246139400514,50.9776429370288],[0.960260425201959,50.9778674515238],[0.959904810226883,50.9778764712307],[0.959919094363817,50.9781009856627],[0.959563477333675,50.9781100042149],[0.959207860108314,50.9781190216748],[0.958852242687754,50.9781280380422],[0.958866521440427,50.9783525522865],[0.958880800388323,50.9785770665301],[0.958895079531446,50.9788015807729],[0.958909358869798,50.979026095015],[0.958923638403383,50.9792506092564],[0.958568011488134,50.9792596242198],[0.958212384377719,50.9792686380908],[0.957856757072162,50.9792776508693],[0.957871031221053,50.9795021649229],[0.957885305565116,50.9797266789758],[0.957899580104351,50.979951193028],[0.958255212989918,50.9799421804365],[0.958610845680332,50.9799331667525],[0.958966478175573,50.979924151976],[0.959322110475613,50.979915136107],[0.959677742580429,50.9799061191456],[0.959663458741094,50.9796816047819],[0.960019088790653,50.9796725866657],[0.960374718644943,50.979663567457],[0.960730348303941,50.9796545471558],[0.960716059079946,50.9794300326045],[0.961071686683651,50.9794210111486],[0.961057395795059,50.9791964965343],[0.961043105101843,50.9789719819192],[0.961028814604,50.9787474673034],[0.961014524301526,50.9785229526869],[0.960658904137495,50.9785319743918],[0.960644615890247,50.9783074598368],[0.961000234194418,50.9782984380696],[0.96135585230327,50.9782894152099],[0.961711470216777,50.9782803912579],[0.961697176585368,50.9780558765153],[0.961682883149366,50.9778313617721],[0.962038497147874,50.9778223366031],[0.962394110950996,50.9778133103417],[0.962749724558709,50.977804282988],[0.962735425738778,50.9775797680573],[0.963091037291286,50.9775707395489],[0.963446648648342,50.9775617099481],[0.963460951187809,50.9777862250032],[0.963475253922797,50.9780107400575],[0.963489556853308,50.9782352551111],[0.963503859979343,50.978459770164],[0.963859478580114,50.9784507397195],[0.963873783761535,50.9786752548338],[0.963888089138513,50.9788997699474],[0.963902394711049,50.9791242850602],[0.963916700479147,50.9793488001723],[0.963931006442811,50.9795733152837],[0.963575378542524,50.9795823454172],[0.963589682841783,50.9798068604656],[0.963234052886011,50.9798158894444],[0.962878422734751,50.9798249173308],[0.962892723509558,50.980049432254],[0.962537091302828,50.9800584589857],[0.962181458900655,50.9800674846248],[0.962195756150904,50.9802919994229],[0.961840121693276,50.9803010239072],[0.961484487040249,50.9803100472991],[0.961498780765838,50.980534561972],[0.961143144057371,50.9805435842091],[0.96115743611829,50.980768098819],[0.961513074686847,50.9807590766441],[0.961527368803278,50.9809835913155],[0.961541663115135,50.9812081059862],[0.961897305208553,50.9811990828433],[0.961911601575996,50.9814235975755],[0.961555957622421,50.9814326206561],[0.961200313473456,50.9814416426442],[0.960844669129124,50.9814506635397],[0.960858960111474,50.9816751780843],[0.960503313711609,50.981684197825],[0.960147667116422,50.9816932164732],[0.959792020325937,50.9817022340288],[0.959436373340177,50.9817112504918],[0.959450657077045,50.9819357647865],[0.95909500803581,50.9819447800947],[0.958739358799342,50.9819537943103],[0.95875363901101,50.9821783084797],[0.958397987719081,50.9821873215404],[0.958042336231969,50.9821963335085],[0.957686684549694,50.982205344384],[0.95770095937577,50.9824298583657],[0.957345305638069,50.9824388680863],[0.957359578799022,50.9826633820048],[0.957003923005888,50.9826723905705],[0.957018194501673,50.9828969044259],[0.9566625366531,50.9829059118366],[0.956306878609454,50.9829149181547],[0.956321146579653,50.9831394318846],[0.955965486480582,50.9831484370478],[0.955609826186483,50.9831574411183],[0.955254165697375,50.9831664440962],[0.955268428281484,50.9833909576382],[0.954912765736989,50.9833999594611],[0.954557102997532,50.9834089601914],[0.954571362055818,50.9836334736077],[0.954215697260987,50.9836424731829],[0.954201440063137,50.9834179598291],[0.953845776933829,50.9834269583741],[0.953490113609631,50.9834359558266],[0.953134450090567,50.9834449521865],[0.953120198668944,50.9832204390192],[0.952764536815465,50.983229434349],[0.952750287449141,50.9830049212435],[0.952394627261253,50.9830139155431],[0.952408874767171,50.9832384285861],[0.952053212524086,50.9832474217307],[0.952067458364421,50.9834719347105],[0.952423122467939,50.9834629416284],[0.952437370363561,50.98368745467],[0.952451618454039,50.9839119677108],[0.952807286083691,50.9839029736611],[0.952821534005669,50.9841274840611],[0.952835781909687,50.9843519942043],[0.953191453058527,50.9843429992424],[0.953205702957758,50.984567509411],[0.953219953047426,50.9847920195761],[0.953575627615517,50.9847830235819],[0.953589879700469,50.9850075337724],[0.95360413197589,50.9852320439594],[0.953959809963286,50.9852230469329],[0.953974064234061,50.9854475571453],[0.954329743835915,50.9854385590576],[0.954685423247316,50.9854295598799],[0.954699681318393,50.9856540701465],[0.954713939580014,50.9858785804096],[0.955069622410759,50.9858695801995],[0.955083882667872,50.986094090488],[0.955439567113053,50.9860850892167],[0.955453829365704,50.9863095995305],[0.955468091808954,50.9865341098407],[0.955823779673546,50.986525107537],[0.955838044112406,50.9867496178726],[0.955852308741896,50.9869741282048],[0.956208000025952,50.9869651248686],[0.956222266651122,50.9871896352261],[0.956577959549632,50.9871806308286],[0.956592228170528,50.9874051412114],[0.956606496982108,50.9876296515907],[0.956962193300151,50.9876206461607],[0.956976464107528,50.9878451565653],[0.95733216204003,50.9878361500739],[0.957687859781861,50.9878271424925],[0.957673585364278,50.9876026320304],[0.95765931113745,50.9873781215649],[0.958015005078411,50.987369112836],[0.958000729237285,50.9871446023383],[0.958356421182484,50.9871355924906],[0.958712112936952,50.9871265815529],[0.959067804500665,50.9871175695251],[0.9594234958736,50.9871085564073],[0.959779187055734,50.9870995421995],[0.960134878047044,50.9870905269016],[0.960490568847505,50.9870815105137],[0.960846259457095,50.9870724930357],[0.961201949875792,50.9870634744677],[0.96155764010357,50.9870544548097],[0.961913330140409,50.9870454340616],[0.961899034634937,50.9868209232451],[0.96225472267582,50.9868119013784],[0.962240425556401,50.9865873905299],[0.962596111601335,50.9865783675445],[0.96261041052572,50.9868028784216],[0.962966098184613,50.9867938543749],[0.962980399105049,50.9870183652771],[0.962994700216575,50.987242876176],[0.963350391294424,50.9872338510963],[0.963706082181213,50.9872248249266],[0.96369177745968,50.9870003139706],[0.964047466350388,50.9869912866823],[0.964033160015017,50.9867667756943],[0.96438884690965,50.9867577472874],[0.964374538960488,50.9865332362674],[0.964730223859052,50.9865242067419],[0.964715914296143,50.9862996956899],[0.965071596021718,50.986290663803],[0.965427273318073,50.9862816263544],[0.965412960618495,50.9860571156261],[0.965768635977315,50.9860480772001],[0.965754321713909,50.9858235665599],[0.966109995135202,50.9858145271566],[0.96609567930801,50.9855900166045],[0.966451350791782,50.985580976224],[0.966465668369642,50.9858054866739],[0.966821341417207,50.9857964451118],[0.967177014277874,50.9857874024701],[0.96753268695162,50.9857783587491],[0.967888359438424,50.9857693139486],[0.967902684205944,50.9859938239759],[0.968258358256456,50.9859847779938],[0.968272684961694,50.986209287905],[0.968287011853982,50.9864337978022],[0.968642689218912,50.9864247505362],[0.968657018048987,50.9866492603173],[0.969012696977633,50.9866402118697],[0.969027027745542,50.9868647215345],[0.969041358700551,50.9870892311853],[0.969055689842666,50.9873137408222],[0.96907002117189,50.9875382504451],[0.969084352688225,50.9877627600539],[0.969098684391674,50.9879872696488],[0.969454373638131,50.9879782195085],[0.969468707279585,50.9882027289871],[0.969483041108182,50.9884272384518],[0.969497375123925,50.9886517479025],[0.969511709326817,50.9888762573392],[0.969526043716861,50.9891007667618],[0.969540378294063,50.9893252761705],[0.969896077859069,50.9893162243374],[0.969910414374445,50.9895407336298],[0.97026611550334,50.9895316806149],[0.970280453956937,50.9897561897911],[0.97063615664971,50.9897471355943],[0.970650497041572,50.9899716446543],[0.970664837620669,50.9901961537003],[0.971020543628391,50.9901870982194],[0.971376249448903,50.9901780416589],[0.971731955082185,50.9901689840188],[0.971717609249874,50.9899444752796],[0.971703263604864,50.9897199665264],[0.971688918147153,50.9894954577592],[0.971674572876737,50.989270948978],[0.971660227793613,50.9890464401827],[0.971645882897778,50.9888219313735],[0.971290187770572,50.9888309884],[0.971275844812957,50.9886064794745],[0.971261502042604,50.988381970535],[0.971247159459508,50.9881574615815],[0.971232817063667,50.987932952614],[0.971218474855075,50.9877084436325],[0.970862788295125,50.9877174990682],[0.970848448024608,50.9874929899705],[0.970834107941314,50.9872684808587],[0.97081976804524,50.987043971733],[0.970805428336381,50.9868194625933],[0.970791088814736,50.9865949534395],[0.970776749480299,50.9863704442718],[0.97076241033307,50.9861459350901],[0.97040673584129,50.9861549887305],[0.970392398631938,50.9859304794326],[0.970378061609767,50.9857059701206],[0.970363724774768,50.9854814607946],[0.970349388126941,50.9852569514547],[0.970335051666284,50.9850324421007],[0.96997938574054,50.9850414941507],[0.969965051217615,50.9848169846805],[0.969950716881828,50.9845924751963],[0.969936382733179,50.9843679656981],[0.969580721871988,50.984377016362],[0.969566389660975,50.9841525067476],[0.969552057637071,50.9839279971193],[0.969537722764137,50.9837034845341],[0.969523387995308,50.983478971855],[0.969509053405802,50.9832544591551],[0.969153400952585,50.9832635080992],[0.969139068196523,50.9830389951907],[0.969124735619756,50.9828144822613],[0.969110403222282,50.982589969311],[0.969096071004094,50.9823654563398],[0.968740424988007,50.9823745034608],[0.968726094603149,50.982149990281],[0.968711764397553,50.9819254770804],[0.968697434371214,50.9817009638589],[0.968341793137978,50.9817100093445],[0.968327464944877,50.9814854959145],[0.968313136931008,50.9812609824635],[0.967957498826528,50.9812700265015],[0.967943172645829,50.981045512842],[0.967928846644334,50.9808209991617],[0.967914520822039,50.9805964854604],[0.967900195178942,50.9803719717383],[0.967544563510949,50.9803810139534],[0.967530239700908,50.9801565000228],[0.967515916070037,50.9799319860713],[0.967160287530616,50.9799410268388],[0.967145965732734,50.9797165126788],[0.967131644113994,50.9794919984979],[0.967117322674393,50.9792674842961],[0.966761698917275,50.9792765234286],[0.966747379310572,50.9790520090184],[0.966733059882981,50.9788274945872],[0.9667187406345,50.9786029801352],[0.966704421565126,50.9783784656623],[0.966348804243855,50.9783875029722],[0.966334487007262,50.9781629882908],[0.966320169949749,50.9779384735886],[0.966675783963683,50.9779294366539],[0.96666146543161,50.9777049221183],[0.96701707761285,50.9776958842989],[0.967002757606259,50.97747136993],[0.966647147078631,50.9774804075619],[0.966632828904743,50.9772558929846],[0.966277219851653,50.9772649293566],[0.965921610619533,50.9772739646564],[0.965907295931881,50.9770494496831],[0.966262903510427,50.9770404145709],[0.966618510909944,50.9770313783864],[0.966974118130412,50.9770223411297],[0.96695979866115,50.9767978266982],[0.966945479370992,50.9765733122458],[0.966931160259934,50.9763487977725],[0.966916841327974,50.9761242832784],[0.966561240721571,50.9761333197848],[0.966546923622168,50.9759088050822],[0.966532606701836,50.9756842903588],[0.966518293078355,50.9754597790514],[0.966503981903372,50.9752352702278],[0.966489670912591,50.9750107613928],[0.966475360106011,50.9747862525464],[0.966461049483626,50.9745617436885],[0.966816638438707,50.9745527081934],[0.96680232628349,50.9743281993946],[0.966788014312486,50.9741036905844],[0.966432428791434,50.9741127259385],[0.966076843086257,50.974121760211],[0.965721257196976,50.974130793402],[0.965365671123615,50.9741398255115],[0.965351366204765,50.9739153164077],[0.965337061470035,50.9736908072925],[0.96532275691942,50.9734662981659],[0.964967175975292,50.9734753292694],[0.964952873400617,50.9732508201938],[0.964938571003785,50.973026311096],[0.964924268784796,50.9728018019761],[0.964909966743645,50.9725772928341],[0.964554394102154,50.9725863254533],[0.96454009387828,50.9723618160861],[0.964525793832217,50.9721373066967],[0.964511493963962,50.9719127972852],[0.964497194273513,50.9716882878516],[0.964482894760866,50.9714637783959],[0.964468595426018,50.971239268918],[0.964113032443125,50.9712482992479],[0.964098734925392,50.9710237895448],[0.96408443758543,50.9707992798196],[0.964070140423238,50.9705747700723],[0.964055843438812,50.9703502603029],[0.96404154663215,50.9701257505113],[0.964027250003248,50.9699012406977],[0.964012953552103,50.9696767308619],[0.963657401866296,50.9696857586996],[0.963643107232078,50.9694612486386],[0.963628812775591,50.9692367385555],[0.963273264190441,50.9692457649165],[0.963258971550813,50.9690212546082],[0.962903424427153,50.9690302796955],[0.962547877125872,50.9690393037121],[0.96253358794218,50.9688147929756],[0.962889133604344,50.9688057691621],[0.962874842959214,50.9685812586066],[0.962860552491761,50.968356748029],[0.96321609469814,50.9683477235508],[0.963201802769308,50.9681232131541],[0.963557343159004,50.9681141878083],[0.963543049768835,50.9678896775925],[0.963528756556377,50.9676651673546],[0.963514463521624,50.9674406570945],[0.963500170722221,50.9672161469045],[0.963485878361473,50.9669916371099],[0.963841410297706,50.9669826115677],[0.963827116405429,50.9667581018329],[0.963471586184588,50.9667671273039],[0.963457294191559,50.9665426174864],[0.963812822697031,50.9665335920865],[0.963798529172511,50.9663090823287],[0.963784235831866,50.9660845725594],[0.963769942675091,50.9658600627786],[0.963755649702184,50.9656355529863],[0.963741356913141,50.9654110431825],[0.963727064307959,50.9651865333672],[0.963712771886637,50.9649620235405],[0.963698479649169,50.9647375137022],[0.963684187595555,50.9645130038524],[0.963669895725789,50.9642884939912],[0.964025406894988,50.9642794682223],[0.964011113493943,50.9640549584208],[0.963996820276763,50.9638304486078],[0.963641312537792,50.9638394742342],[0.963627021219556,50.9636149643385],[0.963982527243444,50.9636059387833],[0.963968234393984,50.9633814289473],[0.963953941728381,50.9631569190998],[0.963939649246629,50.9629324092408],[0.963925356948727,50.9627078993703],[0.963911064834671,50.9624833894883],[0.963896772904459,50.9622588795948],[0.9635412771706,50.9622679047227],[0.963526987139157,50.9620433947466],[0.963512697291528,50.9618188847589],[0.963498407627711,50.9615943747597],[0.963484118147703,50.9613698647491],[0.963469828851502,50.9611453547269],[0.963455539739102,50.9609208446933],[0.963811025183718,50.9609118199927],[0.96379673454032,50.9606873100187],[0.963782444080742,50.9604628000333],[0.963768153804979,50.9602382900364],[0.963753863713029,50.960013780028],[0.963739573804887,50.9597892700081],[0.964095050491991,50.9597802445826],[0.96408075905297,50.9595557346224],[0.964066467797775,50.9593312246508],[0.96371099454002,50.9593402499339],[0.963696705183288,50.9591157398795],[0.964052176726402,50.9591067146676],[0.964037885829261,50.9588822046495],[0.964023595074297,50.9586576945198],[0.96400930450206,50.9584331843784],[0.963995014112548,50.9582086742254],[0.963980723905758,50.9579841640608],[0.963966433881687,50.9577596538846],[0.963952144040332,50.9575351436967],[0.963937854381689,50.9573106334973],[0.963923564905757,50.9570861232862],[0.964279020943032,50.9570770976416],[0.964264729948839,50.9568525874916],[0.96425043913737,50.95662807733],[0.964236148508624,50.9564035671568],[0.964221858062597,50.956179056972],[0.964207567799286,50.9559545467756],[0.964193277718688,50.9557300365676],[0.964548723367835,50.9557210102784],[0.964534431769112,50.9554965001315],[0.964520140353119,50.9552719899729],[0.964505849119849,50.9550474798027],[0.964491558069303,50.954822969621],[0.964477267201477,50.9545984594275],[0.964462976516367,50.9543739492225],[0.964818411778182,50.954364922289],[0.964804119575084,50.954140412145],[0.964789827554719,50.9539159019895],[0.964775535717082,50.9536913918224],[0.96476124406217,50.9534668816436],[0.964746952589982,50.9532423714532],[0.965102379178903,50.9532333437916],[0.965088086186006,50.9530088336645],[0.965073793376182,50.9527843235255],[0.965059500749432,50.9525598133747],[0.965045208305751,50.9523353032121],[0.965030916045135,50.9521107930377],[0.965386333958094,50.9521017646461],[0.965372040175885,50.9518772545351],[0.965357746576757,50.9516527444123],[0.965343453160709,50.9514282342776],[0.965329159927734,50.9512037241311],[0.965684570839184,50.9511946949602],[0.965670276084717,50.9509701848771],[0.965655981513339,50.9507456747823],[0.965641687055012,50.9505211647702],[0.965627392628595,50.9502966549508],[0.965982796532772,50.9502876250011],[0.965968500586846,50.9500631152374],[0.965954204823856,50.9498386054626],[0.965939909243797,50.9496140956766],[0.965925613846667,50.9493895858795],[0.966281010758409,50.9493805551161],[0.96626671384187,50.9491560453747],[0.966252417108276,50.9489315356221],[0.966607810432489,50.9489225039114],[0.966963203573799,50.9489134711199],[0.966948903618572,50.9486889614898],[0.966934603846327,50.9484644518486],[0.966920304257061,50.9482399421962],[0.966564916222541,50.9482489747873],[0.966550618518471,50.948024465057],[0.96690600485077,50.9480154325327],[0.966891705627452,50.9477909228581],[0.966536320997352,50.9477999553155],[0.966180936184363,50.9478089866921],[0.966166640548371,50.9475844768727],[0.9658112572547,50.9475935071017],[0.96545587377819,50.9476025362499],[0.96510049011886,50.9476115643172],[0.965086199772284,50.9473870542863],[0.965071909608562,50.9471625442442],[0.965057619627694,50.9469380341911],[0.965043329829671,50.9467135241267],[0.965398706680462,50.9467044963265],[0.965412998180586,50.9469290063241],[0.965768376550669,50.9469199773763],[0.965782669935784,50.9471444872959],[0.965796963503792,50.9473689972044],[0.966152345095303,50.9473599670422],[0.966507726503953,50.9473509357992],[0.966863107729722,50.9473419034754],[0.967218488772589,50.9473328700708],[0.96720418839604,50.9471083604295],[0.967189888202474,50.9468838507771],[0.967175588191886,50.9466593411136],[0.967530963945513,50.9466503068287],[0.96751666241584,50.9464257972209],[0.967502361069161,50.9462012876019],[0.967857733235754,50.9461922523699],[0.967843430370052,50.9459677428066],[0.96782912768736,50.9457432332322],[0.967814825187674,50.9455187236466],[0.967800522870993,50.9452942140499],[0.968155888046716,50.9452851780045],[0.968141584211111,50.9450606684635],[0.968127280558524,50.9448361589114],[0.968112977088954,50.9446116493481],[0.968468336976015,50.9446026124226],[0.968454031987601,50.944378102915],[0.96843972718222,50.9441535933963],[0.968425422559868,50.9439290838664],[0.968780777158457,50.9439200460607],[0.968766471017343,50.9436955365866],[0.968752165059271,50.9434710271013],[0.968737859284243,50.9432465176049],[0.968723553692254,50.9430220080973],[0.969078901300844,50.9430129694784],[0.969064594190191,50.9427884600266],[0.969050287262591,50.9425639505636],[0.969035980518042,50.9423394410895],[0.969391322838615,50.9423304015905],[0.969377013815808,50.9421058934486],[0.969362704627243,50.9418813858821],[0.969348395620724,50.9416568783068],[0.969334086796245,50.9414323707225],[0.969689422129798,50.941423330381],[0.96967511179843,50.9411988228267],[0.969660801649121,50.9409743152636],[0.969646491681866,50.9407498076916],[0.970001821766701,50.9407407663837],[0.969987510292638,50.9405162588417],[0.969973199000643,50.9402917512907],[0.969958887890716,50.9400672437309],[0.969944576962853,50.9398427361622],[0.970299900110369,50.939833693927],[0.970285587675797,50.9396091863883],[0.970271275423303,50.9393846788407],[0.970256963352885,50.9391601712842],[0.97024265146454,50.9389356637188],[0.970597967675088,50.9389266205563],[0.970583654280132,50.9387021130209],[0.970569341067264,50.9384776054766],[0.970555028036483,50.9382530979235],[0.970540715187785,50.9380285903614],[0.970896024461712,50.9380195462717],[0.9708817101065,50.9377950387396],[0.970867395933387,50.9375705311987],[0.970853081942371,50.9373460236489],[0.971208385968548,50.9373369785931],[0.971194070471098,50.9371124710732],[0.971179755155758,50.9368879635445],[0.971165440022527,50.936663456007],[0.971151125071399,50.9364389484605],[0.971506422161564,50.9364299024775],[0.971492105704102,50.9362053949611],[0.971477789428762,50.9359808874357],[0.971463473335537,50.9357563799015],[0.971449157424427,50.9355318723584],[0.971804447578927,50.9355228254484],[0.971790130161581,50.9352983179353],[0.971775812926367,50.9350738104133],[0.971761495873277,50.9348493028824],[0.972116780780738,50.9348402550065],[0.972102462221495,50.9346157475056],[0.972088143844392,50.9343912399959],[0.97207382564943,50.9341667324773],[0.972429105310043,50.9341576836355],[0.972414785609006,50.9339331761469],[0.972400465229836,50.9337086697674],[0.972386145011459,50.9334841634063],[0.972371824976186,50.9332596570344],[0.972727097630651,50.9332506073793],[0.972712776078513,50.933026101058],[0.972698454709494,50.932801594726],[0.972684133523594,50.9325770883833],[0.973039400895152,50.9325680378311],[0.973025078192465,50.9323435315389],[0.973010755672912,50.9321190252361],[0.97336601946161,50.9321099737257],[0.973351695425332,50.9318854674734],[0.973337371572205,50.9316609612104],[0.973323047902222,50.9314364549367],[0.973678306408329,50.9314274025293],[0.973663981221703,50.9312028963062],[0.973649656218239,50.9309783900723],[0.973635331397933,50.9307538838278],[0.973621006760783,50.9305293775725],[0.973976258284773,50.9305203243295],[0.973961932131078,50.9302958181248],[0.973947606160555,50.9300713119095],[0.973933280373198,50.9298468056834],[0.974288526615051,50.9298377515435],[0.974274199311231,50.929613245368],[0.974259872190594,50.9293887391818],[0.974615114850082,50.9293796840839],[0.974600786213043,50.9291551779482],[0.974956026989802,50.929146121831],[0.974941696836406,50.9289216157459],[0.974586457759204,50.9289306718019],[0.974572129488562,50.9287061656449],[0.974557801401112,50.9284816594772],[0.974913037079263,50.9284726035437],[0.97489870747551,50.9282480974266],[0.975253941271012,50.9282390404738],[0.975239610151001,50.9280145344073],[0.975225279214216,50.92779002833],[0.974870048817627,50.9277990851602],[0.974884378054966,50.9280235912987],[0.974529145775778,50.9280326471097],[0.974543473496851,50.9282571532988],[0.974188239335058,50.9282662080905],[0.973833004990153,50.9282752618017],[0.973477770462155,50.9282843144324],[0.973463447839512,50.9280598080596],[0.973449125399989,50.9278353016761],[0.973804356529047,50.9278262491679]]],[[[0.974116611058648,50.927143676732],[0.97447183672329,50.9271346222465],[0.974827062204812,50.9271255666805],[0.975182287503193,50.9271165100341],[0.975537512618412,50.9271074523072],[0.975892737550447,50.9270983934999],[0.97587840394783,50.9268738875024],[0.97586407052847,50.9266493814943],[0.975508848995119,50.926658440179],[0.97515362727859,50.9266674977834],[0.975167957299286,50.9268920039141],[0.974812733700263,50.9269010604993],[0.974798405378906,50.9266765543073],[0.974443183296086,50.9266856097507],[0.974087961030154,50.9266946641138],[0.974102285952827,50.9269191704282],[0.974116611058648,50.927143676732]]],[[[0.97586407052847,50.9266493814943],[0.97621929187862,50.926640321729],[0.976574513045551,50.9266312608833],[0.976588849863564,50.9268557667689],[0.976944072546574,50.9268467047815],[0.976929734029237,50.9266221989572],[0.977284954829659,50.9266131359507],[0.977270614796343,50.926388630177],[0.976915395695218,50.9263976931223],[0.976560176410831,50.9264067549871],[0.976545839959404,50.9261822490801],[0.97619062219106,50.9261913098032],[0.9758354042395,50.9262003694459],[0.975480186104747,50.9262094280081],[0.975124967786821,50.9262184854899],[0.975139297441103,50.926442991642],[0.975494517458318,50.9264339340989],[0.97584973729236,50.9264248754754],[0.97586407052847,50.9266493814943]]],[[[0.956091904470041,50.973925357932],[0.956106166410312,50.9741498720385],[0.956120428527906,50.974374386123],[0.956476016906898,50.9743653777834],[0.956490280841501,50.9745898916429],[0.956845870682877,50.9745808820295],[0.956860136434532,50.9748053956639],[0.957215727738286,50.9747963847767],[0.957571318864698,50.9747873728185],[0.957557049833652,50.9745628595899],[0.957201460346934,50.9745718713452],[0.957187193132975,50.9743473578916],[0.956831605108594,50.974356368373],[0.95681733971168,50.9741318546943],[0.956803074492134,50.9739073409936],[0.956447489569732,50.9739163499983],[0.956091904470041,50.973925357932]]],[[[0.95736070783721,50.9882851709303],[0.95734643484325,50.9880606605039],[0.95699073510562,50.9880696669665],[0.956635035177338,50.988078672339],[0.956649304560994,50.988303182708],[0.956663574135348,50.9885276930736],[0.957019277673961,50.9885186877585],[0.957033549244216,50.9887431981493],[0.957047821005198,50.9889677085367],[0.957403527963567,50.988958702189],[0.957417801720521,50.9891832126017],[0.957773510293439,50.9891742051926],[0.957759234731247,50.9889496947512],[0.957744959359831,50.9887251843064],[0.957730684179186,50.9885006738581],[0.957374981021914,50.9885096813533],[0.95736070783721,50.9882851709303]]]]}}