{"type":"Feature","properties":{"code":"E63003502","name":"Stratford-upon-Avon"},"geometry":{"type":"MultiPolygon","coordinates":[[[[-1.66676602029548,52.1930077192761],[-1.66640029453903,52.1930066871146],[-1.66639861347626,52.1932314449964],[-1.66639693239134,52.1934562028696],[-1.66603120297337,52.1934551695533],[-1.66602952002443,52.1936799274072],[-1.6660278370533,52.1939046852525],[-1.66566210397374,52.1939036507812],[-1.66566041913852,52.1941284086072],[-1.66529468423924,52.1941273729917],[-1.66529299753988,52.1943521307983],[-1.66529131081829,52.1945768885963],[-1.66492557225732,52.1945758518259],[-1.66455983371858,52.1945748139217],[-1.66456152412407,52.1943500561451],[-1.66456321450728,52.1941252983598],[-1.66419747967464,52.1941242593434],[-1.66419917187746,52.1938995015602],[-1.663833438909,52.1938984614209],[-1.66383513293138,52.1936737036398],[-1.66383682693143,52.1934489458499],[-1.66347109766898,52.1934479045985],[-1.66347279348852,52.1932231468107],[-1.66310706609021,52.1932221044364],[-1.66274133871423,52.1932210609285],[-1.66274303819502,52.1929963031536],[-1.6627447376534,52.19277154537],[-1.66237901398336,52.19277050075],[-1.66238071526109,52.1925457429685],[-1.66274643708938,52.1925467875778],[-1.66274813650296,52.1923220297769],[-1.66274983589413,52.1920972719674],[-1.66275153545012,52.1918725143258],[-1.66275323499158,52.191647756683],[-1.66238752052311,52.1916467121111],[-1.66238922187984,52.1914219544671],[-1.66239092321417,52.1911971968145],[-1.66239262452612,52.1909724391533],[-1.66239432581567,52.1907476814835],[-1.66202861871994,52.1907466358079],[-1.66203032182464,52.1905218781369],[-1.66203202490694,52.1902971204573],[-1.66239772832763,52.190298166118],[-1.66239942955002,52.1900734084224],[-1.66276513115557,52.1900744529421],[-1.66313083278343,52.1900754963285],[-1.66349653443359,52.1900765385813],[-1.66386223610602,52.1900775797006],[-1.6642279378007,52.1900786196865],[-1.6645936395176,52.1900796585389],[-1.66459532969282,52.1898549007901],[-1.66496102959445,52.1898559385017],[-1.66496271790999,52.1896311807369],[-1.66532841599636,52.1896322173075],[-1.66569411410487,52.1896332527447],[-1.66569579872336,52.1894084949566],[-1.66606149501658,52.189409529253],[-1.6664271913319,52.1894105624159],[-1.6667928876693,52.1894115944454],[-1.66715858402876,52.1894126253415],[-1.66752428041024,52.1894136551041],[-1.66752260497885,52.1896384129289],[-1.66715690675995,52.189637383159],[-1.66715522946907,52.189862140968],[-1.66752092952541,52.1898631707452],[-1.66788662960377,52.1898641993889],[-1.66788495596575,52.1900889572039],[-1.66825065796822,52.1900899847586],[-1.6682489861487,52.1903147425738],[-1.66824731430708,52.1905395003804],[-1.66788160862365,52.190538472808],[-1.66787993491955,52.1907632305972],[-1.66787826119344,52.1909879883777],[-1.6675125519275,52.1909869596974],[-1.66751087634177,52.191211717462],[-1.66750920073399,52.191436475218],[-1.66750752510416,52.1916612329654],[-1.66714181034738,52.1916602031295],[-1.66714013285784,52.1918849608609],[-1.6671384553695,52.1921097186052],[-1.6671367780788,52.1923344765429],[-1.66677105782552,52.1923334455468],[-1.66676937867098,52.1925582034652],[-1.6667676994943,52.192782961375],[-1.66676602029548,52.1930077192761]]],[[[-1.70410016987496,52.1886118429847],[-1.70373446984767,52.188610929162],[-1.70336876984276,52.1886100142061],[-1.70300306986028,52.1886090981169],[-1.70300456024224,52.1883843399423],[-1.70263886246156,52.1883834227537],[-1.70227316470335,52.1883825044319],[-1.70227465942146,52.1881577463159],[-1.70190896386508,52.1881568268946],[-1.70154326833124,52.1881559063401],[-1.70117757718186,52.1881549829605],[-1.70117607612249,52.1883797409972],[-1.70117457504243,52.1886044990254],[-1.70117307394166,52.1888292570451],[-1.70117157282019,52.1890540150564],[-1.70117007167802,52.1892787730592],[-1.70116857051514,52.1895035310535],[-1.70116706933156,52.1897282890394],[-1.70153277431862,52.1897292124943],[-1.70189848510835,52.1897301332849],[-1.70226419592062,52.1897310529423],[-1.70226270104448,52.1899558109965],[-1.70226120614577,52.1901805690418],[-1.70189549097443,52.190179649317],[-1.70189399387356,52.1904044073197],[-1.70225971122448,52.1904053270783],[-1.70225821628061,52.190630085106],[-1.70225672131417,52.1908548431249],[-1.70189099960401,52.1908539232988],[-1.70152527791638,52.1908530023395],[-1.70115956310307,52.1908520788415],[-1.70079385031752,52.1908511537984],[-1.70042813755263,52.1908502276216],[-1.70006242480844,52.1908493003111],[-1.70006091766977,52.191074058275],[-1.69969520300267,52.1910731298405],[-1.69932948835632,52.1910722002723],[-1.69896377373074,52.1910712695705],[-1.69896226074036,52.1912960275547],[-1.69859654419193,52.1912950957287],[-1.69823082766433,52.1912941627692],[-1.69822931076575,52.191518920764],[-1.69822779384627,52.1917436787504],[-1.69786207345216,52.1917427446762],[-1.69786055456805,52.1919675026637],[-1.69749483225109,52.1919665674654],[-1.69749331545659,52.1921913248217],[-1.69712759111464,52.1921903885136],[-1.69712910995503,52.1919656311334],[-1.69676338767989,52.1919646936677],[-1.69676186679477,52.1921894510716],[-1.69639614249701,52.1921885124957],[-1.6963946241601,52.1924132691895],[-1.69602889779785,52.1924123295081],[-1.69602737735205,52.1926370862218],[-1.69602585688398,52.1928618429272],[-1.69602433639365,52.1930865996243],[-1.69602281588104,52.1933113563131],[-1.69565708119421,52.1933104156109],[-1.69565555857259,52.1935351723196],[-1.69565403592867,52.19375992902],[-1.69528829709049,52.1937589872404],[-1.69528677233747,52.1939837439607],[-1.69528524756213,52.1942085006728],[-1.69491950457253,52.1942075578157],[-1.694917977688,52.1944323145477],[-1.69491645078113,52.1946570712714],[-1.69455070364004,52.1946561273368],[-1.6945491746239,52.1948808840804],[-1.69418342541817,52.1948799390401],[-1.69418189429272,52.1951046958036],[-1.69381614302236,52.1951037496575],[-1.69381460978754,52.195328506441],[-1.69381307653028,52.1955532632161],[-1.6934473211083,52.1955523159925],[-1.6934457857416,52.1957770727875],[-1.69308002825497,52.1957761244581],[-1.69307849077876,52.196000881273],[-1.69271273122747,52.1959999318377],[-1.69271119164171,52.1962246886725],[-1.69234543002578,52.1962237381314],[-1.6923438883304,52.1964484949861],[-1.69197812464982,52.1964475433392],[-1.69197658084478,52.1966723002137],[-1.69197503701717,52.1968970570799],[-1.691973493167,52.1971218139378],[-1.69197194929426,52.1973465707874],[-1.69233772132349,52.1973475223217],[-1.69233617951542,52.1975722791348],[-1.6923346376848,52.1977970359396],[-1.69196886148107,52.1977960844617],[-1.69160308529983,52.1977951318497],[-1.69123730914109,52.1977941781036],[-1.69087153300489,52.1977932232235],[-1.69087308318454,52.197568466306],[-1.69050730915816,52.1975675102636],[-1.69050886140239,52.1973427533097],[-1.69014308948583,52.1973417961051],[-1.69014153515438,52.1975665530872],[-1.68977576117321,52.1975655947766],[-1.6897742047318,52.1977903517785],[-1.68940842868602,52.1977893923619],[-1.68940998721469,52.197564635332],[-1.68904421327885,52.1975636747532],[-1.68867843936571,52.1975627130404],[-1.68868000204608,52.197337955946],[-1.6883142302429,52.197336993071],[-1.68794845846248,52.1973360290619],[-1.68795002529445,52.197111271903],[-1.68758425562401,52.1971103067318],[-1.68758582452029,52.1968855495365],[-1.68722005695984,52.1968845832032],[-1.68685428942224,52.1968836157358],[-1.68685271635162,52.1971083729872],[-1.68648694674971,52.1971074044138],[-1.68648537156896,52.1973321616849],[-1.68611959990275,52.1973311920054],[-1.6861180226118,52.1975559492963],[-1.6857522488813,52.1975549785108],[-1.6857506694801,52.1977797358213],[-1.68538489368531,52.1977787639297],[-1.68538331217381,52.19800352126],[-1.68501753431472,52.1980025482623],[-1.68501595069287,52.1982273056123],[-1.68538173063927,52.198228278582],[-1.68538014908168,52.1984530358956],[-1.68574593113839,52.1984540077032],[-1.6857443516451,52.1986787649805],[-1.68574277212879,52.1989035222496],[-1.68537698589735,52.198902550498],[-1.6853754042706,52.1991273077868],[-1.68500961597473,52.1991263349291],[-1.6850080322375,52.1993510922376],[-1.6846422451879,52.1993501177772],[-1.68464065943926,52.1995748750922],[-1.68427487610925,52.1995738986627],[-1.68427328841175,52.1997986559779],[-1.68463907366891,52.1997996323987],[-1.68463748787686,52.2000243896968],[-1.68463590206311,52.2002491469864],[-1.68500169705781,52.2002501213883],[-1.68500011552911,52.2004748783085],[-1.68463431851345,52.2004739039264],[-1.68463274224326,52.2006986597683],[-1.68426694905029,52.2006976834106],[-1.68390115588025,52.2006967059188],[-1.6838995754326,52.2009214618063],[-1.68353378020829,52.2009204832072],[-1.68353536273316,52.2006957272928],[-1.68353694523494,52.20047097137],[-1.68317115418804,52.2004699915828],[-1.68280536316415,52.2004690106615],[-1.68243957216331,52.2004680286059],[-1.68244116771937,52.2002432715535],[-1.68207537873821,52.2002422883456],[-1.68207697804239,52.2000175309962],[-1.68171119101026,52.2000165466458],[-1.68171279221973,52.1997917892794],[-1.68134700713662,52.1997908037864],[-1.68134861025134,52.1995660464031],[-1.68098282711725,52.1995650597676],[-1.68098443213717,52.1993403023673],[-1.68098603713514,52.1991155449586],[-1.68098764211115,52.1988907875413],[-1.68135341946394,52.1988917742023],[-1.68135502249095,52.198667016785],[-1.68172079793855,52.1986680023205],[-1.68172239901661,52.1984432449033],[-1.68208817255903,52.1984442293133],[-1.68208977168818,52.1982194718961],[-1.68245554332541,52.1982204551807],[-1.68245714050571,52.1979956977635],[-1.68282291023776,52.1979966799227],[-1.68318867999158,52.1979976609478],[-1.68319027329612,52.1977729035393],[-1.68355604114472,52.1977738834391],[-1.68355763250053,52.1975491260306],[-1.68392339844392,52.197550104805],[-1.684289164409,52.1975510824455],[-1.68429075188922,52.1973263250457],[-1.68465651594906,52.1973273015608],[-1.68465810148068,52.1971025441611],[-1.68502386857136,52.1971035187794],[-1.68502545207783,52.1968787613879],[-1.6853912195008,52.1968797345256],[-1.68539280089706,52.1966549771538],[-1.68575856625587,52.1966559491855],[-1.68576014554197,52.1964311918334],[-1.68612590883662,52.196432162759],[-1.6861274860126,52.1962074054267],[-1.68649324724308,52.1962083752463],[-1.68685900849646,52.1962093439318],[-1.68686058147532,52.1959845866472],[-1.68686215443125,52.1957598293543],[-1.68722791153339,52.1957607969619],[-1.68722948237936,52.1955360396887],[-1.68723105320243,52.1953112824073],[-1.68686530027428,52.1953103147436],[-1.68686687316139,52.1950855574257],[-1.68686844602557,52.1948608000996],[-1.68687001886681,52.1946360427652],[-1.68687159168511,52.1944112854225],[-1.68723733626558,52.1944122531983],[-1.68760308086889,52.1944132198402],[-1.68796882549501,52.1944141853482],[-1.68796725893734,52.1946389426068],[-1.68833300567312,52.1946399069527],[-1.68833144117951,52.1948646641749],[-1.68869719002495,52.1948656273588],[-1.68869875243165,52.1946408701647],[-1.68906449921292,52.1946418322427],[-1.68906605950994,52.1944170750683],[-1.68906761978419,52.1941923178857],[-1.68870187717666,52.1941913557515],[-1.68870343951496,52.1939665985325],[-1.68870500183046,52.1937418413051],[-1.68870656412316,52.1935170840695],[-1.68870812639306,52.1932923268255],[-1.68907386065343,52.193293289072],[-1.68907230047028,52.1935180462879],[-1.68907074026436,52.1937428034955],[-1.68943647872095,52.1937437645519],[-1.68980221720022,52.1937447244744],[-1.69016795570212,52.1937456832629],[-1.69053369422664,52.1937466409176],[-1.69053524608546,52.1935218838224],[-1.69090098254579,52.1935228403713],[-1.69126671902867,52.1935237957862],[-1.69126826669133,52.193299038739],[-1.69163400110999,52.1932999930482],[-1.69163554666331,52.1930752360208],[-1.69200127901775,52.1930761892243],[-1.69236701139466,52.1930771412937],[-1.692368552752,52.1928523843145],[-1.69200282246178,52.1928514322168],[-1.69200436588326,52.192626675201],[-1.6923700940868,52.1926276273268],[-1.69237163539907,52.1924028703309],[-1.69273736153842,52.1924038213511],[-1.69273890074154,52.192179064375],[-1.69274044404179,52.1919543067211],[-1.69237472201975,52.191953355651],[-1.69237627005956,52.1917285975214],[-1.6920105500025,52.1917276453082],[-1.69200900001898,52.1919524034473],[-1.6916432780395,52.1919514501098],[-1.69164482996673,52.1917266919613],[-1.6916463818726,52.1915019338044],[-1.69128066380182,52.1915009793144],[-1.69128221762998,52.1912762211396],[-1.69091650152419,52.1912752655066],[-1.69055078543977,52.1912743087399],[-1.69055234313381,52.1910495505378],[-1.69018662901441,52.1910485926281],[-1.68982091491642,52.1910476335847],[-1.68982247647624,52.1908228753555],[-1.68945676434329,52.1908219151691],[-1.68909105223181,52.1908209538491],[-1.68872534014181,52.1908199913954],[-1.68872690751089,52.1905952331297],[-1.68836119738599,52.190594269533],[-1.68799548728263,52.1905933048027],[-1.68762977720084,52.1905923389387],[-1.68726406714064,52.1905913719411],[-1.68726564226237,52.1903666136298],[-1.68689993416734,52.1903656454892],[-1.68653422609395,52.190364676215],[-1.68616851804223,52.1903637058072],[-1.68580281001221,52.1903627342658],[-1.6854371020039,52.1903617615907],[-1.68507139401734,52.190360787782],[-1.68470568664375,52.1903598127324],[-1.68433998171901,52.1903588361092],[-1.68397427681525,52.1903578583525],[-1.68397268442555,52.1905826166973],[-1.68360697769507,52.1905816377948],[-1.68324127098563,52.1905806577589],[-1.68287556429724,52.1905796765895],[-1.68250985762993,52.1905786942866],[-1.68214415098373,52.1905777108503],[-1.68177844435865,52.1905767262805],[-1.68141273775474,52.1905757405773],[-1.68141113240974,52.190800498827],[-1.68104542397925,52.1907995119779],[-1.68067971556996,52.1907985239954],[-1.68031400718191,52.1907975348794],[-1.6799482988151,52.1907965446299],[-1.67958259046957,52.1907955532469],[-1.67921688214534,52.1907945607305],[-1.67885117384243,52.1907935670807],[-1.67885279212166,52.1905688089179],[-1.67848708568785,52.190567814147],[-1.67848546556088,52.1907925722973],[-1.67811975730069,52.1907915763805],[-1.6777540490619,52.1907905793303],[-1.67775242521797,52.191015337447],[-1.67775080135257,52.1912400955551],[-1.67774917746571,52.1914648536545],[-1.67738346370497,52.1914638554333],[-1.6773818379488,52.1916886135116],[-1.67701612236165,52.1916876141445],[-1.67665040679599,52.1916866136438],[-1.67628469125181,52.1916856120097],[-1.67628305993056,52.1919103700418],[-1.67628142900774,52.1921351280162],[-1.67591570976426,52.1921341252289],[-1.67554999054303,52.1921331213078],[-1.67518427134406,52.1921321162531],[-1.67518263620533,52.192356874059],[-1.67481691510233,52.1923558678788],[-1.67445119402164,52.192354860565],[-1.6740854729633,52.1923538521174],[-1.67371975192733,52.1923528425361],[-1.67335403091375,52.1923518318211],[-1.67298830992258,52.1923508199724],[-1.67298995661922,52.1921260621167],[-1.67262423757681,52.192125049126],[-1.6726258871978,52.1919002912323],[-1.67262753699769,52.1916755333257],[-1.67262918677577,52.1914507754105],[-1.67263083653204,52.1912260174867],[-1.67263248626651,52.1910012595542],[-1.67226677650383,52.1910002454894],[-1.67226842806426,52.1907754875608],[-1.67227007960287,52.1905507296236],[-1.67227173111964,52.1903259716777],[-1.67227338261459,52.1901012137232],[-1.67263908498636,52.1901022277375],[-1.67264073461181,52.1898774697617],[-1.67264238421546,52.1896527117773],[-1.67300808291368,52.189653724633],[-1.67300973064791,52.1894289666273],[-1.67337542752025,52.189429978337],[-1.67374112441429,52.1894309889133],[-1.67410682133003,52.1894319983562],[-1.67410846349969,52.1892072403041],[-1.67447415858949,52.1892082486011],[-1.67447579888988,52.1889834905277],[-1.67447743916859,52.1887587324457],[-1.67484313058491,52.1887597395842],[-1.67484476899441,52.1885349814809],[-1.67521045858482,52.1885359874735],[-1.67557614819681,52.1885369923326],[-1.67594183783036,52.1885379960584],[-1.67594347067572,52.1883132379089],[-1.67557778288966,52.1883122341957],[-1.67521209512517,52.188311229349],[-1.67521373164389,52.188086471216],[-1.67484804574846,52.1880854652485],[-1.67484968409301,52.1878607071193],[-1.67448400006664,52.1878597000311],[-1.67448564023696,52.1876349419058],[-1.6744872803856,52.1874101837718],[-1.67485296071713,52.187411190835],[-1.67521864107028,52.1874121967648],[-1.67558432144501,52.1874132015612],[-1.67558268683858,52.1876379597328],[-1.67594836908228,52.1876389634085],[-1.67631405134752,52.1876399659509],[-1.67631242041434,52.1878647241388],[-1.67667810454851,52.1878657255604],[-1.67704378870418,52.1878667258485],[-1.67740947288131,52.1878677250033],[-1.67777515707989,52.1878687230248],[-1.67814084129987,52.187869719913],[-1.67850652554126,52.1878707156678],[-1.67887220980401,52.1878717102892],[-1.6792378940881,52.1878727037773],[-1.67960357839351,52.1878736961321],[-1.67996926272022,52.1878746873535],[-1.67996765024003,52.1880994456574],[-1.68033333643547,52.1881004357579],[-1.68069902265215,52.188101424725],[-1.68070063143743,52.1878766663962],[-1.68106631582788,52.1878776542176],[-1.68143200023952,52.1878786409056],[-1.68179768467235,52.1878796264603],[-1.68179928789406,52.1876548680857],[-1.68216497050059,52.1876558524946],[-1.6821665718537,52.187431094099],[-1.68216817318564,52.1872063356947],[-1.68253385211851,52.1872073189456],[-1.68253545158192,52.1869825605203],[-1.68290112868852,52.1869835426255],[-1.68290272628345,52.1867587841792],[-1.68326840156379,52.1867597651387],[-1.68326999729029,52.1865350066714],[-1.68363567074437,52.1865359864853],[-1.68363726460248,52.186311227997],[-1.68363885843952,52.1860864695001],[-1.68327318868,52.1860854897108],[-1.68327478434322,52.1858607312175],[-1.68290911645199,52.1858597503073],[-1.68291071394133,52.1856349918177],[-1.68291231140956,52.1854102333194],[-1.68254664723381,52.1854092513007],[-1.68254824652809,52.1851844928061],[-1.68254984580122,52.1849597343029],[-1.68218418534089,52.1849587511756],[-1.68218578644,52.1847339926761],[-1.6818201278479,52.1847330084279],[-1.68182173077295,52.1845082499321],[-1.68182333367681,52.1842834914276],[-1.68145767880002,52.184282506071],[-1.68145928352974,52.1840577475703],[-1.68146088823825,52.1838329890609],[-1.6810952370767,52.1838320025958],[-1.6810968435812,52.1836072441164],[-1.68109845004912,52.1833824856419],[-1.68146409751963,52.1833834720939],[-1.68146570212103,52.1831587136057],[-1.68183134776738,52.1831596989194],[-1.68183295050231,52.1829349404174],[-1.68183455321606,52.1827101819068],[-1.68146891126024,52.1827091966034],[-1.68147051579806,52.1824844380893],[-1.68110487570861,52.1824834516579],[-1.68110648207044,52.1822586931404],[-1.68074084384737,52.1822577055809],[-1.68074245203316,52.18203294706],[-1.68074406019771,52.1818081885305],[-1.68110969473044,52.1818091760796],[-1.68111130102861,52.1815844175364],[-1.68147693373738,52.1815854039472],[-1.68147853816923,52.1813606453902],[-1.68148014257989,52.1811358868246],[-1.68111451356131,52.1811349004241],[-1.68111611979584,52.180910141855],[-1.6807504926435,52.1809091543265],[-1.68075210070185,52.1806843957541],[-1.68111772600915,52.1806853832774],[-1.68111933220125,52.1804606246912],[-1.68148495568471,52.1804616110763],[-1.68148656001061,52.1802368524763],[-1.68185218167023,52.1802378377231],[-1.68185378412997,52.1800130791094],[-1.68221940396575,52.180014063218],[-1.68221780335098,52.1802388218368],[-1.68258342505282,52.1802398048174],[-1.6825818262619,52.1804645634328],[-1.6829474498298,52.1804655452854],[-1.68294585286277,52.1806903038973],[-1.68331147829674,52.180691284622],[-1.68330988315365,52.1809160432304],[-1.68367551045369,52.180917022827],[-1.68367710375174,52.1806922642135],[-1.68404272922774,52.1806932426719],[-1.68404432065973,52.1804684840447],[-1.6844099443117,52.1804694613649],[-1.68441153387768,52.180244702724],[-1.6847771557056,52.1802456789056],[-1.68514277754739,52.1802466533824],[-1.6855083994102,52.1802476267264],[-1.68550998339322,52.1800228679749],[-1.68587560341859,52.180023840139],[-1.68624122346492,52.1800248111704],[-1.6866068435322,52.1800257810691],[-1.68697246362041,52.1800267498351],[-1.68733808372952,52.1800277174684],[-1.6877037038595,52.1800286839689],[-1.68806932401033,52.1800296493367],[-1.68806775303647,52.1802544084179],[-1.68843337506658,52.1802553727001],[-1.68879899711749,52.1802563358494],[-1.68916461918918,52.1802572978661],[-1.68916305376988,52.1804820570796],[-1.6895286777208,52.1804830180105],[-1.68989430169246,52.1804839778087],[-1.68989273996936,52.1807087371073],[-1.69025836582022,52.1807096958198],[-1.69062399169176,52.1807106533995],[-1.69062243366497,52.1809354127832],[-1.6909880614157,52.1809363692771],[-1.69098650522676,52.1811611286989],[-1.69135213485667,52.1811620841071],[-1.69171776450718,52.1811630383825],[-1.69171621201472,52.1813877978893],[-1.69171465950164,52.1816125573872],[-1.69208029288992,52.1816135106237],[-1.69244592629876,52.1816144627275],[-1.69244437748229,52.1818392223103],[-1.6928100127703,52.1818401733282],[-1.6928084657919,52.1820649329491],[-1.69317410295907,52.1820658828812],[-1.69353974014672,52.1820668316804],[-1.69353819686513,52.1822915913863],[-1.69390383593192,52.1822925390996],[-1.69390229448851,52.1825172988434],[-1.69426793543445,52.1825182454709],[-1.6946335764008,52.1825191909655],[-1.69463203865436,52.1827439507942],[-1.69499768149983,52.1827448952028],[-1.69536332436566,52.1827458384786],[-1.69536485839465,52.1825210785561],[-1.6957304994221,52.1825220206521],[-1.69573203157199,52.1822972606738],[-1.69609767076105,52.1822982015901],[-1.69609614046986,52.1825229616153],[-1.69646178153792,52.1825239014457],[-1.6964633099704,52.1822991413735],[-1.69682894920003,52.1823000800242],[-1.69682742262625,52.1825248401432],[-1.69719306373482,52.1825257777079],[-1.6975587048636,52.1825267141397],[-1.69792434601259,52.1825276494386],[-1.69792282499471,52.1827524096892],[-1.69828846802259,52.1827533439021],[-1.69865411107062,52.1827542769822],[-1.69901975413878,52.1827552089294],[-1.69901823867694,52.1829799693116],[-1.69938388362395,52.1829809001727],[-1.69974952859103,52.182981829901],[-1.69974801682661,52.1832065903677],[-1.70011366367252,52.1832075190099],[-1.70047931053845,52.1832084465192],[-1.70047780247154,52.1834332070706],[-1.70047629438459,52.1836579676131],[-1.7004747883057,52.1838827268375],[-1.70047328375394,52.1841074850544],[-1.70047177918143,52.1843322432628],[-1.70047027458817,52.1845570014628],[-1.70046876997417,52.1847817596542],[-1.70083443027089,52.1847826860907],[-1.70083292757908,52.1850074442641],[-1.70083142486655,52.185232202429],[-1.7008299221333,52.1854569605854],[-1.70082841937932,52.1856817187334],[-1.70082691660462,52.1859064768729],[-1.70119258663694,52.1859074021278],[-1.70119108578458,52.1861321602492],[-1.70118958491152,52.1863569183621],[-1.70118808401776,52.1865816764666],[-1.7011865831033,52.1868064345626],[-1.70155226231667,52.1868073578636],[-1.70155076337566,52.1870321159651],[-1.70154926441203,52.1872568740578],[-1.70191495122883,52.1872577944773],[-1.70228063806816,52.1872587137637],[-1.70264632493,52.1872596319169],[-1.7030120118143,52.187260548937],[-1.70337769872105,52.1872614648239],[-1.70337621063089,52.1874862230764],[-1.70374189973928,52.1874871378638],[-1.70374041380588,52.1877118961411],[-1.70337472251825,52.18771098132],[-1.70337323438311,52.1879357395547],[-1.70373892785002,52.1879366544096],[-1.70410462133932,52.1879375681313],[-1.7041031375403,52.1881623264246],[-1.70410165371885,52.1883870847091],[-1.70410016987496,52.1886118429847]]],[[[-1.70410016987496,52.1886118429847],[-1.70446586992461,52.1886127556743],[-1.70483156999659,52.1886136672306],[-1.70483009048904,52.1888384255648],[-1.70482861095911,52.1890631838901],[-1.7048271314068,52.1892879422066],[-1.70446142479657,52.1892870305493],[-1.70409571820868,52.1892861177587],[-1.70409720211988,52.1890613595096],[-1.70373149773378,52.1890604456194],[-1.70373298380196,52.1888356873951],[-1.70409868600864,52.1888366012515],[-1.70410016987496,52.1886118429847]]],[[[-1.68907386065343,52.193293289072],[-1.68907542081381,52.1930685318479],[-1.68907698095142,52.1928437746154],[-1.68944271106107,52.1928447357842],[-1.68980844119339,52.1928456958191],[-1.68980688522918,52.1930704529954],[-1.68980532924224,52.1932952101633],[-1.68943959493651,52.1932942501846],[-1.68907386065343,52.193293289072]]],[[[-1.6970927597366,52.1973597890663],[-1.69745853207764,52.1973607247235],[-1.69746004464227,52.1971359682975],[-1.69782581491816,52.197136902849],[-1.69782430444073,52.1973616592467],[-1.69819007682586,52.1973625926358],[-1.69818856841354,52.1975873489969],[-1.69782279394117,52.1975864156361],[-1.69782128341947,52.1978111720172],[-1.69781977287562,52.19803592839],[-1.69781826230964,52.1982606847545],[-1.69781675172151,52.1984854411106],[-1.69745096892196,52.198484506729],[-1.69708518614447,52.1984835712133],[-1.69708670090729,52.1982588148005],[-1.69708821564791,52.1980340583794],[-1.69708973036634,52.19780930195],[-1.69672395387289,52.1978083652153],[-1.69672547065639,52.1975836087493],[-1.69672698741766,52.197358852275],[-1.6970927597366,52.1973597890663]]],[[[-1.739632544702,52.1783559006268],[-1.73926693644777,52.178355096678],[-1.73926824689241,52.1781303353766],[-1.73926955731966,52.1779055740666],[-1.73890395278081,52.177904768988],[-1.73890526503965,52.177680007671],[-1.73853966236714,52.1776792014609],[-1.73853834825931,52.1779039627763],[-1.7381727437552,52.1779031554316],[-1.73817142778092,52.1781279167368],[-1.73780582144521,52.1781271082574],[-1.73780450360444,52.1783518695525],[-1.73743889543713,52.1783510599384],[-1.73707328728728,52.1783502491914],[-1.73707196573091,52.1785750104746],[-1.73670635574949,52.1785741985928],[-1.7367050323265,52.1787989598658],[-1.7363394205135,52.1787981468493],[-1.73633809522385,52.1790229081121],[-1.73597248157928,52.1790220939609],[-1.73560686795227,52.1790212786765],[-1.73560553894678,52.1792460399274],[-1.73523992348822,52.1792452235083],[-1.73523859261594,52.179469984749],[-1.73487297532584,52.1794691671951],[-1.73487164258673,52.1796939284255],[-1.73450602256717,52.1796931127692],[-1.73450468796344,52.179917874032],[-1.73413906578447,52.1799170584164],[-1.7341377293232,52.1801418197066],[-1.73377210532194,52.1801410029933],[-1.73377076700309,52.1803657643108],[-1.73413639284427,52.1803665809884],[-1.73413505634767,52.180591342262],[-1.73413371983341,52.1808161035272],[-1.73449934937212,52.1808169190001],[-1.73449801468019,52.1810416802214],[-1.73486364578065,52.1810424956279],[-1.73486231291774,52.1812672567983],[-1.73486098003713,52.1814920179601],[-1.73485964713884,52.1817167791134],[-1.73449401049853,52.1817159638355],[-1.73449267573603,52.1819407250236],[-1.73449134095588,52.1821654862034],[-1.73412570037682,52.1821646709446],[-1.73412436373888,52.1823894321518],[-1.73375872133729,52.1823886157952],[-1.73375738284152,52.1826133770297],[-1.73375604432806,52.182838138256],[-1.7337547057969,52.183062899474],[-1.73412035371906,52.1830637157236],[-1.73411901701045,52.1832884768976],[-1.73411768028417,52.1835132380633],[-1.73411634354022,52.1837379992208],[-1.73411500961179,52.1839627615985],[-1.73411367588912,52.1841875240631],[-1.73411234215116,52.1844122865187],[-1.73374668412284,52.184411470193],[-1.73374534885306,52.1846362325777],[-1.73374401356798,52.1848609949534],[-1.7341096746294,52.1848618114028],[-1.73447533570603,52.1848626267193],[-1.73484099684932,52.184863441725],[-1.73520665823064,52.1848642591388],[-1.73557231962911,52.184865075419],[-1.7359379810447,52.1848658905655],[-1.7363036424774,52.1848667045785],[-1.73666930392717,52.1848675174578],[-1.73703496539399,52.1848683292036],[-1.73703628535005,52.1846435668932],[-1.73740194504587,52.1846443775414],[-1.73776760475869,52.184645187056],[-1.7381332644885,52.184645995437],[-1.73849892423527,52.1846468026843],[-1.73850023702217,52.1844220405099],[-1.73886589499786,52.1844228466597],[-1.73923155299047,52.184423651676],[-1.73959721099996,52.1844244555588],[-1.73996286902632,52.1844252583079],[-1.74032852706952,52.1844260599235],[-1.74069418512954,52.1844268604054],[-1.74069288307073,52.1846516223633],[-1.74032722322269,52.1846508219174],[-1.74032591935898,52.1848755839032],[-1.74032461547838,52.1851003458806],[-1.73995895207106,52.1850995443734],[-1.73995764638549,52.1853243063786],[-1.73959198120693,52.1853235037739],[-1.73922631604524,52.1853227000355],[-1.73922500676654,52.1855474621046],[-1.73922369747089,52.1857722241655],[-1.73958936620883,52.1857730278316],[-1.73958805868438,52.185997789848],[-1.73995372922734,52.1859985923444],[-1.73995242347413,52.1862233543165],[-1.73995111770402,52.1864481162802],[-1.739949811917,52.1866728782356],[-1.73958413600943,52.1866720758475],[-1.73921846011872,52.1866712723258],[-1.7392197694822,52.1864465102981],[-1.73922107882872,52.1862217482622],[-1.73885540653134,52.1862209435346],[-1.73885671764908,52.1859961814543],[-1.73849104715679,52.1859953755569],[-1.73849236004571,52.1857706134322],[-1.73849367291763,52.1855458512992],[-1.73812800601857,52.1855450441961],[-1.73812669135852,52.1857698063652],[-1.73812537668144,52.1859945685259],[-1.73775970622306,52.1859937603613],[-1.73739403578166,52.185992951063],[-1.73702836535726,52.185992140631],[-1.7370296853988,52.1857673783621],[-1.7366640167796,52.1857665667605],[-1.73629834817744,52.1857657540253],[-1.73629702455959,52.1859905163662],[-1.7362957009246,52.1862152786989],[-1.73666137310308,52.1862160913621],[-1.73666005123914,52.1864408536504],[-1.73665872935808,52.1866656159305],[-1.73665740745989,52.1868903782022],[-1.73665608554458,52.1871151404657],[-1.73702176489307,52.1871159518511],[-1.73702044474894,52.1873407140702],[-1.7370191245877,52.1875654762811],[-1.73701780440937,52.1877902384836],[-1.73701648421393,52.1880150006778],[-1.73701516400139,52.1882397628638],[-1.73701384377175,52.1884645250414],[-1.73701252352501,52.1886892872108],[-1.73664683165795,52.1886884760776],[-1.73628113980794,52.1886876638106],[-1.73627981596718,52.1889124260437],[-1.73591412234579,52.188911612679],[-1.73554842874152,52.1889107981806],[-1.73554710130663,52.1891355604774],[-1.735181405931,52.1891347448812],[-1.73481571057252,52.1891339281512],[-1.73445002001825,52.1891331124956],[-1.73444868746095,52.1893578748147],[-1.73408299604882,52.1893570582611],[-1.7337173046519,52.1893562405744],[-1.73335161327022,52.1893554217547],[-1.73335295037844,52.1891306596211],[-1.73335428747132,52.1889058974786],[-1.73335562454887,52.188681135327],[-1.73335696161109,52.1884563731665],[-1.73299127631243,52.1884555534612],[-1.73299261487621,52.1882307913535],[-1.73262693110972,52.1882299705771],[-1.73262559102905,52.1884547326229],[-1.73225990576097,52.1884539106516],[-1.7318942205082,52.1884530875472],[-1.73189287737834,52.1886778494602],[-1.73152719062399,52.1886770251609],[-1.731161503885,52.1886761997286],[-1.73079581716137,52.1886753731632],[-1.73079446946531,52.1889001348814],[-1.73042878124015,52.188899307121],[-1.7300630930304,52.1888984782276],[-1.73006174228495,52.1891232398129],[-1.73006039152399,52.1893480013891],[-1.73042608276766,52.1893488304064],[-1.73042473350817,52.1895735920356],[-1.73079042628425,52.1895744199818],[-1.73115611907572,52.1895752467949],[-1.73152181188256,52.189576072475],[-1.73152315659107,52.18935131066],[-1.73188884789627,52.189352135145],[-1.73225453921681,52.189352958497],[-1.73225319754228,52.1895777204359],[-1.73261889039512,52.1895785427167],[-1.73261755022222,52.1898033047084],[-1.73225185585236,52.1898024823657],[-1.73225051414705,52.1900272442865],[-1.73188481827547,52.1900264207487],[-1.7318834750377,52.1902511825986],[-1.73188213178452,52.1904759444394],[-1.73224783069023,52.190476768101],[-1.73224917242633,52.1902520061982],[-1.73261486983028,52.1902528286648],[-1.73298056724953,52.1902536499983],[-1.73334626468406,52.1902544701987],[-1.73334492749918,52.1904792322871],[-1.73334359029898,52.1907039943666],[-1.73334225308344,52.190928756437],[-1.73334091585256,52.1911535184984],[-1.73333957860636,52.1913782805508],[-1.73333824134481,52.1916030425942],[-1.73333690406794,52.1918278046285],[-1.73370261213771,52.191828624129],[-1.73370127636272,52.1920533862162],[-1.73406698596496,52.1920542046454],[-1.73443269558241,52.1920550219414],[-1.73443402832295,52.1918302597304],[-1.73443536104821,52.1916054975104],[-1.73406965446518,52.1916046803382],[-1.73407098869236,52.191379918171],[-1.73370528364174,52.1913790999275],[-1.73370661937078,52.1911543378132],[-1.73407232290424,52.1911551559948],[-1.73407365710083,52.1909303938097],[-1.73443935913237,52.1909312107963],[-1.73444069179655,52.1907064485403],[-1.73480639300667,52.1907072645008],[-1.73517210088521,52.1907080809789],[-1.73517077152406,52.1909328432454],[-1.73553648120843,52.1909336585536],[-1.73553515361876,52.1911584207758],[-1.73590086510895,52.1911592349142],[-1.7358995392908,52.1913839970921],[-1.73589821345547,52.1916087592617],[-1.73589688760297,52.191833521423],[-1.7358955617333,52.192058283576],[-1.7358942617304,52.192283042883],[-1.73552854179417,52.1922822288699],[-1.7351628218698,52.1922814137236],[-1.73516152342567,52.1925061725288],[-1.7355272444416,52.1925069877158],[-1.73589296546939,52.1925078017695],[-1.73589166919631,52.1927325606471],[-1.73625739132754,52.192733373608],[-1.7366231134706,52.1927341854356],[-1.73662440756053,52.1925094264767],[-1.73699012862385,52.1925102371303],[-1.73699142161018,52.1922854781221],[-1.73735714159375,52.1922862876018],[-1.73772286158913,52.1922870959482],[-1.73772415521558,52.1920623365391],[-1.7380898739631,52.1920631437301],[-1.73808858159629,52.1922879031612],[-1.73845430161524,52.1922887092409],[-1.73845301299515,52.1925134684114],[-1.73845172436311,52.1927382275731],[-1.73881744657695,52.1927390326005],[-1.73881615902455,52.1929637917939],[-1.7388148714602,52.1931885509784],[-1.73918059586901,52.1931893549535],[-1.73917930938435,52.1934141141697],[-1.73954503489653,52.193414917052],[-1.73991076042043,52.1934157188009],[-1.74027648595604,52.1934165194165],[-1.74027776916581,52.1931917600788],[-1.74064349362149,52.1931925595204],[-1.74100921808887,52.1931933578287],[-1.74137494256792,52.1931941550037],[-1.74174066705863,52.1931949510452],[-1.74174194589008,52.1929701915367],[-1.74210766930082,52.1929709864044],[-1.74247339272321,52.1929717801388],[-1.74247466935966,52.1927470205406],[-1.74284039170207,52.1927478131011],[-1.74320611405609,52.1927486045283],[-1.74320483960284,52.1929733642074],[-1.74357056306005,52.1929741545416],[-1.74356928968667,52.1931989142523],[-1.74356801630157,52.1934236739541],[-1.74393374195361,52.1934244632358],[-1.74393246964843,52.1936492229692],[-1.7442981964037,52.1936500111579],[-1.74466392317053,52.1936507982132],[-1.74466519329241,52.193426038399],[-1.74503091897914,52.1934268242805],[-1.7453966446774,52.1934276090286],[-1.74539791260435,52.1932028491249],[-1.74576363722251,52.1932036326992],[-1.74612936185217,52.1932044151402],[-1.74613062758425,52.1929796551469],[-1.74649635113379,52.1929804364141],[-1.74686207469481,52.192981216548],[-1.74686333823209,52.1927564564652],[-1.74722906071299,52.1927572354253],[-1.74759478320534,52.1927580132522],[-1.74759352185126,52.1929827734157],[-1.74759226048564,52.1932075335704],[-1.74795798517265,52.1932083103444],[-1.74795672488712,52.1934330705306],[-1.74832245067719,52.1934338462115],[-1.74832119147179,52.1936586064291],[-1.74831993225488,52.1938833666379],[-1.74868566023969,52.1938841412661],[-1.74868440210295,52.1941089015063],[-1.74905013119085,52.1941096750413],[-1.74904887413432,52.194334435313],[-1.74941460432531,52.1943352077549],[-1.74941334834903,52.194559968058],[-1.74941209236128,52.1947847283523],[-1.74977782474711,52.1947854997412],[-1.74977656983965,52.1950102600669],[-1.7501423033286,52.1950110303627],[-1.75014104950147,52.1952357907198],[-1.75013979566292,52.1954605510681],[-1.75050553134676,52.1954613203109],[-1.75050427858859,52.1956860806906],[-1.750503025819,52.1959108410614],[-1.75086876369781,52.1959116092513],[-1.75086751200865,52.1961363696535],[-1.7508662603081,52.1963611300469],[-1.75123200038192,52.1963618971837],[-1.75123074976184,52.1965866576085],[-1.75122949913038,52.1968114180245],[-1.75122824848755,52.1970361784316],[-1.7515939996192,52.1970369451744],[-1.75159275031356,52.1972617055938],[-1.75159150099138,52.1974864660045],[-1.75159025165265,52.1977112264067],[-1.75158900229736,52.1979359868002],[-1.75158775292553,52.1981607471852],[-1.75122199510274,52.1981599803346],[-1.75085624629351,52.198159212876],[-1.75085749808521,52.1979344525533],[-1.7504917503793,52.1979336840012],[-1.75012600268474,52.1979329143156],[-1.74976025500153,52.1979321434964],[-1.7493945073297,52.1979313715436],[-1.74902875966925,52.1979305984573],[-1.74903001690939,52.1977058383271],[-1.7486642703523,52.1977050641474],[-1.74866301202019,52.1979298242373],[-1.74829726438255,52.1979290488838],[-1.74793151675633,52.1979282723967],[-1.74793277727236,52.1977035123874],[-1.74756703074954,52.1977027348071],[-1.74756576914154,52.1979274947761],[-1.7472000215382,52.1979267160218],[-1.74719875882667,52.1981514759416],[-1.74683301014281,52.1981506960134],[-1.74683174632773,52.1983754558841],[-1.74683048250106,52.1986002157459],[-1.74646473164466,52.1985994346035],[-1.74646346671439,52.1988241944161],[-1.74609771477745,52.1988234120997],[-1.74609644874353,52.1990481718631],[-1.74573069572604,52.1990473883727],[-1.74572942858844,52.1992721480869],[-1.7453636744904,52.1992713634225],[-1.7453624062491,52.1994961230875],[-1.7449966510705,52.1994953372491],[-1.74499538172546,52.1997200968648],[-1.74499411236875,52.1999448564718],[-1.74499284300038,52.2001696160698],[-1.74462708455698,52.2001688289766],[-1.7446258140848,52.2003935885254],[-1.7442600545608,52.2003928002581],[-1.74425877513912,52.200617560302],[-1.74389301408255,52.2006167708591],[-1.7435272530415,52.2006159802826],[-1.74352596928718,52.2008407403101],[-1.74316020662007,52.2008399485602],[-1.74279444396854,52.2008391556767],[-1.74279315691532,52.2010639156161],[-1.74279186984641,52.2012886755466],[-1.74242610392719,52.2012878814501],[-1.74242481520093,52.2015126413322],[-1.74205904765565,52.2015118460622],[-1.74205775727199,52.2017366058958],[-1.74169198810065,52.2017358094525],[-1.74132621894497,52.2017350118754],[-1.74132492526214,52.2019597716208],[-1.74095915448042,52.2019589728704],[-1.7405933837144,52.2019581729862],[-1.74059208673232,52.2021829326433],[-1.74022631434028,52.2021821315857],[-1.74022501570062,52.2024068911943],[-1.74022371704513,52.2026316507941],[-1.73985794138529,52.2026308485232],[-1.73985664107214,52.2028556080744],[-1.73949086378626,52.2028548046301],[-1.73948956181543,52.2030795641328],[-1.73912378290351,52.2030787595149],[-1.73875800400739,52.2030779537633],[-1.73875669873698,52.2033027131776],[-1.73839091821484,52.2033019062525],[-1.73802513770856,52.2033010981936],[-1.73802382913847,52.2035258575195],[-1.73765804700619,52.2035250482871],[-1.73765673677823,52.2037498075644],[-1.73729095301995,52.2037489971583],[-1.73728964113409,52.203973756387],[-1.7372883292322,52.2041985156069],[-1.73692254220598,52.2041977039874],[-1.73692122864612,52.2044224631587],[-1.73655543999388,52.2044216503656],[-1.73655412477599,52.2046464094882],[-1.73618833449773,52.2046455955215],[-1.73618701762178,52.2048703545954],[-1.73582122571748,52.204869539455],[-1.73581990718342,52.2050942984802],[-1.73545411365311,52.2050934821662],[-1.73545279346089,52.2053182411428],[-1.73508699830455,52.205317423655],[-1.73508567645414,52.2055421825829],[-1.73471987406991,52.2055413638983],[-1.73471855039467,52.2057661227724],[-1.73435271442861,52.2057653027533],[-1.73435138890393,52.2059900615487],[-1.7339855511235,52.2059892403263],[-1.73398687848005,52.2057644816006],[-1.73398820581897,52.2055397228658],[-1.73362237171976,52.205538900649],[-1.73362370087289,52.2053141419748],[-1.73325786862302,52.2053133186941],[-1.7332591995903,52.2050885600804],[-1.73289336918979,52.2050877357357],[-1.73252753880686,52.2050869102573],[-1.73252887342002,52.2048621517739],[-1.73216304488646,52.2048613252316],[-1.73216438131364,52.2046365668088],[-1.73179855462946,52.2046357392026],[-1.73179989287063,52.2044109808404],[-1.73143406803582,52.2044101521702],[-1.73143272796293,52.2046349104627],[-1.73143138787226,52.2048596687461],[-1.73179721637053,52.2048604975557],[-1.73179587809384,52.2050852558997],[-1.73216170844154,52.2050860836453],[-1.73216037197887,52.20531084205],[-1.73215903549846,52.2055356004456],[-1.73179320148715,52.2055347725606],[-1.73179186315716,52.2057595308774],[-1.73142602733166,52.2057587017891],[-1.73106019152383,52.2057578715671],[-1.73105884951234,52.2059826297354],[-1.73069301189035,52.20598179831],[-1.73069435573371,52.2057570402114],[-1.73069569955923,52.2055322821037],[-1.73069704336691,52.2053075239869],[-1.73033121125817,52.2053066916371],[-1.7303325568798,52.205081933581],[-1.72996672662061,52.2050811001672],[-1.72996537916718,52.2053058581536],[-1.72959954709396,52.2053050235365],[-1.72960089637918,52.2050802656198],[-1.7296022456465,52.2048555076941],[-1.72923641725464,52.2048546720828],[-1.72923776833578,52.2046299142178],[-1.72887194179349,52.2046290775427],[-1.72887058888059,52.204853835338],[-1.72886923594975,52.2050785931242],[-1.72923506615555,52.2050794299388],[-1.72923371503854,52.2053041877857],[-1.72886788300094,52.2053033509014],[-1.72850205098118,52.2053025128833],[-1.7285006961826,52.2055272705817],[-1.7281348623489,52.2055264313602],[-1.72813350570049,52.2057511889797],[-1.72813214903408,52.2059759465901],[-1.72849798653149,52.205976785951],[-1.72886382404677,52.2059776241783],[-1.72886247102612,52.2062023819192],[-1.72886111798752,52.2064271396509],[-1.72849527680845,52.2064263012841],[-1.72812943564724,52.2064254617835],[-1.7281280789268,52.2066502193667],[-1.72849392191995,52.206651058937],[-1.72885976493096,52.2066518973736],[-1.72885841185644,52.2068766550872],[-1.72922425671726,52.2068774924599],[-1.72959010159591,52.2068783286989],[-1.72995594649235,52.2068791638042],[-1.73032179140657,52.2068799977758],[-1.73032313715324,52.2066552397832],[-1.72995729407099,52.2066544058814],[-1.72995864163174,52.2064296479494],[-1.72959280039919,52.2064288129836],[-1.72959414977397,52.2062040551123],[-1.72959549913083,52.205979297232],[-1.72996133669957,52.2059801320583],[-1.7299599891746,52.2062048900084],[-1.730325828593,52.2062057237708],[-1.73069166802916,52.2062065563996],[-1.73069032415012,52.20643131448],[-1.73105616543592,52.2064321460448],[-1.73105482337098,52.2066569041859],[-1.73142066650642,52.2066577346868],[-1.73141932625563,52.2068824928885],[-1.73141798598705,52.2071072510812],[-1.73141664570068,52.2073320092648],[-1.73141530539652,52.2075567674393],[-1.73104945493309,52.2075559366596],[-1.73104811277907,52.2077806947553],[-1.73104677060724,52.208005452842],[-1.73068091649737,52.2080046207892],[-1.73067957247561,52.208229378797],[-1.73031371655136,52.2082285455407],[-1.73031237067964,52.2084533034698],[-1.73031102479004,52.2086780613898],[-1.72994516521926,52.2086772268602],[-1.72994380591806,52.2089019852097],[-1.72957794462254,52.2089011495019],[-1.72957657777897,52.2091259080669],[-1.72921071470628,52.2091250711975],[-1.72920934605027,52.2093498297263],[-1.72920797737659,52.2095745882463],[-1.72884211073189,52.2095737501878],[-1.72847624410484,52.2095729109952],[-1.72811037749546,52.2095720706685],[-1.7277445109038,52.2095712292076],[-1.72737864432986,52.2095703866127],[-1.7273800219777,52.2093456282303],[-1.72701415721634,52.2093447845287],[-1.72701277777366,52.2095695428836],[-1.72664691123525,52.2095686980204],[-1.72664552997991,52.209793456339],[-1.72627966166443,52.2097926103141],[-1.72591379336678,52.2097917631551],[-1.72591517821182,52.2095670048916],[-1.72554931172687,52.2095661566261],[-1.72555069834887,52.2093413983814],[-1.72518483367662,52.2093405490093],[-1.72518622207554,52.2091157907835],[-1.72518761045654,52.2088910325489],[-1.72482174939176,52.2088901820978],[-1.72482035921598,52.2091149403048],[-1.72481896902225,52.2093396985031],[-1.72481757881058,52.2095644566926],[-1.72445171237929,52.2095636050246],[-1.72408584596595,52.2095627522226],[-1.72371997957056,52.2095618982864],[-1.72371858395638,52.2097866563843],[-1.72335271578413,52.2097858012864],[-1.72298684762988,52.2097849450543],[-1.72298824683376,52.2095601870117],[-1.7226223804924,52.2095593296732],[-1.72262097949366,52.2097840876881],[-1.7222551113755,52.2097832291878],[-1.7222537085638,52.2100079871664],[-1.72188783866885,52.2100071275043],[-1.72152196879199,52.2100062667081],[-1.72152337519344,52.2097815087849],[-1.72115750712959,52.2097806468822],[-1.72115891530774,52.2095558889779],[-1.72116032346771,52.2093311310649],[-1.72116173160949,52.2091063731431],[-1.72152759428886,52.2091072349627],[-1.72152900061769,52.2088824770044],[-1.7211631397331,52.2088816152125],[-1.72116454090897,52.2086568580233],[-1.72116593260234,52.2084321018495],[-1.72080007531535,52.2084312390461],[-1.72080146882238,52.2082064829333],[-1.72043561338589,52.208205619066],[-1.72043421804674,52.2084303751089],[-1.72006836079653,52.208429510038],[-1.72006696360672,52.2086542660017],[-1.71970110454279,52.2086533997271],[-1.7193352454973,52.2086525323187],[-1.71933664635141,52.2084277764949],[-1.71933804718692,52.208203020662],[-1.71933944800384,52.2079782648201],[-1.7189735944732,52.207977396488],[-1.71897499710361,52.2077526407069],[-1.71897639971541,52.2075278849168],[-1.71897780230859,52.2073031291175],[-1.71897920488316,52.2070783733092],[-1.71898060743912,52.2068536174917],[-1.71934645180964,52.2068544854738],[-1.71934785251504,52.2066297295772],[-1.71898200997647,52.2066288616652],[-1.71898341249521,52.2064041058295],[-1.71898481499534,52.2061793499848],[-1.71898621747685,52.205954594131],[-1.71862038045249,52.2059537252953],[-1.71862178474726,52.2057289695024],[-1.71898761993976,52.205729838268],[-1.71898902238406,52.205505082396],[-1.71899042480975,52.2052803265148],[-1.71862459328088,52.2052794578892],[-1.71862318902339,52.2055042137004],[-1.71825735568123,52.2055033438712],[-1.71825594957327,52.2057280996031],[-1.71789010708785,52.2057272290586],[-1.71788869913614,52.2059519847487],[-1.71752285004244,52.2059511133819],[-1.71752144033108,52.2061758690498],[-1.7171555895136,52.2061749965353],[-1.71678973871403,52.2061741228867],[-1.71642388793239,52.2061732481041],[-1.71642247297797,52.2063980037224],[-1.71605662047259,52.206397127792],[-1.71569076798518,52.2063962507276],[-1.71532491551578,52.2063953725291],[-1.71495906306439,52.2063944931964],[-1.71459321063105,52.2063936127298],[-1.71459178695,52.2066183682711],[-1.71422593279301,52.2066174866566],[-1.71386007865412,52.2066166039081],[-1.71349422453333,52.2066157200255],[-1.7134927956089,52.2068404755171],[-1.71349136666621,52.207065231],[-1.71312550908007,52.2070643459558],[-1.71312407837735,52.2072891014164],[-1.71275821906759,52.2072882152244],[-1.71239235977601,52.2072873278982],[-1.71202650050263,52.207286439438],[-1.71166064124747,52.2072855498436],[-1.71129478201057,52.2072846591152],[-1.71129622142218,52.2070599037233],[-1.71093036394532,52.2070590118745],[-1.71056450648675,52.2070581188916],[-1.7101986490465,52.2070572247746],[-1.70983279162459,52.2070563295234],[-1.70946693422104,52.2070554331382],[-1.70910107683588,52.2070545356189],[-1.7091025266796,52.2068297803011],[-1.70873667105459,52.2068288816615],[-1.70837081544801,52.2068279818878],[-1.70800495985989,52.20682708098],[-1.70800641491026,52.2066023256951],[-1.70764056108233,52.2066014236671],[-1.7072747072729,52.2066005205049],[-1.70727616578808,52.2063757652391],[-1.70691031373887,52.2063748609568],[-1.70690885348199,52.2065996162087],[-1.70654299970962,52.2065987107784],[-1.70654446170821,52.2063739555403],[-1.7061786096961,52.2063730489898],[-1.70618007341767,52.206148293757],[-1.70581422316583,52.2061473860863],[-1.70544837293261,52.2061464772815],[-1.70544984011876,52.2059217220679],[-1.70508399164582,52.205920812143],[-1.70471814319154,52.205919901084],[-1.70471961384219,52.2056951458895],[-1.70435376714822,52.2056942337104],[-1.70398792047294,52.2056933203973],[-1.703989394588,52.205468565222],[-1.70362354967305,52.2054676507888],[-1.70362502551084,52.2052428956188],[-1.70325918235622,52.2052419800655],[-1.70289333922036,52.2052410633782],[-1.70289481852239,52.2050163082275],[-1.70252897714688,52.2050153904201],[-1.70253045817152,52.2047906352747],[-1.70216461855637,52.2047897163473],[-1.70216610130357,52.2045649612072],[-1.70180026344876,52.2045640411598],[-1.70180174791848,52.2043392860251],[-1.70143591184328,52.2043383648518],[-1.70143739803573,52.2041136097231],[-1.70143888420731,52.2038888545858],[-1.70180471680094,52.2038897757296],[-1.70180620121368,52.2036650205688],[-1.70180768560742,52.2034402653994],[-1.70180916998217,52.2032155102213],[-1.70217499738839,52.2032164301848],[-1.70217648000279,52.202991674984],[-1.70217796259823,52.2027669197746],[-1.70217944517469,52.2025421645565],[-1.70254526737576,52.202543083344],[-1.70254674819197,52.2023183281033],[-1.70218092773219,52.2023174093298],[-1.70181510729123,52.2023164894224],[-1.70181659157102,52.202091734201],[-1.70145077289017,52.2020908131737],[-1.7010849572996,52.2020898904851],[-1.70108346932939,52.2023146457027],[-1.70071765185564,52.2023137218822],[-1.70035183440268,52.2023127969276],[-1.69998601697053,52.2023118708389],[-1.69962019955921,52.202310943616],[-1.69962169539186,52.2020861883474],[-1.69962319120351,52.2018614330704],[-1.69962468699417,52.201636677785],[-1.69962618276382,52.201411922491],[-1.69999199231285,52.2014128497649],[-1.70035780188271,52.2014137759046],[-1.70035929370035,52.2011890206278],[-1.70036078549705,52.2009642653425],[-1.70072659115672,52.2009651903737],[-1.70072808096701,52.2007404350927],[-1.70036227727279,52.2007395100487],[-1.7003637690276,52.2005147547466],[-1.69999796731962,52.2005138285558],[-1.69963216563248,52.200512901231],[-1.69963066994681,52.2007376565587],[-1.69926486631509,52.2007367281125],[-1.69889906270426,52.2007357985323],[-1.69890056232079,52.2005110431792],[-1.69853476069631,52.2005101124522],[-1.6985362652839,52.2002853565683],[-1.69853777187407,52.2000606003353],[-1.69817197441832,52.2000596684202],[-1.69817348307393,52.1998349121506],[-1.69780768772772,52.199833979073],[-1.69780919844871,52.1996092227667],[-1.69781070914756,52.1993844664521],[-1.69817650031878,52.1993853995864],[-1.69854229151202,52.1993863315864],[-1.69890808272724,52.1993872624524],[-1.69890657829083,52.199612018682],[-1.69927237161548,52.1996129483854],[-1.69963816496205,52.1996138769547],[-1.69963666467859,52.1998386331192],[-1.70000246013457,52.199839560526],[-1.70000096191662,52.2000643166539],[-1.70036675948201,52.2000652428981],[-1.70036825561242,52.1998404867986],[-1.70036975172088,52.1996157306908],[-1.70037124780737,52.1993909745746],[-1.70037274387191,52.1991662184502],[-1.7000069546565,52.1991652920924],[-1.70000845278651,52.1989405359313],[-1.69964266568039,52.1989396084111],[-1.69964416587581,52.1987148522133],[-1.70000995089453,52.1987157797618],[-1.70001144898057,52.1984910235841],[-1.70001294704463,52.198266267398],[-1.70001444508671,52.1980415112036],[-1.69964866633003,52.1980405835699],[-1.69928288759524,52.1980396548021],[-1.69928438978992,52.1978148985426],[-1.69891861316436,52.1978139686124],[-1.69855283656074,52.1978130375481],[-1.69855434290791,52.1975882812236],[-1.698555849233,52.1973635248909],[-1.69892162166211,52.1973644560119],[-1.6989231258779,52.1971396996992],[-1.69928889624175,52.1971406297144],[-1.6992903983483,52.1969158734217],[-1.69965616664689,52.1969168023313],[-1.70002193496737,52.1969177301068],[-1.70002343287756,52.1966929738625],[-1.70002493076577,52.1964682176099],[-1.69965916661958,52.1964672897777],[-1.69966066657292,52.1962425334884],[-1.69929490453572,52.1962416044937],[-1.69892914252045,52.1962406743651],[-1.69856338052713,52.1962397431024],[-1.69819761855578,52.1962388107057],[-1.69783185660644,52.196237877175],[-1.69783336697316,52.1960131207357],[-1.69746760713293,52.1960121860426],[-1.69746911956457,52.1957874295667],[-1.69783487731775,52.1957883642881],[-1.6978363876402,52.1955636078322],[-1.6978378979405,52.195338851368],[-1.6982036515417,52.195339785012],[-1.6982051597329,52.1951150285677],[-1.69820666790199,52.1948902721152],[-1.69857241735127,52.1948912046819],[-1.69857392341133,52.1946664482494],[-1.69857542944931,52.1944416918085],[-1.69820968417384,52.1944407591852],[-1.6982111922766,52.1942160027077],[-1.69821270035725,52.1939912462219],[-1.69857844145902,52.1939921789019],[-1.69857994743076,52.1937674224361],[-1.69858145338041,52.1935426659621],[-1.69858295930798,52.1933179094797],[-1.69858446521347,52.1930931529889],[-1.69895019799012,52.1930940846483],[-1.69895170178683,52.1928693281776],[-1.69931743249872,52.1928702587314],[-1.69968316323252,52.1928711881514],[-1.69968466283382,52.1926464317291],[-1.70005039150283,52.1926473600435],[-1.7004161201937,52.192648287224],[-1.70041761559969,52.1924235308501],[-1.70005188899547,52.1924226036412],[-1.69968616241311,52.1924216752984],[-1.69968766197041,52.1921969188595],[-1.69932193749656,52.1921959893545],[-1.69895621304463,52.1921950587157],[-1.69859048861464,52.192194126943],[-1.69859199926457,52.1919693696592],[-1.69895772164407,52.1919703014564],[-1.69932344404438,52.1919712321199],[-1.69932495515361,52.1917464741707],[-1.69932646624202,52.191521716213],[-1.69969218477568,52.191522645762],[-1.70005790333008,52.1915235741773],[-1.70042362190521,52.191524501459],[-1.70042211664788,52.1917492593878],[-1.7004206113698,52.1919740173082],[-1.70078633385303,52.1919749434369],[-1.7007878371874,52.1917501855261],[-1.70115355774757,52.1917511105308],[-1.70115505911751,52.1915263526212],[-1.70152077980344,52.1915272761406],[-1.70152227919706,52.1913025182157],[-1.70188800524403,52.1913034392426],[-1.70225373131354,52.1913043591361],[-1.70225223627936,52.1915291171285],[-1.70188650803013,52.1915281972012],[-1.70188501079363,52.191752955151],[-1.7022507412226,52.191753875112],[-1.70224924614326,52.1919786330867],[-1.70261497877451,52.1919795519481],[-1.70261349082421,52.1922043090649],[-1.70261200745632,52.1924290653557],[-1.70297774414709,52.1924299830841],[-1.70334348085831,52.1924308996788],[-1.70334200135423,52.1926556559497],[-1.70370774002807,52.1926565714049],[-1.70370921758995,52.1924318151398],[-1.7037106951313,52.1922070588662],[-1.70407642994116,52.1922079731993],[-1.70407790952404,52.1919832160602],[-1.70407939370452,52.191758457917],[-1.70408087786255,52.1915336997649],[-1.70408236199815,52.191308941604],[-1.7040838461113,52.1910841834343],[-1.70371812210923,52.191083269241],[-1.70335239812954,52.1910823539144],[-1.70335388657958,52.1908575958033],[-1.70335537500712,52.1906328376833],[-1.70335686341217,52.1904080795545],[-1.70372258085295,52.19040899478],[-1.70372406705592,52.1901842366086],[-1.70372555323642,52.1899594784284],[-1.70409126634045,52.1899603924533],[-1.70445697946685,52.1899613053449],[-1.70482269261557,52.1899622171032],[-1.70518840578659,52.1899631277282],[-1.70518988322653,52.1897383694046],[-1.7051913606441,52.189513611072],[-1.70555706947837,52.1895145204965],[-1.70555854469413,52.1892897621216],[-1.70592425137117,52.1892906703792],[-1.70592572438514,52.1890659119617],[-1.70629142890495,52.1890668190525],[-1.70629289971721,52.1888420605926],[-1.70665860207979,52.1888429665165],[-1.70666007069039,52.1886182080141],[-1.70702577089572,52.1886191127712],[-1.70702723730472,52.1883943542264],[-1.70702870369149,52.1881695956728],[-1.70739439956025,52.1881704992295],[-1.70739586374551,52.1879457406334],[-1.70739732790858,52.1877209820285],[-1.70776301944084,52.1877218843848],[-1.70776448140247,52.1874971257375],[-1.70739879204946,52.1874962234148],[-1.70740025616815,52.1872714647923],[-1.70703456901646,52.18727056137],[-1.70666888188689,52.1872696568146],[-1.70630319477947,52.187268751126],[-1.70630466541358,52.1870439925955],[-1.7066703503418,52.1870448982505],[-1.70667181877446,52.1868201396775],[-1.70667328718489,52.1865953810957],[-1.70667475557307,52.1863706225051],[-1.70667622393902,52.1861458639057],[-1.70704190017287,52.1861467682931],[-1.70740757642885,52.1861476715473],[-1.70740904041443,52.1859229128719],[-1.70741050437784,52.1856981541876],[-1.70704483247995,52.1856972510005],[-1.70704629860018,52.1854724923409],[-1.70704776469819,52.1852477336726],[-1.70741343223809,52.1852486367925],[-1.70741489613495,52.1850238780817],[-1.70741636000962,52.1847991193621],[-1.70741782386211,52.1845743606337],[-1.70741928769242,52.1843496018965],[-1.70742075150055,52.1841248431504],[-1.7074222152865,52.1839000843955],[-1.7077878697752,52.1839009861808],[-1.70815352428595,52.1839018868331],[-1.70851917881874,52.1839027863523],[-1.70888483337352,52.1839036847386],[-1.70925048795027,52.1839045819918],[-1.70924903505839,52.1841293409145],[-1.70961469183589,52.1841302370683],[-1.70998034863531,52.184131132089],[-1.7103460054566,52.1841320259767],[-1.71071166229975,52.1841329187313],[-1.71107731916472,52.184133810353],[-1.71107587714501,52.1843585694345],[-1.71144153621062,52.1843594599566],[-1.71180719529799,52.1843603493456],[-1.7121728544071,52.1843612376016],[-1.71253851353791,52.1843621247246],[-1.7129041726904,52.1843630107145],[-1.71326983186454,52.1843638955713],[-1.7136354910603,52.1843647792952],[-1.71363406427079,52.1845895386021],[-1.71399972566701,52.1845904212263],[-1.71400115027764,52.1843656618859],[-1.71400257486659,52.1841409025367],[-1.71400399943385,52.1839161431787],[-1.71436965431509,52.1839170245696],[-1.71437108064621,52.1836922643788],[-1.71473673339495,52.1836931446115],[-1.71473816807777,52.1834683823227],[-1.71510381896174,52.1834692613783],[-1.71510525174127,52.1832444990365],[-1.71547090076047,52.1832453769151],[-1.71546946986492,52.1834701393011],[-1.71546803895012,52.1836949016781],[-1.7158336917565,52.183695778512],[-1.71619934458206,52.1836966542129],[-1.71620077172883,52.1834718917477],[-1.71583512078729,52.1834710160909],[-1.71583654979885,52.1832462536608],[-1.7162021988564,52.1832471292736],[-1.71620362596477,52.1830223667906],[-1.7165692731575,52.1830232412264],[-1.71693492036934,52.1830241145292],[-1.71730056760028,52.1830249866991],[-1.71766621485028,52.1830258577361],[-1.71766479527778,52.1832506203953],[-1.71803044443079,52.1832514903435],[-1.71839609345267,52.1832523561078],[-1.71876174245347,52.1832532199307],[-1.71876032843643,52.1834779825865],[-1.7191259792961,52.1834788452405],[-1.71949163017438,52.183479706761],[-1.71949304051093,52.1832549441758],[-1.71985868956754,52.1832558045981],[-1.72022433864271,52.1832566638867],[-1.7205899877364,52.1832575220419],[-1.72095563684861,52.1832583790634],[-1.7213212859793,52.1832592349514],[-1.72168693512845,52.1832600897059],[-1.72205258429604,52.1832609433268],[-1.72241823348203,52.1832617958142],[-1.72278388268642,52.183262647168],[-1.72278527644228,52.1830378848926],[-1.72315092382479,52.1830387351483],[-1.72351657122565,52.1830395842704],[-1.72351796128268,52.1828148220575],[-1.72388360686164,52.1828156700815],[-1.7242492524589,52.182816516972],[-1.72461489807441,52.1828173627289],[-1.724613513538,52.1830421248355],[-1.72497916101197,52.1830429694234],[-1.72498054370817,52.1828182073523],[-1.72534618936015,52.1828190508421],[-1.72571183503032,52.1828198931984],[-1.72607748071866,52.1828207344212],[-1.72607610354308,52.1830454963861],[-1.72607472634929,52.1832702583426],[-1.7260733491373,52.1834950202908],[-1.72570769792827,52.1834941791744],[-1.7257063188578,52.1837189411498],[-1.72607197190711,52.1837197822308],[-1.72607060326288,52.1839445434684],[-1.72606923617743,52.1841693045701],[-1.72606786907624,52.1843940656628],[-1.72643352678065,52.1843949057784],[-1.72643489236533,52.1841701446237],[-1.72680054856885,52.1841709835446],[-1.72680191262132,52.1839462223188],[-1.72716756732395,52.1839470600447],[-1.72716893116384,52.1837222986722],[-1.72717030287319,52.1834975368387],[-1.7271716745644,52.1832727749969],[-1.72753732400562,52.1832736116146],[-1.72790297346488,52.1832744470988],[-1.72826862294217,52.1832752814494],[-1.72863427243746,52.1832761146664],[-1.72899992195073,52.18327694675],[-1.7289985594608,52.1835017084142],[-1.72936421083228,52.1835025393286],[-1.72972986222168,52.1835033691095],[-1.72973122103109,52.1832786075164],[-1.72973257982255,52.183053845915],[-1.72973393859604,52.1828290843053],[-1.73009958448265,52.1828299130594],[-1.73046523038713,52.1828307406799],[-1.73046387529406,52.1830555022184],[-1.73046252018307,52.1832802637486],[-1.73046116505418,52.1835050252706],[-1.73082681649723,52.1835058516508],[-1.73082816978586,52.1832810901644],[-1.73082952305661,52.1830563286698],[-1.73119517083699,52.1830571539877],[-1.73156081863518,52.183057978172],[-1.73156216820761,52.1828332167402],[-1.73192781418337,52.1828340398267],[-1.73192916189778,52.1826092784222],[-1.73229480605111,52.1826101004107],[-1.73229615190754,52.1823853390336],[-1.73266179423844,52.1823861599242],[-1.73266313823694,52.1821613985745],[-1.73266448221767,52.1819366372164],[-1.73266582618065,52.18171187585],[-1.73266717012585,52.1814871144753],[-1.73230153515537,52.1814862934422],[-1.73230288092286,52.1812615320236],[-1.73230422667256,52.1810367705967],[-1.73230557240447,52.1808120091615],[-1.73267120185489,52.1808128303015],[-1.73267254572905,52.1805880688937],[-1.7323069181186,52.1805872477181],[-1.73230826381493,52.1803624862663],[-1.73230960949349,52.1801377248063],[-1.73231095515425,52.1799129633379],[-1.73231230079723,52.1796882018612],[-1.73231364642242,52.1794634403763],[-1.73267926483338,52.17946426173],[-1.73268060860096,52.1792395002724],[-1.73231499202983,52.1792386788831],[-1.73231633761945,52.1790139173815],[-1.73231768319129,52.1787891558717],[-1.73268329608284,52.1787899773323],[-1.73268463979714,52.1785652158498],[-1.73305025086664,52.1785660362127],[-1.73341586195381,52.1785668554423],[-1.73378147305865,52.1785676735385],[-1.733782811236,52.1783429121546],[-1.73414842051873,52.1783437291531],[-1.73414975683869,52.1781189677966],[-1.73451536429932,52.1781197836975],[-1.73451669876193,52.1778950223683],[-1.73488230400448,52.1778958383423],[-1.73488363660212,52.1776710770434],[-1.73488496918208,52.1774463157358],[-1.73525056983071,52.1774471332745],[-1.73525190054406,52.1772223719567],[-1.73561749936135,52.1772231883607],[-1.73561882820814,52.1769984270327],[-1.7359844251941,52.176999242302],[-1.73598575217437,52.1767744809638],[-1.736351347329,52.1767752950984],[-1.7363526724428,52.1765505337499],[-1.7367182657661,52.1765513467499],[-1.73671958901348,52.1763265853912],[-1.73708518050545,52.1763273972566],[-1.73708650188646,52.1761026358877],[-1.73745209154709,52.1761034466184],[-1.73745341106178,52.1758786852393],[-1.73781899889108,52.1758794948355],[-1.73782031653949,52.1756547334462],[-1.73818590253746,52.1756555419078],[-1.73855148855283,52.1756563492365],[-1.73891707458559,52.1756571554322],[-1.73891838667029,52.1754323940295],[-1.7389196986899,52.1752076326116],[-1.73928528104363,52.1752084376764],[-1.73928659119569,52.1749836762535],[-1.73965217171899,52.1749844801892],[-1.74001775225959,52.1749852829919],[-1.74001644580303,52.1752100444071],[-1.74038202820866,52.175210846073],[-1.74038072357967,52.1754356074767],[-1.74074630785022,52.1754364080061],[-1.74111189213801,52.1754372074026],[-1.74111059114575,52.1756619688147],[-1.7414761772995,52.1756627670798],[-1.74184176347042,52.1756635642119],[-1.74220734965852,52.1756643602111],[-1.7422060541953,52.1758891216192],[-1.74220475871489,52.1761138830187],[-1.74220346321728,52.1763386444096],[-1.74183787148281,52.1763378484059],[-1.74183657411917,52.1765626097868],[-1.74147098055303,52.1765618126485],[-1.7414696813233,52.1767865740193],[-1.74110408592548,52.1767857757466],[-1.74073849054487,52.1767849763408],[-1.74073718760013,52.1770097376999],[-1.74037159038787,52.1770089371597],[-1.74037028557691,52.1772336985087],[-1.740004686533,52.1772328968338],[-1.73963908750638,52.177232094026],[-1.73963777898024,52.1774568553633],[-1.73963647043673,52.177681616692],[-1.74000207316125,52.177682419503],[-1.74000076644936,52.1779071808247],[-1.74036637104015,52.1779079825042],[-1.74036506615992,52.178132743819],[-1.74036376126237,52.1783575051251],[-1.73999815297354,52.1783567034425],[-1.739632544702,52.1783559006268]]],[[[-1.73486364578065,52.1810424956279],[-1.73486497862588,52.1808177344489],[-1.73523060701139,52.1808185520129],[-1.73523193798964,52.1805937908237],[-1.73559756454346,52.1805946072528],[-1.73596319111487,52.1805954225488],[-1.73596186383521,52.1808201837414],[-1.73596053653795,52.1810449449254],[-1.73559490626792,52.1810441296261],[-1.73522927601548,52.1810433131936],[-1.73486364578065,52.1810424956279]]],[[[-1.71290703491961,52.1839134922078],[-1.7129084698442,52.1836887321184],[-1.71254281719205,52.1836878462209],[-1.71254426317896,52.1834630841969],[-1.71290991394709,52.1834639700502],[-1.71291135803056,52.1832392079731],[-1.71327700693408,52.1832400926493],[-1.7132755647346,52.1834648547706],[-1.71364121554144,52.183465738358],[-1.71363977520657,52.1836905005145],[-1.71363834457417,52.1839152606548],[-1.71327268973608,52.1839143769978],[-1.71290703491961,52.1839134922078]]],[[[-1.72425202515717,52.182366992663],[-1.72425063881719,52.1825917548216],[-1.72388499506012,52.1825909078958],[-1.72351935132134,52.1825900598364],[-1.72315370760087,52.1825892106435],[-1.72278806389874,52.1825883603171],[-1.72278945759934,52.1823635980168],[-1.72315509946132,52.1823644483786],[-1.72315649130337,52.1821396861055],[-1.72315788312703,52.1819149238241],[-1.7231592749323,52.1816901615344],[-1.72352491129229,52.181691010869],[-1.72389054767059,52.18169185907],[-1.72388915954549,52.1819166212888],[-1.72388777140204,52.1821413834994],[-1.72425341147882,52.1821422304961],[-1.72461905157387,52.1821430763593],[-1.72461766709235,52.1823678384908],[-1.72425202515717,52.182366992663]]],[[[-1.74216070215701,52.1837557655077],[-1.74215940730055,52.183980527346],[-1.74252506186836,52.1839813222324],[-1.74252376878311,52.1842060840261],[-1.74288942515556,52.1842068777428],[-1.74289071645284,52.1839821159852],[-1.74325637105398,52.1839829086045],[-1.74325508154467,52.1842076703259],[-1.74325379201867,52.184432432039],[-1.74325250247597,52.1846571937437],[-1.74325121291658,52.1848819554402],[-1.74288555116342,52.1848811629657],[-1.74288425979927,52.1851059246901],[-1.7425185962747,52.1851051311181],[-1.74251988942692,52.1848803693576],[-1.74215422770709,52.1848795746158],[-1.74178856600397,52.1848787787405],[-1.74142290431757,52.1848779817315],[-1.74142420281717,52.1846532198542],[-1.74142550129995,52.1844284579686],[-1.74142679976592,52.1842036960747],[-1.74106114346032,52.1842028978237],[-1.7406954871715,52.1842020984392],[-1.74032983089947,52.1842012979211],[-1.74033113471253,52.1839765359105],[-1.73996548024529,52.1839757342228],[-1.73996678585187,52.1837509721813],[-1.73996809301478,52.1835262110824],[-1.73996940016034,52.183301449975],[-1.73997070728855,52.1830766888589],[-1.73960506018171,52.1830758860104],[-1.73960636914211,52.1828511248873],[-1.73924072390214,52.1828503209071],[-1.73923941309219,52.1830750820285],[-1.73887376602002,52.1830742769134],[-1.7388750786795,52.1828495157936],[-1.73850943347424,52.1828487095468],[-1.73814378828636,52.1828479021668],[-1.73814510462746,52.1826231410416],[-1.73814642095108,52.1823983799078],[-1.73814773725724,52.1821736187654],[-1.73814905354592,52.1819488576144],[-1.73815036981713,52.1817240964549],[-1.73778473389401,52.1817232879497],[-1.73778605199715,52.1814985267832],[-1.7377873700828,52.1812737656082],[-1.73778868815095,52.1810490044246],[-1.73815431852596,52.1810498129249],[-1.7381556347273,52.1808250517311],[-1.7385212632704,52.1808258590966],[-1.73852257760497,52.1806010978926],[-1.73888820431616,52.1806019041234],[-1.73925383104471,52.1806027092211],[-1.73925514166329,52.1803779480054],[-1.7396207665599,52.1803787519683],[-1.73998639147383,52.1803795547981],[-1.74035201640505,52.1803803564947],[-1.74035332145849,52.1801555952657],[-1.74071894455772,52.1801563958277],[-1.7410845676742,52.1801571952565],[-1.74145019080789,52.1801579935522],[-1.74181581395877,52.1801587907147],[-1.74181711159797,52.179934029471],[-1.7421827329168,52.1799348254989],[-1.74218143712683,52.1801595867442],[-1.74218014131966,52.1803843479808],[-1.74217884549529,52.1806091092089],[-1.74217754965372,52.1808338704284],[-1.74181192093783,52.1808330743945],[-1.74181062322973,52.1810578356039],[-1.74180932550441,52.1812825968048],[-1.74217495791897,52.1812833928417],[-1.74217366202579,52.1815081540356],[-1.74253929630687,52.1815089489409],[-1.74290493060508,52.181509742713],[-1.7429036383935,52.1817345039012],[-1.74290234616476,52.1819592650809],[-1.74290105391887,52.182184026252],[-1.74326669378244,52.1821848188954],[-1.74326540336887,52.1824095800594],[-1.74289976165583,52.1824087874145],[-1.74289846937563,52.1826335485684],[-1.74253282583019,52.1826327547888],[-1.74253153168331,52.1828575159327],[-1.74289717707827,52.1828583097138],[-1.74289588476376,52.1830830708506],[-1.7428945924321,52.1833078319789],[-1.74252894333802,52.1833070381948],[-1.74252764913961,52.183531799313],[-1.74252635493686,52.1837565604303],[-1.74216070215701,52.1837557655077]]],[[[-1.75122074439164,52.1983847406887],[-1.75121949366917,52.198609501034],[-1.75121824293532,52.1988342613704],[-1.75085249085004,52.198833493791],[-1.7504867387761,52.198832725078],[-1.75048799169402,52.1986079648221],[-1.75048924460052,52.1983832045573],[-1.75085499449042,52.1983839731898],[-1.75122074439164,52.1983847406887]]]]}}