{"type":"Feature","properties":{"code":"E63001543","name":"Unstone Green"},"geometry":{"type":"MultiPolygon","coordinates":[[[[-1.44351484365003,53.2823939197775],[-1.44351192476641,53.2826186266987],[-1.44388688430241,53.2826203738439],[-1.44426184387781,53.2826221198104],[-1.44463680349258,53.282623864598],[-1.44463389050726,53.2828485715542],[-1.44500885214064,53.2828503151776],[-1.44500594109521,53.2830750221398],[-1.44463097748255,53.2830732785019],[-1.44425601390924,53.2830715336852],[-1.44425309886582,53.2832962406097],[-1.44425018378299,53.2835209475256],[-1.44424726873557,53.2837456544291],[-1.44424435372545,53.2839703613201],[-1.44386938227496,53.2839686152623],[-1.44386646524739,53.2841933221273],[-1.44386354818039,53.2844180289837],[-1.44386063107395,53.2846427358315],[-1.44385771392809,53.2848674426706],[-1.4438547967428,53.2850921495011],[-1.4442297780838,53.2850938956451],[-1.44422686283726,53.2853186024841],[-1.44422394755132,53.2855433093146],[-1.44422103222596,53.2857680161363],[-1.4442181168612,53.2859927229495],[-1.44421520145704,53.2862174297539],[-1.44384021022486,53.2862156835238],[-1.44383729280296,53.2864403903024],[-1.44346229963186,53.286438642876],[-1.44345938019219,53.2866633496287],[-1.44345646071306,53.2868880563728],[-1.44345354119447,53.2871127631082],[-1.44345062163641,53.287337469835],[-1.4430756205912,53.2873357211606],[-1.44270061958544,53.2873339713073],[-1.44232561861916,53.2873322202751],[-1.4423226930863,53.2875569269414],[-1.44194769018106,53.2875551747128],[-1.44195061769237,53.2873304680638],[-1.44157561680511,53.2873287146735],[-1.44157268731536,53.2875534213053],[-1.44156975778601,53.2877781279284],[-1.44194476263019,53.2877798813532],[-1.44231976751389,53.287781633599],[-1.44231684190194,53.2880063402481],[-1.44194183503974,53.2880045879849],[-1.44193890740972,53.288229294608],[-1.44156389860853,53.2882275411486],[-1.44118888984689,53.2882257865101],[-1.4411859582202,53.2884504930899],[-1.44081094751959,53.2884487372552],[-1.4404359368586,53.2884469802413],[-1.44006092623724,53.2884452220485],[-1.44006386379957,53.2882205155206],[-1.43968885519642,53.2882187561661],[-1.43969179469757,53.2879940496469],[-1.43931678811262,53.2879922891307],[-1.43931972955253,53.2877675826203],[-1.43969473415898,53.2877693431191],[-1.43969767358066,53.2875446365826],[-1.44007267624834,53.2875463958852],[-1.44007561365185,53.2873216893227],[-1.43970061296261,53.2873199300375],[-1.43932561231307,53.2873181695734],[-1.4393285536337,53.287093463037],[-1.43933149491458,53.2868687564919],[-1.4393344361557,53.2866440499382],[-1.43895944148102,53.2866422883472],[-1.43896238466072,53.2864175818022],[-1.43896532780064,53.2861928752486],[-1.43896827090078,53.2859681686863],[-1.43859328220075,53.2859664059684],[-1.43859622723936,53.2857416994148],[-1.43859917223817,53.2855169928526],[-1.43860211719718,53.2852922862818],[-1.43822713447158,53.2852905224371],[-1.43823008136895,53.285065815875],[-1.4382330282265,53.2848411093042],[-1.43823597504421,53.2846164027247],[-1.43786099829284,53.2846146377534],[-1.437858049497,53.2848393443154],[-1.43785510066131,53.2850640508688],[-1.43748011999349,53.2850622846837],[-1.43710513936549,53.2850605173198],[-1.43710809215747,53.2848358108012],[-1.43711104490954,53.284611104274],[-1.43673606827767,53.284609335766],[-1.43673902296792,53.2843846292475],[-1.43674197761823,53.2841599227204],[-1.43674493222862,53.2839352161846],[-1.43674788679907,53.2837105096402],[-1.4367508414482,53.2834858030469],[-1.43637587474873,53.2834840334449],[-1.43637883139748,53.2832593268373],[-1.43638178800625,53.283034620221],[-1.43638474457505,53.2828099135961],[-1.43675970533663,53.2828116831538],[-1.43713466613812,53.2828134515326],[-1.43713171352786,53.283038158187],[-1.43750667634851,53.2830399254017],[-1.43750372567762,53.2832646320623],[-1.43712876087768,53.2832628648328],[-1.43712580818758,53.28348757147],[-1.43750077496684,53.2834893387142],[-1.43749782427827,53.283714045338],[-1.43749487366384,53.2839387519173],[-1.43749192300953,53.2841634584879],[-1.43786689576494,53.2841652246033],[-1.43786394704882,53.2843899311827],[-1.4382389218221,53.2843916961367],[-1.43861389663517,53.2843934599118],[-1.43861684139517,53.2841687532977],[-1.43861978611536,53.2839440466749],[-1.43862273079576,53.2837193400435],[-1.43862567554365,53.2834946333738],[-1.4382507086449,53.2834928696662],[-1.43825365539703,53.2832681629847],[-1.43862862031645,53.2832699266777],[-1.43863156504944,53.2830452199729],[-1.43900652802934,53.2830469824723],[-1.43938149104898,53.2830487437928],[-1.43975645410834,53.2830505039345],[-1.43975939286369,53.282825797177],[-1.4393844317836,53.28282403705],[-1.43938737247846,53.2825993302986],[-1.43939031313356,53.2823746235386],[-1.43976527025518,53.2823763836362],[-1.44014022741649,53.282378142555],[-1.44051518461746,53.282379900295],[-1.44051811929521,53.2821551934823],[-1.44052105393327,53.281930486661],[-1.44052398853165,53.2817057798311],[-1.44089893983476,53.2817075363483],[-1.44090187241434,53.2814828294951],[-1.44090480495427,53.2812581226334],[-1.44127975233877,53.2812598779424],[-1.44165469976285,53.2812616320727],[-1.44202964722649,53.2812633850242],[-1.44203257378957,53.2810386781099],[-1.44240751931367,53.281040429868],[-1.44240459472966,53.281265136797],[-1.44277954227233,53.281266887391],[-1.44315448985447,53.2812686368062],[-1.44315156918911,53.2814933437558],[-1.44314864848424,53.2817180506968],[-1.44277369694388,53.2817163012523],[-1.442398745443,53.2817145506291],[-1.4424016701061,53.2814898437174],[-1.44202672062384,53.28148809193],[-1.44202379398161,53.2817127988271],[-1.44164884255976,53.2817110458463],[-1.44164591389881,53.2819357527202],[-1.44202086729981,53.2819375057156],[-1.44201794057844,53.2821622125955],[-1.44239289599814,53.2821639644268],[-1.44276785145735,53.2821657150793],[-1.4427649286548,53.2823904219798],[-1.44313988613269,53.2823921714681],[-1.44351484365003,53.2823939197775]]],[[[-1.44006092623724,53.2884452220485],[-1.4400579886352,53.2886699285677],[-1.44005505099345,53.2888946350783],[-1.43968003645458,53.2888928756717],[-1.4396770967945,53.2891175821562],[-1.43930208031669,53.2891158215533],[-1.43892706387861,53.2891140597712],[-1.43893000749594,53.2888893533214],[-1.4393050219554,53.2888911150861],[-1.43930796355435,53.2886664086102],[-1.43968297607493,53.2886681691785],[-1.43968591565554,53.2884434626766],[-1.44006092623724,53.2884452220485]]]]}}