{"type":"Feature","properties":{"code":"E63005855","name":"Finberry"},"geometry":{"type":"Polygon","coordinates":[[[0.889749806749411,51.1156762604823],[0.890106516892368,51.115667444129],[0.890120525744165,51.1158919602387],[0.889763813788049,51.1159007766436],[0.889777821013942,51.1161252927951],[0.89013453478324,51.1161164763384],[0.890148544009597,51.1163409924282],[0.889791828427094,51.1163498089366],[0.889805836027508,51.1165743250681],[0.889819843815186,51.1167988411897],[0.88946312441902,51.1168076567129],[0.889477130580691,51.1170321728763],[0.889491137061495,51.1172566890984],[0.889134413913143,51.1172655036673],[0.888777690576247,51.1172743171462],[0.888420967050832,51.1172831295349],[0.888064243336918,51.1172919408336],[0.887707519434531,51.1173007510421],[0.887721518436642,51.1175252681939],[0.887364792514768,51.117534077345],[0.887378789874352,51.117758594521],[0.887022061932983,51.1177674026146],[0.887036057649992,51.1179919198149],[0.886679327689124,51.118000726851],[0.886322597539868,51.1180095327971],[0.886336589783138,51.1182340500541],[0.88635058221486,51.1184585673028],[0.886364574835034,51.1186830845429],[0.886721310477711,51.118674278499],[0.886735305117528,51.118898795698],[0.88709204240299,51.1188899885313],[0.887106039062496,51.1191145056892],[0.887462777990736,51.1191056973996],[0.887476776669977,51.1193302145165],[0.887833517240989,51.1193214051041],[0.887847517940012,51.1195459221798],[0.888204260153787,51.1195371116445],[0.888190257623521,51.1193125946014],[0.888176255281837,51.1190880775499],[0.888532993644652,51.1190792659898],[0.888518989660352,51.1188547489625],[0.888875726003453,51.1188459363449],[0.888889731818943,51.1190704533395],[0.889246469804687,51.119061639599],[0.889603207601862,51.1190528247684],[0.889617217268392,51.1192773416891],[0.889973956708177,51.1192685257356],[0.889987968394608,51.1194930426151],[0.890344709476995,51.1194842255387],[0.890358723183374,51.1197087423771],[0.890715465908358,51.1196999241778],[0.89072948163473,51.119924440975],[0.890743497549853,51.1201489577637],[0.890386751162314,51.1201577760285],[0.890030004586117,51.1201665932032],[0.889673257821287,51.1201754092876],[0.889316510867847,51.1201842242818],[0.889330519646458,51.120408741193],[0.888973770673106,51.1204175551297],[0.888987777809035,51.1206420720652],[0.889344528613736,51.1206332580958],[0.889701279229843,51.1206244430361],[0.889715290217159,51.1208489598977],[0.889729301393171,51.1210734767509],[0.890086055483418,51.1210646605356],[0.890442809385016,51.12105584323],[0.890799563097945,51.1210470248342],[0.890785546427777,51.1208225080793],[0.891142298120634,51.120813688626],[0.891128279807875,51.1205891718953],[0.891114261683903,51.1203646551562],[0.891471009525364,51.1203558346782],[0.891485029480665,51.1205803513846],[0.891841778964722,51.1205715297836],[0.89219852826002,51.1205627070923],[0.892184504642069,51.1203381904515],[0.892541251917265,51.1203293667029],[0.892527226656869,51.1201048500864],[0.892883971911971,51.1200960252803],[0.892869945009177,51.1198715086882],[0.893226688244189,51.1198626828247],[0.893583431290358,51.119853855871],[0.893940174147661,51.1198450278271],[0.894296916816072,51.1198361986931],[0.894653659295571,51.1198273684688],[0.895010401586133,51.1198185371543],[0.895367143687733,51.1198097047497],[0.895353104155192,51.1195851883789],[0.895709844236586,51.1195763549169],[0.896066584128976,51.1195675203648],[0.896052541123092,51.1193430040513],[0.896409278995261,51.1193341684418],[0.896766016678381,51.1193253317422],[0.896780063346645,51.1195498479899],[0.897136802671878,51.1195410101672],[0.897493541808013,51.1195321712543],[0.897850280755022,51.1195233312513],[0.898207019512885,51.119514490158],[0.898221073695107,51.1197390062657],[0.898235128066565,51.1199635223649],[0.898591858768853,51.1199546816808],[0.898948585355592,51.1199458404434],[0.898962642430058,51.1201703565261],[0.898976699669988,51.1203948725992],[0.899333429150756,51.1203860301787],[0.899690158466104,51.1203771866692],[0.899676098166729,51.12015267069],[0.90003282578692,51.1201438261384],[0.900389553241653,51.1201349804976],[0.900375490048393,51.1199104646029],[0.900732215807959,51.1199016179201],[0.900718151250569,51.1196771020628],[0.901074875314976,51.1196682543379],[0.901088941402034,51.1198927701482],[0.901445666830597,51.1198839212872],[0.901802392093631,51.1198750713371],[0.901788322947241,51.1196505556209],[0.902145046515064,51.1196417046288],[0.902130976004656,51.1194171889501],[0.902116905659885,51.1191926732618],[0.902473626002886,51.1191838212747],[0.902459554294154,51.1189593056239],[0.902445482751075,51.1187347899635],[0.902431411373646,51.1185102742936],[0.902788126962342,51.1185014213587],[0.902774054221027,51.1182769057262],[0.902759981645376,51.1180523900842],[0.903116694009439,51.1180435361544],[0.903473406207898,51.1180346811355],[0.903830118240732,51.1180258250277],[0.904186830107923,51.1180169678309],[0.904543541809451,51.1180081095451],[0.904900253345297,51.1179992501702],[0.904886171758403,51.1177747348012],[0.904872090337291,51.1175502194225],[0.904858009081955,51.1173257040343],[0.905214715863737,51.1173168437118],[0.905200633916608,51.1170923290009],[0.904843928656391,51.1171011892482],[0.904829848818202,51.1168766748389],[0.904815769150009,51.1166521604213],[0.904459066885436,51.1166610195189],[0.904444988969983,51.1164365050634],[0.9044309112245,51.1162119905998],[0.904074211955518,51.1162208485476],[0.904060135962711,51.1159963340461],[0.904046060139846,51.1157718195363],[0.903689363866403,51.1157806763345],[0.903675289796149,51.1155561617869],[0.903318594935543,51.115565017465],[0.903304522617857,51.1153405028795],[0.902947829170094,51.1153493574377],[0.902933758604934,51.1151248428143],[0.902577066570018,51.1151336962525],[0.902562997757344,51.1149091815913],[0.902206307135279,51.1149180339096],[0.902192240075049,51.1146935192105],[0.901835550865842,51.1147023704089],[0.901478861486913,51.1147112205171],[0.901464797761667,51.1144867057505],[0.901108109795624,51.1144955547388],[0.901094047822723,51.1142710399344],[0.900737361269568,51.1142798878028],[0.900723301048968,51.1140553729606],[0.900366615908708,51.1140642197092],[0.900009930598814,51.1140730653675],[0.900023987654313,51.114297580269],[0.899667300592253,51.1143064248667],[0.899681356234868,51.1145309397896],[0.899324667420634,51.1145397833267],[0.898967978436823,51.1145486257735],[0.898982031083911,51.1147731407474],[0.898996083900636,51.114997655713],[0.898639391582035,51.1150064971288],[0.898653442985753,51.1152310121159],[0.898667494559092,51.1154555270947],[0.898310798468427,51.1154643675709],[0.898324849022001,51.1156888824887],[0.898681546302055,51.1156800420654],[0.898695598214645,51.1159045570279],[0.899052296863955,51.1158957154938],[0.899066350528905,51.1161202304185],[0.899423050591367,51.1161113877646],[0.899437106008717,51.1163359026515],[0.899793807484326,51.1163270588777],[0.899807864654118,51.1165515737269],[0.899451161595744,51.1165604175303],[0.89946521735245,51.1167849324008],[0.89947927327884,51.1170094472632],[0.899493329374915,51.1172339621174],[0.899850037181709,51.1172251182252],[0.899864096747997,51.1174496342064],[0.90022080584773,51.1174407891296],[0.90057751478202,51.1174319429638],[0.900591577683933,51.1176564589168],[0.900605640751381,51.1178809748602],[0.900619703984368,51.118105490794],[0.900262990461609,51.1181143371007],[0.900277052330605,51.118338853072],[0.899920337112862,51.1183476983367],[0.89993439761783,51.1185722143454],[0.899577680705097,51.1185810585681],[0.899563621729685,51.1183565425125],[0.899206906181092,51.1183653855992],[0.899192848900703,51.1181408694869],[0.899178791785773,51.1179163533652],[0.898822079130845,51.1179251952689],[0.898465366310548,51.1179340360837],[0.898108645535738,51.1179428771677],[0.898094592867307,51.1177183609925],[0.8977378687582,51.1177272018223],[0.897381144459973,51.1177360415621],[0.897367095642735,51.1175115253125],[0.897010372986407,51.1175203639292],[0.896996326189304,51.1172958476383],[0.896639605174884,51.1173046851321],[0.896282883971419,51.1173135215357],[0.896268842329615,51.1170890059739],[0.895912122679864,51.1170978411952],[0.895555402842526,51.1171066753279],[0.895541365667944,51.1168821600547],[0.89518464745629,51.116890993047],[0.895170612282572,51.116666477712],[0.894813895696611,51.1166753095639],[0.89445717892314,51.1166841403271],[0.894100461962181,51.1166929700018],[0.893743744813759,51.116701798588],[0.893757772734543,51.1169263141302],[0.893401053585437,51.1169351416796],[0.893387027477897,51.1167106260855],[0.893373001557852,51.1164861104815],[0.893016285847795,51.1164949368387],[0.893002261928444,51.116270421173],[0.892645547844198,51.1162792463898],[0.89228883357259,51.1162880705181],[0.892274813467069,51.1160635547389],[0.892631525925496,51.1160547306623],[0.892617504194236,51.1158302149249],[0.892974214652146,51.1158213898116],[0.892960191295191,51.115596874116],[0.893316899752589,51.115588047966],[0.893673608022586,51.1155792207275],[0.893659581226878,51.1153547051255],[0.89401628749635,51.1153458768502],[0.894002259075065,51.1151213612902],[0.894358963344018,51.1151125319782],[0.894344933297204,51.11488801646],[0.894701635565641,51.1148791861114],[0.89468760389334,51.114654670635],[0.8946735724086,51.1144301551487],[0.894659541111418,51.1142056396525],[0.89464551000179,51.1139811241463],[0.894288814985317,51.1139899542876],[0.893932119781395,51.1139987833405],[0.893946147265106,51.1142232989503],[0.893589450060795,51.1142321269665],[0.89323275266908,51.1142409538943],[0.893246776714324,51.1144654695977],[0.892890077322232,51.1144742954888],[0.892533377742781,51.1144831202914],[0.892547398349455,51.1147076360885],[0.892190696769642,51.1147164598543],[0.89183399500251,51.1147252825317],[0.891848012170515,51.1149497984224],[0.891491308403038,51.114958620063],[0.891134604448287,51.1149674406151],[0.890777900306283,51.1149762600787],[0.890421195977053,51.1149850784538],[0.89043520608012,51.1152095945416],[0.89044921637048,51.1154341106194],[0.890092508227847,51.1154429280095],[0.890078499750597,51.1152184118799],[0.890064491460617,51.1149938957404],[0.889707786757,51.1150027119385],[0.889721793233891,51.1152272281297],[0.889365086530023,51.115236043291],[0.889379091381042,51.1154605595239],[0.889022382676917,51.1154693736484],[0.889036385902019,51.1156938899231],[0.889393096419287,51.115685075747],[0.889749806749411,51.1156762604823]]]}}