{"type":"Feature","properties":{"code":"E63002951","name":"Desborough"},"geometry":{"type":"MultiPolygon","coordinates":[[[[-0.833100360124472,52.4358544014734],[-0.833094427738246,52.4360791128305],[-0.83272676628261,52.4360754841287],[-0.832359104905426,52.436071854284],[-0.832353168696733,52.4362965655681],[-0.832347232409502,52.4365212768432],[-0.831979567366795,52.4365176457917],[-0.831611902402591,52.4365140135974],[-0.831617842433846,52.4362893023863],[-0.831250179420181,52.436285669081],[-0.831256121244834,52.4360609578927],[-0.830888460181704,52.4360573234766],[-0.830894403799705,52.4358326123112],[-0.830526744687109,52.4358289767842],[-0.83052079919715,52.4360536879176],[-0.830514853628532,52.436278399042],[-0.830147190850598,52.4362747623082],[-0.830141243331313,52.4364994733914],[-0.82977357876,52.4364958354827],[-0.829767629289999,52.4367205465249],[-0.829399962925311,52.4367169074413],[-0.829394011504543,52.4369416184423],[-0.829026343346483,52.4369379781838],[-0.828658675267127,52.4369343367825],[-0.828652720023471,52.4371590477103],[-0.828285050150771,52.4371554051341],[-0.828279092956227,52.4373801160208],[-0.827911421290187,52.4373764722695],[-0.827905462144705,52.4376011831151],[-0.827537788685327,52.4375975381889],[-0.827543749702928,52.4373728273754],[-0.827176078194475,52.4373691813384],[-0.827170115304756,52.4375938921198],[-0.826802442003017,52.4375902449078],[-0.826434768780135,52.4375865965529],[-0.826428802067244,52.437811307261],[-0.82642283527541,52.43803601796],[-0.826416868404632,52.4382607286499],[-0.826049189644142,52.4382570790558],[-0.825681510962562,52.4382534283188],[-0.825687481577714,52.4380287176931],[-0.825319804847254,52.4380250658452],[-0.825313832359917,52.4382497764388],[-0.824946153836231,52.4382461234159],[-0.824940179397667,52.4384708339682],[-0.824572499080759,52.4384671797702],[-0.824204818842861,52.4384635244293],[-0.824198840580789,52.4386882349082],[-0.824192862239622,52.438912945378],[-0.824186883819357,52.4391376558387],[-0.824180905319993,52.4393623662903],[-0.824548593046959,52.4393660217598],[-0.824542616340824,52.4395907322344],[-0.824536639555611,52.4398154426998],[-0.824904331106278,52.4398190970906],[-0.824898356114366,52.440043807579],[-0.825266049616408,52.4400474608589],[-0.825633743197421,52.4400511129958],[-0.825639714444569,52.4398264024431],[-0.826007406232144,52.4398300534048],[-0.826375098098639,52.4398337032236],[-0.82674279004403,52.4398373518993],[-0.82711048206829,52.4398409994321],[-0.827104518310685,52.4400657101131],[-0.827098554474173,52.440290420785],[-0.827466250322082,52.4402940672389],[-0.827833946248816,52.4402977125497],[-0.827827986078274,52.4405224232766],[-0.827822025828871,52.4407471339944],[-0.827816065500606,52.4409718447031],[-0.828183767123537,52.440975488967],[-0.828177808588924,52.4412001996986],[-0.828171849975472,52.4414249104211],[-0.828165891283178,52.4416496211344],[-0.828533598602512,52.4416532643515],[-0.82853955542224,52.4414285536061],[-0.828907260947764,52.441432195648],[-0.828913215816132,52.4412074848614],[-0.828545512163151,52.4412038428516],[-0.828551468825247,52.4409791320879],[-0.828557425408528,52.4407544213152],[-0.828189725579311,52.4407507782263],[-0.828195683956248,52.4405260674765],[-0.828563381912997,52.4405297105333],[-0.828569338338656,52.4403049997423],[-0.828937034501713,52.440308641624],[-0.829304730743495,52.4403122823627],[-0.829310683345503,52.4400875714986],[-0.828942988976142,52.4400839307919],[-0.828948943371787,52.4398592199506],[-0.829316635868752,52.4398628606253],[-0.829684328444415,52.4398665001569],[-0.830052021098751,52.4398701385456],[-0.830057969798495,52.4396454275992],[-0.830425660659103,52.4396490648128],[-0.830419713831735,52.4398737757912],[-0.830413766925683,52.4400984867605],[-0.830781461609692,52.4401021228952],[-0.830787406643342,52.4398774118939],[-0.831155099533549,52.4398810468535],[-0.83152279250233,52.4398846806701],[-0.831890485549661,52.4398883133437],[-0.831884546133224,52.4401130244409],[-0.832252241131486,52.4401166560034],[-0.832619936208251,52.4401202864229],[-0.832625871879871,52.4398955752619],[-0.832993565162703,52.4398992045064],[-0.833361258523984,52.439902832608],[-0.833355326597185,52.4401275438329],[-0.833349394591898,52.4403522550486],[-0.833343462508121,52.4405769662553],[-0.833337530345855,52.4408016774529],[-0.833705231275362,52.440805304539],[-0.833699300907115,52.4410300157594],[-0.834067003787542,52.4410336417344],[-0.834061075213364,52.4412583529775],[-0.834428780044713,52.4412619778413],[-0.834796484954423,52.4412656015621],[-0.834790560046929,52.4414903128599],[-0.835158266722127,52.4414939354183],[-0.835152343608498,52.4417186467384],[-0.834784635061037,52.4417150241485],[-0.834778709996748,52.4419397354281],[-0.834772784757305,52.442164446551],[-0.834405072362479,52.4421608227044],[-0.8343991450343,52.4423855335598],[-0.834393217627814,52.4426102444056],[-0.834387290143019,52.4428349552421],[-0.834755008144799,52.4428385792165],[-0.835122726055223,52.4428422019821],[-0.835116802234889,52.4430669128908],[-0.8354845220026,52.4430705345126],[-0.835852241848514,52.4430741549913],[-0.83584632168959,52.4432988659598],[-0.836214043483535,52.44330248533],[-0.836219961772607,52.4430777743269],[-0.836587681774856,52.4430813925195],[-0.836955401855235,52.443085009569],[-0.83732312201372,52.4430886254755],[-0.837329034615092,52.4428639143598],[-0.837696752981826,52.4428675290887],[-0.838064471426615,52.4428711426745],[-0.838432189949434,52.4428747551173],[-0.838426282957563,52.4430994663364],[-0.838794003428224,52.4431030776706],[-0.839161723976868,52.4431066878617],[-0.839529444603469,52.4431102969098],[-0.839523543143117,52.443335008223],[-0.839891265717517,52.4433386161624],[-0.839885366049061,52.4435633275008],[-0.840253090571261,52.4435669343315],[-0.84024719269475,52.4437916456951],[-0.839879466302635,52.44378803883],[-0.839873566478238,52.44401275015],[-0.839505838294096,52.4440091421074],[-0.839499936521762,52.4442338533838],[-0.839132206545598,52.4442302441636],[-0.839126302825278,52.4444549553964],[-0.838758571057094,52.4444513449987],[-0.838752665388739,52.4446760561878],[-0.838384931828536,52.4446724446125],[-0.838379024212098,52.444897155758],[-0.83801128885988,52.4448935430051],[-0.837643553585704,52.4448899291091],[-0.837637642151077,52.4451146401765],[-0.837269905084916,52.4451110251029],[-0.837263991702083,52.4453357361266],[-0.836896252843937,52.4453321198753],[-0.83689033751285,52.4455568308553],[-0.836522596862723,52.4455532134264],[-0.83651667958333,52.4457779243628],[-0.836148937141226,52.4457743057562],[-0.835781194777293,52.4457706860064],[-0.835413452491557,52.4457670651135],[-0.835045710284041,52.4457634430774],[-0.834677968015076,52.4457598197829],[-0.834672041303164,52.4459845305294],[-0.834666114512946,52.4462092412665],[-0.835033860529368,52.4462128646463],[-0.835027935534572,52.446437575417],[-0.834660187644423,52.4464339519941],[-0.834654260697592,52.4466586627123],[-0.834286510918878,52.4466550380132],[-0.834280582024284,52.4468797486792],[-0.833912830454393,52.4468761227945],[-0.833545078962804,52.4468724957669],[-0.833539146250923,52.4470972063382],[-0.833171392968186,52.4470935781249],[-0.83316545830842,52.4473182886441],[-0.832797703234537,52.4473146592452],[-0.832429948239031,52.4473110287034],[-0.832424009761813,52.4475357391278],[-0.83205625297519,52.4475321074002],[-0.832050312549965,52.4477568177725],[-0.831682553972229,52.4477531848593],[-0.831676611598948,52.4479778951794],[-0.831308851230101,52.4479742610805],[-0.831314795472947,52.4477495508031],[-0.830947037052144,52.4477459156039],[-0.830952983085991,52.4475212053598],[-0.83058522661323,52.4475175690604],[-0.830591174438029,52.4472928588496],[-0.830223419913307,52.4472892214499],[-0.830229369529009,52.4470645112723],[-0.829861616952322,52.4470608727724],[-0.829493864454209,52.4470572331295],[-0.829499817730225,52.446832523028],[-0.829132067180169,52.4468288822849],[-0.829138022246962,52.4466041722166],[-0.82877027364496,52.4466005303734],[-0.828402525121602,52.4465968873873],[-0.828408483848531,52.446372177395],[-0.828040737273247,52.4463685333087],[-0.82804669779083,52.4461438233498],[-0.827678953163617,52.4461401781634],[-0.827311208615121,52.4461365318341],[-0.827317172792661,52.4459118219513],[-0.826949430192256,52.4459081745218],[-0.826581687670615,52.4459045259495],[-0.826575719754373,52.4461292357466],[-0.826943464145365,52.4461328843618],[-0.826937498019649,52.4463575941923],[-0.827305244358781,52.4463612417074],[-0.827672990776656,52.4463648880795],[-0.827667028310918,52.4465895979862],[-0.828034776676913,52.4465932432582],[-0.828028816001826,52.4468179531981],[-0.828396566315944,52.44682159737],[-0.828390607431557,52.4470463073433],[-0.828758359693802,52.447049950415],[-0.829126112034694,52.4470535923437],[-0.829120156810539,52.4472783023931],[-0.829487911099537,52.4472819432217],[-0.829481957666205,52.4475066533043],[-0.829849713903312,52.4475102930326],[-0.830217470218995,52.447513931618],[-0.830211520446073,52.4477386417767],[-0.830579278709844,52.4477422792618],[-0.830573330727872,52.4479669894537],[-0.83056738266731,52.4481916996362],[-0.830199620664392,52.4481880620656],[-0.829831858740029,52.448184423352],[-0.829825906861658,52.4484091334395],[-0.829819954904646,52.4486338435175],[-0.829814002868992,52.4488585535861],[-0.829808050754694,52.4490832636452],[-0.829440281430332,52.4490796236176],[-0.829434327367684,52.4493043336245],[-0.829066556252227,52.4493006924111],[-0.829060600241178,52.4495254023657],[-0.828692827334629,52.4495217599665],[-0.82868686937513,52.4497464698689],[-0.828319094677493,52.4497428262838],[-0.828313134769494,52.449967536134],[-0.82794535828077,52.4499638913631],[-0.827577581870761,52.4499602454491],[-0.827583545518308,52.4497355356845],[-0.82721577105681,52.4497318886703],[-0.826847996674075,52.449728240513],[-0.826480222370127,52.4497245912126],[-0.826486191548116,52.449499881567],[-0.826853963982319,52.4495035308246],[-0.826859931211718,52.4492788211267],[-0.826865898362274,52.4490541114193],[-0.826498129667486,52.4490504622474],[-0.82650409860887,52.4488257525734],[-0.826136331862559,52.4488221023014],[-0.826142302594722,52.4485973926607],[-0.825774537796886,52.4485937412885],[-0.825780510319779,52.4483690316812],[-0.825786482763761,52.4481443220645],[-0.825418721783988,52.4481406696349],[-0.825050960883092,52.4481370160624],[-0.825056936987297,52.4479123065219],[-0.824689178034866,52.4479086518492],[-0.824695155929654,52.4476839423421],[-0.824327398925687,52.4476802865693],[-0.824333378611007,52.4474555770956],[-0.8239656235555,52.4474519202228],[-0.823959642000666,52.4476766296536],[-0.823591885154618,52.4476729715948],[-0.823585901651218,52.4478976809733],[-0.82357991806876,52.4481223903422],[-0.823573934407244,52.4483470997017],[-0.823206172031513,52.4483434403713],[-0.823200186421328,52.4485681496784],[-0.822832422255015,52.448564489162],[-0.822464658167754,52.4485608275027],[-0.82245866873922,52.4487855367145],[-0.822090902861405,52.4487818738692],[-0.821723137062692,52.4487782098809],[-0.821717143815715,52.4490029189973],[-0.82171115048955,52.4492276281042],[-0.821343381030637,52.449223962887],[-0.820975611650878,52.4492202965268],[-0.820969614506125,52.4494450055383],[-0.820601843335847,52.4494413379921],[-0.820595844242131,52.4496660469511],[-0.820228071281337,52.4496623782189],[-0.820222070238611,52.4498870871255],[-0.819854295487303,52.4498834172071],[-0.819848292495516,52.4501081260613],[-0.819480515953697,52.4501044549569],[-0.819112739491162,52.4501007827095],[-0.819106732680474,52.4503254914681],[-0.818738954427457,52.4503218180346],[-0.818371176253774,52.450318143458],[-0.818003398207741,52.4503144676201],[-0.817635620275296,52.4503107905555],[-0.817267842422308,52.4503071123479],[-0.816900064648802,52.4503034329973],[-0.816906082682198,52.4500787245049],[-0.816538306859476,52.4500750440557],[-0.816170531116283,52.4500713624634],[-0.815802755452644,52.4500676797281],[-0.815808779020232,52.4498429713595],[-0.815441005307421,52.4498392875256],[-0.815073231674212,52.4498356025487],[-0.815079258904612,52.4496108942594],[-0.814711487222251,52.449607208184],[-0.814717516244163,52.4493824999296],[-0.814349746512647,52.4493788127556],[-0.81434371561954,52.4496035209656],[-0.813975944096503,52.4495998326042],[-0.813969911252443,52.4498245407601],[-0.813602137937888,52.4498208512112],[-0.813234364703059,52.4498171605194],[-0.81286659154798,52.4498134686845],[-0.812872630005689,52.449588760662],[-0.812504858801597,52.4495850677286],[-0.812137087677304,52.4495813736523],[-0.812143129797557,52.4493566657093],[-0.811775360624271,52.4493529705345],[-0.811781404535804,52.4491282626264],[-0.811787448367433,52.4489035547088],[-0.81179349211916,52.4486788467817],[-0.811799535790986,52.4484541388451],[-0.811805579382913,52.4482294308989],[-0.811811622894941,52.4480047229432],[-0.812179380841629,52.4480084178509],[-0.812185422402747,52.4477837098411],[-0.812553178558233,52.4477874035614],[-0.812920934793506,52.4477910961388],[-0.812926972532773,52.4475663880305],[-0.813294726976815,52.4475700794205],[-0.813662481500594,52.4475737696676],[-0.814030236104084,52.4475774587717],[-0.814036268150622,52.4473527505205],[-0.814404020962826,52.4473564384373],[-0.814771773854691,52.4473601252112],[-0.814777802079589,52.4471354168615],[-0.815145553180139,52.4471391024481],[-0.815139526826192,52.4473638108422],[-0.815507279877304,52.4473674953303],[-0.815501255314662,52.4475922037594],[-0.815869010316339,52.447595887149],[-0.816236765397578,52.4475995693957],[-0.816242786218263,52.4473748608778],[-0.81661053950806,52.4473785419372],[-0.81697829287737,52.4473822218537],[-0.817346046326168,52.4473859006273],[-0.817713799854429,52.447389578258],[-0.818081553462129,52.4473932547458],[-0.818087564848423,52.4471685459965],[-0.818093576155246,52.4469438372377],[-0.818099587382598,52.4467191284693],[-0.817731839387709,52.4467154521146],[-0.817737852406479,52.4464907433811],[-0.818105598530481,52.4464944196914],[-0.818111609598896,52.446269710904],[-0.818479354009008,52.4462733859008],[-0.818847098530278,52.4462770597028],[-0.819214843130857,52.446280732362],[-0.819208837669217,52.4465054412818],[-0.819576584218451,52.4465091128411],[-0.819944330846946,52.4465127832575],[-0.819950332569842,52.4462880742516],[-0.820318077408198,52.4462917434821],[-0.82032407718245,52.4460670344238],[-0.820330076877433,52.445842325356],[-0.819962335777752,52.4458386562115],[-0.819594594757302,52.4458349859242],[-0.819600598111619,52.4456102769329],[-0.819606601386622,52.4453855679321],[-0.819612604582312,52.4451608589219],[-0.81961860769869,52.4449361499022],[-0.819624610735758,52.444711440873],[-0.819256879140808,52.4447077696577],[-0.818889147625131,52.4447040972997],[-0.818521416188753,52.4447004237987],[-0.818527424754032,52.4444757148891],[-0.818159695285556,52.4444720402616],[-0.817791965998432,52.4444683643505],[-0.817424236790728,52.4444646872967],[-0.81705650766247,52.4444610091],[-0.816688778613681,52.4444573297606],[-0.816321049644387,52.4444536492784],[-0.815953320754612,52.4444499676534],[-0.81558559194438,52.4444462848856],[-0.815579568417025,52.4446709934385],[-0.815211837815706,52.4446673094835],[-0.815205812338042,52.4448920179825],[-0.815573544810041,52.4448957019819],[-0.815567521123427,52.4451204105158],[-0.815935255545704,52.4451240934168],[-0.81592923365019,52.4453488019856],[-0.815923211675066,52.4455735105448],[-0.815555473511302,52.4455698275549],[-0.815549449585788,52.4457945360602],[-0.81518170963082,52.4457908518831],[-0.814813969755454,52.4457871665632],[-0.814807942008698,52.44601187497],[-0.814801914182255,52.4462365833674],[-0.814795886276124,52.4464612917552],[-0.814428140867907,52.4464576051591],[-0.814422111011212,52.4466823134929],[-0.814416081074801,52.4469070218173],[-0.814048332004467,52.4469033339894],[-0.813680583013816,52.4468996450186],[-0.813674549255844,52.4471243532445],[-0.813306798473979,52.4471206630863],[-0.812939047771848,52.4471169717853],[-0.812571297149475,52.4471132793414],[-0.812203546606884,52.4471095857546],[-0.8118357961441,52.447105891025],[-0.811841839256659,52.4468811830216],[-0.81147409074462,52.4468774871935],[-0.811106342312437,52.4468737902226],[-0.811112389086881,52.4466490822988],[-0.810744642605463,52.4466453842295],[-0.810750691170831,52.4464206763407],[-0.810382946640175,52.4464169771731],[-0.810015202189446,52.4464132768627],[-0.809647457818668,52.4464095754095],[-0.809653511916575,52.4461848676447],[-0.810021254416521,52.4461885690534],[-0.810027306563587,52.4459638612346],[-0.810395047272674,52.4459675614559],[-0.810401097468949,52.445742853583],[-0.810768836387174,52.4457465526169],[-0.810774884632707,52.4455218446899],[-0.811142621760067,52.4455255425364],[-0.811148668054907,52.4453008345553],[-0.811516403391399,52.4453045312145],[-0.811884138807737,52.4453082267309],[-0.812251874303896,52.4453119211045],[-0.812257914906659,52.4450872129803],[-0.812625648611895,52.4450909061666],[-0.812631687264111,52.4448661979884],[-0.812999419178421,52.4448698899874],[-0.813367151172476,52.4448735808435],[-0.813373186003521,52.4446488725668],[-0.813005455880139,52.4446451817551],[-0.812637725836499,52.4446414898006],[-0.812269995872626,52.4446377967034],[-0.811902265988545,52.4446341024633],[-0.81153453618428,52.4446304070805],[-0.811166806459857,52.4446267105549],[-0.810799076815299,52.4446230128865],[-0.810431347250631,52.4446193140753],[-0.810063617765879,52.4446156141213],[-0.809695888361066,52.4446119130246],[-0.809328159036218,52.4446082107851],[-0.808960429791359,52.4446045074028],[-0.808592700626513,52.4446008028777],[-0.808224971541706,52.4445970972099],[-0.807857242536962,52.4445933903993],[-0.807489513612305,52.4445896824459],[-0.807121784767761,52.4445859733497],[-0.807115718135483,52.444810680869],[-0.806747987500427,52.4448069705855],[-0.806380256945535,52.4448032591591],[-0.806012526470831,52.44479954659],[-0.805644796076339,52.4447958328781],[-0.805277065762085,52.4447921180234],[-0.804909335528092,52.4447884020259],[-0.804541605374385,52.4447846848857],[-0.80417387530099,52.4447809666027],[-0.80380614530793,52.4447772471769],[-0.803812228775991,52.4445525400597],[-0.803444500733927,52.4445488195358],[-0.803076772772247,52.4445450978692],[-0.80308285990111,52.4443203908319],[-0.803088946949506,52.444095683785],[-0.802721222809426,52.4440919610652],[-0.802353498749775,52.4440882372025],[-0.802359589458823,52.4438635302356],[-0.801991867350183,52.443859805275],[-0.801997959849249,52.4436350983432],[-0.80200405226778,52.443410391402],[-0.802371770635382,52.4434141162731],[-0.802377861102897,52.4431894092775],[-0.802745577680466,52.4431931329612],[-0.802751666197014,52.4429684259113],[-0.803119380984548,52.4429721484075],[-0.803487095852481,52.4429758697611],[-0.803854810800787,52.4429795899719],[-0.804222525829442,52.44298330904],[-0.804228606783758,52.4427586018017],[-0.804234687657691,52.4425338945539],[-0.804240768451243,52.4423091872965],[-0.804246849164416,52.4420844800296],[-0.80461455679178,52.4420881977762],[-0.804620635452023,52.4418634893959],[-0.804626714024829,52.4416387809326],[-0.804259010134314,52.4416350632415],[-0.804265090496072,52.4414103548058],[-0.80427117077749,52.4411856463608],[-0.803903470705767,52.4411819276007],[-0.803535770714347,52.4411782076977],[-0.803541854653861,52.4409534993174],[-0.803547938512989,52.4407287909278],[-0.803180242340303,52.4407250699559],[-0.803186327988212,52.4405003615939],[-0.80281863376504,52.4404966395162],[-0.802450939622242,52.4404929162955],[-0.802083245559841,52.440489191932],[-0.802089336734757,52.4402644836718],[-0.801721644621914,52.4402607582024],[-0.801715551577862,52.4404854664256],[-0.801709458453303,52.4407101746395],[-0.801703365248237,52.4409348828442],[-0.801697271962661,52.4411595910395],[-0.802064971552195,52.4411633166569],[-0.802058880055343,52.44138802488],[-0.802052788478002,52.4416127330937],[-0.802046696820172,52.4418374412982],[-0.802040605081853,52.4420621494934],[-0.802034513152444,52.4422868565525],[-0.801666804217472,52.4422831307624],[-0.801672898015234,52.4420584237279],[-0.801305190981961,52.4420546965224],[-0.801311286463169,52.4418299884143],[-0.80094358136191,52.4418262599691],[-0.800575876341312,52.4418225303814],[-0.800569777112038,52.4420472383979],[-0.800563677702661,52.4422719453482],[-0.800557578199382,52.4424966521484],[-0.800189867642853,52.4424929213008],[-0.799822157166974,52.4424891893105],[-0.799454446771771,52.4424854561776],[-0.799460551891375,52.4422607495144],[-0.799466656912376,52.4420360426414],[-0.799472761763737,52.4418113347622],[-0.799840466542201,52.4418150677779],[-0.800208171401401,52.4418187996509],[-0.800214272423934,52.4415940916706],[-0.80058197548984,52.4415978223552],[-0.800588074557623,52.4413731143195],[-0.800594173544662,52.4411484062742],[-0.80060027245096,52.4409236982194],[-0.800606371276516,52.4406989901549],[-0.800612470021334,52.4404742820809],[-0.800618568685413,52.4402495739972],[-0.800624667268757,52.440024865904],[-0.800630765771366,52.4398001578013],[-0.800263077696616,52.4397964274829],[-0.800269177992275,52.4395717194163],[-0.800275278207177,52.4393470113402],[-0.799907593960665,52.4393432799708],[-0.799913695968545,52.4391185719309],[-0.799919797895645,52.4388938638813],[-0.799925899741968,52.4386691558222],[-0.800293578367355,52.4386728870542],[-0.800661257073434,52.4386766171437],[-0.801028935860179,52.4386803460906],[-0.801035032004746,52.4384556378846],[-0.801041128068613,52.438230929669],[-0.800673453029166,52.4382272008136],[-0.800679550885946,52.4380024926341],[-0.801047224051781,52.4380062214438],[-0.801053319954251,52.437781513209],[-0.801420991327136,52.4377852408305],[-0.801788662793446,52.4377889671341],[-0.801794754871528,52.4375642587994],[-0.802162424556665,52.4375679838246],[-0.802530094322207,52.437571707707],[-0.802536182582168,52.437346999289],[-0.80290385055927,52.4373507219917],[-0.802897764168127,52.4375754304467],[-0.802891677696569,52.4378001388924],[-0.803259349491689,52.4378038605264],[-0.803253264808584,52.4380285689997],[-0.802885591144596,52.4380248473288],[-0.802879504512205,52.4382495557559],[-0.803247180045086,52.4382532774638],[-0.803614855658302,52.438256998029],[-0.803608772683331,52.4384817065208],[-0.803976450245777,52.4384854259801],[-0.803982531351827,52.4382607174514],[-0.803988612377534,52.4380360089133],[-0.804356286282446,52.438039727156],[-0.804362365358936,52.4378150185717],[-0.803994693322897,52.437811300366],[-0.804000774187917,52.4375865918094],[-0.803633104101007,52.4375828724979],[-0.803265434094402,52.4375791520437],[-0.803271518616726,52.4373544435517],[-0.803277603058661,52.4371297350505],[-0.803645269327649,52.4371334554307],[-0.80401293567694,52.4371371746683],[-0.804380602106508,52.4371408927631],[-0.804748268616329,52.4371446097152],[-0.804742191649587,52.4373693183643],[-0.805109860108439,52.4373730342106],[-0.805477528647496,52.4373767489142],[-0.805471455338119,52.4376014576279],[-0.805839125826187,52.4376051712257],[-0.806206796394412,52.4376088836807],[-0.80657446704277,52.437612594993],[-0.806942137771236,52.4376163051625],[-0.807309808579786,52.4376200141893],[-0.807315872545001,52.4373953052911],[-0.807683541564774,52.4373990131382],[-0.808051210664579,52.4374027198427],[-0.808057270812052,52.4371780108615],[-0.808424938123051,52.4371817163863],[-0.808430996321668,52.436957007359],[-0.808798661843858,52.4369607117042],[-0.809166327446004,52.4369644149067],[-0.809172381827044,52.4367397057964],[-0.809540045640353,52.4367434078194],[-0.809907709533566,52.4367471086997],[-0.810275373506661,52.4367508084372],[-0.810643037559612,52.436754507032],[-0.810649084385674,52.4365297977652],[-0.811016746649706,52.4365334951805],[-0.811022791527153,52.4363087858676],[-0.811390452002263,52.4363124821035],[-0.811758112557153,52.4363161771966],[-0.811764153617329,52.4360914678009],[-0.812131812383268,52.4360951617145],[-0.812499471228936,52.4360988544855],[-0.812867130154309,52.4361025461138],[-0.813234789159361,52.4361062365994],[-0.813602448244069,52.4361099259423],[-0.813970107408406,52.4361136141425],[-0.814337766652349,52.4361173012],[-0.814705425975874,52.4361209871149],[-0.815073085378955,52.436124671887],[-0.815440744861568,52.4361283555164],[-0.815808404423688,52.4361320380031],[-0.816176064065291,52.4361357193471],[-0.816170045429673,52.4363604291834],[-0.816537707019456,52.4363641094214],[-0.816905368688674,52.4363677885166],[-0.817273030437302,52.4363714664692],[-0.81726701732841,52.4365961764061],[-0.817634681025175,52.4365998532526],[-0.817628669705612,52.4368245632168],[-0.817996335350516,52.4368282389572],[-0.817990325820332,52.4370529489488],[-0.81835799343819,52.4370566235613],[-0.818351985697543,52.4372813335796],[-0.81871965530725,52.4372850070461],[-0.818713649359204,52.4375097170876],[-0.818707643331699,52.4377344271199],[-0.819075316765001,52.4377380995081],[-0.819069312530171,52.4379628095636],[-0.819436987914985,52.4379664808412],[-0.819442990277679,52.4377417707535],[-0.819810663869708,52.4377454408559],[-0.819816664280877,52.4375207307268],[-0.819822664612661,52.4372960205886],[-0.819828664865061,52.4370713104412],[-0.819460996889297,52.4370676404355],[-0.819466998934353,52.4368429303113],[-0.819473000900004,52.4366182201779],[-0.819105336747639,52.4366145490939],[-0.819099332909975,52.436839259195],[-0.818731666964968,52.4368355869359],[-0.818364001099356,52.4368319135339],[-0.818370008681042,52.4366072034973],[-0.818002344801301,52.4366035289563],[-0.818008354172689,52.4363788189462],[-0.818014363464682,52.4361541089268],[-0.818382023605981,52.4361577833968],[-0.818388030949236,52.4359330733329],[-0.818755689326954,52.4359367466058],[-0.818761694718824,52.4357120365004],[-0.819129351304019,52.4357157085982],[-0.819497007968577,52.4357193795531],[-0.819491006320536,52.435944089723],[-0.81985866493635,52.4359477595674],[-0.82022632363148,52.435951428269],[-0.820232321535688,52.4357267180346],[-0.82059997843819,52.4357303855611],[-0.820605974391155,52.4355056752853],[-0.820973629501027,52.4355093416367],[-0.821341284690137,52.4355130068453],[-0.821335292480965,52.4357377171855],[-0.821702949621189,52.4357413812835],[-0.821696959204664,52.4359660916468],[-0.821690968708886,52.4361908020009],[-0.821684978133856,52.4364155123459],[-0.822052640969117,52.4364191753977],[-0.82204665218683,52.4366438857658],[-0.822414316973262,52.4366475477068],[-0.822781981838841,52.436651208505],[-0.822787966877127,52.4364264980726],[-0.823155629949827,52.4364301576958],[-0.823523293101622,52.4364338161761],[-0.823529274316771,52.4362091056701],[-0.823896935675658,52.4362127629754],[-0.82390291493972,52.4359880524282],[-0.824270574505696,52.4359917085585],[-0.824638234150691,52.435995363546],[-0.824644209591782,52.4357706529254],[-0.825011867443837,52.4357743067378],[-0.82537952537486,52.4357779594075],[-0.825385496993075,52.4355532487135],[-0.82575315313113,52.4355569002082],[-0.825759122798453,52.435332189473],[-0.826126777143535,52.4353358397928],[-0.82649443156751,52.4353394889697],[-0.826500397412124,52.4351147781612],[-0.826868050043098,52.4351184261633],[-0.826874013936942,52.4348937153136],[-0.827241664774912,52.4348973621408],[-0.827609315691697,52.4349010078251],[-0.827615275762999,52.4346762969022],[-0.827982924886752,52.4346799414117],[-0.828350574089269,52.4346835847784],[-0.828356530338124,52.4344588737822],[-0.828724177747579,52.4344625159741],[-0.829091825235749,52.4344661570232],[-0.829085872730498,52.4346908680834],[-0.82945352216916,52.4346945080218],[-0.829447571456988,52.4349192191049],[-0.829815222846147,52.4349228579324],[-0.829821171686489,52.4346981468173],[-0.830188821282459,52.43470178447],[-0.830182874313948,52.4349264956171],[-0.830176927266759,52.4351512067551],[-0.830170980140891,52.4353759178839],[-0.83053863543105,52.4353795544898],[-0.830532690098408,52.4356042656416],[-0.830900347339071,52.4356079011366],[-0.831268004658306,52.4356115354888],[-0.831273946247131,52.4353868242731],[-0.831641601773003,52.4353904574505],[-0.832009257377398,52.4353940894851],[-0.832003319532397,52.4356188007646],[-0.832370977087203,52.4356224316883],[-0.832738634720483,52.4356260614692],[-0.833106292432212,52.4356296901072],[-0.833100360124472,52.4358544014734]]],[[[-0.823200186421328,52.4485681496784],[-0.823567950666667,52.4485718090517],[-0.823935714991009,52.448575467282],[-0.823929733041007,52.4488001766654],[-0.824297499313962,52.4488038337956],[-0.824665265665872,52.4488074897828],[-0.825033032096711,52.448811144627],[-0.825027055676658,52.4490358541296],[-0.825394824056067,52.4490395078736],[-0.825388849426738,52.4492642174096],[-0.825382874718467,52.4494889269361],[-0.825750646916165,52.4494925796228],[-0.825744673998691,52.4497172891827],[-0.826112448144991,52.4497209407691],[-0.826106477018363,52.4499456503624],[-0.826474253113267,52.4499493008487],[-0.826842029286985,52.4499529501919],[-0.827209805539491,52.449956598392],[-0.827577581870761,52.4499602454491],[-0.827571618144415,52.4501849552042],[-0.827203839943349,52.4501813081043],[-0.826836061821047,52.4501776598613],[-0.826468283777536,52.4501740104753],[-0.82646231436293,52.4503987200925],[-0.826456344939411,52.4506234287165],[-0.826450375439205,52.4508481372984],[-0.82644440586,52.4510728458706],[-0.826812191395165,52.4510764954307],[-0.826818159100773,52.4508517868092],[-0.827185942841255,52.4508554351771],[-0.827191908594315,52.4506307264967],[-0.827197874268428,52.4504060178065],[-0.827565654340674,52.450409664933],[-0.827933434491782,52.4504133109166],[-0.827927472564771,52.4506380197053],[-0.828295254668269,52.4506416645953],[-0.828289294535938,52.4508663734236],[-0.828283334324732,52.4510910822422],[-0.828651120254227,52.4510947260878],[-0.828645161837772,52.4513194349459],[-0.82901294971969,52.4513230776979],[-0.829006993098038,52.4515477865956],[-0.829374782932379,52.4515514282538],[-0.829368828105577,52.4517761371911],[-0.82936287319997,52.4520008461187],[-0.829730666860446,52.4520044867324],[-0.829724713749761,52.4522291956996],[-0.829718760560293,52.452453904657],[-0.829712807292038,52.4526786136048],[-0.829345008010293,52.4526749728433],[-0.829339052789446,52.4528996817322],[-0.82897125171265,52.4528960397785],[-0.828965294539161,52.4531207486085],[-0.828959337286832,52.4533454574288],[-0.828591532541135,52.4533418142336],[-0.828585573336088,52.453566522995],[-0.828953379955662,52.4535701662394],[-0.82894742254565,52.4537948750403],[-0.828579614052174,52.4537912317467],[-0.828573654689393,52.4540159404886],[-0.828567695247742,52.4542406492209],[-0.8281998830852,52.4542370046858],[-0.828193921690704,52.4544617133592],[-0.827826107733025,52.4544580676318],[-0.827820144385634,52.4546827762462],[-0.827452328632822,52.4546791293265],[-0.827084512958898,52.4546754812637],[-0.82709048005428,52.4544507727478],[-0.826722666333263,52.4544471235913],[-0.826354852691182,52.4544434732917],[-0.826360823455529,52.4542187648648],[-0.825993011766375,52.4542151134715],[-0.825625200156205,52.4542114609351],[-0.825631174589415,52.4539867525971],[-0.825263364932193,52.4539830989671],[-0.824895555354003,52.4539794441941],[-0.824889577172919,52.4542041524334],[-0.824521765799851,52.454200496468],[-0.824515785665688,52.4544252046483],[-0.824147972497744,52.4544215474905],[-0.823780159408911,52.4544178891897],[-0.823774175447637,52.4546425972616],[-0.824141990410454,52.4546462556118],[-0.824136008243992,52.4548709637234],[-0.82413002599836,52.4550956718253],[-0.824124043673553,52.4553203799175],[-0.823756223088642,52.4553167214192],[-0.82338840258287,52.4553130617779],[-0.823020582156263,52.4553094009935],[-0.822652761808845,52.455305739066],[-0.822658751629868,52.4550810311713],[-0.822664741371619,52.4548563232669],[-0.823032557970958,52.4548599850956],[-0.823038545759436,52.4546352771322],[-0.823406360563956,52.4546389377684],[-0.82341234639921,52.4544142297459],[-0.823418332155246,52.4541895217137],[-0.82378614329099,52.4541931811081],[-0.823792127093878,52.4539684730169],[-0.823798110817574,52.4537437649159],[-0.824165918284609,52.4537474230686],[-0.824171900055233,52.4535227149086],[-0.824177881746694,52.4532980067389],[-0.824183863358993,52.4530732985595],[-0.824551665283553,52.4530769554211],[-0.824919467287189,52.4530806111398],[-0.824925445072704,52.452855902852],[-0.82455764494288,52.4528522471827],[-0.82418984489213,52.4528485903704],[-0.82419582634611,52.4526238821716],[-0.823828028248245,52.4526202242657],[-0.823822044920481,52.4528449324151],[-0.823454245027956,52.4528412733169],[-0.823448259747201,52.4530659814072],[-0.823442274387235,52.4532906894879],[-0.823436288948059,52.4535153975589],[-0.823068483513188,52.4535117371695],[-0.823062496120918,52.4537364451814],[-0.822694688891347,52.4537327835997],[-0.822700678157497,52.4535080756372],[-0.822332872881008,52.4535044129619],[-0.821965067683746,52.4535007491436],[-0.821971060618338,52.4532760412702],[-0.82197705347362,52.4530513333871],[-0.821983046249594,52.4528266254943],[-0.822350845825374,52.4528302891644],[-0.822718645480378,52.4528339516915],[-0.822724634429487,52.4526092436903],[-0.822356836648263,52.4526055812125],[-0.82198903894626,52.4526019175919],[-0.821621241323504,52.4525982528282],[-0.821627235814617,52.4523735449655],[-0.821259440144882,52.4523698791083],[-0.820891644554442,52.4523662121082],[-0.820897642713675,52.4521415043346],[-0.820529849076277,52.4521378362411],[-0.82053584902983,52.4519131285072],[-0.82090364079353,52.4519167965514],[-0.820909638794009,52.4516920887585],[-0.820915636715114,52.4514673809558],[-0.820921634556846,52.4512426731435],[-0.820927632319207,52.4510179653215],[-0.820933630002197,52.4507932574898],[-0.821301412477086,52.4507969241439],[-0.821307408207156,52.450572216253],[-0.821313403863205,52.4503475080647],[-0.821319399455127,52.4501227990481],[-0.821325394967829,52.4498980900221],[-0.821331390401314,52.4496733809865],[-0.821337385755583,52.4494486719415],[-0.821705157084197,52.4494523372017],[-0.822072928491942,52.4494560013188],[-0.822078920027593,52.4492312921784],[-0.82208491148408,52.4490065830285],[-0.822452679231549,52.4490102459168],[-0.822820447058097,52.449013907662],[-0.822826434696112,52.4487891984167],[-0.823194200732057,52.448792858976],[-0.823200186421328,52.4485681496784]]],[[[-0.811402537780186,52.4358630633763],[-0.811396494931144,52.4360877727445],[-0.811028836324736,52.4360840765455],[-0.811034881042457,52.435859367214],[-0.810667224384529,52.435855669909],[-0.81067327089104,52.4356309606051],[-0.811040925680316,52.4356346578733],[-0.811408580549392,52.4356383539988],[-0.811776235498244,52.4356420489816],[-0.811770194597692,52.4358667583959],[-0.811402537780186,52.4358630633763]]]]}}