{"type":"Feature","properties":{"code":"E63005102","name":"Shorne"},"geometry":{"type":"MultiPolygon","coordinates":[[[[0.42745509515244,51.4144363693816],[0.427466992933751,51.4146609564528],[0.427478890864497,51.4148855435075],[0.427490788944683,51.4151101305457],[0.427502687174309,51.4153347175673],[0.427861849509363,51.4153272738486],[0.428221011695009,51.415319829036],[0.42823291345119,51.4155444157436],[0.42859207717596,51.4155369696882],[0.428951240751275,51.415529522539],[0.428963146034094,51.4157541089324],[0.429322311148503,51.4157466605404],[0.429334218269449,51.4159712467684],[0.429346125539956,51.41619583298],[0.429358032960027,51.4164204191749],[0.428998862779779,51.4164278680134],[0.429010768660759,51.4166524543406],[0.429369940529665,51.4166450053533],[0.429381848248871,51.4168695915152],[0.429393756117649,51.4170941776606],[0.42940566578629,51.4173187643063],[0.429764842506768,51.4173113137788],[0.43012401907305,51.4173038621531],[0.430112106161656,51.4170792758088],[0.430471280959334,51.4170718232419],[0.430830455607432,51.417064369581],[0.43084237174293,51.4172889556075],[0.430854289983739,51.417513542327],[0.431213467845892,51.4175060873203],[0.431572645553756,51.4174986312155],[0.431931823149591,51.4174911731909],[0.431943746861095,51.4177157596468],[0.432302926135824,51.4177083000767],[0.432662105252494,51.4177008394037],[0.433021284211083,51.4176933776277],[0.433380463011565,51.4176859147487],[0.433739641653918,51.4176784507667],[0.433727708871503,51.4174538643801],[0.433715776247282,51.417229277986],[0.433356601233259,51.4172367419402],[0.433344673543902,51.4170121568041],[0.432985500044559,51.4170196195537],[0.43297357494198,51.4167950346257],[0.433332746654421,51.4167875719355],[0.433691918210572,51.4167801081453],[0.433679989690565,51.4165555233256],[0.433668061326931,51.4163309384952],[0.433656133119663,51.4161063536543],[0.433296966924072,51.416113817266],[0.432937800572199,51.4161212797778],[0.432925876094915,51.4158966948073],[0.432566711373595,51.4159041561598],[0.432207546496043,51.4159116164124],[0.432195625748659,51.4156870313124],[0.432554788839419,51.4156795711192],[0.432913951773949,51.4156721098262],[0.433273114552225,51.4156646474333],[0.43326118860081,51.4154400625011],[0.433249262805729,51.4152154775582],[0.433608421854229,51.4152080141844],[0.433967580746434,51.4152005497107],[0.434326739482322,51.4151930841372],[0.434314808483434,51.4149684993622],[0.434302877640946,51.4147439145766],[0.434290946954853,51.4145193297804],[0.434279016425154,51.4142947449736],[0.434638167858009,51.4142872785382],[0.434626235698083,51.4140626937802],[0.434985385187972,51.4140552263045],[0.434973451397868,51.4138306415955],[0.434614303694569,51.4138381090117],[0.434255155834923,51.4138455753281],[0.434243225774386,51.4136209904895],[0.434602371847462,51.4136135242326],[0.434590440156761,51.4133889394428],[0.434578508622462,51.4131643546425],[0.434566577244564,51.4129397698316],[0.434925717801731,51.4129323026533],[0.434913784793755,51.4127077178913],[0.434901851942196,51.4124831331186],[0.43526098877008,51.4124756649597],[0.43524905428851,51.4122510802359],[0.434889919247052,51.4122585483354],[0.434530784049242,51.4122660153351],[0.434171648695103,51.4122734812351],[0.434159719729187,51.4120488963223],[0.434147790919635,51.4118243113989],[0.433788658981992,51.4118317760802],[0.433429526888072,51.4118392396618],[0.433070394637897,51.4118467021437],[0.433058471343812,51.4116221170313],[0.432699340723781,51.411629578354],[0.432340209947544,51.4116370385771],[0.431981079015125,51.4116444977004],[0.431969161236392,51.4114199123991],[0.431957243613876,51.4111953270871],[0.431945326147577,51.4109707417646],[0.431933408837491,51.4107461564314],[0.431921491683613,51.4105215710877],[0.431909574685944,51.4102969857333],[0.432268694900567,51.4102895269666],[0.432627814959024,51.4102820671001],[0.432986934861293,51.4102746061341],[0.43299885721768,51.4104991913101],[0.433010779730343,51.4107237764755],[0.433022702399285,51.4109483616304],[0.433034625224509,51.4111729467746],[0.433046548206018,51.4113975319082],[0.433405676883471,51.4113900695452],[0.433417601807616,51.4116146546088],[0.433776732115167,51.4116071910867],[0.434135862266444,51.4115997264648],[0.434123933769612,51.4113751415202],[0.43448306197825,51.4113676758581],[0.434471131851456,51.4111430909624],[0.434459201881037,51.410918506056],[0.434447272066992,51.410693921139],[0.434435342409318,51.4104693362115],[0.434076221345811,51.4104768016356],[0.434064293630731,51.410252216638],[0.433705174197168,51.410259680903],[0.433346054607348,51.4102671440684],[0.433334130621024,51.4100425589412],[0.432975012661178,51.4100500209475],[0.432963090617336,51.4098254357502],[0.432951168729761,51.4096008505424],[0.432939246998453,51.4093762653239],[0.433298359599802,51.409368803496],[0.433286436238637,51.4091442183265],[0.433645546897645,51.4091367554584],[0.433657472044927,51.4093613405685],[0.434016584333803,51.4093538765414],[0.434004657400407,51.4091292914907],[0.433992730623341,51.4089047064295],[0.433980801849755,51.4086801182994],[0.433621694910516,51.4086875821802],[0.433262587823121,51.4086950449691],[0.433250662056071,51.4084704558],[0.43289155648494,51.4084779173211],[0.432879632530448,51.4082533279576],[0.4332387364372,51.4082458666125],[0.433597840195822,51.4082384041755],[0.433609767479068,51.408462993187],[0.433968872753912,51.4084555294822],[0.433956943806292,51.4082309406467],[0.433945015006893,51.4080063517928],[0.433585913060775,51.4080138151456],[0.433226810966507,51.4080212774066],[0.433214885643989,51.4077966881824],[0.433202960469643,51.4075720989398],[0.433191035443467,51.4073475096789],[0.433179110565457,51.4071229203996],[0.433167185835613,51.4068983311019],[0.433526279608437,51.4068908697209],[0.433514353362532,51.4066662805809],[0.433873445322998,51.4066588182841],[0.434232537135309,51.4066513548955],[0.434244466709654,51.4068759436835],[0.434603560038004,51.4068684790271],[0.434615491424813,51.4070930676208],[0.434974586269198,51.4070856016966],[0.435333680965358,51.4070781346807],[0.435345615828931,51.4073027229039],[0.435704712041097,51.4072952546202],[0.436063808104994,51.4072877852446],[0.4364229040206,51.4072803147773],[0.436781999787893,51.4072728432182],[0.436770058267326,51.4070482556992],[0.436758116895143,51.4068236681618],[0.43711720918564,51.4068161958631],[0.437129152222045,51.4070407832244],[0.437488246028411,51.4070333096579],[0.437476301327788,51.4068087224726],[0.437835393321565,51.4068012479904],[0.43819448516695,51.4067937724164],[0.438206433196001,51.4070183592495],[0.43821838137352,51.4072429460642],[0.438577476398934,51.4072354690462],[0.438936571275907,51.4072279909366],[0.438948522930404,51.4074525773806],[0.439307619323165,51.407445098003],[0.439319572790451,51.4076696842526],[0.439331526406277,51.4078942704838],[0.439690625979111,51.4078867896622],[0.439702581407794,51.4081113756988],[0.439714536985046,51.4083359617171],[0.439726492710869,51.408560547717],[0.439738448585266,51.4087851336985],[0.439750404176439,51.4090097184626],[0.439762359687293,51.4092343025606],[0.43940324990152,51.4092417841814],[0.439415203782979,51.4094663683283],[0.439774315354846,51.4094588866479],[0.439786271179099,51.4096834707247],[0.440145384380437,51.409675987885],[0.440133426770069,51.4094514038679],[0.440121469316425,51.4092268198401],[0.440480578788894,51.4092193360202],[0.440468619705907,51.4089947520414],[0.440456660600101,51.4087701673707],[0.440444701396959,51.4085455817415],[0.440803805517172,51.4085380971161],[0.440815766384684,51.4087626825691],[0.441174872020682,51.4087551966757],[0.441533977508072,51.4087477096905],[0.441545941824922,51.4089722941628],[0.441557906266091,51.4091968779626],[0.441917015111676,51.4091893897442],[0.442276123800482,51.4091819004263],[0.442635232332487,51.4091744100087],[0.442647202288695,51.4093989936189],[0.442659172401788,51.4096235772184],[0.44301828434913,51.4096160855819],[0.44337739613962,51.4096085928458],[0.443736507773233,51.4096010990101],[0.444095619249946,51.4095936040748],[0.444107596664372,51.4098181874249],[0.444466709770269,51.4098106913303],[0.444478689127806,51.4100352746101],[0.444837803862878,51.4100277773561],[0.445196918440977,51.4100202790025],[0.445208901527815,51.4102448621522],[0.445568017735059,51.4102373626392],[0.445556032862078,51.4100127795493],[0.445544048146175,51.4097881964487],[0.44590316062414,51.4097806959557],[0.446262272945063,51.409773194363],[0.446621385108923,51.4097656916707],[0.446633375183171,51.409990274592],[0.446992488976053,51.4099827707403],[0.447004480993577,51.4102073535912],[0.447016473168272,51.4104319364314],[0.447028465500141,51.410656519261],[0.447387584494368,51.4106490141304],[0.44739957876961,51.4108735968895],[0.447411573202054,51.4110981796381],[0.447052450635408,51.4111056848883],[0.447064443438813,51.4113302676861],[0.447423567791702,51.411322762376],[0.447435562538558,51.4115473451033],[0.44779468852056,51.4115398386338],[0.447806685210912,51.4117644212907],[0.448165812822022,51.4117569136617],[0.448524940041773,51.4117494046232],[0.448512939778825,51.4115248220872],[0.448500939675867,51.4113002395439],[0.448860062804573,51.4112927290535],[0.448872064734284,51.4115173115874],[0.448884066824008,51.4117418941142],[0.449243193446282,51.4117343825021],[0.449602319908571,51.411726869787],[0.449961446210849,51.4117193559688],[0.449949438640811,51.4114947734699],[0.449937431230857,51.4112701909637],[0.450296553719595,51.411262676061],[0.450308562956291,51.4114872585579],[0.450667687111716,51.4114797425429],[0.450679698335283,51.4117043250233],[0.450691709718982,51.4119289074964],[0.451050837367873,51.4119213903597],[0.451062850738515,51.4121459728163],[0.451074864269318,51.4123705552657],[0.451433995411734,51.4123630370073],[0.451446010929553,51.4125876194401],[0.451458026607562,51.4128122018656],[0.451817161243561,51.4128046824855],[0.452176295719394,51.4127971620024],[0.452188315211383,51.413021744402],[0.452547451353916,51.4130142228064],[0.452535430035038,51.4127896404161],[0.45289456419047,51.4127821177267],[0.453253698185666,51.4127745939342],[0.453241673373328,51.4125500115553],[0.453600805381407,51.4125424866691],[0.453588778902543,51.4123179042924],[0.453229648721299,51.4123254291692],[0.453217624229572,51.4121008467759],[0.453205599898149,51.4118762643753],[0.453193575727025,51.4116516819676],[0.452834450865897,51.4116592057133],[0.452822428681812,51.4114346232888],[0.452463305487207,51.4114421459222],[0.452451285290116,51.4112175634812],[0.45209216376204,51.4112250850021],[0.451733042073796,51.41123260542],[0.451373920225405,51.4112401247348],[0.451014798216893,51.4112476429466],[0.451002785486871,51.411023060461],[0.450643665144973,51.4110305775605],[0.450631654401789,51.4108059950584],[0.450619643818729,51.4105814125491],[0.450260526970121,51.4105889285269],[0.450248518373825,51.4103643460011],[0.450236509937622,51.410139763468],[0.449877396582246,51.4101472783242],[0.449865390132737,51.4099226957746],[0.449506278443951,51.4099302095186],[0.449494273981088,51.4097056269525],[0.449135163958899,51.4097131395842],[0.449147166595178,51.4099377221596],[0.448788054586442,51.4099452336975],[0.448428942417765,51.4099527441325],[0.448440941560838,51.4101773267192],[0.448081826787837,51.4101848352592],[0.448069829411933,51.4099602525877],[0.447710716090458,51.4099677597382],[0.447698720657891,51.4097431769964],[0.44733960896536,51.4097506829874],[0.447327615476086,51.4095261001751],[0.447686725382536,51.4095185942439],[0.448045835131832,51.409511087213],[0.44803383822763,51.4092865045097],[0.448021841480657,51.4090619217958],[0.448380947445157,51.4090544137135],[0.448368949449602,51.4088298312365],[0.448009845148578,51.4088373391715],[0.447997850845131,51.4086127572621],[0.447638748036297,51.4086202638993],[0.447279645078474,51.4086277694446],[0.447291636053237,51.4088523517067],[0.446932531282099,51.4088598563366],[0.446944522477608,51.4090844392307],[0.446585415829024,51.4090919428432],[0.44657342638333,51.4088673598795],[0.446214321363688,51.4088748623327],[0.446202335311278,51.4086502795302],[0.446561438715943,51.4086427772601],[0.446549451218864,51.408418194627],[0.446537463870772,51.4081936119755],[0.446525476671664,51.4079690293056],[0.446166378259922,51.4079765310468],[0.446178363794744,51.408201113893],[0.445819263569817,51.4082086147188],[0.445807279699283,51.4079840316963],[0.445448180989768,51.407991531254],[0.445460163196011,51.4082161144528],[0.445472145551173,51.4084406976332],[0.445113043364195,51.4084481964517],[0.444753941028379,51.4084556941785],[0.444741962001849,51.4082311106455],[0.444382861181536,51.4082386071043],[0.44402376021243,51.4082461024713],[0.443664659094552,51.4082535967465],[0.443305557827923,51.40826108993],[0.442946456412566,51.4082685820217],[0.4425873548485,51.4082760730216],[0.442575385956672,51.4080514884128],[0.442216285908234,51.4080589781448],[0.44220431882944,51.4078343933413],[0.442192351899365,51.4076098085195],[0.442180385118006,51.4073852236793],[0.442168418485362,51.4071606388207],[0.441809324945305,51.4071681267561],[0.441450231256617,51.4071756135997],[0.441438268101098,51.4069510283703],[0.441797360125578,51.4069435417029],[0.441785395454537,51.4067189566312],[0.441426305094246,51.4067264431225],[0.441414342236055,51.4065018578563],[0.441055253391328,51.4065093430797],[0.44106721458535,51.4067339285221],[0.44070812392787,51.4067414128299],[0.440696164398019,51.4065168272114],[0.440684205016784,51.4062922415745],[0.440325117539067,51.4062997244383],[0.439966029912813,51.4063072062104],[0.439954074008455,51.4060826202028],[0.439594987897822,51.4060901007071],[0.439583033806145,51.405865514505],[0.439223949211136,51.4058729937414],[0.438864864467659,51.4058804718861],[0.438876815231103,51.4061050584405],[0.438888766143048,51.4063296449764],[0.438529677922862,51.4063371223817],[0.438170589554247,51.4063445986952],[0.438158641970588,51.406120011807],[0.437799555117712,51.4061274868527],[0.43744046811645,51.4061349608066],[0.437428524009505,51.4059103735479],[0.437787609346639,51.40590289977],[0.437775663724,51.405678312669],[0.437763718249795,51.4054537255496],[0.438122800110359,51.4054462510321],[0.438134747248648,51.4056708379755],[0.438493830624893,51.4056633621903],[0.438481881822526,51.405438775423],[0.438840963386272,51.4054312987222],[0.439200044801577,51.4054238209297],[0.439559126068419,51.4054163420456],[0.439571079863012,51.4056409282844],[0.43993016264544,51.4056334481325],[0.440289245279361,51.4056259668888],[0.440277288156632,51.4054013810022],[0.44063636897796,51.405393898843],[0.44062441033977,51.4051693131141],[0.440983489348509,51.4051618300393],[0.4409715291949,51.4049372444683],[0.441330606391057,51.404929760478],[0.441689683438628,51.4049222753961],[0.441677720105654,51.404697690159],[0.441318644722075,51.4047051750647],[0.441306683201733,51.404480589633],[0.441294721830028,51.4042560041829],[0.44093564962579,51.4042634876446],[0.440576577272996,51.4042709700148],[0.440217504771666,51.4042784512933],[0.440205548540391,51.4040538652963],[0.439846477554485,51.404061345307],[0.439834523135691,51.4038367591156],[0.439475453665213,51.4038442378586],[0.439487406420087,51.4040688242262],[0.439128335137222,51.4040763020536],[0.439116384046267,51.40385171551],[0.438757314278877,51.4038591920697],[0.438745365000323,51.4036346053315],[0.438733415870243,51.403410018575],[0.438721466888636,51.4031854318001],[0.438362401964467,51.4031929067399],[0.438374349282214,51.4034174936909],[0.438386296748412,51.4036420806236],[0.438398244363064,51.4038666675378],[0.438039174298847,51.4038741419143],[0.438051120398027,51.4040987289863],[0.4376920485215,51.4041062024472],[0.437332976496611,51.4041136748165],[0.43697390432338,51.4041211460941],[0.436985845579133,51.4043457336759],[0.436626771593622,51.4043532040379],[0.436267697459811,51.4043606733083],[0.435908623177721,51.404368141487],[0.435896686913854,51.4041435533771],[0.435884750798292,51.4039189652488],[0.435872814831035,51.4036943771022],[0.435860879012078,51.4034697889372],[0.43584894334142,51.4032452007538],[0.435837007819058,51.403020612552],[0.435825072444989,51.4027960243319],[0.435813137219211,51.4025714360934],[0.435454076099989,51.4025789017723],[0.435095014832549,51.4025863663596],[0.434735953416913,51.4025938298553],[0.434376891853103,51.4026012922594],[0.43401783014114,51.4026087535718],[0.434029757047819,51.4028333426903],[0.434041684102681,51.4030579317904],[0.43368261891491,51.4030653923632],[0.433694544454086,51.4032899816209],[0.433706470141426,51.4035145708603],[0.433718395976937,51.4037391600813],[0.433359325649365,51.4037466200904],[0.433347401477772,51.4035220306934],[0.432988332666018,51.4035294894348],[0.432976410306468,51.4033048998435],[0.432617343010536,51.4033123573174],[0.432258275566549,51.4033198136996],[0.432270194598296,51.4035444036427],[0.432282113778125,51.4037689935676],[0.431923042858273,51.40377644921],[0.431934960522236,51.4040010392924],[0.431946878334264,51.4042256293565],[0.431587803269942,51.4042330834079],[0.43122872651699,51.404240534406],[0.431240641133147,51.4044651247824],[0.430881562493303,51.4044725747686],[0.43089347552789,51.4046971652185],[0.430534395001148,51.4047046141929],[0.430546306454121,51.4049292047162],[0.430558218059751,51.4051537952273],[0.430917302055097,51.4051463460813],[0.431276385897806,51.4051388958376],[0.431288301124764,51.4053634861647],[0.431647386549143,51.4053560347374],[0.431659303663161,51.4055806249663],[0.43167122092991,51.4058052151828],[0.431312132036803,51.4058126667817],[0.430953042991028,51.4058201172828],[0.430593953792608,51.4058275666863],[0.430582041728992,51.4056029762123],[0.430222954112332,51.4056104244321],[0.430234864441565,51.4058350149919],[0.429875774937922,51.4058424621998],[0.429887683685391,51.4060670528331],[0.429899592585486,51.406291643454],[0.429540499460422,51.4062990897357],[0.429181406182795,51.4063065349197],[0.429193311766604,51.4065311256998],[0.428834216601979,51.4065385698718],[0.42884612060389,51.4067631607253],[0.428858024758365,51.4069877515665],[0.42886992906541,51.4072123423954],[0.428881833525025,51.4074369332119],[0.428522731269803,51.4074443766292],[0.428534634147415,51.4076689675191],[0.428175530005109,51.4076764099243],[0.427816425710316,51.4076838512318],[0.427828325271278,51.4079084422808],[0.427469219089415,51.4079158825762],[0.42748111706826,51.4081404736987],[0.427493015199596,51.4083650648088],[0.427852124850739,51.408357624342],[0.427864024869243,51.4085822153541],[0.427875925040266,51.4088068063538],[0.428235038008299,51.4087993646176],[0.428594150823831,51.4087919217835],[0.428953263486842,51.4087844778516],[0.428941358111748,51.4085598871091],[0.429300468887529,51.4085524421651],[0.42928856193036,51.4083278514961],[0.429647670818916,51.40832040554],[0.429659579510745,51.4085449961232],[0.429671488355205,51.4087695866941],[0.429683395539071,51.4089941748726],[0.429695301550213,51.4092187612991],[0.429707207710884,51.4094433477091],[0.430066325105319,51.4094359002024],[0.430078233103489,51.4096604864471],[0.430090141251215,51.4098850726752],[0.430102049548501,51.4101096588868],[0.430113957995347,51.4103342450818],[0.430125866591758,51.4105588312603],[0.429766740757263,51.4105662795111],[0.429778647815162,51.4107908658218],[0.430137775337735,51.4107834174223],[0.43014968423328,51.4110080035677],[0.430161593278397,51.4112325896966],[0.430173502473088,51.4114571758089],[0.430532634910509,51.4114497258691],[0.43054454594294,51.4116743118161],[0.430185411817355,51.4116817619047],[0.429826277542252,51.4116892108995],[0.429467143117651,51.4116966588006],[0.42947904923512,51.4119212451775],[0.429490955502126,51.4121458315378],[0.429502861918672,51.4123704178817],[0.42986200140791,51.4123629695342],[0.429873909662255,51.4125875557126],[0.429514768484761,51.4125950042089],[0.429155627157783,51.4126024516114],[0.428796485681339,51.4126098979201],[0.428784582491769,51.4123853112952],[0.428772679451699,51.4121607246538],[0.428413541202319,51.4121681695711],[0.428401639999965,51.4119435827644],[0.428042503289392,51.4119510264391],[0.428054402803523,51.4121756133946],[0.428066302467108,51.4124002003336],[0.427707162230671,51.412407643212],[0.427719060355441,51.4126322302833],[0.427359918281359,51.4126396722167],[0.427371814867271,51.4128642594201],[0.427012670955536,51.4128717004085],[0.427024566002547,51.4130962877442],[0.427036461198953,51.4133208750633],[0.427395608487345,51.4133134337775],[0.427407505521512,51.4135380209313],[0.427419402705103,51.4137626080687],[0.427431300038119,51.4139871951895],[0.427443197520565,51.4142117822938],[0.42745509515244,51.4144363693816]]],[[[0.440851935832535,51.4026913877458],[0.440839977313615,51.4024668019724],[0.440480918271666,51.4024742829334],[0.440121859081202,51.4024817628029],[0.440133814272561,51.4027063489285],[0.440145769612472,51.4029309350358],[0.440157725100937,51.4031555211247],[0.43979866077056,51.4031630004309],[0.439810614743732,51.4033875866775],[0.439822568865442,51.4036121729058],[0.44018163652354,51.4036046932473],[0.440540704033132,51.4035972124972],[0.440899771394196,51.4035897306555],[0.440887812280879,51.4033651449556],[0.44124687782953,51.4033576621985],[0.441234917200973,51.4031330766564],[0.441593980937217,51.4031255929838],[0.441582018793465,51.4029010075995],[0.441222956721039,51.402908491096],[0.441210996389724,51.4026839055171],[0.440851935832535,51.4026913877458]]]]}}