{"type":"Feature","properties":{"code":"E63003321","name":"Newmarket"},"geometry":{"type":"MultiPolygon","coordinates":[[[[0.377988161133213,52.2506700366601],[0.378354043744468,52.2506626665307],[0.378719926196377,52.2506552952688],[0.378707912885001,52.2504307317431],[0.379073792946436,52.2504233595466],[0.379085808488917,52.2506479228742],[0.379451690622063,52.2506405493471],[0.37946370697757,52.2508651130214],[0.379829590818237,52.2508577382918],[0.380195474499458,52.2508503624296],[0.380183454410072,52.250625798895],[0.380549336064887,52.2506184219701],[0.380561358021209,52.2508429854347],[0.380927241383465,52.2508356073073],[0.380939265366308,52.2510601706908],[0.380573380137095,52.2510675488882],[0.380207494748384,52.2510749259529],[0.380219515156852,52.251299489465],[0.380231535724864,52.251524052966],[0.379865646442681,52.2515314290379],[0.379877665303205,52.2517559925975],[0.379889684323255,52.2519805561459],[0.380255577339535,52.2519731799342],[0.380621470196331,52.2519658025898],[0.380633493110076,52.2521903659872],[0.380267598386198,52.2521977434015],[0.380279619592419,52.2524223068576],[0.379913722841944,52.2524296832091],[0.37992574234059,52.2526542467238],[0.379937761998771,52.2528788102274],[0.380303662483537,52.2528714337361],[0.380669562808807,52.2528640561121],[0.381035462974556,52.2528566773555],[0.381047488393817,52.2530812406381],[0.381413390267196,52.2530738606788],[0.38142541771327,52.2532984238803],[0.381791320892856,52.2532910422305],[0.381803350335818,52.2535156053014],[0.382169254485185,52.2535082215192],[0.382181285978087,52.2537327845001],[0.382547191855245,52.2537253995077],[0.382559225398135,52.2539499623987],[0.38292513300308,52.2539425761958],[0.382937168596008,52.2541671389969],[0.382949204350112,52.2543917017862],[0.383315115571748,52.2543843142948],[0.383327153375967,52.2546088769942],[0.383339191341392,52.2548334396818],[0.382973276341859,52.2548408273295],[0.382985312579509,52.2550653900836],[0.382997348978346,52.2552899528259],[0.383363267755872,52.2552825650217],[0.383351229468026,52.2550580023577],[0.383717146195398,52.2550506134995],[0.383705106179782,52.2548260509018],[0.384071020857005,52.2548186609896],[0.384083062761601,52.2550432235091],[0.384448979166608,52.2550358323865],[0.384461023121466,52.2552603948159],[0.384473067237613,52.2554849572337],[0.384838987259421,52.2554775648224],[0.384851033425906,52.2557021271501],[0.385216955175509,52.2556947335284],[0.385229003392384,52.2559192957661],[0.385594926869775,52.2559119009338],[0.385606977137087,52.2561364630816],[0.385972902342261,52.2561290670388],[0.386338827386103,52.2561216698638],[0.38635088159301,52.2563462318433],[0.386362935961342,52.2565707938109],[0.386728864622065,52.2565633953471],[0.386740921040984,52.2567879572248],[0.386752977621357,52.2570125190907],[0.387118909899023,52.257005119338],[0.387130968530058,52.2572296811138],[0.386765034363189,52.2572370809448],[0.386777091266484,52.2574616427871],[0.386411155048988,52.257469041564],[0.386423210224493,52.2576936034729],[0.386057271956365,52.2577010011958],[0.38606932540403,52.2579255631711],[0.385703385085264,52.25793295984],[0.385715436805041,52.2581575218818],[0.385349494435631,52.2581649174965],[0.38536154442747,52.2583894796049],[0.385373594580686,52.2586140417015],[0.385739540728794,52.2586066459302],[0.385751590963541,52.2588312083394],[0.385763634637665,52.2590557721124],[0.385397684348292,52.2590631680747],[0.385409726238146,52.2592877318964],[0.385043773833865,52.2592951267843],[0.384677821264357,52.2593025205385],[0.384665783273822,52.2590779565985],[0.384299832488776,52.2590853491598],[0.383933881538557,52.2590927405876],[0.383945915629761,52.259317304646],[0.383579962564724,52.2593246949992],[0.383591994871496,52.2595492591063],[0.383226039691638,52.259556648385],[0.383238070213927,52.2597812125408],[0.382872112919241,52.2597886007449],[0.382884141656996,52.2600131649493],[0.382518182247477,52.2600205520789],[0.382530209200649,52.260245116332],[0.382542236318996,52.2604696805745],[0.382554263602518,52.2606942448065],[0.38256629105122,52.260918809028],[0.382200323677364,52.2609261952604],[0.381834356138466,52.2609335803592],[0.381468388793308,52.2609409636191],[0.381480410603384,52.2611655280661],[0.38184637985258,52.2611581446884],[0.381858403731829,52.2613827090072],[0.381492432569661,52.2613900925006],[0.381126461748812,52.2613974741943],[0.381138482056521,52.2616220387058],[0.381150502520414,52.2618466032048],[0.381516476970836,52.2618392213322],[0.381528499405738,52.2620637857291],[0.381540521996853,52.2622883501136],[0.381906500900229,52.2622809661772],[0.382272480138822,52.2622735807237],[0.382260453648993,52.2620490165061],[0.382626430772518,52.262041629978],[0.382614402497877,52.261817065809],[0.382980377506338,52.2618096782062],[0.383346352349693,52.2618022894697],[0.383334320340337,52.2615777254085],[0.383322288496221,52.2613531613368],[0.382956317552746,52.261360549955],[0.382944287823772,52.2611359858136],[0.383310256817344,52.2611285972546],[0.383298225303703,52.2609040331619],[0.383664192182279,52.2608966435282],[0.383676225645795,52.2611212075618],[0.384042194309097,52.2611138167352],[0.384408162807226,52.2611064247749],[0.384420200335792,52.2613309886796],[0.384432238029674,52.2615555525738],[0.384066265631733,52.2615629446525],[0.384078301540986,52.2617875085953],[0.384090337615535,52.2620120725277],[0.383724361152494,52.2620194635909],[0.383736395442343,52.262244027572],[0.383748429897466,52.2624685915425],[0.38338244936924,52.2624759815903],[0.383016468675874,52.2624833705043],[0.38302849939617,52.2627079345826],[0.382662516587633,52.2627153224219],[0.382296533614005,52.2627227091274],[0.382284506793825,52.2624981449308],[0.381918525605195,52.2625055304434],[0.381930550475313,52.2627300946992],[0.381564567647734,52.2627374788452],[0.381576590707506,52.2629620431922],[0.381942575510584,52.2629546589444],[0.381954600711015,52.2631792231791],[0.381966626076606,52.2634037874034],[0.382332615065638,52.2633964016543],[0.382344642546556,52.2636209658089],[0.382356670192666,52.263845529953],[0.382368698003971,52.2640700940866],[0.382380725980472,52.2642946582097],[0.382392754122175,52.2645192223224],[0.38240478242908,52.2647437864245],[0.382770782954382,52.2647363991867],[0.383136783314566,52.2647290108151],[0.383502783509607,52.2647216213096],[0.383514817832647,52.2649461852237],[0.383880819812822,52.2649387945252],[0.383892856251475,52.2651633583696],[0.384258860016779,52.265155966478],[0.384624863616857,52.2651485734524],[0.384636904121522,52.2653731371681],[0.385002909506692,52.2653657429494],[0.385368914726582,52.2653583475969],[0.385356870321231,52.2651337839997],[0.385344826081292,52.2649092203919],[0.385710827235223,52.2649018240239],[0.385698781210407,52.2646772604649],[0.386064780248725,52.2646698630222],[0.386052732439083,52.2644452995119],[0.386418729361794,52.2644379009945],[0.386406679767374,52.264213337533],[0.386394630338432,52.2639887740609],[0.386382581074965,52.2637642105783],[0.386748571981693,52.2637568111048],[0.386760623195338,52.2639813745281],[0.386772674574484,52.264205937941],[0.386784726119133,52.2644305013433],[0.386796777829289,52.2646550647352],[0.386808829704954,52.2648796281165],[0.386442829047079,52.2648870278862],[0.386076828223827,52.264894426522],[0.38608887636439,52.2651189900113],[0.386100924670418,52.2653435534901],[0.386112973141912,52.2655681169583],[0.386478979816164,52.2655607181448],[0.386844986325031,52.2655533181974],[0.38685703886276,52.2657778815367],[0.386869091566012,52.2660024448655],[0.387235101810247,52.2659950436657],[0.387247156629455,52.2662196069247],[0.387613168658671,52.2662122045317],[0.387979180522415,52.2662048010047],[0.388345192220659,52.2661973963438],[0.388333131550183,52.2659728332626],[0.388321071045334,52.2657482701709],[0.388687078677246,52.2657408644947],[0.388675016387656,52.2655163014517],[0.389041021903661,52.2655088947009],[0.389407027254099,52.2655014868161],[0.389773032438944,52.2654940777974],[0.389785100579616,52.2657186406625],[0.390151107549197,52.2657112304506],[0.390163177805974,52.2659357932457],[0.390175248228504,52.2661603560304],[0.389809237358138,52.266167766361],[0.389821305995995,52.2663923291944],[0.389833374799586,52.2666168920174],[0.390199389570838,52.2666094815682],[0.390565404176431,52.2666020699851],[0.390577477046717,52.2668266326789],[0.3909434934371,52.2668192199024],[0.39130950966177,52.266811805992],[0.3916755257207,52.2668043909477],[0.392041541613865,52.2667969747694],[0.392053622451925,52.2670215372152],[0.392419640129789,52.2670141198436],[0.392785657641833,52.267006701338],[0.393151674988031,52.2669992816985],[0.393139588298516,52.2667747194308],[0.393505603528364,52.2667672987168],[0.393871618592318,52.2667598768687],[0.394237633490353,52.2667524538867],[0.394603648222442,52.2667450297708],[0.394591553897093,52.2665204677303],[0.394957566512768,52.2665130425399],[0.394945470403067,52.2662884805484],[0.395311480902335,52.2662810542835],[0.395677491235585,52.2662736268847],[0.395665391391196,52.2660490650015],[0.395653291712941,52.2658245031078],[0.396019297979407,52.265817074694],[0.396385304079811,52.2658096451463],[0.396373200667026,52.2655850833611],[0.39636109742042,52.2653605215653],[0.396727099454107,52.2653530910027],[0.396714994423401,52.2651285292558],[0.396702889558894,52.2649039674985],[0.397068887525951,52.264896535921],[0.397056780877418,52.2646719742126],[0.397044674395102,52.2644474124937],[0.397410668295616,52.2644399799014],[0.397398560029346,52.2642154182315],[0.397386451929314,52.263990856551],[0.397374343995517,52.26376629486],[0.397740331879457,52.2637588613124],[0.397728222161801,52.2635342996704],[0.3977161126104,52.2633097380179],[0.398082096428025,52.2633023034554],[0.398069985092836,52.2630777418519],[0.398057873923922,52.2628531802379],[0.398423854515735,52.2628457448664],[0.398411741465738,52.2626211832663],[0.398399628579197,52.2623966216583],[0.398765607582389,52.2623891857777],[0.398753492952111,52.2621646241824],[0.398741378485309,52.2619400625791],[0.398729264181981,52.2617155009678],[0.398717150042122,52.2614909393486],[0.39908312125332,52.2614835024143],[0.39907100536984,52.2612589408078],[0.399058889649848,52.2610343791934],[0.399046774093344,52.260809817571],[0.399412739419956,52.2608023795623],[0.399400622119921,52.2605778179526],[0.399766585376106,52.2605703788284],[0.399754466332593,52.2603458172314],[0.400120427518356,52.2603383769915],[0.400486388540656,52.2603309356154],[0.400852349399469,52.260323493103],[0.400840224798622,52.2600989315601],[0.401206183586975,52.2600914879322],[0.401194057242804,52.259866926402],[0.400828100361375,52.2598743700093],[0.400815976087723,52.2596498084505],[0.401181931062253,52.2596423648639],[0.40116980504532,52.2594178033179],[0.401157679192004,52.2591932417639],[0.401523630189287,52.2591857970825],[0.401511502592761,52.2589612355413],[0.401145553502298,52.2589686802019],[0.400779604248315,52.2589761237264],[0.400791728031196,52.259200685309],[0.40042577670689,52.259208127718],[0.400437898746507,52.2594326893134],[0.400071945351874,52.2594401306068],[0.400084065648176,52.2596646922149],[0.400096186108022,52.259889253815],[0.400108306731413,52.2601138154072],[0.399742347452608,52.2601212556264],[0.399730228736148,52.2598966940136],[0.399718110183209,52.2596721323927],[0.399352154554815,52.2596795714344],[0.39934003807228,52.259455009785],[0.39897408418737,52.2594624476697],[0.398608130139084,52.2594698844183],[0.398596017633771,52.2592453227196],[0.398230066386798,52.2592527583566],[0.398217956094508,52.2590281966231],[0.397852009489417,52.2590356311884],[0.397486062718196,52.2590430646201],[0.397473956491267,52.2588185027571],[0.397108011503504,52.2588259349956],[0.397095901946169,52.2586013749526],[0.396729958921834,52.258608805905],[0.39636401573541,52.2586162357251],[0.396351908740458,52.2583916759918],[0.395985967281277,52.258399104601],[0.39562002566006,52.2584065320779],[0.395607922605789,52.2581819721758],[0.395241982711848,52.2581893984419],[0.395229881708903,52.2579648384495],[0.394863943542242,52.2579722635048],[0.394851844590576,52.2577477034221],[0.394485908151202,52.2577551272666],[0.394119971549901,52.2577625499788],[0.394107876538683,52.2575379897274],[0.394473811250764,52.2575305670937],[0.39446171451231,52.257306006909],[0.394449617935838,52.2570814467126],[0.394815548707635,52.2570740231035],[0.395181479317489,52.2570665983622],[0.395547409765374,52.2570591724886],[0.39553530768346,52.2568346125158],[0.395901236080218,52.2568271855884],[0.39626716431496,52.2568197575288],[0.396633092387663,52.2568123283369],[0.396620984800477,52.2565877685878],[0.396986910822014,52.2565803383422],[0.397352836681465,52.2565729069643],[0.397340725478248,52.2563483473605],[0.397706649286517,52.256340914929],[0.39769453635642,52.2561163553919],[0.398060458113511,52.2561089219067],[0.398426380977882,52.2561014871723],[0.398414264288693,52.2558769277849],[0.398780188675131,52.2558694916282],[0.398768070319401,52.2556449322665],[0.399133992723423,52.2556374950092],[0.3991218727012,52.2554129356732],[0.399487793122812,52.2554054973154],[0.399499914969502,52.2556300566168],[0.399512036974218,52.2558546159093],[0.399524159136961,52.2560791751929],[0.399890084874074,52.2560717355962],[0.399902209019385,52.2562962948363],[0.400268136423035,52.2562888540698],[0.400634063668662,52.2562814121682],[0.400646191621142,52.2565059713302],[0.40028026255096,52.2565134132665],[0.40029238883697,52.2567379724543],[0.400304515281066,52.2569625316333],[0.399938582403671,52.2569699725036],[0.399950707181227,52.2571945317082],[0.399584772321192,52.257201971478],[0.399596895432162,52.2574265307084],[0.399609018701177,52.2576510899299],[0.399974957210549,52.257643650091],[0.400340895561904,52.2576362091168],[0.400353022638375,52.2578607682603],[0.399987082462318,52.257868209269],[0.399999207872165,52.2580927684382],[0.400011333440091,52.2583173275985],[0.400377277265622,52.2583098865205],[0.400389404816404,52.2585344456374],[0.400755350308658,52.2585270033895],[0.400743220933106,52.2583024443073],[0.400731091715684,52.2580778852163],[0.401097033400352,52.2580704419025],[0.401084902516338,52.2578458828371],[0.401450842218196,52.2578384384227],[0.401438709667636,52.2576138793832],[0.401072771790472,52.2576213237629],[0.400706833755219,52.2576287670075],[0.400694705012171,52.2574042078898],[0.401060641222751,52.2573967646799],[0.401048510813175,52.2571722055879],[0.401414445041026,52.2571647612774],[0.401402312964968,52.2569402022112],[0.401036380561738,52.2569476464871],[0.401024250468439,52.2567230873774],[0.401390181047072,52.2567156431362],[0.401756111467604,52.2567081977598],[0.401768245210095,52.2569327568002],[0.401780379110771,52.2571573158318],[0.402146313022386,52.2571498692509],[0.402134177297094,52.256925310254],[0.402500109225943,52.2569178625726],[0.402866040996619,52.2569104137561],[0.403231972609096,52.2569029638044],[0.403244113808218,52.2571275226972],[0.403610047087077,52.2571200715757],[0.403975980207688,52.2571126193189],[0.403988125214349,52.2573371781335],[0.40435406000131,52.2573297247069],[0.404719994629972,52.257322270145],[0.404732143444259,52.2575468288813],[0.40509807973924,52.2575393731496],[0.40508592910031,52.257314814448],[0.405073778619789,52.2570902557376],[0.405439711107165,52.2570827989401],[0.405427558960456,52.2568582402555],[0.405415406972171,52.2566336815621],[0.405781335652028,52.2566262236989],[0.405769181997626,52.2564016650313],[0.406135108694559,52.2563942060678],[0.406122953374087,52.256169647426],[0.406488878088102,52.2561621873621],[0.406501035233084,52.2563867459691],[0.406513192536558,52.2566113045672],[0.406879120741184,52.2566038432985],[0.406891280027708,52.2568284018529],[0.406525349998526,52.2568358631563],[0.406537507618991,52.2570604217367],[0.406549665397957,52.2572849803081],[0.406915599076321,52.2572775189352],[0.406927758838418,52.257502077463],[0.406939918759042,52.2577266359819],[0.406573981431397,52.2577340974243],[0.406586139685878,52.2579586559691],[0.406952078838199,52.2579511944919],[0.40696423907589,52.258175752993],[0.407330179894433,52.2581682903458],[0.407696120554475,52.2581608265633],[0.407683956667392,52.2579362681317],[0.408049895344217,52.2579288032488],[0.408415833862496,52.2579213372308],[0.408781772222205,52.2579138700774],[0.408793941583353,52.2581384284046],[0.409159881609151,52.2581309600812],[0.409172052953664,52.2583555183647],[0.409184224456861,52.2585800766392],[0.409550167973471,52.258572607111],[0.409916111331431,52.2585651364475],[0.410282054530718,52.2585576646488],[0.410269877553344,52.2583331064789],[0.410635818769214,52.2583256335798],[0.410623640125899,52.2581010754358],[0.410989579358357,52.2580936014364],[0.410977399049151,52.2578690433184],[0.410965218898744,52.2576444851914],[0.410599283315601,52.2576519591211],[0.410587105148612,52.2574274009504],[0.410221171231383,52.25743487371],[0.40985523715547,52.2574423453344],[0.409843062796452,52.2572177870852],[0.409477130386485,52.2572252575395],[0.409464958010767,52.2570006992465],[0.409830888596153,52.256993228827],[0.409818714554568,52.25676867056],[0.409452785793741,52.2567761409447],[0.409440613735403,52.2565515826339],[0.409428441835751,52.2563270243143],[0.409416270094782,52.2561024659857],[0.409404098512494,52.2558779076483],[0.409038176891041,52.2558853767585],[0.409026007291871,52.2556608183774],[0.409013837851353,52.2554362599874],[0.409001668569482,52.2552117015885],[0.408989499446257,52.2549871431807],[0.408623584963841,52.2549946110165],[0.408611417823606,52.254770052565],[0.408977330481674,52.2547625847641],[0.409343242981162,52.2547551158281],[0.409709155322049,52.254747645757],[0.410075067504308,52.2547401745508],[0.410440979527917,52.2547327022096],[0.410428803424707,52.2545081439235],[0.410794713465332,52.254500670482],[0.410782535696568,52.2542761122219],[0.410770358086561,52.2540515539528],[0.410758180635304,52.2538269956749],[0.410746003342795,52.2536024373881],[0.411111905927736,52.2535949629511],[0.411099726969786,52.2533704046903],[0.410733826209032,52.2533778790924],[0.410367925289598,52.2533853523595],[0.410355750138744,52.2531607940201],[0.410343575146607,52.2529362356718],[0.410331400313183,52.2527116773146],[0.410697295760192,52.2527042041521],[0.410685119261384,52.2524796458209],[0.411051012725628,52.2524721715583],[0.411416906031177,52.2524646961607],[0.411782799178008,52.2524572196281],[0.412148692166096,52.2524497419606],[0.412514584995419,52.2524422631581],[0.412880477665951,52.2524347832206],[0.41324637017767,52.2524273021481],[0.413612262530551,52.2524198199406],[0.413600071598013,52.2521952618798],[0.413965961967988,52.2521877785723],[0.41395376937035,52.2519632205375],[0.413941576931655,52.2517386624939],[0.414307463494733,52.2517311781213],[0.414319657757423,52.2519557361301],[0.414685545985592,52.2519482505876],[0.414697742231264,52.2521728085525],[0.41470993863593,52.2523973665084],[0.41472213519959,52.2526219244555],[0.415088029285353,52.2526144377054],[0.415453924789291,52.2526069499127],[0.415466125208074,52.2528315078093],[0.415832022360608,52.2528240188641],[0.416197919355313,52.2528165287827],[0.41618571532374,52.2525919709187],[0.416551610354202,52.2525844797173],[0.416539404674174,52.252359921862],[0.416905297740399,52.2523524295407],[0.417271190648731,52.2523449360832],[0.417258981513955,52.2521203782528],[0.417246772537159,52.2518958204149],[0.417612661674926,52.2518883258538],[0.417624872458035,52.2521128836755],[0.417990763244176,52.2521053879618],[0.418356653872354,52.252097891112],[0.418368868426128,52.2523224488933],[0.418381083137953,52.252547006667],[0.418393298007833,52.252771564433],[0.418405513035771,52.2529961221914],[0.418771410731417,52.25298862414],[0.418783627723838,52.2532131818744],[0.418795844874346,52.2534377396011],[0.418429943565831,52.2534452376853],[0.418442159067958,52.2536697954208],[0.418808062182943,52.2536622973203],[0.418820279649633,52.2538868550318],[0.418832497274419,52.2541114127356],[0.418844715057302,52.2543359704318],[0.418856932998286,52.2545605281204],[0.41922284318135,52.2545530288181],[0.419588753206352,52.2545455283795],[0.419954663073267,52.2545380268046],[0.420320572782073,52.2545305240934],[0.420332798107488,52.2547550817088],[0.420345023591106,52.2549796393166],[0.41997911026912,52.2549871420606],[0.419991334104315,52.2552116996771],[0.419625418817587,52.2552192013011],[0.419637641004314,52.2554437589264],[0.419271723752835,52.2554512594305],[0.418905806343285,52.2554587587982],[0.418918025074813,52.2556833164486],[0.41893024396446,52.2559078740914],[0.418564322783466,52.2559153723555],[0.418576540024501,52.2561399300069],[0.418210616878742,52.256147427151],[0.418222832471118,52.2563719848112],[0.418235048221571,52.2565965424637],[0.418247264130106,52.2568211001086],[0.418613192696211,52.2568136029155],[0.418625410569658,52.2570381605364],[0.418991340784547,52.2570306621905],[0.419003560622956,52.2572552197874],[0.418637628601216,52.2572627181496],[0.418649846790886,52.2574872757553],[0.418662065138672,52.2577118333532],[0.418674283644576,52.2579363909436],[0.41904022108701,52.2579288925323],[0.419052441557981,52.2581534500986],[0.419418380649278,52.2581459505344],[0.419784319582468,52.2581384498338],[0.419772095497614,52.2579138923002],[0.420138032465738,52.2579063904795],[0.420125806732162,52.2576818329546],[0.420491741735224,52.2576743300139],[0.420479514352975,52.2574497724978],[0.420113581156801,52.2574572754222],[0.420101355739649,52.257232717882],[0.419735424192196,52.2572402196536],[0.419723200740095,52.2570156620894],[0.420089130480706,52.2570081603343],[0.420455060063177,52.2570006574427],[0.42046728712896,52.2572252149741],[0.420833218360105,52.2572177109297],[0.421199149433058,52.2572102057489],[0.421211380270791,52.2574347632398],[0.421223611266808,52.2576593207231],[0.421589545795282,52.2576518143731],[0.421955480165514,52.2576443068866],[0.421943245555744,52.2574197494361],[0.422309177960837,52.2574122408297],[0.422675110207643,52.2574047310868],[0.422662872142506,52.2571801736616],[0.423028802424158,52.2571726627987],[0.423016562710575,52.2569481053824],[0.423382491027077,52.2569405933996],[0.423370249665097,52.2567160359921],[0.423358008461532,52.2564914785769],[0.423723933006124,52.2564839654907],[0.42371169015423,52.2562594080844],[0.42407761273371,52.2562518938782],[0.4244435351548,52.2562443785357],[0.424809457417475,52.2562368620568],[0.424821705689583,52.2564614194136],[0.424455781620173,52.256468935909],[0.424089857392345,52.256476451268],[0.424102102209441,52.2567010086502],[0.424114347185001,52.2569255660248],[0.424126592319029,52.2571501233917],[0.424492521967213,52.2571426079831],[0.424504769066542,52.2573671653259],[0.424870700363131,52.2573596487645],[0.42488294942781,52.2575842060831],[0.424895198651013,52.257808763394],[0.425261133402876,52.2578012456631],[0.425273384591503,52.25802580295],[0.425639320991781,52.2580182840661],[0.425627067996258,52.2577937267958],[0.425993002431135,52.257786206792],[0.425980747787315,52.2575616495306],[0.425614815159308,52.2575691695179],[0.425602562480928,52.2573446122323],[0.425968493302089,52.2573370922616],[0.426334423964728,52.2573295711545],[0.426322167831274,52.2571050138944],[0.425956238975455,52.2571125349849],[0.425943984807409,52.2568879777006],[0.425578057599868,52.2568954976382],[0.425565805397182,52.2566709403298],[0.425553553353055,52.2564463830136],[0.425187629600551,52.2564539017818],[0.425175379521712,52.2562293444415],[0.425163129601401,52.2560047870936],[0.424797209303873,52.2560123046923],[0.42443128884791,52.2560198211547],[0.424419042699499,52.2557952637661],[0.424406796709565,52.2555707063699],[0.424772713552177,52.2555631899405],[0.424760465914076,52.2553386325531],[0.425126380791621,52.2553311150039],[0.425114131505403,52.2551065576254],[0.425101882377701,52.2548820002392],[0.425467793483596,52.2548744815867],[0.425833704431023,52.2548669617979],[0.42582145184871,52.2546424044372],[0.426187360831088,52.2546348835285],[0.426199615219957,52.2548594408727],[0.426211869767413,52.2550839982093],[0.42657778220441,52.2550764761313],[0.426590038717055,52.2553010334436],[0.426602295388313,52.2555255907483],[0.426968211279991,52.2555180675009],[0.426955952802109,52.2552935102127],[0.427321866728594,52.2552859858455],[0.427687780496487,52.2552784603419],[0.427675518564051,52.2550539030793],[0.427663256790298,52.254829345809],[0.42729734663557,52.2548368712794],[0.427285086827043,52.2546123139849],[0.426919178320277,52.2546198383024],[0.42690692047693,52.2543952809837],[0.426541013618132,52.2544028041483],[0.426175106600799,52.2544103261767],[0.42616285252909,52.2541857688172],[0.425796947159757,52.2541932896928],[0.42578469505311,52.2539687323091],[0.425418791331783,52.2539762520318],[0.425406541190151,52.253751694624],[0.425040639116833,52.2537592131939],[0.425028390940169,52.2535346557619],[0.424662490514867,52.253542173179],[0.424650244303123,52.2533176157228],[0.424284345525841,52.2533251319871],[0.42391844659018,52.2533326471152],[0.423906204149714,52.2531080896184],[0.423540306862105,52.2531156035938],[0.423528066386442,52.2528910460729],[0.423162170746892,52.2528985588955],[0.423149932235986,52.2526740013504],[0.422784038244498,52.2526815130203],[0.4227718016983,52.2524569554512],[0.422405909354881,52.2524644659684],[0.422393674773344,52.2522399083752],[0.422027784077999,52.2522474177397],[0.422015551461076,52.2520228601224],[0.421649662413808,52.2520303683343],[0.421637431761452,52.2518058106929],[0.421271544362269,52.2518133177521],[0.42125931567443,52.2515887600866],[0.420893429923337,52.2515962659933],[0.42088120319997,52.2513717083037],[0.420515319096971,52.2513792130578],[0.420149434835855,52.2513867166756],[0.42013721188313,52.2511621589456],[0.420124989088561,52.250937601208],[0.419759108281768,52.2509451036569],[0.419746887451528,52.2507205458952],[0.419381008292846,52.2507280471916],[0.419015128976124,52.2507355473518],[0.41900291191632,52.2505109895497],[0.418637034247741,52.2505184885574],[0.418271156421172,52.2505259864289],[0.417905278436639,52.2505334831643],[0.417893064879309,52.2503089276163],[0.41825894092976,52.2503014310399],[0.418246724440394,52.2500768769313],[0.417880850221265,52.2500843734629],[0.417868635722908,52.2498598193],[0.41750276317544,52.2498673146526],[0.417490550668044,52.2496427604354],[0.417124679792243,52.2496502546091],[0.417112469275761,52.2494257003377],[0.416746600071632,52.2494331933324],[0.416734391546015,52.2492086390068],[0.416368524013563,52.2492161308226],[0.416356317478763,52.2489915764427],[0.416344111103539,52.2487670220533],[0.415978247073963,52.2487745126456],[0.415612382884885,52.2487820021038],[0.415600180331575,52.2485574476154],[0.41523431781419,52.2485649358947],[0.415222117251551,52.2483403813521],[0.415209916848412,52.2481158268],[0.414844058642297,52.248123313808],[0.414478201438226,52.2481307996135],[0.414466004877456,52.2479062449501],[0.414100149316011,52.2479137295713],[0.413734293597274,52.2479212130587],[0.413746486558154,52.2481457678232],[0.413380628882201,52.2481532502275],[0.413392820200424,52.2483778050326],[0.413026960567247,52.2483852863536],[0.413014771049001,52.248160731498],[0.413002581688024,52.2479361766324],[0.412636725497556,52.2479436567187],[0.412624538093776,52.2477191017926],[0.412258683546045,52.2477265806946],[0.412246498099416,52.2475020257082],[0.411880645194428,52.247509503426],[0.411868461704902,52.2472849483791],[0.41150261044266,52.2472924249126],[0.41149042891019,52.2470678698053],[0.411856278372562,52.2470603933223],[0.412222127677795,52.2470529157055],[0.412209942702797,52.2468283606892],[0.412575790051027,52.2468208819893],[0.412563603433419,52.2465963270136],[0.412929448824653,52.2465888472305],[0.41291726056448,52.2463642922954],[0.413283103998723,52.2463568114291],[0.413270914096035,52.2461322565346],[0.413258724350614,52.2459077016302],[0.413624564028135,52.2459002197313],[0.413612372640267,52.2456756648675],[0.413600181409685,52.2454511099938],[0.413966017330566,52.2454436270624],[0.414331853094187,52.2454361429972],[0.414319658421565,52.2452115882147],[0.414685492228244,52.2452041030665],[0.414673295913317,52.2449795483246],[0.414661099755739,52.2447549935727],[0.414295269548303,52.2447624786198],[0.414283075347657,52.2445379238074],[0.414270881304331,52.2443133689852],[0.414636707912618,52.2443058840392],[0.415002534395278,52.2442983979549],[0.414990336878526,52.2440738432286],[0.415356162761555,52.2440663558452],[0.415343963557648,52.2438418011566],[0.415709787466517,52.2438343126814],[0.416075611215944,52.2438268230722],[0.416441434805905,52.243819332329],[0.416807258236375,52.2438118404519],[0.416795051869381,52.2435872859325],[0.417160873309707,52.2435797929662],[0.417148665271664,52.2433552384819],[0.417514484721849,52.2433477444264],[0.417880304012478,52.2433402492369],[0.417868092472855,52.2431156948325],[0.41823390977333,52.2431081985538],[0.418599726914202,52.2431007011412],[0.418965543895449,52.2430932025947],[0.419331360717048,52.2430857029142],[0.419319142014863,52.2428611486793],[0.419684956846248,52.2428536479097],[0.420050771517938,52.2428461460062],[0.42041658602991,52.2428386429687],[0.420782400382139,52.2428311387974],[0.420770174517626,52.2426065847321],[0.421135986879584,52.2425990794717],[0.421123759344402,52.2423745254417],[0.420757948812923,52.2423820306573],[0.420745723268029,52.242157476573],[0.420733499038368,52.2419329171864],[0.421099305930724,52.2419254118802],[0.4214651126613,52.241917905443],[0.421830919230073,52.2419103978747],[0.421843148891724,52.2421349576588],[0.422208957113328,52.2421274490864],[0.422196725637016,52.2419028891755],[0.42218449438599,52.2416783289431],[0.422172263296869,52.2414537686984],[0.422160032369649,52.2412292084412],[0.422147801604328,52.2410046481716],[0.422135571000904,52.2407800878896],[0.421769773895602,52.2407875961505],[0.421757545314327,52.2405630357684],[0.421745316894918,52.2403384753739],[0.422111110279733,52.2403309672884],[0.422098880161979,52.2401064069691],[0.422464671524756,52.2400988978404],[0.422830462725679,52.2400913875807],[0.423196253764722,52.24008387619],[0.423562044641861,52.2400763636684],[0.423927835357073,52.2400688500159],[0.423915596100334,52.2398442901228],[0.424281384793428,52.239836775427],[0.424647173324548,52.2398292596003],[0.42501296169367,52.2398217426426],[0.425000717018519,52.2395971830003],[0.425366503365486,52.2395896649995],[0.425732289550407,52.2395821458677],[0.425720041317116,52.2393575863885],[0.426085825479866,52.2393500662136],[0.426451609480527,52.2393425449078],[0.426817393319071,52.2393350224711],[0.427183176995478,52.2393274989035],[0.427170921484009,52.239102939763],[0.427536703138185,52.2390954151523],[0.427902484630176,52.2390878894107],[0.428268265959958,52.2390803625382],[0.428256005030583,52.2388558036488],[0.428621784338096,52.2388482757332],[0.428987563483355,52.2388407466867],[0.428975298996246,52.2386161879606],[0.42934107611922,52.2386086578711],[0.429706853079893,52.2386011266507],[0.43007262987824,52.2385935942995],[0.43006035997353,52.2383690358245],[0.430426134749556,52.2383615024303],[0.43079190936321,52.2383539679053],[0.431157683814467,52.2383464322493],[0.431145408492324,52.2381218740256],[0.431511180921224,52.2381143373267],[0.431876953235245,52.2381067996284],[0.431864674361133,52.2378822415593],[0.432230444700468,52.2378747029053],[0.432596214878282,52.2378671631204],[0.43258393247475,52.2376426052103],[0.432949700645542,52.23763506438],[0.43331546865477,52.2376275224187],[0.433681236502409,52.2376199793265],[0.433668948724111,52.237395421661],[0.43403471456469,52.2373878775234],[0.434400480243635,52.2373803322549],[0.434766245760922,52.2373727858555],[0.435132011116528,52.237365238325],[0.435119716118217,52.23714068099],[0.435485479466703,52.2371331324143],[0.43547318278476,52.2369085751526],[0.435460886264595,52.2366840178786],[0.435448589906204,52.2364594605924],[0.435082832093808,52.236467008911],[0.434717074119716,52.2364745560987],[0.434351315983953,52.2364821021554],[0.433985557686543,52.2364896470813],[0.4339732688712,52.23626508944],[0.433960980217529,52.2360405317865],[0.433948691725528,52.2358159741206],[0.433936403395194,52.2355914164425],[0.433924115226523,52.2353668587521],[0.434289864297558,52.2353593142545],[0.434277574445345,52.2351347566375],[0.433911827219513,52.2351423010494],[0.433899539374161,52.2349177433344],[0.433887251690463,52.2346931856071],[0.433874964168419,52.2344686278675],[0.433509222316453,52.2344761708915],[0.433143480302912,52.2344837127847],[0.433131196632737,52.2342591548616],[0.433496936801166,52.234251613054],[0.433484651447502,52.2340270552042],[0.433472366255458,52.2338024973421],[0.433838102572171,52.2337949545751],[0.43382581794489,52.2335703923233],[0.433460083412885,52.2335779351894],[0.433447800927687,52.233353372646],[0.433082068098488,52.2333609143231],[0.433094348717934,52.2335854769226],[0.432728613860062,52.2335930175231],[0.432740893137362,52.2338175794839],[0.432375156336028,52.2338251188585],[0.432009419373201,52.2338326571023],[0.431997143655651,52.2336080953256],[0.431631408338802,52.2336156325446],[0.431619135198571,52.2333910697338],[0.43198486863348,52.2333835325572],[0.431972593774217,52.2331589697786],[0.431960319077862,52.2329344069897],[0.431594589412904,52.2329419440927],[0.431228859971443,52.2329494803808],[0.431216589222132,52.232724917551],[0.430850861511967,52.232732452703],[0.430838592823663,52.2325078898674],[0.430472866844801,52.2325154238834],[0.430460600217457,52.2322908610418],[0.430094875969902,52.2322983939218],[0.429729151557595,52.2323059256653],[0.429716888887228,52.2320813628184],[0.429704626381652,52.2318567999651],[0.430070347001848,52.2318492682205],[0.430058082765043,52.23162470536],[0.429692364040866,52.2316322371052],[0.429326645151969,52.2316397677139],[0.429314384871966,52.2314152048482],[0.428948667714373,52.2314227343209],[0.428936409495104,52.2311981714493],[0.428924151440566,52.2309736085712],[0.428558437910239,52.2309811369087],[0.428192724215274,52.2309886641096],[0.428204978477903,52.2312132269864],[0.428217232905213,52.2314377898567],[0.428229487497208,52.2316623527205],[0.428595206880115,52.2316548255216],[0.428607463532827,52.2318793883795],[0.428241742253889,52.2318869155779],[0.428253997175262,52.2321114784288],[0.427888273835644,52.2321190044899],[0.427900527025627,52.2323435673336],[0.427912780380282,52.2325681301709],[0.427547053083867,52.2325756550942],[0.427559304707062,52.2328002179243],[0.427193575349927,52.2328077417103],[0.427205825241613,52.2330323045332],[0.426840093823753,52.233039827182],[0.42685234198388,52.2332643899978],[0.426486608505289,52.2332719115092],[0.426474362241355,52.2330473486941],[0.426108630494445,52.2330548690697],[0.425742898583046,52.2330623883086],[0.425755141054586,52.2332869511223],[0.425767383690661,52.2335115139295],[0.425401647822372,52.2335190320304],[0.425413888726734,52.2337435948305],[0.425048150797747,52.233751111794],[0.425060392657877,52.2339756720983],[0.425072635141561,52.2342002319634],[0.424706893430491,52.2342077478582],[0.424719134216655,52.2344323077987],[0.424731375164828,52.2346568677267],[0.425097120595022,52.2346493516564],[0.425109363564804,52.2348739114842],[0.42547511069261,52.2348663941955],[0.425487355684051,52.2350909539232],[0.425121606696625,52.2350984712997],[0.425133849990487,52.2353230311027],[0.425146093446393,52.2355475908933],[0.424780340577662,52.2355551073145],[0.42479258233592,52.2357796671804],[0.424804824256203,52.2360042270339],[0.424817066338515,52.236228786875],[0.424451307728646,52.2362363024287],[0.424463548113219,52.2364608623451],[0.424475788659801,52.236685422249],[0.424110026168408,52.2366929368474],[0.424122265017179,52.2369174968267],[0.424134504027942,52.2371420567936],[0.42376873765494,52.2371495704366],[0.423756500504026,52.236925010382],[0.423390735828961,52.2369325228065],[0.423024970992007,52.2369400341001],[0.423037204423212,52.2371645943301],[0.423049438016339,52.2373891545477],[0.42306167177139,52.2376137147529],[0.423427442187982,52.2376062031961],[0.423439677964886,52.2378307633011],[0.423451913903746,52.2380553233937],[0.423086139767272,52.2380628351259],[0.423098374008111,52.2382873952938],[0.42273259784978,52.2382949059829],[0.42274483039255,52.238519466226],[0.422757063097233,52.2387440264568],[0.422391283057008,52.2387515361903],[0.422403514063552,52.2389760964964],[0.422037732001431,52.2389836051867],[0.421671949777493,52.2389911127461],[0.421306167391763,52.2389986191746],[0.421318392979947,52.2392231797312],[0.420952608572358,52.2392306851165],[0.420586824003025,52.2392381893708],[0.420221039271969,52.2392456924941],[0.419855254379217,52.2392531944866],[0.419489469324792,52.2392606953481],[0.419477253037092,52.2390361343532],[0.419111469681123,52.2390436339962],[0.418745686163534,52.2390511325083],[0.418733473757699,52.2388265713258],[0.418367691938599,52.2388340686193],[0.41800190995793,52.2388415647819],[0.417989701433871,52.2386170034118],[0.41797749307141,52.2383924420293],[0.417611714649308,52.2383999368858],[0.417245936065689,52.2384074306115],[0.41725814070806,52.2386319921691],[0.416892360102903,52.2386394848514],[0.416880157320581,52.2384149232062],[0.416514378414006,52.23842241467],[0.416148599345989,52.2384299050029],[0.416136400445248,52.2382053431703],[0.416124201705977,52.2379807813252],[0.416112003128174,52.2377562194677],[0.415746229478767,52.2377637084071],[0.415380455667976,52.2377711962156],[0.415014681695823,52.2377786828933],[0.415002488859375,52.2375541207608],[0.414636718100257,52.237561607289],[0.41462452735737,52.2373370451613],[0.414258758348467,52.237344530557],[0.414246569648563,52.2371199684012],[0.413880802357287,52.2371274526413],[0.413868615700318,52.2369028904575],[0.413502850126674,52.2369103735421],[0.413490665512591,52.2366858113301],[0.413124901656585,52.2366932932592],[0.413112719085339,52.2364687310192],[0.412746956946978,52.2364762117928],[0.412734776418518,52.2362516495247],[0.413100536676704,52.2362441687713],[0.413466296772336,52.2362366868825],[0.41345411264616,52.2360121246469],[0.413819870699072,52.2360046416429],[0.413807684855403,52.2357800794196],[0.413441928682614,52.2357875624033],[0.413429744881693,52.2355630001518],[0.413063990426435,52.2355704819801],[0.413051808668215,52.2353459197006],[0.412686055930491,52.2353534003734],[0.412320303030253,52.235360879911],[0.412332481028312,52.2355854422308],[0.411966726085501,52.2355929206532],[0.411978902366002,52.2358174829852],[0.411613145380609,52.2358249602925],[0.411247388232769,52.2358324364644],[0.411259560915524,52.2360569988288],[0.410893801725122,52.2360644738855],[0.410881630922508,52.235839911501],[0.410869460282349,52.2356153491086],[0.410503704689811,52.2356228229898],[0.4104915360922,52.2353982605694],[0.410857289804644,52.2353907867083],[0.411223043354695,52.2353833117119],[0.411210871159371,52.2351587493238],[0.411198699126519,52.2349341869279],[0.41083294933658,52.234941661884],[0.410845119489389,52.2351662243001],[0.410479367657016,52.2351736981412],[0.410467199384254,52.234949135705],[0.410101449269568,52.2349566083906],[0.410089283039251,52.2347320459264],[0.409723534642255,52.2347395174567],[0.409711370454334,52.2345149549646],[0.409345623775036,52.2345224253396],[0.409333461629461,52.2342978628194],[0.408967716667867,52.2343053320391],[0.408955556564589,52.234080769491],[0.408589813320704,52.2340882375554],[0.408577655259675,52.2338636749794],[0.408211913733505,52.2338711418884],[0.408199760033793,52.2336465785782],[0.407834020087679,52.2336540443495],[0.407821869887218,52.2334294805229],[0.407456131640516,52.2334369451049],[0.407443983461209,52.2332123812115],[0.407078246913925,52.2332198446042],[0.407066100755721,52.232995280644],[0.406700365907861,52.2330027428475],[0.406688221770712,52.2327781788206],[0.406676077794403,52.2325536147833],[0.406310346506141,52.2325610757411],[0.406298204550811,52.2323365116371],[0.405932474961963,52.2323439714058],[0.405944615057147,52.2325685355662],[0.405578883447445,52.2325759942585],[0.405591021843243,52.2328005584651],[0.40522528821268,52.232808016081],[0.405237424909043,52.2330325803337],[0.405249561766151,52.233257144576],[0.404883824254496,52.233264601172],[0.404895959412099,52.2334891654604],[0.404530219879546,52.23349662098],[0.404542353337596,52.2337211853145],[0.404176611784139,52.2337286397577],[0.404188746245947,52.2339532029633],[0.404200881747494,52.2341777657792],[0.403835136396592,52.2341852190855],[0.403847270180131,52.2344097819134],[0.403481522787322,52.2344172341043],[0.403469390883785,52.2341926712565],[0.403103645209099,52.2342001222923],[0.402737899372556,52.2342075721928],[0.402750027516079,52.2344321350805],[0.402384279637694,52.2344395838656],[0.402396406063077,52.2346641467653],[0.402030656142844,52.2346715944351],[0.401664906060824,52.2346790409697],[0.401677028887953,52.2349036039012],[0.401689151876911,52.2351281668248],[0.402054905719087,52.2351207202505],[0.402067030749991,52.2353452831464],[0.402432786310487,52.2353378354169],[0.402444913383386,52.235562398285],[0.402079155942755,52.2355698460344],[0.40209128129738,52.2357944089145],[0.401725521814785,52.2358018555484],[0.401737645451085,52.2360264184404],[0.40174976924923,52.2362509813246],[0.401384005844451,52.236258426863],[0.401018242277915,52.236265871266],[0.400652478549645,52.2362733145337],[0.400664596868905,52.2364978774695],[0.401030362477421,52.236490434182],[0.401042482838727,52.2367149970901],[0.401054603361835,52.2369395599903],[0.400688833992754,52.2369470033175],[0.400700952797348,52.2371715662297],[0.400713071763725,52.2373961291339],[0.401078844893469,52.237388685767],[0.401090965902002,52.2376132486435],[0.401103087072348,52.2378378115122],[0.400737310181842,52.2378452549188],[0.400371533129607,52.23785269719],[0.40035941572005,52.2376281342817],[0.399993640386512,52.2376355753977],[0.399627864891296,52.2376430153784],[0.39926208923443,52.2376504542236],[0.398896313415936,52.2376578919335],[0.398908423303882,52.2378824549211],[0.398920533353497,52.2381070179008],[0.398932643564784,52.2383315808726],[0.399298425024572,52.2383241431033],[0.399664206322726,52.2383167041986],[0.400029987459218,52.2383092641585],[0.400042103473615,52.238533827063],[0.400407886328895,52.2385263858676],[0.400420004385539,52.2387509487444],[0.400785788959601,52.2387435063938],[0.401151573371924,52.2387360629077],[0.401517357622482,52.2387286182863],[0.40188314171125,52.2387211725293],[0.40189526745173,52.2389457353188],[0.402261053259192,52.2389382884066],[0.402273181042082,52.2391628511682],[0.401907393354088,52.2391702981003],[0.401541605504276,52.239177743897],[0.401175817492668,52.2391851885581],[0.40116369535138,52.2389606257369],[0.400797909058543,52.2389680692428],[0.400432122603962,52.2389755116132],[0.400066335987664,52.2389829528483],[0.399700549209672,52.2389903929478],[0.399688434752294,52.2387658300393],[0.399676320456647,52.2385412671229],[0.399310537278015,52.2385487060474],[0.398944753937746,52.2385561438365],[0.398578970435864,52.2385635804902],[0.398591079089996,52.238788143466],[0.398603187905785,52.2390127064339],[0.398237401263283,52.2390201414357],[0.398225294408348,52.2387955783653],[0.398213187709891,52.2385710152849],[0.397847406827397,52.2385784474007],[0.397835302088252,52.2383538842563],[0.397469522852205,52.2383613151853],[0.397481625788514,52.2385858783834],[0.397493728881252,52.2388104415714],[0.397127945883139,52.2388178714747],[0.396762162728683,52.2388253002447],[0.396774262372077,52.2390498635301],[0.397140047329423,52.2390424347062],[0.397152148932118,52.2392669979277],[0.397517935536027,52.239259567917],[0.397530039098069,52.2394841310745],[0.397895827348536,52.2394766998768],[0.397907932869976,52.2397012629705],[0.397920038547881,52.239925826054],[0.397932144382255,52.2401503891274],[0.397944250373104,52.2403749521906],[0.397578454910673,52.2403823836033],[0.397590559254946,52.2406069467101],[0.397224761833076,52.2406143770433],[0.396858964254839,52.2406218062432],[0.396846863516675,52.2403972430289],[0.396481067585154,52.2404046710418],[0.396468968806429,52.2401801077637],[0.396103174521629,52.2401875345896],[0.395737380080539,52.2401949602824],[0.395371585483183,52.2402023848419],[0.395005790729583,52.2402098082681],[0.394993699319306,52.239985244765],[0.394627906212511,52.2399926670043],[0.394262112949524,52.2400000881104],[0.39425002530153,52.2397755244898],[0.393884233685379,52.239782944409],[0.393518441913084,52.2397903631949],[0.393506358027288,52.2395657994569],[0.39314056790186,52.239573217056],[0.39277477762034,52.2395806335219],[0.392786857900158,52.2398051973672],[0.392421065659574,52.2398126127534],[0.39205527326294,52.2398200270065],[0.391689480710281,52.2398274401263],[0.391701555737174,52.2400520041223],[0.391335761225488,52.2400594161624],[0.39096996655782,52.2400668270693],[0.390604171734194,52.240074236843],[0.390616241507999,52.2402988009896],[0.390628311437801,52.2405233651261],[0.390262512852103,52.2405307738736],[0.389896714110489,52.2405381814879],[0.38990878059008,52.2407627457214],[0.389920847225627,52.2409873099447],[0.389555044721877,52.2409947165328],[0.389542979889463,52.2407701522559],[0.389177179032974,52.2407775576572],[0.388811378020636,52.2407849619252],[0.388445576852474,52.2407923650599],[0.388079775528511,52.2407997670614],[0.387713974048769,52.2408071679295],[0.387726029865474,52.241031732474],[0.387738085837994,52.2412562970084],[0.388103890924053,52.2412488960332],[0.388115948855587,52.241473460504],[0.388481755589056,52.241466058342],[0.388493815479649,52.2416906227491],[0.388505875526115,52.2419151871461],[0.388517936507679,52.2421397509228],[0.388152124614902,52.2421471530564],[0.388164190549508,52.242371711758],[0.388176256635744,52.2425962704493],[0.388542072007212,52.242588868206],[0.388907887227045,52.2425814648295],[0.388919956943673,52.2428060234009],[0.388554139984462,52.2428134268323],[0.388188322873613,52.2428208291304],[0.387822505611152,52.2428282302953],[0.387810441112665,52.2426036715594],[0.387798376765788,52.2423791128132],[0.387786312570519,52.2421545540568],[0.387420500374552,52.242161953924],[0.387432562830482,52.2423865127352],[0.387066748743611,52.242393911524],[0.386700934505199,52.2424013091795],[0.38633512011527,52.2424087057018],[0.386347177504682,52.2426332646671],[0.386712993633982,52.2426258680901],[0.386725052914306,52.2428504269904],[0.387090870631475,52.2428430292253],[0.387102931802756,52.2430675880606],[0.387114993125606,52.2432921468857],[0.387480814170074,52.2432847478777],[0.387492877383953,52.2435093066378],[0.387858700016301,52.2435019064418],[0.387846635062967,52.2432773477365],[0.388212455804265,52.243269946462],[0.38822452249705,52.2434945051124],[0.388590344826176,52.2434871026499],[0.388602413410078,52.2437116612353],[0.388236589341479,52.2437190637527],[0.387870765121255,52.2437264651368],[0.387882830377832,52.2439510238217],[0.387517004266505,52.2439584241274],[0.387151178003596,52.2439658232997],[0.387139116226023,52.2437412645053],[0.38677329155106,52.2437486624896],[0.386761231664547,52.2435241036301],[0.386395408577534,52.2435315004263],[0.386029585339013,52.2435388960892],[0.385663761949005,52.2435462906189],[0.385675816617054,52.2437708496427],[0.386041641746553,52.2437634550583],[0.3860536983056,52.2439880140171],[0.385687871436587,52.2439954086563],[0.385699926407608,52.2442199676596],[0.385334097647585,52.2442273612203],[0.384968268736115,52.2442347536476],[0.384980320379497,52.2444593127503],[0.384992372174326,52.2446838718427],[0.384626539632269,52.2446912632462],[0.384638589838933,52.2449158223832],[0.384650640197025,52.2451403815099],[0.384284804024301,52.2451477718896],[0.384296852794162,52.2453723310608],[0.384308901715433,52.2455968902219],[0.383943061911963,52.2456042795776],[0.383577221957119,52.2456116678],[0.383565176515227,52.2453871085295],[0.383199338148724,52.2453944955638],[0.382833499630894,52.2454018814647],[0.382845541593394,52.2456264408446],[0.382857583707216,52.2458510002143],[0.38249174155866,52.2458583850912],[0.38250378208406,52.2460829445054],[0.382515822760763,52.2463075039094],[0.382527863588772,52.2465320633032],[0.382539904568089,52.2467566226867],[0.382551945698717,52.2469811820601],[0.382186094699902,52.246988566077],[0.382174055309114,52.246764006649],[0.381808205898866,52.2467713894778],[0.381442356505179,52.2467787703333],[0.381454392347001,52.2470033299187],[0.381466428346954,52.2472278894937],[0.381478464505038,52.2474524490581],[0.381112609529507,52.2474598284172],[0.381124644001296,52.2476843880304],[0.3811366786312,52.2479089476331],[0.381148713419219,52.2481335072252],[0.380782852752221,52.2481408856289],[0.380794885853855,52.2483654452698],[0.380429023184265,52.2483728225996],[0.380063160356613,52.2483801987961],[0.379697297370924,52.2483875738595],[0.379709325097052,52.2486121336676],[0.379721352981208,52.2488366934651],[0.379355486148402,52.2488440675137],[0.379367512346001,52.24906862736],[0.379379538701608,52.2492931871957],[0.379013668021602,52.2493005602295],[0.379025692690581,52.2495251201139],[0.378659820007957,52.2495324920736],[0.378671842990261,52.2497570520068],[0.378305968305012,52.2497644228925],[0.378317989600593,52.2499889828742],[0.378330011054121,52.2502135428455],[0.377964132521524,52.2502209127163],[0.377976152288258,52.2504454727363],[0.377988161133213,52.2506700366601]]],[[[0.400652478549645,52.2362733145337],[0.400640360392157,52.2360487515899],[0.400628242396437,52.2358241886383],[0.400616124562485,52.2355996256787],[0.400604006890297,52.2353750627113],[0.400238250521068,52.2353825047643],[0.399872493990167,52.235389945682],[0.399506737297618,52.2353973854644],[0.399140980443446,52.2354048241115],[0.399153090595015,52.2356293871583],[0.399165200908249,52.2358539501971],[0.399530961522765,52.2358465115104],[0.399543073877876,52.2360710745215],[0.399555186394683,52.2362956375247],[0.399920950608004,52.2362881976631],[0.400286714659666,52.236280756666],[0.400652478549645,52.2362733145337]]],[[[0.408577655259675,52.2338636749794],[0.408943396623622,52.233856206935],[0.408955556564589,52.234080769491],[0.409321299646224,52.2340733002914],[0.409309137825321,52.2338487377555],[0.40929697890683,52.2336241744678],[0.408931239443394,52.2336316436374],[0.40891908366218,52.2334070799803],[0.408553345898074,52.2334145479606],[0.40856549981904,52.2336391116742],[0.408577655259675,52.2338636749794]]],[[[0.43382581794489,52.2335703923233],[0.434191552313925,52.2335628483245],[0.434557286519966,52.2335553031928],[0.434569574765487,52.233779865557],[0.434935310674273,52.2337723192362],[0.434947603124947,52.2339968770084],[0.434959895858933,52.2342214345155],[0.434972188754637,52.2344459920104],[0.435337929960069,52.234438444463],[0.435703671003807,52.2344308957847],[0.43569137441791,52.2342063384613],[0.43567907799378,52.2339817811255],[0.435666782002681,52.2337572231962],[0.435301046420012,52.2337647717826],[0.435288754442964,52.233540209531],[0.435654488159874,52.2335326610009],[0.435642194480222,52.2333080987953],[0.435276462629048,52.2333156472691],[0.435264170978261,52.2330910849968],[0.435251879490599,52.2328665227143],[0.434886151207762,52.2328740699426],[0.43487386174889,52.2326495075935],[0.434508135168686,52.2326570536328],[0.434142408425474,52.2326645985394],[0.434154694153009,52.2328891610011],[0.434166980043594,52.2331137234525],[0.433801249406027,52.2331212673389],[0.433813533593943,52.2333458298363],[0.43382581794489,52.2335703923233]]],[[[0.381564567647734,52.2627374788452],[0.381552544744184,52.2625129144857],[0.381540521996853,52.2622883501136],[0.381174543916763,52.2622957321653],[0.381162523140494,52.2620711676913],[0.380796546719177,52.2620785485216],[0.380430570141808,52.2620859282202],[0.380442587288379,52.2623104928731],[0.380454604591094,52.2625350575135],[0.380466622049956,52.2627596221415],[0.380478639664968,52.2629841867569],[0.380844623501883,52.2629768067005],[0.380832604071948,52.2627522421745],[0.380820584798188,52.262527677636],[0.381186564849225,52.2625202966267],[0.381198585937883,52.2627448610757],[0.381564567647734,52.2627374788452]]],[[[0.414222043238904,52.2569034952499],[0.414234239333968,52.2571280530892],[0.414246435588039,52.2573526109196],[0.413880503258961,52.257360095031],[0.413892697847443,52.2575846528874],[0.413526763534843,52.2575921358986],[0.413160829063342,52.2575996177746],[0.412794894432964,52.2576070985154],[0.412807083706555,52.2578316564677],[0.412819273139066,52.2580562144112],[0.412831462730498,52.2582807723459],[0.413197402834835,52.2582732915003],[0.413563342780284,52.2582658095195],[0.413551149539503,52.2580412516548],[0.413917087501373,52.2580337685737],[0.414283025304312,52.2580262843574],[0.414648962948298,52.258018799006],[0.414636764392551,52.2577942412372],[0.415002700094481,52.257786754799],[0.415368637309471,52.2577792677684],[0.415356435223892,52.2575547100236],[0.415344233296215,52.2573301522712],[0.415332031526436,52.2571055945111],[0.414966099866126,52.2571130815308],[0.414953900121972,52.2568885237615],[0.414941700536871,52.2566639659833],[0.414575773999337,52.2566714522601],[0.41458797175992,52.2568960100733],[0.414222043238904,52.2569034952499]]],[[[0.415332031526436,52.2571055945111],[0.415697963162886,52.2570981063929],[0.41571016673954,52.2573226641367],[0.415722370474116,52.2575472218729],[0.416088305566479,52.2575397325857],[0.416454240500955,52.257532242162],[0.416820175277521,52.257524750602],[0.417186109896155,52.2575172579055],[0.41717389893401,52.2572927002345],[0.417161688129881,52.2570681425559],[0.416795757125001,52.2570756352198],[0.416783548285728,52.2568510775172],[0.416771339604444,52.256626519807],[0.417137266995668,52.2566190271758],[0.417149477483768,52.2568435848697],[0.41751540652386,52.2568360910857],[0.417503194228946,52.2566115334082],[0.417869121304256,52.2566040385041],[0.417856907360587,52.2563794808353],[0.417844693574972,52.2561549231588],[0.417832479947408,52.2559303654746],[0.417820266477894,52.2557058077828],[0.417808053166425,52.2554812500834],[0.417795840013,52.2552566923763],[0.417429923778059,52.2552641871824],[0.417064007385165,52.255271680852],[0.417051798003072,52.2550471231047],[0.417417712589318,52.2550396294513],[0.417405501558592,52.2548150717127],[0.417771414180268,52.2548075769393],[0.418137326643972,52.2548000810296],[0.418125112158064,52.254575523316],[0.418112897830214,52.2543509655947],[0.417746988979674,52.2543584614717],[0.417734776616423,52.2541339037265],[0.4177225644112,52.2539093459736],[0.41735665901577,52.2539168406816],[0.416990753462405,52.2539243342534],[0.416624847751126,52.2539318266888],[0.416637054536765,52.2541563844907],[0.416271146861063,52.2541638758062],[0.416283351998099,52.2543884336167],[0.415917442357968,52.2543959238122],[0.415551532559991,52.2544034128714],[0.415539331036078,52.2541788550283],[0.41552712967005,52.2539542971775],[0.415161223327358,52.2539617850679],[0.415149023925728,52.2537372271932],[0.414783120402921,52.2537447140576],[0.414417217581954,52.2537521998798],[0.414429413275438,52.2539767578085],[0.414063508471336,52.2539842425306],[0.414075702499577,52.2542088004854],[0.414087896686788,52.2544333584314],[0.414100091032971,52.2546579163684],[0.414112285538129,52.2548824742965],[0.414124480202266,52.2551070322158],[0.414490394127779,52.2550995473189],[0.414502590775251,52.2553241051943],[0.41451478758173,52.2555486630608],[0.414880704997028,52.2555411769588],[0.414892903786917,52.2557657347815],[0.414905102735842,52.2559902925953],[0.414917301843808,52.2562148504002],[0.414929501110817,52.2564394081962],[0.414941700536871,52.2566639659833],[0.415307628460563,52.256656478968],[0.415319829914553,52.2568810367433],[0.415332031526436,52.2571055945111]]],[[[0.397023239737323,52.2572540173184],[0.397389171264142,52.2572465857049],[0.397755102628843,52.2572391529592],[0.397742989049963,52.2570145934693],[0.397730875633285,52.2567900339676],[0.39736494804685,52.2567974665563],[0.397377059574408,52.2570220261365],[0.397011129936736,52.2570294576715],[0.396645200136972,52.2570368880741],[0.396657308048408,52.2572614477996],[0.397023239737323,52.2572540173184]]],[[[0.388421458474061,52.2403432361546],[0.388787256036011,52.2403358331269],[0.389153053442141,52.240328428966],[0.389165116159605,52.2405529933167],[0.389530915212982,52.2405455879689],[0.389518850692428,52.2403210236718],[0.389506786327804,52.2400964593645],[0.389494722119101,52.239871895047],[0.389128928474919,52.2398793002342],[0.388763134674901,52.239886704288],[0.388775195277518,52.2401112687125],[0.388409399518639,52.2401186716867],[0.388421458474061,52.2403432361546]]]]}}