{"type":"Feature","properties":{"code":"E63005348","name":"Trottiscliffe"},"geometry":{"type":"MultiPolygon","coordinates":[[[[0.355421004207199,51.3140557967942],[0.355779401986558,51.3140485860932],[0.355790911462494,51.3142731909636],[0.356149310839485,51.3142659791106],[0.356507710067917,51.3142587661614],[0.356866109147768,51.3142515521161],[0.357224508079015,51.3142443369745],[0.357582906861636,51.3142371207368],[0.357941305495607,51.3142299034029],[0.358299703980907,51.3142226849728],[0.358288182281866,51.3139980804934],[0.358276660731552,51.3137734760036],[0.357918265738531,51.3137806943219],[0.357929785542716,51.3140052988676],[0.357571388654897,51.3140125161456],[0.357212991618433,51.3140197323275],[0.356854594433344,51.3140269474132],[0.356496197099653,51.3140341614027],[0.356484684280005,51.3138095566337],[0.356473171608973,51.3135849518542],[0.356114777618962,51.3135921646359],[0.3557563834804,51.3135993763214],[0.35539798919331,51.3136065869108],[0.355409496625981,51.3138311918577],[0.355421004207199,51.3140557967942]]],[[[0.350403419712674,51.3141566315078],[0.35041490299582,51.3143812372144],[0.350426386427202,51.3146058429105],[0.350784789776108,51.3145986474449],[0.350796275101978,51.314823253075],[0.350807760576112,51.3150478586948],[0.351166167269308,51.3150406620215],[0.351177654638,51.3152652675752],[0.351189142154984,51.3154898731185],[0.350830731969183,51.3154970699032],[0.350472321635148,51.3155042655916],[0.350483805807751,51.3157288712359],[0.350842217888125,51.3157216754918],[0.350853703955341,51.3159462810701],[0.351212117633836,51.3159390841741],[0.351570531164069,51.3159318861818],[0.351928944546018,51.3159246870932],[0.351940436000646,51.316149292494],[0.35195192760362,51.3163738978844],[0.351963419354945,51.3165985032645],[0.351605000733801,51.3166057025203],[0.351616490887034,51.3168303079457],[0.351258070371152,51.3168375061608],[0.350899649706998,51.3168447032797],[0.350541228894595,51.3168518993022],[0.350552713956747,51.3170765048844],[0.35019429124964,51.3170836998663],[0.350205774744055,51.3173083055349],[0.350564199194835,51.3173011104937],[0.350575684618581,51.3175257161433],[0.350587170190496,51.3177503217824],[0.350228742249872,51.3177575169382],[0.350240226225004,51.3179821226242],[0.349881796391312,51.317989316741],[0.349893278769614,51.3182139224738],[0.350251710348285,51.3182067282996],[0.35026319461972,51.3184313339647],[0.350274679039312,51.3186559396192],[0.349916243970614,51.318663133908],[0.349927726793317,51.3188877396094],[0.349569289831469,51.3188949328593],[0.349580771057238,51.3191195386075],[0.349592252431127,51.3193441443453],[0.349603733953136,51.3195687500726],[0.349962176150268,51.3195615566508],[0.34997365956554,51.3197861623104],[0.3503321033597,51.319778967735],[0.350690547005725,51.3197717720633],[0.351048990503594,51.3197645752953],[0.351037501852916,51.3195399698077],[0.351026013350454,51.3193153643097],[0.351014524996202,51.3190907588012],[0.35137296311057,51.3190835611089],[0.351384453209906,51.3193081665601],[0.351742892921162,51.3193009677142],[0.352101332484199,51.319293767772],[0.352459771898993,51.3192865667335],[0.352448276564418,51.3190619614544],[0.352436781378141,51.3188373561648],[0.35242528634016,51.3186127508647],[0.352783720371535,51.318605548902],[0.35277222373684,51.3183809436489],[0.352760727250459,51.3181563383853],[0.353119157643568,51.3181491354411],[0.353107659560538,51.3179245302244],[0.353466088060392,51.3179173262413],[0.353454588380758,51.3176927210715],[0.353813014987366,51.3176855160496],[0.353824516411931,51.317910121162],[0.354182944615132,51.3179029149865],[0.354541372669971,51.3178957077148],[0.354552877732814,51.3181203127019],[0.354564382944081,51.3183449176785],[0.354922814340453,51.3183377091957],[0.355281245588414,51.3183304996166],[0.355292754438088,51.318555104468],[0.355651187282602,51.3185478937352],[0.355639676687941,51.3183232889413],[0.355998107639012,51.3183160771698],[0.356009619978658,51.3185406819062],[0.356368052526232,51.3185334689809],[0.356726484925303,51.3185262549594],[0.357084917175847,51.3185190398416],[0.357443349277844,51.3185118236276],[0.35745486874601,51.3187364281237],[0.35781330244443,51.3187292107559],[0.358171735994254,51.3187219922919],[0.358160213036101,51.3184973879108],[0.357801781231269,51.3185046063173],[0.357790260166739,51.3182800018683],[0.357431829958286,51.318287219121],[0.357073399601263,51.3182944352776],[0.357061882175263,51.3180698307031],[0.357050364897843,51.3178452261181],[0.357038847768999,51.3176206215226],[0.357397272891233,51.3176134055385],[0.357385754166082,51.31738880099],[0.357744177394873,51.3173815839672],[0.357732657080608,51.3171569794779],[0.358091078416616,51.3171497614177],[0.358079556530313,51.3169251570173],[0.35772113694075,51.3169323750216],[0.357362717202509,51.3169395919295],[0.357004297315609,51.3169468077412],[0.356645877280077,51.3169540224566],[0.356634362528219,51.3167294178224],[0.356275944090507,51.3167366313857],[0.356264431233708,51.3165120266853],[0.35625291852553,51.3162874219745],[0.356611333470444,51.3162802085229],[0.356599819164519,51.3160556038575],[0.356588305007234,51.3158309991818],[0.356229893555029,51.3158382125218],[0.355871481954248,51.3158454247655],[0.355882992618844,51.3160700295528],[0.355524579123161,51.3160772407561],[0.35553608818998,51.3163018455889],[0.35517767279939,51.3163090557517],[0.355189180268388,51.3165336606299],[0.354830762982884,51.3165408697522],[0.354819257260284,51.3163162648182],[0.354460841572686,51.3163234727885],[0.354449337744993,51.3160988677883],[0.354090923655308,51.3161060746065],[0.354079421722477,51.3158814695401],[0.354067919938125,51.3156568644634],[0.354426330535117,51.3156496577568],[0.354414827152929,51.3154250527255],[0.354403323919237,51.3152004476838],[0.354761730875168,51.3151932399925],[0.355120137682621,51.315186031205],[0.355108631104894,51.3149614262645],[0.355467036017583,51.3149542164365],[0.355455527842155,51.3147296115415],[0.355444019815283,51.3145050066361],[0.355432511936965,51.3142804017203],[0.355074112262923,51.3142876113809],[0.354715712440389,51.3142948199453],[0.354727216826318,51.3145194249727],[0.354368815109117,51.3145266324966],[0.354010413243466,51.3145338389244],[0.353998912349937,51.3143092337855],[0.353987411604868,51.3140846286362],[0.353629013083175,51.3140918338562],[0.353617514232726,51.3138672286408],[0.353259117308794,51.3138744327089],[0.353247620352915,51.3136498274273],[0.352889225026751,51.3136570303435],[0.3528777299654,51.3134324249958],[0.352519336237008,51.3134396267601],[0.352507843070139,51.3132150213463],[0.352149450939524,51.3132222219587],[0.352137959667093,51.3129976164788],[0.351779569134259,51.3130048159393],[0.351768079756221,51.3127802103933],[0.351756590526492,51.312555604837],[0.35211497756723,51.312548405488],[0.352103486739794,51.312323799977],[0.35246187188623,51.3123165995876],[0.352450379461131,51.312091994122],[0.35280876271327,51.3120847926922],[0.352797268690553,51.3118601872719],[0.352785774816203,51.3116355818413],[0.352774281090217,51.3114109764003],[0.352415903075902,51.311418177663],[0.352404411244173,51.3111935721559],[0.352392919560781,51.3109689666385],[0.35203454488994,51.3109761666936],[0.352023055100734,51.3107515611101],[0.351664682027476,51.3107587600134],[0.351676170070825,51.3109833656526],[0.351317795103458,51.3109905635156],[0.350959419987863,51.3109977602825],[0.350601044724061,51.3110049559533],[0.350242669312075,51.3110121505281],[0.350231188252177,51.3107875446661],[0.350219707340475,51.3105629387937],[0.349861335272043,51.310570132161],[0.349849856254359,51.3103455262226],[0.349838377384843,51.3101209202739],[0.35019674596165,51.3101137270179],[0.350555114390305,51.3101065326658],[0.350913482670787,51.3100993372178],[0.351271850803071,51.3100921406737],[0.351260365098621,51.3098675349372],[0.351248879542425,51.3096429291905],[0.351237394134481,51.3094183234333],[0.350879031239443,51.3094255198104],[0.350890514901661,51.3096501256232],[0.350532150112705,51.3096573209599],[0.350173785175581,51.3096645152006],[0.350162305004823,51.3094399092764],[0.349803941665285,51.3094471023654],[0.349792463388421,51.3092224963752],[0.349434101646476,51.3092296883125],[0.349075739756435,51.3092368791539],[0.349087214541869,51.3094614852554],[0.349445578177627,51.3094542943584],[0.349457054856914,51.3096789003939],[0.349098689475417,51.3096860913465],[0.349110164557082,51.3099106974273],[0.349121639786865,51.3101353034977],[0.348763270765738,51.3101424934656],[0.34840490159655,51.3101496823374],[0.348416373482834,51.3103742885088],[0.348774744397834,51.3103670995813],[0.348786218178031,51.3105917056867],[0.348797692106331,51.3108163117816],[0.348439317699641,51.3108235008204],[0.348450790030169,51.3110481069606],[0.348462262508784,51.3112727130905],[0.348820640407255,51.3112655239405],[0.349179018157652,51.3112583336944],[0.3491904942762,51.3114829397027],[0.34954887362442,51.3114757483049],[0.349907252824517,51.311468555811],[0.35026563187647,51.311461362221],[0.350624010780256,51.3114541675349],[0.350635494030692,51.3116787733101],[0.350646977429357,51.311903379075],[0.35100535967684,51.3118961831814],[0.351016844969712,51.3121207888802],[0.351028330410842,51.3123453945687],[0.351386716002077,51.3123381974676],[0.351398203337484,51.31256280309],[0.35103981600023,51.3125700002467],[0.350681428514751,51.3125771963074],[0.350692912506357,51.3128018020308],[0.350704396646204,51.3130264077438],[0.350346005520408,51.3130336028197],[0.350357488062408,51.313258208578],[0.350368970752632,51.313482814326],[0.350380453591083,51.3137074200637],[0.350391936577763,51.3139320257909],[0.350403419712674,51.3141566315078]]],[[[0.354274975313648,51.3196997550495],[0.354263470956896,51.3194751500783],[0.354251966748559,51.3192505450966],[0.354240462688635,51.3190259401044],[0.35388202576045,51.319033146567],[0.353523588683913,51.3190403519332],[0.353165151459047,51.3190475562032],[0.353176650283769,51.3192721613676],[0.352818211165525,51.3192793645987],[0.352829708393498,51.3195039698099],[0.352841205769798,51.3197285750107],[0.353199648378254,51.3197213716649],[0.353558090838396,51.3197141672227],[0.353569591853301,51.3199387722983],[0.353928035910241,51.3199315667024],[0.353916533150202,51.3197069616843],[0.354274975313648,51.3196997550495]]],[[[0.346237149693741,51.3239081420663],[0.346248616730288,51.3241327481539],[0.346607095244905,51.32412556449],[0.34696557361169,51.3241183797296],[0.34732405183062,51.3241111938727],[0.347682529901674,51.3241040069193],[0.347671055889221,51.3238794010599],[0.348029532068405,51.3238722130671],[0.34838800810206,51.3238650239799],[0.348399485604732,51.324089629727],[0.348757963301343,51.3240824395451],[0.349116440849884,51.3240752482666],[0.349127921991835,51.3242998538887],[0.349486401137879,51.3242926614565],[0.349497884173579,51.3245172670108],[0.349856364917119,51.3245100734247],[0.350214845512517,51.3245028787422],[0.350226332187645,51.3247274841714],[0.350584814380509,51.3247202883351],[0.350943296425184,51.3247130914022],[0.351301778321647,51.3247058933728],[0.351290286409631,51.3244812881156],[0.351278794645885,51.3242566828479],[0.351637272902887,51.3242494838368],[0.351625779541828,51.3240248786159],[0.351614286329055,51.3238002733847],[0.351602793264568,51.3235756681429],[0.351244320244236,51.323582866982],[0.35123282907354,51.3233582616724],[0.3508743576505,51.3233654593578],[0.350885847075681,51.3235900647247],[0.350897336649098,51.3238146700811],[0.350538861586805,51.3238218667847],[0.3505503495629,51.324046472188],[0.350191872606863,51.3240536678523],[0.350180386376332,51.3238290623917],[0.350168900293996,51.3236044569206],[0.350157414359852,51.3233798514391],[0.350515886079263,51.3233726559466],[0.350504398547811,51.3231480505119],[0.350145928573896,51.323155245947],[0.350134442936127,51.3229306404445],[0.350492911164568,51.3229234450667],[0.350481423929531,51.3226988396111],[0.350122957446543,51.3227060349316],[0.350111472105139,51.3224814294081],[0.349753007219437,51.3224886235748],[0.349394542185617,51.3224958166451],[0.349383060483214,51.3222712109966],[0.349371578928942,51.3220466053376],[0.349013117237831,51.3220537971969],[0.34865465539865,51.3220609879598],[0.348643177483249,51.3218363821758],[0.349001637577058,51.3218291914702],[0.348990158064389,51.321604585733],[0.348978678699821,51.3213799799853],[0.349337135154892,51.3213727882979],[0.349325654193121,51.321148182597],[0.349684108754808,51.3211409898705],[0.350042563168389,51.3211337960477],[0.350031078864186,51.320909190451],[0.350019594708144,51.3206845848438],[0.350008110700262,51.3204599792261],[0.349649661522436,51.3204671728771],[0.349638179407916,51.3202425671916],[0.349279731827204,51.320249759689],[0.349291212196514,51.3204743654317],[0.348932762722516,51.32048155689],[0.348944241494704,51.3207061626795],[0.348955720414981,51.3209307684586],[0.348597267302436,51.320937958935],[0.348238814059694,51.3209451483393],[0.348250289636563,51.3211697542204],[0.348261765361381,51.321394360091],[0.347903308512279,51.3214015485523],[0.347914782641327,51.3216261544695],[0.34755632390061,51.3216333418915],[0.347197865012023,51.3216405282171],[0.347209335801507,51.3218651342381],[0.34722080673888,51.3220897402485],[0.347232277824142,51.3223143462486],[0.347590741944042,51.3223071597518],[0.347949205916063,51.3222999721586],[0.347960680636848,51.322524578034],[0.347602214921014,51.3225317656843],[0.347613688045906,51.3227563716064],[0.347625161318717,51.322980977518],[0.347636634739451,51.3232055834192],[0.347648108308112,51.3234301893099],[0.347659582024701,51.3236547951901],[0.34730110744157,51.3236619820294],[0.346942632710568,51.3236691677722],[0.346931162481837,51.3234445617778],[0.346572689346918,51.323451746367],[0.346214216064176,51.3234589298597],[0.346225682805038,51.3236835359683],[0.346237149693741,51.3239081420663]]]]}}