{"type":"Feature","properties":{"code":"E63001022","name":"Littleborough"},"geometry":{"type":"MultiPolygon","coordinates":[[[[-2.11639666910321,53.6303620613504],[-2.11639729543077,53.6305867628871],[-2.1160192562778,53.6305871304169],[-2.11601988058876,53.6308118319833],[-2.11564183940253,53.6308121983577],[-2.11526379820797,53.6308125635382],[-2.11488575700509,53.6308129275249],[-2.11488637524956,53.6310376291977],[-2.11488699350222,53.6312623308619],[-2.1145089482412,53.6312626937313],[-2.11450956447707,53.6314873954253],[-2.11451018072112,53.6317120971107],[-2.11413213140186,53.6317124588628],[-2.11413274562904,53.6319371605779],[-2.11413335986436,53.6321618622844],[-2.11375530648677,53.6321622229193],[-2.11375591870515,53.6323869246555],[-2.11337786329428,53.6323872841347],[-2.11337847349565,53.6326119859006],[-2.11300041605149,53.6326123442242],[-2.11300102423581,53.6328370460198],[-2.11337908370511,53.632836687658],[-2.11337969392266,53.6330613894067],[-2.11375775540897,53.6330610298127],[-2.11375714316625,53.6328363281022],[-2.11375653093164,53.6326116263831],[-2.11413458835944,53.6326112656717],[-2.11413397410783,53.6323865639823],[-2.11451202950228,53.6323862021153],[-2.11451141323372,53.6321615004557],[-2.11488946659483,53.632161137433],[-2.11489008488848,53.6323858390544],[-2.11489070319032,53.6326105406671],[-2.11489132150036,53.6328352422713],[-2.1145132620639,53.6328356054089],[-2.11451387835696,53.6330603070428],[-2.11489193981859,53.633059943867],[-2.11489255814502,53.633284645454],[-2.11527062162357,53.6332842810459],[-2.11527000127194,53.6330595794972],[-2.11564806271698,53.6330592139335],[-2.11602612415368,53.6330588471759],[-2.11602549975994,53.6328341456952],[-2.11640355916311,53.632833777782],[-2.11640418558202,53.6330584792243],[-2.11678224700198,53.6330581100788],[-2.1167828754544,53.6332828114742],[-2.11716093889113,53.6332824410964],[-2.11716156937711,53.6335071424449],[-2.11753963483062,53.6335067708348],[-2.11754026749275,53.6337314720267],[-2.11754090023404,53.6339561731555],[-2.11791896972264,53.6339558002988],[-2.11791960449365,53.6341805013951],[-2.11792023927307,53.6344052024827],[-2.11754216574177,53.6344055753877],[-2.117164092202,53.6344059470985],[-2.11716472294704,53.6346306482259],[-2.11678664737746,53.6346310187668],[-2.11640857179946,53.6346313881137],[-2.11640919851001,53.6348560892807],[-2.11603112090222,53.6348564574576],[-2.11603049621309,53.6346317562665],[-2.11602987153223,53.634407055067],[-2.11602924685963,53.6341823538589],[-2.11565117530766,53.6341827207696],[-2.11565179795889,53.6344074220017],[-2.11565242061836,53.6346321232253],[-2.11527434501531,53.6346324889901],[-2.11527496566161,53.6348571902292],[-2.11489688802884,53.634857554824],[-2.11451881038781,53.6348579182247],[-2.11451942699942,53.6350826195033],[-2.1145200436192,53.6353073207734],[-2.11452066024713,53.635532022035],[-2.11414257653343,53.6355323843137],[-2.11376449281151,53.6355327453983],[-2.11338640908141,53.6355331052888],[-2.11300832534314,53.6355334639852],[-2.11300893389312,53.6357581653343],[-2.11263084812519,53.6357585228606],[-2.11263145466167,53.6359832242251],[-2.11225336686408,53.6359835805813],[-2.1118752790584,53.6359839357434],[-2.11187588155973,53.6362086371472],[-2.11149779172442,53.6362089911392],[-2.11149839221211,53.6364336925585],[-2.11112030034717,53.6364340453802],[-2.11111970188109,53.636209343937],[-2.11111910342292,53.6359846424852],[-2.11074101559318,53.635984994065],[-2.11074041916448,53.6357602925808],[-2.11036233334832,53.6357606429426],[-2.11036173894904,53.6355359414259],[-2.10998365514646,53.6355362905697],[-2.10998424752421,53.6357609921102],[-2.10960616169219,53.6357613400838],[-2.10960675205622,53.6359860416397],[-2.10922866419475,53.6359863884431],[-2.10885057632542,53.6359867340523],[-2.10884999000451,53.6357620324486],[-2.10847190414891,53.6357623768399],[-2.10847248844826,53.6359870784674],[-2.10809440056329,53.6359874216885],[-2.10809498284878,53.6362121233314],[-2.10771689293445,53.6362124653821],[-2.10771747320603,53.6364371670403],[-2.10733938126233,53.6364375079208],[-2.10696128931091,53.6364378476072],[-2.10696071308256,53.6362131459013],[-2.10658262314505,53.6362134843697],[-2.1065820489459,53.6359887826315],[-2.10620396102231,53.635989119882],[-2.10620338885231,53.6357644181115],[-2.10582530294263,53.635764754144],[-2.10582473280172,53.6355400523412],[-2.10544664890596,53.6355403871559],[-2.10544608079408,53.6353156853207],[-2.1054455126897,53.635090983477],[-2.10544494459282,53.6348662816248],[-2.10506686675391,53.634866615174],[-2.10506630068596,53.6346419132895],[-2.10468822486091,53.6346422456209],[-2.10431014902833,53.6346425767583],[-2.10430958701064,53.6344178748178],[-2.10393151319195,53.6344182047373],[-2.10393095320306,53.6341935027645],[-2.10355288139825,53.6341938314663],[-2.1035523234381,53.6339691294612],[-2.10317425364719,53.6339694569453],[-2.10279618384885,53.6339697832353],[-2.10279673776633,53.6341944852878],[-2.10241866593926,53.6341948104075],[-2.10204059410482,53.6341951343332],[-2.10166252226305,53.6341954570648],[-2.10166197440959,53.6339707549412],[-2.10128390423708,53.6339710749613],[-2.10090583366673,53.6339713920956],[-2.10052776308905,53.633971708036],[-2.10052830482952,53.6341964103382],[-2.10015023220295,53.6341967251501],[-2.10015077190898,53.6344214275091],[-2.1001513116222,53.6346461298595],[-2.09977323490508,53.6346464436083],[-2.09977269723353,53.6344217411925],[-2.09977215956913,53.6341970387681],[-2.09977162191188,53.6339723363349],[-2.09977108426178,53.6337476338932],[-2.09939301570391,53.6337479461864],[-2.09939248019518,53.6335232434906],[-2.09939194495783,53.6332985402727],[-2.09977000943894,53.6332982280914],[-2.09976947217182,53.6330735249161],[-2.10014753460884,53.633073211592],[-2.100146995312,53.6328485084592],[-2.10014645602233,53.6326238053179],[-2.10052451437844,53.6326234909022],[-2.10090257272727,53.6326231752926],[-2.10090202937117,53.632398472245],[-2.1009014860223,53.6321737691888],[-2.10090094268064,53.631949066124],[-2.10090039934619,53.6317243630506],[-2.10089985601897,53.6314996599686],[-2.10089931269897,53.631274956878],[-2.10127735882015,53.6312746403816],[-2.10127681347073,53.6310499373336],[-2.10127626812856,53.6308252342769],[-2.10165430988434,53.6308249149397],[-2.10165376251957,53.6306002119237],[-2.10165321516205,53.6303755088992],[-2.10203125258861,53.630375186773],[-2.10203070321347,53.6301504837778],[-2.10240873860784,53.6301501604957],[-2.10240818721515,53.62992545753],[-2.10240763582976,53.6297007545557],[-2.10278566716714,53.6297004301558],[-2.10278511376427,53.6294757272109],[-2.10278456036872,53.6292510242575],[-2.1031625876492,53.6292506987397],[-2.10316203223626,53.6290259958157],[-2.1035400574846,53.6290256691422],[-2.10353950005432,53.6288009662476],[-2.10391752327052,53.6288006384183],[-2.10391696382296,53.6285759355532],[-2.10353894263143,53.6285762633445],[-2.1035383852159,53.6283515604329],[-2.10353782780775,53.6281268575126],[-2.10315981065799,53.6281271840342],[-2.10315925528179,53.6279024810674],[-2.10315869991294,53.627677778092],[-2.10315814455143,53.6274530751081],[-2.10315758919727,53.6272283721155],[-2.10277958013821,53.6272286972914],[-2.10240157107175,53.6272290212736],[-2.10202356199792,53.627229344062],[-2.10164555291674,53.6272296656568],[-2.10164500566779,53.6270049625039],[-2.10164445842608,53.6267802593423],[-2.10202246345835,53.6267799378235],[-2.10202191419946,53.6265552346914],[-2.10239991719998,53.6265549120168],[-2.10239936592398,53.6263302089141],[-2.10277736689274,53.6263298850838],[-2.10277681359967,53.6261051820105],[-2.10239881465526,53.6261055058028],[-2.10239826339384,53.625880802683],[-2.10239771213971,53.6256560995546],[-2.10277570703548,53.6256557758383],[-2.10315370192386,53.6256554509283],[-2.1031542572266,53.6258801539808],[-2.10353225413185,53.6258798278392],[-2.10353281146626,53.6261045308451],[-2.10315481253668,53.6261048570246],[-2.1031553678541,53.6263295600599],[-2.10353336880804,53.6263292338424],[-2.1035339261572,53.6265539368311],[-2.10391192912806,53.6265536093819],[-2.10428993209144,53.626553280739],[-2.10466793504732,53.6265529509025],[-2.10466849847708,53.6267776537686],[-2.10504650344982,53.6267773227003],[-2.10504593799565,53.6265526198722],[-2.10542394093643,53.6265522876483],[-2.10542450841501,53.6267769904384],[-2.10542507590109,53.6270016932199],[-2.10542564339469,53.6272263959928],[-2.10504763438061,53.6272267283308],[-2.10466962535896,53.6272270594752],[-2.10467018881109,53.6274517623156],[-2.10504819985723,53.6274514311332],[-2.10504876534133,53.6276761339271],[-2.10542677840442,53.627675801513],[-2.10542734592056,53.6279005042602],[-2.1058053610006,53.6279001706143],[-2.10618337607303,53.6278998357747],[-2.10618394764582,53.6281245384372],[-2.10618451922617,53.6283492410912],[-2.10580650010457,53.6283495760069],[-2.10542848097535,53.6283499097289],[-2.10505046183854,53.6283502422572],[-2.10505102735257,53.6285749450168],[-2.10505159287409,53.6287996477678],[-2.10542961606019,53.6287993151634],[-2.1058076392387,53.6287989813653],[-2.10580706966787,53.6285742786904],[-2.1061850908141,53.6285739437366],[-2.10656311195268,53.628573607589],[-2.10656253834013,53.6283489049817],[-2.10694055744641,53.6283485676785],[-2.10694113308358,53.6285732702477],[-2.10731915420679,53.6285729317126],[-2.10769717532226,53.6285725919838],[-2.10807519642998,53.6285722510613],[-2.10807461471892,53.6283475486064],[-2.10845263379423,53.6283472065282],[-2.10883065286172,53.6283468632563],[-2.10920867192138,53.6283465187906],[-2.10920925970631,53.6285712211311],[-2.10958728078273,53.6285708754336],[-2.10996530185125,53.6285705285423],[-2.11034332291185,53.6285701804573],[-2.1107213439645,53.6285698311785],[-2.11072193985584,53.6287945333577],[-2.11109996292516,53.628794182847],[-2.11147798598648,53.6287938311426],[-2.11185600903978,53.6287934782444],[-2.11223403208501,53.6287931241524],[-2.11223463608296,53.6290178261702],[-2.11261266114479,53.6290174708463],[-2.11261326717545,53.6292421728173],[-2.11261387321415,53.6294668747798],[-2.11261447926087,53.6296915767337],[-2.11223644812484,53.6296919321723],[-2.11223705215481,53.6299166341558],[-2.1118590189859,53.6299169884389],[-2.11185962099905,53.6301416904521],[-2.11223765619278,53.6301413361308],[-2.11223826023875,53.6303660380972],[-2.11261629744923,53.6303656825438],[-2.1129943346516,53.6303653257967],[-2.11299372655594,53.6301406239068],[-2.11337176172532,53.630140266004],[-2.11374979688653,53.6301399069075],[-2.11412783203954,53.6301395466171],[-2.11450586718433,53.630139185133],[-2.11488390232087,53.630138822455],[-2.11526193744913,53.6301384585832],[-2.11526255769385,53.6303631602435],[-2.11564059483865,53.6303627951396],[-2.11601863197511,53.6303624288419],[-2.1160180076807,53.6301377272583],[-2.11639604278396,53.6301373598051],[-2.11639541647301,53.6299126582513],[-2.11639479017037,53.6296879566889],[-2.11639416387604,53.629463255118],[-2.11677219289654,53.629462886586],[-2.11677282121564,53.6296875881187],[-2.11715085225249,53.6296872183546],[-2.1175288832809,53.6296868473968],[-2.11752951565791,53.6299115488441],[-2.11753014804329,53.6301362502828],[-2.11753078043707,53.630360951713],[-2.11715274333422,53.630361322786],[-2.11677470622292,53.6303616926651],[-2.11639666910321,53.6303620613504]]],[[[-2.11527496566161,53.6348571902292],[-2.11565304328608,53.6348568244404],[-2.11565366596203,53.635081525647],[-2.11565428864623,53.635306226845],[-2.11603237030529,53.635305859814],[-2.11603299501922,53.6355305609795],[-2.11603361974143,53.6357552621364],[-2.11641170543516,53.6357548938632],[-2.11641233218719,53.6359795949876],[-2.11641295894751,53.6362042961034],[-2.116791048676,53.636203926588],[-2.11679167746622,53.6364286276712],[-2.11716976920791,53.6364282569376],[-2.1171704000281,53.6366529579882],[-2.11717103085664,53.6368776590302],[-2.11754912663319,53.6368772870543],[-2.11754975949177,53.6371019880638],[-2.11792785728155,53.6371016148696],[-2.11792849217022,53.6373263158464],[-2.1179291270673,53.6375510168147],[-2.11830722780977,53.6375506427848],[-2.11830786472451,53.6377753437334],[-2.11830850164763,53.6380000446736],[-2.11868660521189,53.6379996698916],[-2.11868724414687,53.6382243708233],[-2.11906534970615,53.638223994847],[-2.11906599065306,53.6384486957703],[-2.1190666316084,53.6386733966851],[-2.11944474116623,53.6386730195145],[-2.11944538413358,53.6388977204209],[-2.11944602710938,53.6391224213187],[-2.11982414066586,53.6391220429538],[-2.11982478565374,53.6393467438432],[-2.12020290120529,53.639346364284],[-2.12020354820532,53.6395710651649],[-2.12020419521386,53.6397957660373],[-2.12020484223091,53.6400204669013],[-2.11982672066831,53.6400208464607],[-2.11982736569012,53.6402455473163],[-2.11944924211521,53.6402459256813],[-2.11907111853175,53.640246302852],[-2.11907175955452,53.6404710036991],[-2.11869363395878,53.6404713796754],[-2.11831550835455,53.6404717544574],[-2.11793738149431,53.6404721286257],[-2.1175592533759,53.6404725021813],[-2.11718112524903,53.6404728745427],[-2.11718049428686,53.6402481736371],[-2.11680236817365,53.6402485447801],[-2.11680299711371,53.6404732457097],[-2.11642486896999,53.6404736156825],[-2.11642549589626,53.6406983166277],[-2.11604736572202,53.6406986854303],[-2.11566923553943,53.6406990530385],[-2.11566985842968,53.6409237540233],[-2.11529172621661,53.6409241204612],[-2.11529234709292,53.6411488214615],[-2.11491421284936,53.6411491867293],[-2.11491359399523,53.6409244857049],[-2.11453546176557,53.6409248497543],[-2.11453607859753,53.6411495508026],[-2.11415794433744,53.6411499136817],[-2.11415855915535,53.6413746147455],[-2.11415917398139,53.6415993158009],[-2.11415978881556,53.6418240168477],[-2.11453792914236,53.6418236538965],[-2.11453854591727,53.6420483549221],[-2.11453916264044,53.6422730559467],[-2.11416101828515,53.6422734189276],[-2.11416163300432,53.6424981199564],[-2.11416224773159,53.6427228209766],[-2.11454039611118,53.6427224579704],[-2.11454101285874,53.6429471589695],[-2.11454162961444,53.6431718599601],[-2.11491978201021,53.6431714957342],[-2.11529793439774,53.6431711303137],[-2.11529855518606,53.6433958312705],[-2.11567670957756,53.643395464643],[-2.11605486396077,53.643395096821],[-2.1160554887818,53.643619797744],[-2.11643364516895,53.6436194287148],[-2.11643427201053,53.6438441296166],[-2.11643489886037,53.6440688305099],[-2.11681305926379,53.6440684602609],[-2.11681368813425,53.644293161133],[-2.116814317013,53.6445178619966],[-2.11719248143277,53.6445174905276],[-2.11719311233223,53.64474219137],[-2.11719374324,53.6449668922039],[-2.1175719116762,53.6449665195151],[-2.11795008010396,53.6449661456316],[-2.11832824711889,53.6449657713055],[-2.11832888406731,53.6451904720987],[-2.11832952102412,53.6454151728834],[-2.11795134999438,53.6454155472231],[-2.11795198495216,53.6456402480061],[-2.11757381048694,53.6456406219277],[-2.11719563601328,53.6456409946547],[-2.11681746153122,53.6456413661872],[-2.11681683261098,53.6454166653661],[-2.11681620369904,53.6451919645364],[-2.1164380332336,53.645192334849],[-2.11643866013305,53.6454170356913],[-2.11643928704078,53.6456417365251],[-2.11606111254198,53.6456421056685],[-2.11606173744543,53.6458668065066],[-2.11606236235712,53.6460915073361],[-2.11606298727705,53.6463162081572],[-2.11568480673223,53.6463165761441],[-2.11568542964778,53.6465412769693],[-2.11568605257155,53.6467659777861],[-2.11530786799315,53.6467663446037],[-2.11492968340648,53.6467667102267],[-2.11492906450801,53.6465420093846],[-2.11455088192574,53.6465423738004],[-2.11417269933526,53.6465427370216],[-2.11379451673658,53.6465430990482],[-2.11379390388414,53.6463183981597],[-2.11341572328993,53.646318758979],[-2.11341633412974,53.6465434598802],[-2.11303815151477,53.6465438195175],[-2.11265996889168,53.6465441779603],[-2.11265936207712,53.646319477034],[-2.11228118145858,53.6463198342696],[-2.1122805766646,53.6460951333221],[-2.11190239805061,53.6460954893505],[-2.11152421942858,53.6460958441844],[-2.11114604079855,53.6460961978237],[-2.11076786216056,53.6460965502684],[-2.11076726542484,53.6458718492621],[-2.11038908879146,53.6458722004997],[-2.11038968351461,53.6460969015185],[-2.11001150486075,53.646097251574],[-2.11001209757914,53.6463219525968],[-2.10963391690479,53.6463223014703],[-2.10963450761835,53.6465470024971],[-2.10925632492352,53.6465473501886],[-2.10887814222084,53.6465476966854],[-2.10887872891688,53.6467723977288],[-2.10850054419374,53.6467727430435],[-2.10849995951035,53.6465480419876],[-2.10849937483466,53.6463233409232],[-2.10812119412902,53.6463236850183],[-2.10812061147362,53.646098983933],[-2.10774243277282,53.646099326821],[-2.10774185213767,53.6458746257147],[-2.10736367544172,53.6458749673957],[-2.10736309682675,53.6456502662685],[-2.1073625182194,53.6454255651327],[-2.10736193961967,53.6452008639884],[-2.10774011027807,53.6452005223448],[-2.10773952967349,53.6449758212045],[-2.10773894907656,53.6447511200558],[-2.10773836848727,53.6445264188985],[-2.10773778790562,53.6443017177328],[-2.10773720733161,53.6440770165585],[-2.10811536792024,53.6440766737828],[-2.10811478534155,53.6438519726125],[-2.10811420277053,53.6436272714338],[-2.10811362020718,53.6434025702465],[-2.10773546565544,53.6434029129849],[-2.10735731109598,53.6434032545287],[-2.10697915652882,53.6434035948781],[-2.10660100195398,53.6434039340331],[-2.10660157646825,53.6436286352702],[-2.1062234198735,53.6436289732431],[-2.10622399238302,53.6438536744841],[-2.10622456490008,53.6440783757166],[-2.10584640427308,53.6440787125199],[-2.1054682436385,53.6440790481287],[-2.10546767514609,53.6438543468714],[-2.10508951651627,53.6438546812733],[-2.10509008299635,53.644079382543],[-2.10471192234666,53.6440797157629],[-2.10433376168947,53.6440800477882],[-2.10395560102479,53.644080378619],[-2.10357744035267,53.6440807082554],[-2.10357799879077,53.6443054095662],[-2.10395616147526,53.6443050799175],[-2.10433432415229,53.6443047490743],[-2.1043348866225,53.6445294503519],[-2.10433544910011,53.644754151621],[-2.10395728239829,53.644754482489],[-2.10395784287086,53.644979183762],[-2.10395840335081,53.6452038850265],[-2.10395896383812,53.6454285862825],[-2.10395952433281,53.6456532875301],[-2.10396008483487,53.6458779887691],[-2.1039606453443,53.6461026899997],[-2.10358246655999,53.6461030197473],[-2.1035830250642,53.6463277209818],[-2.1039612058611,53.6463273912217],[-2.10433938665055,53.6463270602671],[-2.10471756743252,53.6463267281179],[-2.10509574820698,53.6463263947741],[-2.10509631476904,53.6465510959505],[-2.10547449754858,53.6465507613997],[-2.1054739289739,53.6463260602357],[-2.10585210973326,53.6463257245027],[-2.10623029048502,53.6463253875751],[-2.10623086308496,53.6465500887143],[-2.10660904584173,53.6465497505797],[-2.10698722859086,53.6465494112504],[-2.10698780522363,53.6467741123562],[-2.10736598997774,53.6467737718199],[-2.10736656863079,53.6469984729048],[-2.10736714729145,53.6472231739811],[-2.10736772595973,53.647447875049],[-2.10774591674426,53.6474475332807],[-2.10812410752106,53.6474471903177],[-2.10850229829011,53.6474468461602],[-2.10850288300429,53.6476715471821],[-2.10850346772618,53.6478962481955],[-2.10888166251299,53.6478959028183],[-2.10888224925539,53.6481206038108],[-2.10888283600551,53.6483453047947],[-2.10926103481017,53.6483449581979],[-2.10963923360699,53.6483446104063],[-2.11001743239595,53.6483442614201],[-2.11039563117702,53.6483439112392],[-2.11077382995016,53.6483435598636],[-2.11077323313582,53.6481188589423],[-2.11115142988817,53.6481185063846],[-2.11115083106888,53.6478938054673],[-2.11152902580045,53.6478934517275],[-2.11152842497626,53.6476687508143],[-2.11190661768703,53.6476683958925],[-2.11228481038978,53.6476680397759],[-2.11266300308448,53.6476676824648],[-2.11304119577109,53.647667323959],[-2.11341938844959,53.6476669642585],[-2.11379758111996,53.6476666033634],[-2.11417577378216,53.6476662412736],[-2.11455396643617,53.6476658779892],[-2.11455458336266,53.6478905788015],[-2.11455520029728,53.6481152796053],[-2.11455581724004,53.6483399804006],[-2.11493401592427,53.6483396158836],[-2.11493463488803,53.6485643166578],[-2.11493525385996,53.6487890174234],[-2.11493587284004,53.6490137181806],[-2.11493649182829,53.6492384189293],[-2.11455828509242,53.6492387834969],[-2.11455890207586,53.6494634842498],[-2.11418069331879,53.6494638476353],[-2.11418130829736,53.6496885483923],[-2.1138030975191,53.6496889105958],[-2.11342488673267,53.6496892716045],[-2.11342549769328,53.6499139723783],[-2.11304728488568,53.6499143322049],[-2.11304789384129,53.6501390329828],[-2.11266967901252,53.6501393916273],[-2.11267028612169,53.6503640922077],[-2.11229206927894,53.6503644496623],[-2.11191385242817,53.650364805922],[-2.1115356355694,53.650365160987],[-2.11153623682827,53.6505898613743],[-2.11115801796115,53.6505902152434],[-2.11115861722748,53.6508149156212],[-2.11078039635201,53.6508152682944],[-2.11040217546864,53.6508156197728],[-2.11040158020313,53.6505909193971],[-2.11002336131229,53.6505912696818],[-2.11002395457737,53.6508159700564],[-2.10964573367826,53.6508163191451],[-2.10926751277131,53.6508166670391],[-2.10926810204328,53.651041367403],[-2.10926869132298,53.6512660677585],[-2.10889046640731,53.6512664144554],[-2.10851224148387,53.6512667599575],[-2.10813401655269,53.6512671042647],[-2.10775579161378,53.651267447377],[-2.10737756666717,53.6512677892945],[-2.10737698738982,53.6510430889446],[-2.10737640812005,53.6508183885863],[-2.10699818716669,53.6508187293113],[-2.10699876443602,53.6510434296685],[-2.10662054147457,53.6510437691975],[-2.10624231850551,53.6510441075316],[-2.10586409552886,53.651044444671],[-2.10548587254466,53.6510447806155],[-2.10510764955292,53.6510451153651],[-2.1051070822858,53.6508204150139],[-2.10510651502611,53.6505957146542],[-2.10472829602772,53.6505960482115],[-2.10435007702186,53.6505963805739],[-2.10434951377036,53.6503716802083],[-2.10397129675743,53.6503720113771],[-2.10397073577474,53.6501473106983],[-2.10434895078256,53.6501469795332],[-2.10434838812735,53.6499222784678],[-2.1039701751326,53.6499226096205],[-2.10396961449783,53.6496979085343],[-2.10359140350866,53.6496982384799],[-2.10359084489427,53.6494735373727],[-2.10359028628723,53.6492488362571],[-2.10358972768754,53.649024135133],[-2.10321152272988,53.6490244638468],[-2.10321207931662,53.6492491649833],[-2.10321263591068,53.6494738661113],[-2.10283442691968,53.649474193655],[-2.10283498150805,53.6496988947869],[-2.10283553610371,53.6499235959102],[-2.10321374912075,53.6499232683417],[-2.10321430573677,53.6501479694442],[-2.10321486270933,53.6503726701305],[-2.10321541995966,53.6505973704924],[-2.10283720092415,53.6505976980756],[-2.10283775618134,53.6508223984278],[-2.1028383114458,53.6510470987716],[-2.1028388667175,53.651271799107],[-2.10321709175435,53.6512714715276],[-2.10321764903381,53.6514961718557],[-2.10359587606378,53.6514958430827],[-2.10359643535105,53.6517205434037],[-2.10321820632056,53.6517208721754],[-2.10283997728269,53.6517211997523],[-2.10284053257618,53.6519459000623],[-2.10246230153041,53.651946226443],[-2.10246285483057,53.6521709267432],[-2.10246340813796,53.652395627035],[-2.1020851730837,53.6523959522183],[-2.10208572439768,53.6526206525004],[-2.10246396145258,53.6526203273184],[-2.10246451477443,53.6528450275933],[-2.10284275382267,53.6528447012177],[-2.10284330915244,53.6530694014854],[-2.10322155019402,53.6530690739162],[-2.10322210753176,53.6532937741767],[-2.10322266487679,53.6535184744288],[-2.10360090991245,53.6535181456671],[-2.10360146926553,53.6537428459121],[-2.10397971629457,53.6537425159567],[-2.10435796331618,53.6537421848064],[-2.10473621033033,53.6537418524611],[-2.10473677569311,53.6539665527013],[-2.10473734106328,53.654191252933],[-2.10511559207157,53.6541909193952],[-2.10511615944999,53.6544156196197],[-2.10511672683582,53.6546403198357],[-2.10549498183833,53.6546399851054],[-2.10549555123249,53.6548646853142],[-2.10587380822837,53.6548643493901],[-2.10587437963091,53.6550890495917],[-2.10587495104092,53.6553137497848],[-2.10549669004316,53.6553140857065],[-2.10549725945967,53.65553878589],[-2.10511899645338,53.6555391206155],[-2.10474073343959,53.655539454146],[-2.10474016802505,53.6553147539649],[-2.10436190700476,53.6553150863016],[-2.10436134359858,53.6550903861133],[-2.10398308457179,53.6550907172563],[-2.1039825231739,53.6548660170608],[-2.10398196178336,53.6546413168568],[-2.10398140040015,53.6544166166445],[-2.10398083902428,53.6541919164237],[-2.10360258799363,53.6541922463765],[-2.10322433695558,53.6541925751345],[-2.1032237795887,53.6539678749077],[-2.10284553054409,53.6539682024719],[-2.10284497518529,53.653743502238],[-2.10284441983375,53.6535188019956],[-2.10246617478337,53.6535191283674],[-2.10246562143982,53.6532944281178],[-2.10208737838286,53.653294753296],[-2.10170913531861,53.6532950772792],[-2.10170858598373,53.6530703770237],[-2.10133034397922,53.6530706999014],[-2.10132979666119,53.6528459996251],[-2.10095155494784,53.6528463214331],[-2.10095210022885,53.6530710217482],[-2.10095264551708,53.6532957220548],[-2.10095319081253,53.6535204223528],[-2.10057494298072,53.6535207430825],[-2.10019669514163,53.6535210626173],[-2.10019723637009,53.6537457629844],[-2.10019777760573,53.6539704633429],[-2.10019831884853,53.6541951636929],[-2.09982006489078,53.6541954821493],[-2.0994418109258,53.6541957994108],[-2.09906355695362,53.6541961154775],[-2.0990630218223,53.6539714150112],[-2.09944127375732,53.6539710989833],[-2.09944073659595,53.6537463985471],[-2.0994401994417,53.6535216981025],[-2.09943966229456,53.6532969976492],[-2.09981790811106,53.6532966805429],[-2.09981736893399,53.6530719801199],[-2.09981682976405,53.6528472796883],[-2.10019507149925,53.6528469614647],[-2.10019453029946,53.6526222610634],[-2.1005727699904,53.6526219416838],[-2.10057222676082,53.6523972413127],[-2.10057168353843,53.6521725409331],[-2.10094991914818,53.6521722204363],[-2.10094937389607,53.651947520087],[-2.10094882865118,53.651722819729],[-2.10057059711523,53.6517231401481],[-2.100192365572,53.6517234593725],[-2.09981413402151,53.6517237774021],[-2.09981359489442,53.6514990769192],[-2.09981305577448,53.6512743764277],[-2.09943482829045,53.651274693185],[-2.09905660079922,53.6512750087476],[-2.09905713584551,53.6514997093166],[-2.09867890631028,53.6515000237232],[-2.09867837330083,53.6512753231154],[-2.09830014579528,53.6512756362885],[-2.0982996148297,53.6510509356333],[-2.09792138935384,53.651051247573],[-2.09754316387089,53.6510515583178],[-2.09754369076287,53.6512762590504],[-2.09754421766183,53.6515009597745],[-2.09716598809818,53.6515012694021],[-2.0967877585275,53.651501577835],[-2.09678723570221,53.6512768770335],[-2.09640900816136,53.6512771842329],[-2.0964084873798,53.6510524833841],[-2.09603026186877,53.6510527893501],[-2.09565203635079,53.6510530941213],[-2.09527381082589,53.6510533976979],[-2.09489558529409,53.6510537000796],[-2.09451735975543,53.6510540012667],[-2.09451684916465,53.650829300216],[-2.09489507266654,53.6508289990676],[-2.09489456004576,53.650604298047],[-2.09527278150403,53.6506039957426],[-2.09527226685332,53.650379294752],[-2.09527175246603,53.6501545933473],[-2.09527123845851,53.6499298913443],[-2.0952707244578,53.6497051893327],[-2.0956489377705,53.6497048860176],[-2.0960271510763,53.6497045815079],[-2.09640536437515,53.6497042758036],[-2.09640588447678,53.6499289776609],[-2.0964064045853,53.6501536795096],[-2.0967846219445,53.6501533725077],[-2.0971628392967,53.6501530643111],[-2.09754105664188,53.6501527549199],[-2.09754053043235,53.6499280532256],[-2.09791874573681,53.6499277426912],[-2.09791821750061,53.6497030410398],[-2.09791768927141,53.6494783393798],[-2.0979171610492,53.6492536377112],[-2.09791663283399,53.649028936034],[-2.09753842566392,53.6490292463624],[-2.09716021848681,53.6490295554963],[-2.09715969434565,53.6488048537075],[-2.09753789948923,53.6488045446251],[-2.09753737332151,53.6485798428793],[-2.09791557642454,53.6485795326538],[-2.0979150482303,53.6483548309508],[-2.09829324929278,53.6483545195822],[-2.09829271907209,53.6481298179221],[-2.09791452004306,53.6481301292392],[-2.09791399186281,53.647905427519],[-2.09791346368956,53.6476807257903],[-2.09753526872027,53.6476810358099],[-2.09753579486013,53.6479057375901],[-2.0971575978504,53.6479060464666],[-2.09715707374393,53.6476813446349],[-2.09677887876057,53.6476816522654],[-2.09640068377022,53.6476819587013],[-2.0960224887729,53.6476822639427],[-2.09602197077347,53.6474575619481],[-2.0960214527809,53.6472328599448],[-2.09639964371151,53.6472325548063],[-2.09639912369249,53.647007852846],[-2.09639860368034,53.646783150877],[-2.09677679053739,53.6467828446468],[-2.09677731258282,53.6470075465643],[-2.09715550146616,53.6470072390882],[-2.09753369034249,53.6470069304176],[-2.09753316423049,53.646782228603],[-2.09791135106648,53.6467819187893],[-2.09791082292819,53.6465572170176],[-2.09828900772385,53.6465569060609],[-2.09828847755932,53.646332204332],[-2.09791029479689,53.6463325152373],[-2.09753211202739,53.646332824948],[-2.09753158593629,53.6461081231076],[-2.09715340519294,53.6461084315724],[-2.09677522444257,53.6461087388427],[-2.09677574646726,53.646333440786],[-2.0963975636767,53.6463337469132],[-2.09639808367508,53.6465584488994],[-2.09601989884432,53.6465587538836],[-2.09564171400662,53.6465590576733],[-2.0956411980747,53.6463343555843],[-2.09526301526332,53.646334658128],[-2.09526352916201,53.6465593602685],[-2.09488534431053,53.6465596616691],[-2.09488585618276,53.6467843638524],[-2.09450766929116,53.64678466411],[-2.09450817913688,53.647009366336],[-2.09450868898935,53.6472340685535],[-2.09450919884856,53.6474587707624],[-2.09450970871452,53.6476834729627],[-2.09451021858723,53.6479081751544],[-2.09451072846668,53.6481328773375],[-2.09451123835288,53.648357579512],[-2.09451174824583,53.648582281678],[-2.09413354508035,53.6485825811521],[-2.09413405294654,53.6488072833609],[-2.09413456081945,53.649031985561],[-2.09375635358014,53.6490322839434],[-2.09337814633405,53.6490325811311],[-2.09299993908122,53.6490328771242],[-2.09262173182166,53.6490331719227],[-2.09262123208288,53.648808469517],[-2.09224302685017,53.6488087630696],[-2.09224252915151,53.648584060604],[-2.09224203145943,53.6483593581299],[-2.09186383028704,53.6483596503851],[-2.09148562910801,53.6483599414457],[-2.09110742792238,53.6483602313118],[-2.09110791951403,53.6485849339399],[-2.09110841111217,53.6488096365594],[-2.09110890271682,53.6490343391704],[-2.09073069542409,53.6490346279958],[-2.09073118500168,53.6492593306494],[-2.09073167458575,53.6494840332945],[-2.09073216417628,53.649708735931],[-2.09073265377329,53.649933438559],[-2.09111086920043,53.6499331495284],[-2.09111136083758,53.6501578520964],[-2.09073314337677,53.6501581411783],[-2.09073363334754,53.650382843091],[-2.09111185284312,53.650382553967],[-2.0914900723321,53.6503822636483],[-2.09149056661558,53.650606965025],[-2.09186878813467,53.650606673473],[-2.09224700964711,53.6506063807262],[-2.09224651129019,53.6503816794267],[-2.0922460131804,53.6501569776827],[-2.09262423061472,53.6501566838221],[-2.09300244804234,53.6501563887668],[-2.09300295022157,53.6503810904262],[-2.09338116967718,53.650380794134],[-2.09375938912603,53.650380496647],[-2.0941376085681,53.6503801979653],[-2.09413811710864,53.6506048990718],[-2.09413862565592,53.6508296001697],[-2.09413913420992,53.651054301259],[-2.09413964277065,53.6512790023398],[-2.09376141518152,53.6512793011761],[-2.09338318758561,53.6512795988175],[-2.09300495998294,53.6512798952643],[-2.0930054624399,53.6515045964524],[-2.09262723279366,53.6515048917431],[-2.09224900314073,53.6515051858389],[-2.09187077348111,53.65150547874],[-2.09149254381485,53.6515057704464],[-2.09149204950523,53.6512810691039],[-2.09187027713466,53.6512807774361],[-2.09186978079476,53.6510560761236],[-2.09149155520214,53.6510563677528],[-2.0911133296029,53.6510566581872],[-2.09111382186918,53.6512813595769],[-2.09073559422654,53.6512816488552],[-2.09035736657734,53.6512819369387],[-2.09035785477645,53.6515066383969],[-2.08997962508388,53.6515069253242],[-2.08998011125259,53.6517316268124],[-2.08960187951664,53.6517319125835],[-2.08960236365489,53.6519566141017],[-2.08960284779954,53.6521813156113],[-2.0892246119833,53.6521816002647],[-2.0888463761606,53.6521818837233],[-2.08884685623776,53.6524065853014],[-2.0892250940974,53.6524063018043],[-2.08922557621788,53.6526310033354],[-2.08884733632126,53.652631286871],[-2.08884781641111,53.652855988432],[-2.08846957447107,53.6528562708114],[-2.08847005253024,53.6530809724024],[-2.08809180854677,53.6530812536254],[-2.0880922845752,53.6533059552463],[-2.08809276060992,53.6535306568587],[-2.08809323665093,53.6537553584625],[-2.08771498654984,53.6537556386061],[-2.08771546056,53.6539803402399],[-2.08771593457643,53.6542050418652],[-2.08733768039469,53.6542053208909],[-2.08733720841543,53.6539806192272],[-2.08695895626455,53.6539808970196],[-2.08695848632866,53.6537561953088],[-2.08658023620862,53.6537564718679],[-2.08657976831605,53.6535317701101],[-2.08657930042966,53.6533070683439],[-2.08620105437756,53.6533073436312],[-2.08582280831921,53.6533076177236],[-2.08582234451312,53.6530829158719],[-2.0862005885344,53.6530826418179],[-2.0862001226974,53.6528579399961],[-2.08657836467543,53.6528576647857],[-2.08695660664719,53.6528573883804],[-2.08695613674235,53.652632686627],[-2.08733437667082,53.6526324090654],[-2.08733390473521,53.6524077073419],[-2.08733343280583,53.6521830056098],[-2.08771166865407,53.6521827269304],[-2.08771119469401,53.6519580252282],[-2.08771072074021,53.6517333235175],[-2.08733248896578,53.65173360212],[-2.08695425718503,53.6517338795277],[-2.086576025398,53.6517341557406],[-2.0861977936047,53.6517344307588],[-2.08581956180517,53.6517347045822],[-2.08544132999943,53.6517349772108],[-2.08506309818751,53.6517352486446],[-2.08506263849802,53.6515105466563],[-2.0850621788146,53.6512858446594],[-2.08544040655281,53.6512855733024],[-2.08543994483865,53.6510608713353],[-2.08543948313058,53.6508361693597],[-2.08543902142861,53.6506114673756],[-2.08581724305031,53.6506111949391],[-2.08581677931771,53.6503864929849],[-2.08581631579993,53.6501617905276],[-2.08619453334378,53.6501615169765],[-2.08619406814435,53.6499368137422],[-2.08619360295106,53.6497121104994],[-2.08619313776392,53.649487407248],[-2.08657134920062,53.6494871326557],[-2.08657088198603,53.6492624294469],[-2.08657041477761,53.6490377262296],[-2.08694862214091,53.6490374505451],[-2.08694815290513,53.6488127473703],[-2.08694768367555,53.648588044187],[-2.08732588696553,53.6485877674103],[-2.08732541570867,53.6483630642696],[-2.08732494445803,53.6481383611203],[-2.08770314367477,53.6481380832514],[-2.08770267039694,53.6479133801448],[-2.08808086757393,53.6479131011325],[-2.08808039226895,53.6476883980685],[-2.08807991697025,53.647463694996],[-2.08845811007411,53.6474634148916],[-2.08845763274835,53.6472387118617],[-2.08845715542889,53.6470140088232],[-2.08807896639168,53.6470142888251],[-2.08807944167783,53.6472389919148],[-2.08770125060094,53.6472392707734],[-2.08770172386002,53.6474639739057],[-2.08770219712535,53.6476886770295],[-2.08732400197543,53.647688954796],[-2.0869458068192,53.6476892313679],[-2.08656761165669,53.6476895067452],[-2.08656714449147,53.6474648034677],[-2.08656667733242,53.6472401001817],[-2.08694486842821,53.6472398249068],[-2.08694439924202,53.6470151216635],[-2.08732258829822,53.6470148452452],[-2.08732211708493,53.6467901420444],[-2.08694393006202,53.6467904184115],[-2.08656574303283,53.646790693584],[-2.08618755599739,53.646790967562],[-2.08580936895572,53.6467912403455],[-2.08580983203586,53.647015943751],[-2.08543164295472,53.647016215391],[-2.08543210400765,53.6472409188391],[-2.08505391288703,53.6472411893358],[-2.08505437191271,53.6474658928265],[-2.08467617966209,53.6474661605109],[-2.08467663665859,53.6476908640418],[-2.08429844430213,53.6476911270166],[-2.0839202519396,53.6476913887968],[-2.08392070488443,53.6479160923687],[-2.08429889927581,53.6479158305638],[-2.08429935425549,53.6481405341024],[-2.08429980924116,53.6483652376326],[-2.08430026423283,53.6485899411542],[-2.08430071923049,53.6488146446673],[-2.08430117423415,53.6490393481719],[-2.0843016292438,53.649264051668],[-2.08392342267879,53.6492643136213],[-2.08392387566541,53.6494890171337],[-2.08354566706532,53.649489277917],[-2.08316745845921,53.6494895375057],[-2.08316790739367,53.649714241059],[-2.08316835633404,53.6499389446037],[-2.08279014366378,53.6499392030471],[-2.08241193098756,53.6499394602957],[-2.08241237587562,53.6501641638814],[-2.08203416116434,53.65016441996],[-2.08165594644716,53.6501646748438],[-2.08127773172409,53.6501649285329],[-2.08127817080782,53.6503896315171],[-2.08089995404258,53.6503898840557],[-2.08090039124855,53.6506145867093],[-2.08090082846031,53.6508392893543],[-2.08052260760684,53.6508395408125],[-2.08014438674754,53.6508397910759],[-2.07976616588244,53.6508400401447],[-2.07938794501156,53.6508402880188],[-2.07900972413494,53.6508405346981],[-2.07901015114634,53.6510652376201],[-2.07863192822278,53.6510654831618],[-2.0786315032526,53.6508407801827],[-2.07825328236457,53.6508410244727],[-2.07825285944121,53.6506163214279],[-2.07787464058871,53.6506165644661],[-2.07787421971211,53.6503918613557],[-2.07825243652343,53.6503916183746],[-2.07825201373107,53.6501669150346],[-2.07863022850021,53.6501666709035],[-2.07862980390334,53.6499419670713],[-2.07825159116332,53.6499422111778],[-2.07787337841767,53.6499424540895],[-2.07787295788456,53.6497177501996],[-2.07787253735698,53.6494930463012],[-2.07825074604448,53.6494928034387],[-2.0782503234934,53.6492680995564],[-2.07862853014623,53.6492678555237],[-2.07900673679339,53.6492676102963],[-2.07900716340255,53.6494923141294],[-2.07938537207306,53.6494920676827],[-2.07938580071689,53.6497167714827],[-2.07976401141075,53.6497165238166],[-2.07976358073786,53.6494918200412],[-2.08014178939691,53.649491571205],[-2.08014135670064,53.6492668674458],[-2.08051956332489,53.6492666174396],[-2.08051912860531,53.6490419136965],[-2.08089733319475,53.6490416625202],[-2.08089689645191,53.6488169587932],[-2.08127509900654,53.6488167064469],[-2.08165330155531,53.6488164529059],[-2.0820315040982,53.6488161981701],[-2.08240970663518,53.6488159422397],[-2.08278790916623,53.6488156851146],[-2.08278746228438,53.6485909815026],[-2.0831656627805,53.6485907232075],[-2.08316521387561,53.6483660196117],[-2.08316476497663,53.6481413160073],[-2.08278656853833,53.648141574253],[-2.08240837209406,53.648141831304],[-2.08203017564386,53.6481420871603],[-2.08165197918775,53.648142341822],[-2.08127378272575,53.648142595289],[-2.08127422148024,53.6483672990168],[-2.0812746602405,53.6485920027361],[-2.08089645971482,53.6485922550578],[-2.08051825918332,53.6485925061848],[-2.08051782448092,53.6483678024162],[-2.08051738978423,53.648143098639],[-2.08013919330475,53.6481433485221],[-2.08013876064266,53.6479186447118],[-2.08013832798626,53.647693940893],[-2.08051652040802,53.6476936910593],[-2.08089471282397,53.6476934400309],[-2.08127290523411,53.6476931878079],[-2.08127334397704,53.6479178915527],[-2.08165153841016,53.6479176381104],[-2.08165109763839,53.6476929343902],[-2.08165065687241,53.6474682306615],[-2.082028847242,53.6474679760739],[-2.08202840445304,53.6472432723614],[-2.08202796166991,53.6470185686404],[-2.08164977535788,53.6470188231787],[-2.08164933460932,53.6467941194245],[-2.08127115032014,53.6467943727435],[-2.08127158903997,53.6470190765223],[-2.0808934027162,53.6470193286714],[-2.08051521638661,53.6470195796258],[-2.08013703005122,53.6470198293856],[-2.07975884371006,53.6470200779507],[-2.07938065736315,53.6470203253213],[-2.079380228787,53.6467956214192],[-2.07937980021648,53.6465709175086],[-2.07975798250595,53.6465706701873],[-2.07975755191239,53.6463459662928],[-2.0797571213245,53.6461212623898],[-2.08013529955088,53.6461210139232],[-2.08013486694003,53.6458963100363],[-2.08051304313202,53.6458960603998],[-2.0805134777715,53.646120764262],[-2.08089165598632,53.6461205134062],[-2.08089209266016,53.6463452172353],[-2.08127027289781,53.6463449651602],[-2.08126983419531,53.6461202613558],[-2.08164801239845,53.6461200081109],[-2.0816484531296,53.6463447118906],[-2.08202663335551,53.6463444574264],[-2.08240481357551,53.6463442017676],[-2.08278299378958,53.6463439449142],[-2.08316117399768,53.6463436868663],[-2.0835393541998,53.6463434276237],[-2.08391753439589,53.6463431671866],[-2.08429571458594,53.6463429055549],[-2.08467389476992,53.6463426427286],[-2.08467343780955,53.6461179391466],[-2.08505161784952,53.6461176717538],[-2.08542979880385,53.6461174015129],[-2.085807979752,53.6461171300775],[-2.08618616069397,53.6461168574476],[-2.08618569560511,53.6458921540589],[-2.0861852305224,53.6456674506617],[-2.08618476544583,53.6454427472559],[-2.0861843003754,53.6452180438416],[-2.0865624731786,53.6452177702219],[-2.08656200608124,53.6449930668501],[-2.08656153899006,53.6447683634698],[-2.08656107190504,53.6445436600808],[-2.08693923860287,53.6445433854202],[-2.08731740529442,53.6445431095652],[-2.0873169341496,53.6443184062701],[-2.08769509880186,53.6443181292718],[-2.08769462563031,53.6440934260193],[-2.08807278824328,53.6440931478778],[-2.08807231304505,53.6438684446679],[-2.08807183785309,53.6436437414495],[-2.08844999639388,53.643643462216],[-2.08844951917532,53.6434187590403],[-2.08807136266742,53.6434190382225],[-2.08807088748802,53.6431943349869],[-2.0880704123149,53.6429696317428],[-2.08844856475713,53.642969352663],[-2.08882671719299,53.6429690723888],[-2.08882623796056,53.6427443692385],[-2.0884480875575,53.6427446494615],[-2.08806993714805,53.64274492849],[-2.08806946198749,53.6425202252287],[-2.08769131360445,53.6425205030117],[-2.08731316521509,53.6425207796004],[-2.08731269412627,53.6422960762281],[-2.08731222304369,53.6420713728472],[-2.08731175213922,53.6418466691893],[-2.08768989442817,53.6418463927573],[-2.0876903673676,53.642071096361],[-2.08806851168519,53.6420708186804],[-2.08806803671077,53.6418461151311],[-2.08844617898699,53.6418458363105],[-2.08844665599642,53.6420705398054],[-2.08882480030126,53.6420702597362],[-2.0892029445997,53.6420699784726],[-2.08958108889169,53.6420696960147],[-2.08958060577712,53.6418449926832],[-2.08958012302535,53.6416202887802],[-2.08995826323324,53.6416200052477],[-2.08995874802755,53.6418447090855],[-2.08995923317722,53.6420694123625],[-2.09033737745625,53.642069127516],[-2.09033786480053,53.642293830487],[-2.09071601110575,53.6422935443948],[-2.09109415740442,53.6422932571083],[-2.09147230369652,53.6422929686275],[-2.09147279714545,53.6425176714361],[-2.09109464882061,53.6425179599682],[-2.0907165004892,53.642518247306],[-2.09033835215124,53.6425185334494],[-2.08996020380676,53.6425188183985],[-2.08996068913116,53.6427435214036],[-2.0903388395084,53.6427432364032],[-2.09033932687201,53.6429679393485],[-2.08996117446197,53.6429682244001],[-2.08996165979919,53.6431929273881],[-2.09033981424205,53.6431926422852],[-2.09034030161854,53.6434173452133],[-2.09071845808772,53.6434170588647],[-2.09109661455036,53.6434167713218],[-2.09109612310817,53.6431920684963],[-2.09147427753138,53.6431917798103],[-2.09185243194799,53.6431914899299],[-2.09185193644667,53.6429667871984],[-2.09223008882382,53.642966496175],[-2.09222959129625,53.6427417934862],[-2.09260774163395,53.6427415013198],[-2.09298589196497,53.642741207959],[-2.09336404228926,53.6427409134039],[-2.09374219260682,53.6427406176544],[-2.09374269826555,53.6429653201378],[-2.09374320393097,53.6431900226126],[-2.09412135830737,53.643189725566],[-2.09412085060913,53.6429650231426],[-2.09449900294591,53.642964724953],[-2.09449849322159,53.6427400225724],[-2.09449798350402,53.6425153201831],[-2.09487613176842,53.642515020902],[-2.09487562002486,53.6422903185556],[-2.09525376624967,53.6422900181315],[-2.09563191246759,53.6422897165131],[-2.09563139666538,53.6420650142609],[-2.09525325248016,53.6420653158279],[-2.09525273883683,53.6418406133189],[-2.09487459668015,53.6418409136364],[-2.09449645451658,53.6418412127597],[-2.09411831234617,53.6418415106887],[-2.09411780508388,53.6416168075685],[-2.09373966494919,53.641617104238],[-2.09373915973615,53.6413924010439],[-2.09411729782833,53.6413921044398],[-2.09411679057952,53.6411674013024],[-2.09449492662239,53.6411671035693],[-2.09487306265841,53.641166804642],[-2.09525119868755,53.6411665045204],[-2.09525171206382,53.6413912074619],[-2.09562985012855,53.6413909060807],[-2.09562933470979,53.6411662032046],[-2.0960074707251,53.6411659006946],[-2.09600695327073,53.6409411978752],[-2.09638508723662,53.6409408942363],[-2.0963845677467,53.6407161914736],[-2.09676269966317,53.6407158867058],[-2.09714083157263,53.6407155807438],[-2.0971403080048,53.6404908781033],[-2.09713978444394,53.6402661754541],[-2.09751791226158,53.6402658684286],[-2.09751738666533,53.6400411658362],[-2.09789551243354,53.6400408576819],[-2.09789498480196,53.6398161551462],[-2.09827310852076,53.6398158458632],[-2.09827363819466,53.6400405483335],[-2.09827416787561,53.6402652507951],[-2.0982746975636,53.6404899532481],[-2.09789656771776,53.6404902627274],[-2.09789709537039,53.6407149652372],[-2.09751896347504,53.6407152735876],[-2.09751948909226,53.6409399761542],[-2.09714135514741,53.6409402833758],[-2.09714187872916,53.6411649859991],[-2.09676374273481,53.6411652920918],[-2.09676426428103,53.6413899947719],[-2.09638612623718,53.6413902997357],[-2.09638664574782,53.6416150024725],[-2.09638716526536,53.6418397052007],[-2.09676530739427,53.6418394001061],[-2.09714344951616,53.6418390938172],[-2.09714292591353,53.6416143912198],[-2.09752106598584,53.641614083802],[-2.09789920605108,53.64161377519],[-2.09789867837038,53.6413890727148],[-2.0978981506967,53.6411643702309],[-2.09827628666984,53.6411640605554],[-2.09865442263586,53.6411637496857],[-2.09865389088427,53.640939047324],[-2.09903202480068,53.6409387353255],[-2.09903149101374,53.6407140330206],[-2.09940962288053,53.6407137198933],[-2.09940908705828,53.6404890176452],[-2.09978721687546,53.6404887033892],[-2.10016534668541,53.6404883879389],[-2.10054347648809,53.6404880712945],[-2.10054293454584,53.6402633692341],[-2.10092106229886,53.6402630514609],[-2.10092051832147,53.6400383494573],[-2.10129864402482,53.6400380305554],[-2.10129809801235,53.6398133286087],[-2.10167622094955,53.6398130073865],[-2.10205434333374,53.6398126840626],[-2.10205379327746,53.6395879821757],[-2.10205324322845,53.6393632802803],[-2.10243136156127,53.6393629558095],[-2.10243080949755,53.6391382539292],[-2.10280892580103,53.6391379282879],[-2.10318704209711,53.6391376014523],[-2.10318759820477,53.6393623032851],[-2.10356571651539,53.6393619752315],[-2.10356627465239,53.6395866770321],[-2.10318815431977,53.6395870051094],[-2.10318871044211,53.6398117069252],[-2.1031892665718,53.6400364087325],[-2.10318982270883,53.6402611105312],[-2.10281169630263,53.6402614374854],[-2.1028122504249,53.6404861392994],[-2.10281280455448,53.6407108411048],[-2.10281335869138,53.6409355429017],[-2.10243522621139,53.6409358687327],[-2.10243577833341,53.6411605705448],[-2.10205764382386,53.6411608952053],[-2.10167950930696,53.6411612186714],[-2.10168005739185,53.6413859205224],[-2.10130192025219,53.6413862420546],[-2.10092378229434,53.6413865613493],[-2.10092432631514,53.6416112633011],[-2.1013024663155,53.6416109439409],[-2.10168060548397,53.6416106223648],[-2.10205874404533,53.6416102988513],[-2.10243688259934,53.6416099741435],[-2.10243633046273,53.6413852723484],[-2.10281446698713,53.6413849464699],[-2.1028139128356,53.6411602446901],[-2.10319204733038,53.641159917641],[-2.10319149116398,53.6409352158763],[-2.10356962362915,53.6409348876566],[-2.10394775608686,53.6409345582426],[-2.10394719588348,53.6407098565169],[-2.10432532631156,53.6407095259322],[-2.10470345673212,53.6407091941533],[-2.10470289249188,53.6404844924666],[-2.10432476409344,53.6404848242218],[-2.10432420188276,53.6402601225028],[-2.10394607549892,53.6402604530399],[-2.10394551531773,53.6400357512886],[-2.10394495514395,53.6398110495288],[-2.10394439497756,53.6395863477605],[-2.10394383481856,53.6393616459837],[-2.10432195311425,53.6393613155416],[-2.10470007140244,53.6393609839053],[-2.10469950720691,53.6391362821674],[-2.10507762346559,53.6391359493606],[-2.10545573971671,53.6391356153595],[-2.10545517148474,53.6389109136607],[-2.10583328570633,53.6389105784892],[-2.10621139992031,53.6389102421234],[-2.10621197219615,53.6391349437746],[-2.10621254447955,53.6393596454173],[-2.10659066272979,53.6393593078097],[-2.10659008842442,53.6391346061908],[-2.10696820464502,53.6391342674127],[-2.10696762832529,53.6389095658092],[-2.10734574251625,53.6389092258607],[-2.10734516418223,53.6386845242724],[-2.10772327634355,53.6386841831535],[-2.10772269599529,53.6384594815806],[-2.10772211565469,53.6382347799991],[-2.10810022376452,53.6382344377337],[-2.10809964140976,53.6380097361675],[-2.1080990590627,53.6377850345928],[-2.10847716312111,53.637784691181],[-2.10847774748997,53.6380093927318],[-2.10885585356238,53.6380090481018],[-2.10923395962695,53.6380087022777],[-2.10923454804719,53.6382334037722],[-2.10961265612573,53.63823305673],[-2.10999076419638,53.6382327084936],[-2.11036887225911,53.638232359063],[-2.1107469803139,53.6382320084381],[-2.11074638380633,53.6380073070392],[-2.11036827777338,53.6380076576401],[-2.10999017173247,53.6380080070468],[-2.10961206568366,53.6380083552594],[-2.10961147524939,53.6377836537802],[-2.1099895792764,53.6377833055915],[-2.10998898682816,53.6375586041277],[-2.11036708882549,53.6375582547688],[-2.11074519081487,53.6375579042157],[-2.11112329279627,53.6375575524685],[-2.11112389130984,53.6377822538605],[-2.11150199530502,53.6377819008952],[-2.11150139476968,53.6375571995271],[-2.11187949673507,53.6375568453915],[-2.11225759869239,53.6375564900617],[-2.11225820327128,53.6377811913819],[-2.1126363072423,53.637780834834],[-2.11301441120522,53.6377804770919],[-2.1130150198357,53.6380051783557],[-2.11301562847424,53.6382298796109],[-2.1126375204677,53.638230237401],[-2.11225941245305,53.6382305939968],[-2.11188130443031,53.6382309493984],[-2.11188190701133,53.638455650717],[-2.11188250960033,53.6386803520271],[-2.11188311219729,53.6389050533287],[-2.11188371480222,53.6391297546217],[-2.11188431741512,53.6393544559062],[-2.11188492003599,53.6395791571822],[-2.11226304019027,53.6395788016368],[-2.11226364484114,53.6398035028802],[-2.11264176700935,53.6398031461166],[-2.11264237369026,53.6400278473276],[-2.11302049787242,53.6400274893458],[-2.11301988916946,53.6398027881588],[-2.11339801132143,53.6398024290066],[-2.11377613346524,53.6398020686602],[-2.11415425560085,53.6398017071195],[-2.11415487036995,53.6400264082345],[-2.11453299451939,53.6400260454756],[-2.11453237772825,53.6398013443846],[-2.11453176094527,53.639576643285],[-2.11453114417045,53.639351942177],[-2.11415302608707,53.6393523048639],[-2.11377490799546,53.6393526663566],[-2.11377429527274,53.639127965192],[-2.11377368255812,53.6389032640188],[-2.11415179660582,53.6389029025741],[-2.1141511818774,53.6386782014165],[-2.11415056715711,53.6384535002503],[-2.1145286771528,53.6384531376594],[-2.11452806041878,53.6382284365088],[-2.11414995244495,53.6382287990756],[-2.11414933774093,53.6380040978923],[-2.11414872304504,53.6377793967006],[-2.11414810835728,53.6375546955002],[-2.11414749367765,53.6373299942914],[-2.11376939378275,53.637330355568],[-2.11339129387966,53.6373307156505],[-2.1133906832516,53.6371060143851],[-2.11339007263163,53.6368813131113],[-2.11376816849131,53.6368809530768],[-2.11376755585775,53.6366562518184],[-2.11414564968758,53.6366558906137],[-2.11452374350919,53.636655528215],[-2.11452312684046,53.6364308269961],[-2.11452251017989,53.6362061257686],[-2.11490059995001,53.6362057622238],[-2.11489998127602,53.6359810610118],[-2.11489936261021,53.6357563597913],[-2.11489874395259,53.6355316585623],[-2.11489812530315,53.6353069573247],[-2.11489750666191,53.6350822560786],[-2.11527558631612,53.6350818914598],[-2.11527496566161,53.6348571902292]]],[[[-2.10926869132298,53.6512660677585],[-2.10964691623083,53.6512657198668],[-2.11002514113086,53.6512653707803],[-2.11002573441926,53.6514900711295],[-2.11002632771544,53.6517147714703],[-2.11002692101938,53.6519394718027],[-2.10964869011779,53.651939820886],[-2.10964809881439,53.6517151205547],[-2.10926986990551,53.6517154684443],[-2.10889164098883,53.6517158151389],[-2.10889105369423,53.6514911148014],[-2.10926928061039,53.6514907681056],[-2.10926869132298,53.6512660677585]]],[[[-2.08090170290115,53.6512886946186],[-2.08090126567784,53.6510639919907],[-2.08127948856668,53.6510637392807],[-2.08165771144963,53.651063485376],[-2.08165815275545,53.6512881878895],[-2.08203637767374,53.6512879327329],[-2.08203682102667,53.6515126351807],[-2.08203726438546,53.6517373376199],[-2.08241549338041,53.6517370811542],[-2.08241593878639,53.6519617835277],[-2.08203770775011,53.6519620400505],[-2.08203815112062,53.6521867424726],[-2.08165991803704,53.6521869978578],[-2.08165947670789,53.6519622953786],[-2.08128124565976,53.651962549512],[-2.08128080637778,53.6517378469671],[-2.0809025773651,53.6517380998485],[-2.08090214013023,53.6515133972378],[-2.08090170290115,53.6512886946186]]],[[[-2.09944288528411,53.6546452002402],[-2.09944342247394,53.6548699006421],[-2.09944395967088,53.6550946010354],[-2.09906569754978,53.6550949172572],[-2.09906623271654,53.6553196176808],[-2.09868796855097,53.6553199327465],[-2.09830970437825,53.6553202466172],[-2.09830917328608,53.6550955461162],[-2.09830864220096,53.6548708456065],[-2.09868690229911,53.6548705318133],[-2.09868636918377,53.6546458313338],[-2.09868583607549,53.6544211308459],[-2.09906409209203,53.6544208159353],[-2.0994423481014,53.6544204998298],[-2.09944288528411,53.6546452002402]]],[[[-2.105487580392,53.6517188816221],[-2.10548814968934,53.6519435819407],[-2.10510991869556,53.6519439166855],[-2.10473168769427,53.6519442502355],[-2.10473112239803,53.6517195499193],[-2.10473055710919,53.6514948495946],[-2.10472999182773,53.6512701492615],[-2.10510821682745,53.6512698157079],[-2.1051087841094,53.6514945160422],[-2.10548701110211,53.651494181295],[-2.10586523808728,53.6514938453529],[-2.1058658093777,53.6517185456812],[-2.105487580392,53.6517188816221]]]]}}