{"type":"Feature","properties":{"code":"E63004916","name":"City of Westminster"},"geometry":{"type":"MultiPolygon","coordinates":[[[[-0.182112970879423,51.5012410566958],[-0.182472958782932,51.5012466356424],[-0.182464015126107,51.501471313897],[-0.182104025453696,51.5014657349055],[-0.181744035897224,51.5014601548096],[-0.181384046456714,51.5014545736093],[-0.181375097377182,51.5016792517196],[-0.181366148181641,51.5019039298202],[-0.181006155319254,51.5018983474257],[-0.18064616257288,51.5018927639267],[-0.180286169942541,51.5018871793233],[-0.17992617742826,51.5018815936153],[-0.179566185030059,51.5018760068029],[-0.179575143070292,51.5016513289266],[-0.179215152557128,51.5016457410547],[-0.179206192747962,51.501870418886],[-0.178846200581992,51.5018648298647],[-0.178486208532171,51.5018592397389],[-0.178477245068952,51.5020839174707],[-0.178117251366354,51.5020783261955],[-0.178108286017968,51.5023030038727],[-0.178099320553361,51.5025276815401],[-0.178090354972532,51.5027523591978],[-0.177730356079151,51.5027467666833],[-0.177370357301997,51.5027411730643],[-0.177379326420856,51.5025164954965],[-0.177388295423447,51.502291817919],[-0.177028300300544,51.5022862232854],[-0.177037270955835,51.502061545743],[-0.17704624149484,51.5018368681909],[-0.177406233079835,51.5018424627346],[-0.17776622478107,51.5018480561738],[-0.177775191665946,51.5016233785221],[-0.177415201733634,51.5016177851278],[-0.17705521191756,51.501612190629],[-0.176695222217749,51.5016065950258],[-0.176335232634222,51.5016009983181],[-0.175975243167004,51.501595400506],[-0.175615253816115,51.5015898015894],[-0.175606276317731,51.5018144789714],[-0.175246285314286,51.5018088789054],[-0.174886294427218,51.5018032777349],[-0.174526303656552,51.5017976754599],[-0.174517320734997,51.5020223526972],[-0.174877313274594,51.5020279550172],[-0.175237305930593,51.5020335562327],[-0.175597298702973,51.5020391563437],[-0.175957291591709,51.5020447553502],[-0.175948315629529,51.5022694327577],[-0.175588320971834,51.5022638337062],[-0.175228326430499,51.5022582335502],[-0.174868332005545,51.5022526322897],[-0.17485935062007,51.5024773095525],[-0.174850369118167,51.5027019868055],[-0.174841387499834,51.5029266640488],[-0.174832405765069,51.5031513412823],[-0.17482342391387,51.503376018506],[-0.174814441946235,51.50360069572],[-0.174454437023491,51.5035950930851],[-0.174445453170305,51.5038197702443],[-0.17408544659489,51.5038141664597],[-0.174076460856108,51.5040388435642],[-0.174067475000837,51.5042635206589],[-0.174058489029078,51.5044881977439],[-0.173698477262664,51.5044825927197],[-0.173707465003601,51.5042579156798],[-0.173716452628026,51.5040332386301],[-0.17372544013594,51.5038085615707],[-0.173365433793478,51.503802955577],[-0.173356444516434,51.5040276325915],[-0.172996436521355,51.5040220254482],[-0.172636428642811,51.5040164172005],[-0.172276420880826,51.5040108078482],[-0.171916413235422,51.5040051973914],[-0.171556405706622,51.50399958583],[-0.17119639829445,51.503993973164],[-0.170836390998927,51.5039883593936],[-0.170476383820076,51.5039827445186],[-0.170116376757922,51.503977128539],[-0.169756369812486,51.5039715114549],[-0.169396362983792,51.5039658932663],[-0.169036356271862,51.5039602739731],[-0.169045366778305,51.5037355974998],[-0.169405371721129,51.5037412167478],[-0.169765376780715,51.5037468348913],[-0.170125381957042,51.5037524519303],[-0.170485387250085,51.5037580678647],[-0.170845392659821,51.5037636826946],[-0.171205398186228,51.50376929642],[-0.171565403829283,51.5037749090409],[-0.171574401835299,51.503550232242],[-0.171934405825883,51.5035558437132],[-0.172294409933066,51.5035614540799],[-0.172654414156828,51.5035670633421],[-0.173014418497142,51.5035726714998],[-0.173374422953989,51.5035782785529],[-0.173734427527345,51.5035838845015],[-0.173743414802244,51.5033592074225],[-0.173383411997972,51.503353601519],[-0.173023409310207,51.5033479945109],[-0.172663406738971,51.5033423863983],[-0.172303404284288,51.5033367771812],[-0.17194340194618,51.5033311668595],[-0.171952397949859,51.5031064899961],[-0.172312398518914,51.5031121002726],[-0.172321392636945,51.5028874233543],[-0.172681391553541,51.5028930324813],[-0.172690383785971,51.5026683555082],[-0.173050381050105,51.5026739634857],[-0.17305937139698,51.5024492864578],[-0.173419367008646,51.5024548932857],[-0.17342835547001,51.502230216203],[-0.173788349429206,51.5022358218814],[-0.173797336005107,51.5020111447439],[-0.173806322464514,51.5017864675966],[-0.173446332043189,51.5017808620083],[-0.173086341738356,51.5017752553155],[-0.173077351741103,51.5019999323727],[-0.172717359783865,51.5019943245304],[-0.172357367943169,51.5019887155836],[-0.171997376219036,51.5019831055324],[-0.171637384611488,51.5019774943767],[-0.171628387421939,51.5022021712439],[-0.171619390115757,51.5024268481013],[-0.171259395086927,51.502421235751],[-0.170899400174733,51.5024156222961],[-0.170539405379198,51.5024100077369],[-0.170179410700344,51.5024043920731],[-0.169819416138196,51.5023987753048],[-0.169459421692774,51.5023931574321],[-0.169099427364103,51.5023875384549],[-0.168739433152206,51.5023819183732],[-0.168379439057105,51.5023762971871],[-0.168019445003018,51.5023706748608],[-0.167659451019784,51.5023650514085],[-0.167299457153232,51.5023594268517],[-0.166939463403388,51.5023538011904],[-0.166930442994155,51.5025784774511],[-0.166570447595707,51.5025728506404],[-0.166210452314013,51.5025672227253],[-0.165850457149095,51.5025615937057],[-0.165490462100977,51.5025559635815],[-0.16513046716968,51.5025503323529],[-0.164770472355228,51.5025447000198],[-0.164410477657644,51.5025390665822],[-0.16405048307695,51.5025334320401],[-0.164059517608775,51.5023087561385],[-0.16369952491031,51.5023031205368],[-0.16333953232878,51.5022974838306],[-0.163330494266326,51.5025221596424],[-0.16369048861317,51.5025277963935],[-0.163681452199072,51.5027524722405],[-0.16404144842819,51.502758107932],[-0.164032413662494,51.5029827838141],[-0.164023378779859,51.5032074596865],[-0.163663379019996,51.5032018239052],[-0.163303379377076,51.5031961870193],[-0.163294340846689,51.5034208627921],[-0.163654342255014,51.5034264997229],[-0.164014343780283,51.5034321355492],[-0.164374345422475,51.5034377702709],[-0.164734347181564,51.5034434038881],[-0.165094349057529,51.5034490364009],[-0.165454351050347,51.503454667809],[-0.165814353159994,51.5034602981127],[-0.16617435538645,51.5034659273118],[-0.166534357729689,51.5034715554064],[-0.16689436018969,51.5034771823964],[-0.16725436276643,51.503482808282],[-0.167245343538867,51.5037074845388],[-0.16688533919668,51.5037018586084],[-0.166525334971234,51.5036962315735],[-0.16616533086255,51.5036906034341],[-0.165805326870654,51.5036849741901],[-0.165445322995567,51.5036793438415],[-0.165085319237311,51.5036737123885],[-0.164725315595911,51.5036680798309],[-0.164365312071388,51.5036624461687],[-0.164005308663766,51.5036568114021],[-0.163645305373067,51.5036511755309],[-0.163285302199314,51.5036455385551],[-0.16292529914253,51.5036399004748],[-0.162565296202738,51.50363426129],[-0.162205293379961,51.5036286210007],[-0.16184529067422,51.5036229796068],[-0.161485288085541,51.5036173371084],[-0.161125285613945,51.5036116935055],[-0.160765283259454,51.5036060487981],[-0.160405281022093,51.5036004029861],[-0.160045278901883,51.5035947560696],[-0.159685276898847,51.5035891080486],[-0.159325275013009,51.503583458923],[-0.158965273244391,51.5035778086929],[-0.158605271593015,51.5035721573583],[-0.158245270058906,51.5035665049192],[-0.157885268642085,51.5035608513756],[-0.157525267342576,51.5035551967274],[-0.1571652661604,51.5035495409747],[-0.156805265095583,51.5035438841175],[-0.156445264148145,51.5035382261558],[-0.15608526331811,51.5035325670896],[-0.155725262605499,51.5035269069189],[-0.155365262010338,51.5035212456436],[-0.155005261532648,51.5035155832638],[-0.154645261172452,51.5035099197795],[-0.154285260929773,51.5035042551907],[-0.153925260804633,51.5034985894974],[-0.153565260797056,51.5034929226996],[-0.153205260907065,51.5034872547973],[-0.153196172710905,51.5037119292888],[-0.15283617117313,51.5037062602368],[-0.152827081093925,51.5039309346733],[-0.153187084397115,51.5039366037706],[-0.153547087817917,51.5039422717633],[-0.15390709135631,51.5039479386514],[-0.154267095012268,51.5039536044351],[-0.154258011877169,51.5041782790426],[-0.153898006455767,51.5041726132138],[-0.153538001151933,51.5041669462805],[-0.15317799596569,51.5041612782426],[-0.152817990897062,51.5041556091002],[-0.152457985946071,51.5041499388532],[-0.152448893866092,51.5043746132251],[-0.152439801668428,51.5045992875872],[-0.152079793304161,51.5045936161453],[-0.152088887267304,51.5043689418284],[-0.15209798111274,51.5041442675017],[-0.151737976397092,51.5041385950457],[-0.151728880786201,51.5043632693272],[-0.15171978505758,51.5045879435988],[-0.151359776893402,51.5045822699],[-0.151350679277053,51.5048069441145],[-0.151341581542707,51.5050316183192],[-0.150981569933144,51.5050259433939],[-0.150972470310475,51.5052506175432],[-0.150963370569781,51.5054752916828],[-0.151323385720014,51.5054809666992],[-0.151314287631662,51.5057056408745],[-0.151305189425304,51.50593031504],[-0.151665208213434,51.5059359890237],[-0.151656111660653,51.506160663227],[-0.152016132266215,51.50616633609],[-0.152025227053359,51.5059416618415],[-0.152385246010983,51.5059473335546],[-0.152376152989479,51.5061720078484],[-0.152367059850275,51.5063966821323],[-0.152357966593369,51.5066213564065],[-0.15234887321876,51.506846030671],[-0.152708899356763,51.5068517014604],[-0.152699807630181,51.5070763757602],[-0.15305983565158,51.5070820454902],[-0.153050745573071,51.5073067198255],[-0.153410775477869,51.507312388496],[-0.153770805500288,51.5073180560618],[-0.153761718835682,51.5075427304777],[-0.153401687047479,51.5075370628667],[-0.153392598499445,51.5077617372277],[-0.153752632053456,51.5077674048839],[-0.153743545153607,51.5079920792802],[-0.154103580591051,51.5079977458769],[-0.154094495339433,51.5082224203087],[-0.154454532660313,51.5082280858459],[-0.154445449056972,51.5084527603131],[-0.154436365336048,51.5086774347705],[-0.154796406306274,51.5086830992933],[-0.154787324201015,51.5089077737859],[-0.155147367052821,51.5089134372491],[-0.155138286515737,51.5091381117768],[-0.15512920586094,51.5093627862948],[-0.155489252369154,51.5093684487436],[-0.155480173366033,51.509593123297],[-0.155840221761315,51.5095987846862],[-0.156200270274249,51.5096044449707],[-0.156209345738578,51.509379770327],[-0.155849298995041,51.5093741100877],[-0.155858376111097,51.5091494354794],[-0.155498331254581,51.5091437741805],[-0.155507410022318,51.5089190996076],[-0.155867453109483,51.5089247608613],[-0.156227496314294,51.5089304210104],[-0.156218421085259,51.5091550956736],[-0.156578466177045,51.509160754763],[-0.156569392599741,51.5093854294616],[-0.156929439578508,51.5093910874915],[-0.15692036765298,51.5096157622255],[-0.157280416518732,51.5096214191957],[-0.157271346245025,51.509846093965],[-0.157262275853737,51.5100707687246],[-0.157253205344863,51.5102954434745],[-0.156893151170764,51.5102897863688],[-0.15688407877481,51.5105144610638],[-0.156875006261241,51.5107391357489],[-0.157235063974352,51.5107447929449],[-0.157225993112712,51.5109694676654],[-0.157586052712935,51.5109751238017],[-0.157576983503267,51.5111997985576],[-0.157216922133478,51.5111941423762],[-0.157207851036649,51.5114188170772],[-0.157567914176027,51.5114244733037],[-0.157558844731212,51.5116491480401],[-0.157549775168821,51.5118738227668],[-0.157540705488852,51.5120984974837],[-0.157900774054692,51.5121041527407],[-0.157909841965002,51.5118794779787],[-0.158269908878716,51.5118851320858],[-0.158629975909943,51.511890785088],[-0.158990043058658,51.5118964369854],[-0.159350110324839,51.5119020877779],[-0.159341049493186,51.5121267627203],[-0.159701118646478,51.512132412453],[-0.160061187917192,51.5121380610809],[-0.160052130507459,51.5123627361037],[-0.160412201665269,51.5123683836718],[-0.160421257305305,51.512143708604],[-0.160781326810795,51.5121493550222],[-0.161141396433639,51.5121550003355],[-0.161501466173812,51.5121606445439],[-0.16151051638742,51.5119359693312],[-0.16187058447522,51.5119416123898],[-0.162230652680302,51.5119472543435],[-0.162221606006058,51.5121719296463],[-0.162581676098085,51.5121775705401],[-0.162590721002644,51.5119528951924],[-0.162950789442222,51.5119585349364],[-0.162941746307351,51.5121832103291],[-0.163301816633832,51.5121888490133],[-0.163661887077507,51.5121944865925],[-0.163652847364825,51.5124191620655],[-0.163292775151436,51.5124135244413],[-0.162932703055242,51.5124078857122],[-0.162572631076266,51.5124022458782],[-0.162212559214531,51.5123966049393],[-0.16185248747006,51.5123909628955],[-0.16184343879152,51.5126156381338],[-0.161483365394608,51.5126099949401],[-0.161474314829009,51.5128346701236],[-0.16183438999567,51.5128403133623],[-0.161825341082509,51.513064988581],[-0.162185418136236,51.5130706307598],[-0.162545495307233,51.5130762718337],[-0.162554540680843,51.5128515965249],[-0.162914616199307,51.5128572364489],[-0.163274691834994,51.512862875268],[-0.16363476758788,51.5128685129823],[-0.163994843457941,51.5128741495916],[-0.16400388163525,51.5126494740931],[-0.164363955852701,51.5126551095526],[-0.164724030187279,51.5126607439071],[-0.165084104638964,51.5126663771568],[-0.165444179207732,51.5126720093016],[-0.165804253893558,51.5126776403415],[-0.166164328696422,51.5126832702766],[-0.166173356138082,51.5124585944987],[-0.166533429288206,51.5124642232839],[-0.16689350255532,51.5124698509642],[-0.167253575939399,51.5124754775397],[-0.167613649440421,51.5124811030103],[-0.167973723058363,51.5124867273759],[-0.16798274153432,51.5122620513638],[-0.168342813493414,51.5122676745674],[-0.168702885553502,51.5122732966332],[-0.169062957730425,51.5122789175943],[-0.169053944563549,51.5125035937424],[-0.169044931279838,51.5127282698807],[-0.16940500711247,51.5127338898268],[-0.169414018626719,51.5125092136435],[-0.169774092806681,51.5125148324397],[-0.170134167103409,51.5125204501311],[-0.170494241516883,51.5125260667175],[-0.170854316047077,51.5125316821991],[-0.171214390693971,51.5125372965758],[-0.17157446545754,51.5125429098476],[-0.171583466238311,51.5123182333849],[-0.171943539349082,51.5123238455069],[-0.17230361257648,51.512329456524],[-0.172663685920484,51.5123350664363],[-0.17302375938107,51.5123406752436],[-0.173032752967443,51.5121159985916],[-0.172672681276291,51.5121103898291],[-0.172312609701719,51.5121047799617],[-0.171952538243752,51.5120991689895],[-0.171961537021775,51.5118744924624],[-0.171970535683153,51.5116498159255],[-0.172330603602329,51.5116554268079],[-0.172339600377702,51.5114307502164],[-0.172699666644113,51.5114363599491],[-0.172708661533526,51.5112116833029],[-0.173068726147168,51.5112172918858],[-0.173059733027097,51.5114419685769],[-0.173050739790454,51.5116666452582],[-0.173041746437236,51.5118913219297],[-0.173401816475532,51.5118969295425],[-0.173761886630359,51.5119025360503],[-0.174121956901697,51.5119081414533],[-0.174130944946735,51.5116834646472],[-0.174139932875269,51.5114587878313],[-0.174148920687299,51.5112341110056],[-0.174508985767001,51.5112397151692],[-0.174869050963161,51.5112453182279],[-0.175229116275756,51.5112509201818],[-0.175238098663293,51.5110262432119],[-0.1752470809344,51.5108015662323],[-0.175607142824761,51.5108071669917],[-0.175967204831508,51.5108127666462],[-0.175958226099026,51.5110374437155],[-0.175949247250159,51.5112621207751],[-0.175940268284905,51.5114867978249],[-0.176300335716028,51.5114923965091],[-0.176660403263497,51.5114979940884],[-0.177020470927289,51.5115035905628],[-0.177029444584454,51.5112789133786],[-0.177389510595178,51.5112845087035],[-0.177749576722177,51.5112901029234],[-0.178109642965428,51.5112956960386],[-0.178469709324907,51.5113012880488],[-0.178478675788365,51.5110766106759],[-0.178838740494699,51.5110822015365],[-0.179198805317214,51.5110877912924],[-0.179558870255887,51.5110933799434],[-0.179567831295127,51.5108687024264],[-0.179927894580601,51.5108742899279],[-0.180287957982185,51.5108798763245],[-0.180648021499857,51.5108854616162],[-0.181008085133593,51.5108910458032],[-0.181017038979417,51.5106663680977],[-0.181377100959875,51.5106719511351],[-0.18173716305635,51.5106775330677],[-0.182097225268819,51.5106831138954],[-0.18245728759726,51.5106886936183],[-0.182466234249822,51.5104640157244],[-0.182826294924906,51.5104695942979],[-0.183186355715913,51.5104751717665],[-0.18354641662282,51.5104807481303],[-0.183906477645605,51.5104863233892],[-0.184266538784245,51.5104918975434],[-0.184626600038717,51.5104974705926],[-0.184635535959589,51.5102727924213],[-0.184995595545906,51.5102783643212],[-0.185355655201652,51.5102839351161],[-0.185715714973063,51.5102895048062],[-0.186075774860117,51.5102950733915],[-0.186435834862791,51.5103006408719],[-0.186795894981062,51.5103062072476],[-0.186804820179088,51.5100815287992],[-0.187164878645577,51.5100870940255],[-0.187524937227616,51.5100926581469],[-0.187533858775383,51.5098679795998],[-0.187893915705612,51.5098735425719],[-0.187884995925181,51.5100982211636],[-0.18824505473825,51.5101037830754],[-0.188605113666799,51.5101093438824],[-0.188965172710806,51.5101149035846],[-0.188974087189217,51.5098902248595],[-0.189334144581315,51.5098957834124],[-0.189694202088823,51.5099013408605],[-0.190054259711718,51.5099068972038],[-0.190414317449977,51.5099124524422],[-0.190774375303578,51.5099180065759],[-0.191134433272498,51.5099235596047],[-0.191494491356714,51.5099291115287],[-0.191503393348381,51.5097044324828],[-0.191863449780535,51.5097099832576],[-0.192223506327936,51.5097155329276],[-0.19221460787094,51.5099402120622],[-0.192574666300905,51.5099457606718],[-0.192565769496023,51.5101704398411],[-0.192556872575915,51.5103951190007],[-0.192547975540577,51.5106197981506],[-0.192539078390008,51.5108444772907],[-0.19289914400477,51.510850024973],[-0.192890248506423,51.5110747041478],[-0.192881352892865,51.5112993833129],[-0.192872457164092,51.5115240624682],[-0.193232528196484,51.5115296091787],[-0.193592599344048,51.5115351547843],[-0.193952670606761,51.511540699285],[-0.1943127419846,51.5115462426808],[-0.194303853210727,51.5117709220039],[-0.193943780065355,51.5117653785637],[-0.193934889408801,51.5119900578327],[-0.194294964321727,51.5119956013172],[-0.194286075317599,51.5122202806209],[-0.19427718619834,51.5124449599148],[-0.194637264761556,51.512450502383],[-0.19462837729479,51.5126751817115],[-0.194619489712913,51.5128998610303],[-0.194610602015923,51.5131245403394],[-0.194601714203816,51.5133492196388],[-0.194592826276594,51.5135738989284],[-0.194952913793262,51.5135794405134],[-0.194944027518661,51.5138041198377],[-0.194935141128962,51.5140287991522],[-0.194926254624163,51.514253478457],[-0.19491736800426,51.5144781577521],[-0.195277462707116,51.5144836984094],[-0.195268577739945,51.5147083777391],[-0.19525969265769,51.514933057059],[-0.195619791011304,51.5149385967],[-0.195628674325698,51.5147139173357],[-0.195988771026492,51.5147194558273],[-0.196348867842302,51.5147249932139],[-0.196708964773107,51.5147305294954],[-0.197069061818882,51.514736064672],[-0.197429158979607,51.5147415987435],[-0.197438033339726,51.514516919148],[-0.197798128847527,51.5145224520703],[-0.198158224470229,51.5145279838875],[-0.198518320207809,51.5145335145997],[-0.198878416060242,51.5145390442069],[-0.198887283234103,51.5143143644248],[-0.199247377433536,51.5143198928828],[-0.199238512027509,51.5145445727091],[-0.199598608109585,51.5145501001063],[-0.199589744356587,51.5147747799672],[-0.199580880488781,51.5149994598183],[-0.199572016506163,51.5152241396598],[-0.199563152408733,51.5154488194915],[-0.199554288196488,51.5156734993135],[-0.199914393232881,51.5156790258267],[-0.199905530673795,51.5159037056833],[-0.199896667999913,51.51612838553],[-0.199887805211233,51.5163530653671],[-0.199878942307752,51.5165777451945],[-0.200239054530965,51.5165832707794],[-0.200230193280751,51.5168079506413],[-0.200221331915758,51.5170326304935],[-0.200212470438791,51.5172573103407],[-0.20057258808153,51.5172628349536],[-0.20056372826365,51.5174875148443],[-0.200923847790081,51.5174930383969],[-0.200914989626334,51.5177177183225],[-0.20127511103646,51.5177232408146],[-0.201635232471656,51.5177287622143],[-0.201626377743099,51.5179534422178],[-0.201986500616417,51.5179589626202],[-0.201977647535875,51.5181836426594],[-0.202337772285994,51.5181891620022],[-0.20232892085351,51.5184138420771],[-0.202320069306655,51.5186385221422],[-0.202680197696056,51.5186440404707],[-0.202671347797327,51.5188687205715],[-0.202662497784245,51.5190934006625],[-0.203022629813005,51.5190989179769],[-0.203013781448115,51.5193235981036],[-0.203373915353737,51.5193291143582],[-0.203365068637086,51.5195537945206],[-0.203356221806121,51.5197784746732],[-0.20334737486084,51.520003154816],[-0.203707514168546,51.5200086701018],[-0.203698668871592,51.5202333502802],[-0.20368982346034,51.5204580304489],[-0.204049966407634,51.5204635447204],[-0.204041122644775,51.5206882249248],[-0.20368097793479,51.5206827106079],[-0.203672132294939,51.520907390757],[-0.203311985936523,51.5209018752895],[-0.202951839692411,51.5208963587168],[-0.202942990412791,51.5211210387653],[-0.202582842520277,51.5211155210419],[-0.202222694742115,51.5211100022133],[-0.201862547078328,51.5211044822794],[-0.201871401646135,51.5208798023673],[-0.20151125575107,51.5208742813889],[-0.201151109458654,51.5208687593764],[-0.20114225134227,51.5210934392007],[-0.201133393111098,51.5213181190152],[-0.201124534765137,51.5215427988199],[-0.20148468636547,51.5215483209664],[-0.201475829674069,51.5217730008061],[-0.201835982688389,51.5217785219571],[-0.201827127662896,51.5220032018301],[-0.201818272522977,51.5222278816934],[-0.201458115946954,51.5222223604563],[-0.201449258911236,51.5224470402668],[-0.201440401760742,51.5226717200676],[-0.201800561899851,51.5226772413905],[-0.20179170641664,51.5229019212244],[-0.202151868183064,51.522907441522],[-0.202512030063877,51.5229129607143],[-0.202503177992099,51.5231376406294],[-0.202863341750218,51.5231431587618],[-0.203223505622683,51.523148675789],[-0.203214656962434,51.5233733557852],[-0.203574822712188,51.5233788717525],[-0.203934988576244,51.5233843866146],[-0.203926143327623,51.5236090666919],[-0.204286311068951,51.523614580494],[-0.204277467469038,51.5238392606069],[-0.20463763708764,51.5238447733492],[-0.204628795136483,51.5240694534978],[-0.204619953071065,51.5242941336366],[-0.204980126330007,51.5242996453643],[-0.204971285913411,51.5245243255387],[-0.204962445382571,51.5247490057034],[-0.205322622281931,51.5247545164166],[-0.20531378339998,51.5249791966168],[-0.205304944403805,51.5252038768074],[-0.205665124943659,51.5252093865059],[-0.205656287596439,51.5254340667321],[-0.206016470013658,51.5254395753707],[-0.20600763422434,51.5256642556608],[-0.206367818521337,51.5256697632414],[-0.206358984348041,51.5258944435812],[-0.206719170530666,51.5258999501033],[-0.206710338013945,51.52612463048],[-0.207070526082203,51.5261301359436],[-0.207061695222102,51.5263548163573],[-0.207421885175996,51.5263603207623],[-0.207430714264946,51.5261356403018],[-0.207790902562153,51.5261411435547],[-0.2081510909738,51.5261466457022],[-0.208511279499864,51.5261521467444],[-0.208871468140322,51.5261576466812],[-0.208862646135993,51.5263823273288],[-0.209222836661983,51.526387826207],[-0.209583027302323,51.5263933239798],[-0.20994321805699,51.5263988206473],[-0.209934401251824,51.5266235014253],[-0.210294593891985,51.5266289970341],[-0.210285778743705,51.526853677849],[-0.210645973269364,51.5268591723991],[-0.211006167909285,51.5268646658439],[-0.211366362663445,51.5268701581834],[-0.211726557531823,51.5268756494174],[-0.212086752514394,51.526881139546],[-0.212446947611136,51.5268866285693],[-0.212807142822026,51.5268921164872],[-0.213167338147041,51.5268976032996],[-0.213527533586159,51.5269030890067],[-0.213887729139355,51.5269085736084],[-0.214247924806608,51.5269140571047],[-0.214608120587894,51.5269195394957],[-0.21496831648319,51.5269250207812],[-0.215328512492474,51.5269305009613],[-0.215319722027384,51.5271551824196],[-0.215679919921896,51.5271606615409],[-0.215671131114107,51.5273853430359],[-0.215662342192352,51.5276100245211],[-0.215653553156632,51.5278347059964],[-0.215644764006942,51.5280593874619],[-0.216004969100692,51.5280648656642],[-0.215996181608412,51.5282895471665],[-0.215987394002183,51.5285142286589],[-0.215978606282001,51.5287389101415],[-0.215969818447867,51.5289635916143],[-0.215961030499776,51.5291882730772],[-0.215952242437728,51.5294129545304],[-0.215592026715349,51.5294074760486],[-0.215583236767822,51.5296321574453],[-0.21522301938789,51.5296266778114],[-0.215214227554841,51.5298513591517],[-0.214854008517359,51.5298458783657],[-0.214845214798739,51.5300705596495],[-0.214836420966085,51.5302952409235],[-0.214827627019395,51.5305199221877],[-0.214818832958667,51.5307446034421],[-0.215179059082528,51.5307500844145],[-0.215170266679412,51.5309747657056],[-0.215161474162276,51.5311994469869],[-0.214801244495089,51.5311939659213],[-0.214792450092235,51.5314186471461],[-0.214432218767376,51.5314131649283],[-0.214071987556566,51.5314076816049],[-0.21371175645983,51.5314021971759],[-0.213702956627779,51.5316268782511],[-0.213342723873424,51.5316213926699],[-0.212982491233189,51.5316159059832],[-0.212622258707097,51.5316104181908],[-0.212262026295172,51.5316049292929],[-0.211901793997436,51.5315994392895],[-0.211892985192608,51.5318241201215],[-0.211532751237357,51.5318186289657],[-0.211172517396344,51.5318131367044],[-0.210812283669589,51.5318076433375],[-0.210452050057118,51.531802148865],[-0.210443234051073,51.5320268295004],[-0.210082998781165,51.5320213338756],[-0.209722763625589,51.5320158371452],[-0.20971394396169,51.5322405176773],[-0.209353707148707,51.5322350197946],[-0.20934488559865,51.53245970027],[-0.208984647128263,51.532454201235],[-0.20862440877228,51.5324487010943],[-0.208264170530723,51.5324431998481],[-0.20825534355086,51.5326678801734],[-0.207895103651953,51.5326623777748],[-0.20753486386752,51.5326568742706],[-0.207174624197585,51.5326513696607],[-0.20681438464217,51.5326458639453],[-0.206454145201296,51.5326403571242],[-0.206445309247876,51.5328650372057],[-0.206085068149758,51.5328595292322],[-0.20572482716623,51.5328540201532],[-0.205364586297315,51.5328485099685],[-0.205004345543037,51.5328429986781],[-0.204644104903418,51.5328374862822],[-0.204283864378482,51.5328319727807],[-0.203923623968251,51.5328264581736],[-0.203563383672748,51.5328209424608],[-0.203203143491996,51.5328154256425],[-0.202842903426018,51.5328099077185],[-0.202851757097465,51.5325852281057],[-0.202491518918076,51.532579709123],[-0.202131280853505,51.5325741890348],[-0.201771042903775,51.532568667841],[-0.201779901775708,51.5323439883591],[-0.20178876053276,51.5321193088673],[-0.201428526023556,51.5321137867262],[-0.201437386447866,51.5318891072669],[-0.201077153497439,51.53188358416],[-0.201086015571501,51.531658904736],[-0.200725784499897,51.5316533805684],[-0.200734648223667,51.5314287011797],[-0.200374419030885,51.5314231759516],[-0.200014189952684,51.5314176496179],[-0.200023057090351,51.5311929703095],[-0.199662829890988,51.5311874429151],[-0.199671698678245,51.5309627636421],[-0.199311473357716,51.5309572351872],[-0.199320343794517,51.5307325559495],[-0.198960120352819,51.5307270264341],[-0.198599897025787,51.530721495813],[-0.198608770876247,51.5304968166557],[-0.198617644612001,51.5302721374887],[-0.198257424927951,51.5302666058523],[-0.198266300313112,51.5300419267205],[-0.19790608250788,51.5300363940237],[-0.197914959542403,51.5298117149273],[-0.19792383646218,51.5295870358212],[-0.197932713267212,51.5293623567053],[-0.197941589957501,51.5291376775796],[-0.19795046653305,51.5289129984442],[-0.19795934299386,51.5286883192991],[-0.198319550214909,51.5286938517253],[-0.198328424797031,51.5284691725252],[-0.197968219339932,51.5284636401441],[-0.197977095571271,51.5282389609795],[-0.197985971687876,51.528014281805],[-0.197994847689751,51.5277896026208],[-0.197634647639075,51.5277840692696],[-0.197274447703132,51.5277785348128],[-0.196914247881943,51.5277729992506],[-0.196923129060654,51.527548320192],[-0.196562931118094,51.5275427835694],[-0.196202733290332,51.5275372458413],[-0.196193848583921,51.5277619248096],[-0.196184963762667,51.5279866037681],[-0.195824762522009,51.5279810648442],[-0.195815875822016,51.5282057437478],[-0.195806989007154,51.5284304226417],[-0.195446784353539,51.5284248825219],[-0.195437895659868,51.5286495613608],[-0.195429006851301,51.52887424019],[-0.195068798784669,51.5288686988744],[-0.195059908097222,51.5290933776486],[-0.195051017294852,51.529318056413],[-0.194690805815142,51.5293125139015],[-0.194681913133821,51.529537192611],[-0.194673020337551,51.5297618713107],[-0.194312805444702,51.5297563276033],[-0.194303910769412,51.529981006248],[-0.194295015979144,51.530205684883],[-0.194286121073898,51.5304303635083],[-0.193925901003738,51.5304248185596],[-0.193917004219376,51.5306494971299],[-0.193908107320008,51.5308741756904],[-0.193547883836543,51.5308686295457],[-0.193538985057989,51.5310933080512],[-0.193530086164403,51.5313179865469],[-0.193169859267574,51.5313124392062],[-0.193160958494731,51.5315371176469],[-0.193152057606828,51.5317617960779],[-0.192791827296573,51.5317562475411],[-0.192782924529343,51.5319809259171],[-0.192774021647028,51.5322056042833],[-0.192413787923286,51.5322000545503],[-0.192404883161573,51.5324247328615],[-0.192395978284746,51.5326494111629],[-0.192387073292806,51.5328740894546],[-0.192026834391163,51.5328685384802],[-0.192017927519729,51.5330932167168],[-0.192009020533153,51.5333178949437],[-0.19236926296357,51.5333234460087],[-0.192360357626272,51.533548124271],[-0.192351452173851,51.5337728025237],[-0.192711698248239,51.5337783525734],[-0.192702794313571,51.5340030308483],[-0.19269389021229,51.5342277091082],[-0.192333640614384,51.5342221589693],[-0.192324734634049,51.5344468371748],[-0.192315828538611,51.5346715153705],[-0.192306922328066,51.5348961935565],[-0.191946667553255,51.5348906421776],[-0.19193775946356,51.5351153203091],[-0.191928851258733,51.5353399984308],[-0.191919942938772,51.5355646765429],[-0.191559682986884,51.5355591239239],[-0.191550772787677,51.5357838019815],[-0.191541862473309,51.5360084800293],[-0.191181599108326,51.536002926215],[-0.191190511186823,51.5357782482119],[-0.190830249701134,51.5357726933366],[-0.190839163428551,51.5355480153686],[-0.190478903822152,51.5355424594322],[-0.190487819198444,51.5353177814992],[-0.190127561471331,51.5353122245018],[-0.190136478496451,51.5350875466039],[-0.18977622264862,51.5350819885455],[-0.189785141322523,51.5348573106827],[-0.18942488735397,51.5348517515633],[-0.18943380767661,51.5346270737355],[-0.189073555587332,51.5346215135551],[-0.189082477558663,51.5343968357624],[-0.188722227348654,51.5343912745211],[-0.188361977253958,51.534385712174],[-0.188353051754672,51.5346103898771],[-0.187992800011338,51.5346048263794],[-0.187983872632697,51.5348295040279],[-0.187623619240728,51.5348239393796],[-0.187614689982688,51.5350486169735],[-0.187254434942088,51.5350430511745],[-0.187245503804602,51.5352677287138],[-0.187236572551683,51.5354924062434],[-0.186876314098396,51.5354868392489],[-0.186867380965961,51.5357115167239],[-0.18650712086403,51.5357059485787],[-0.186498185852034,51.535930625999],[-0.186489250724553,51.5361553034096],[-0.186128987209857,51.5361497340689],[-0.186120050202744,51.5363744114248],[-0.185759785039391,51.5363688409334],[-0.1857508461526,51.5365935182347],[-0.185741907150273,51.5368181955262],[-0.185381638574079,51.5368126238391],[-0.185372697692003,51.537037301076],[-0.185012427467138,51.5370317282381],[-0.185003484705268,51.5372564054204],[-0.184994541827811,51.5374810825928],[-0.184634267894197,51.5374755086585],[-0.184625323129874,51.5377001857833],[-0.184616378250101,51.5379248628984],[-0.184256100818543,51.5379192878082],[-0.184247154062315,51.5381439648736],[-0.183886874985209,51.538138388637],[-0.183526596023581,51.5381328112943],[-0.18351764562983,51.5383574882696],[-0.18315736502268,51.5383519097804],[-0.183148412752362,51.5385765867059],[-0.182788130499697,51.5385710070703],[-0.182427848362583,51.5385654263286],[-0.182418892454589,51.5387901031639],[-0.182058608671987,51.5387845212757],[-0.181698325004982,51.5387789382813],[-0.181689365459228,51.5390036150265],[-0.181329080146764,51.5389980308856],[-0.180968794949946,51.5389924456386],[-0.180959831766346,51.5392171222936],[-0.180599544924097,51.5392115359],[-0.180239258197542,51.5392059484003],[-0.180230291376009,51.539430624965],[-0.179870003004052,51.5394250363188],[-0.179509714747835,51.5394194465663],[-0.179500744288287,51.5396441230408],[-0.179140454386696,51.5396385321417],[-0.178780164600895,51.5396329401365],[-0.178419874930904,51.5396273470251],[-0.178059585376746,51.5396217528075],[-0.177699295938445,51.5396161574837],[-0.177339006616022,51.5396105610538],[-0.176978717409502,51.5396049635177],[-0.176618428318907,51.5395993648753],[-0.176258139344258,51.5395937651268],[-0.17589785048558,51.5395881642721],[-0.175537561742894,51.5395825623113],[-0.175546551574833,51.5393578862816],[-0.175186264709278,51.5393522832551],[-0.174825977959759,51.5393466791223],[-0.174465691326301,51.5393410738834],[-0.174105404808923,51.5393354675384],[-0.17411440156918,51.5391107916612],[-0.174123398213313,51.5388861157745],[-0.174132394741324,51.5386614398782],[-0.174141391153213,51.5384367639724],[-0.174150387448983,51.5382120880571],[-0.174159383628637,51.5379874121323],[-0.174168379692176,51.5377627361979],[-0.173808105618009,51.5377571290304],[-0.173817103326359,51.537532453127],[-0.173456831129228,51.5375268448939],[-0.173096559048232,51.5375212355546],[-0.173087557818041,51.537745911377],[-0.172727284092284,51.5377403008911],[-0.17271828098497,51.5379649766633],[-0.172358005614457,51.5379593650308],[-0.172349000629975,51.538184040753],[-0.171988723614709,51.5381784279738],[-0.171628446715674,51.5381728140884],[-0.171637455222072,51.5379481384474],[-0.171277180200248,51.5379425234966],[-0.171286190351305,51.5377178478867],[-0.170925917206685,51.5377122318703],[-0.170565644178362,51.5377066147479],[-0.170556630505445,51.5379312902766],[-0.170196355832514,51.5379256720075],[-0.170187340282305,51.538150347486],[-0.169827063964769,51.5381447280702],[-0.169818046537222,51.5383694034986],[-0.169457768575086,51.538363782936],[-0.169097490729343,51.5383581612672],[-0.169106511678826,51.5381334859201],[-0.168746235710463,51.5381278631858],[-0.16875525830445,51.5379031878698],[-0.168394984213464,51.5378975640701],[-0.168034710456205,51.537891939382],[-0.168043736447244,51.537667264124],[-0.167683464725243,51.5376616385187],[-0.167692492362429,51.5374369632844],[-0.16733222251976,51.5374313366054],[-0.167341251803047,51.5372066613949],[-0.166980983839705,51.5372010336424],[-0.166990014769046,51.5369763584556],[-0.166629748685028,51.5369707296295],[-0.166638781260379,51.5367460544665],[-0.16627851705568,51.5367404245668],[-0.166287551276994,51.5365157494276],[-0.166296585381611,51.5362910742792],[-0.165936324818844,51.536285443339],[-0.165945360569357,51.5360607682144],[-0.165585101885877,51.5360551362006],[-0.165594139282242,51.5358304610998],[-0.165233882478044,51.5358248280126],[-0.165242921520215,51.5356001529355],[-0.164882666595295,51.5355945187748],[-0.164522411787134,51.5355888835078],[-0.164513369219883,51.5358135585189],[-0.164153112765965,51.5358079221125],[-0.164144068319348,51.5360325970815],[-0.163783810219677,51.5360269595357],[-0.163423552236837,51.5360213208835],[-0.163414504148228,51.5362459957774],[-0.163054244519665,51.5362403559858],[-0.163045194551578,51.5364650308376],[-0.162684933277294,51.5364593899066],[-0.162324672119914,51.5364537478691],[-0.162315618509683,51.5366784226457],[-0.161955355706611,51.5366727794688],[-0.16159509302049,51.5366671351854],[-0.161586035768031,51.5368918098869],[-0.161225771436248,51.5368861644641],[-0.160865507221462,51.5368805179348],[-0.16085644632669,51.537105192561],[-0.160496180466271,51.5370995448922],[-0.160505243123697,51.5368748702991],[-0.160144979142975,51.5368692215569],[-0.160154043445964,51.5366445469877],[-0.159793781344936,51.5366388971722],[-0.159433519360996,51.5366332462502],[-0.159073257494165,51.5366275942219],[-0.159082326967874,51.5364029197427],[-0.158722066980775,51.536397266641],[-0.15836180711083,51.5363916124329],[-0.158370879992533,51.5361669380108],[-0.158379952757038,51.5359422635795],[-0.15801969652939,51.5359366083312],[-0.157659440418936,51.5359309519764],[-0.157650364129335,51.5361556263415],[-0.158010622002336,51.5361612827293],[-0.15800154735806,51.5363859571183],[-0.157992472596562,51.5366106314981],[-0.157632211198399,51.536604975044],[-0.157271949917461,51.5365993174835],[-0.156911688753769,51.5365936588166],[-0.156920768803039,51.5363689845361],[-0.156560509519204,51.5363633247959],[-0.156200250352659,51.5363576639492],[-0.155839991303426,51.5363520019962],[-0.155830905966402,51.5365766761772],[-0.155470645271924,51.5365710130845],[-0.155110384694808,51.5365653488854],[-0.154750124235076,51.5365596835799],[-0.154741033492885,51.5367843576522],[-0.15438077138796,51.536778691207],[-0.154020509400468,51.5367730236555],[-0.153660247530429,51.5367673549975],[-0.15365115138295,51.5369920289609],[-0.153290887867774,51.5369863591633],[-0.153281789840154,51.5372110330844],[-0.153642055117967,51.5372167029152],[-0.15363295873548,51.5374413768604],[-0.153272691695006,51.5374357069963],[-0.152912424772038,51.5374300360257],[-0.152921524679844,51.537205362147],[-0.15256125963706,51.5371996901033],[-0.152570361189948,51.5369750162487],[-0.152579462625263,51.536750342385],[-0.152588563943009,51.5365256685121],[-0.152597665143187,51.53630099463],[-0.15223740726834,51.5362953216129],[-0.152246510113491,51.5360706477549],[-0.152255612841056,51.5358459738878],[-0.152615867190848,51.5358516468385],[-0.152624968038334,51.535626972929],[-0.152264715451037,51.5356213000115],[-0.151904462981298,51.5356156259877],[-0.151913567236165,51.5353909521356],[-0.151922671373428,51.5351662782743],[-0.151931775393089,51.5349416044038],[-0.151940879295152,51.5347169305242],[-0.151949983079616,51.5344922566354],[-0.151589739539565,51.5344865816716],[-0.151598844968788,51.5342619078069],[-0.151607950280393,51.534037233933],[-0.1512477107801,51.5340315583801],[-0.151256817779477,51.5338068845933],[-0.151265924946582,51.5335822111785],[-0.151275031996257,51.5333575377546],[-0.151635266241026,51.5333632132295],[-0.151995500963468,51.5333688880034],[-0.152355735803411,51.5333745616713],[-0.152715970760829,51.5333802342333],[-0.153076205835703,51.5333859056892],[-0.153436441028008,51.5333915760391],[-0.153427344531311,51.533616249679],[-0.153787581602062,51.5336219189618],[-0.153778486755759,51.5338465926394],[-0.154138725713864,51.5338522608655],[-0.154498964789397,51.5338579279853],[-0.154859203982336,51.5338635939988],[-0.154850114649183,51.534088268181],[-0.154841025198621,51.5343129423539],[-0.155201268033615,51.5343186073275],[-0.155210355721829,51.5340939331213],[-0.155570596911836,51.5340995969554],[-0.155561510985973,51.5343242711947],[-0.155921754055671,51.5343299339556],[-0.156281997242687,51.5343355956102],[-0.156642240546999,51.5343412561584],[-0.156633159790901,51.5345659304881],[-0.156993404974866,51.5345715899631],[-0.157353650276082,51.5345772483318],[-0.157713895694527,51.5345829055941],[-0.157704820108349,51.5348075800141],[-0.15806506740641,51.5348132362032],[-0.158425314821655,51.5348188912859],[-0.158416242643112,51.535043565763],[-0.158776491937957,51.5350492197725],[-0.159136741349944,51.5350548726756],[-0.159145810003611,51.5348301981324],[-0.159506057770276,51.534835849896],[-0.159866305654034,51.5348415005534],[-0.160226553654863,51.5348471501043],[-0.160217490288525,51.5350718247468],[-0.159857240525251,51.5350661751628],[-0.159496990879049,51.5350605244724],[-0.159487923870703,51.5352851990395],[-0.15984817527937,51.535290849763],[-0.159839109916391,51.5355155243541],[-0.159478856745235,51.5355098735975],[-0.15911860369118,51.5355042217346],[-0.159109534686079,51.5357288962503],[-0.158749279986638,51.5357232432479],[-0.158740209101858,51.5359479177214],[-0.159100465563828,51.5359535707569],[-0.159460722142925,51.5359592226861],[-0.159451654666079,51.5361838972166],[-0.159811913124837,51.5361895480724],[-0.160172171700678,51.5361951978218],[-0.160181235652408,51.5359705232251],[-0.160541492582749,51.535976171835],[-0.160901749630124,51.5359818193385],[-0.160910809939694,51.5357571446665],[-0.16127106534154,51.5357627910305],[-0.161631320860375,51.5357684362882],[-0.161640377527869,51.535543761541],[-0.162000631401145,51.5355494056592],[-0.162360885391362,51.5355550486711],[-0.162369938416866,51.5353303738487],[-0.162730190761495,51.5353360157211],[-0.162739241907579,51.5351113408566],[-0.163099492606618,51.5351169815896],[-0.163459743422525,51.5351226212163],[-0.16346879092677,51.5348979462766],[-0.163829040097058,51.5349035847639],[-0.163838085721994,51.5346789097821],[-0.164198333246658,51.5346845471301],[-0.164207376992332,51.5344598721062],[-0.164567622871368,51.5344655083149],[-0.164576664737825,51.5342408332488],[-0.164936908971229,51.5342464683182],[-0.164945948958514,51.5340217932101],[-0.165306191546284,51.5340274271401],[-0.165315229722648,51.5338027520319],[-0.165324268104058,51.5335780771124],[-0.165684507275483,51.5335837098577],[-0.165693543779135,51.5333590348902],[-0.165702580166133,51.5331343599132],[-0.16606281593205,51.5331399914752],[-0.16607185044136,51.5329153164502],[-0.166080884834043,51.5326906414158],[-0.166089919110101,51.5324659663719],[-0.166450149709577,51.5324715967121],[-0.166459182108043,51.5322469216202],[-0.16646821438991,51.5320222465188],[-0.166828441584044,51.5320278756759],[-0.166837471988388,51.5318032005265],[-0.166477246555181,51.5317975714081],[-0.166486278603859,51.5315728962878],[-0.166495310535943,51.5313482211582],[-0.166504342351439,51.5311235460191],[-0.166513374050346,51.5308988708706],[-0.166873592440075,51.5309044998347],[-0.166882622261583,51.5306798246382],[-0.166522405632667,51.5306741957127],[-0.166531437098404,51.5304495205453],[-0.166540468447559,51.5302248453686],[-0.166900681554919,51.5302304742168],[-0.167260894778815,51.5302361019592],[-0.167251866951196,51.5304607772132],[-0.167612082052376,51.5304664038882],[-0.167621108119225,51.5302417285957],[-0.167630134069561,51.5300170532937],[-0.1672699224899,51.5300114266958],[-0.167278950084453,51.529786751423],[-0.167287977562475,51.5295620761407],[-0.166927769620748,51.5295564485141],[-0.166936798742919,51.529331773261],[-0.166576592678398,51.5293261445671],[-0.166567561795552,51.5295508197816],[-0.166207354086909,51.5295451899432],[-0.166198321326792,51.5297698651097],[-0.166189288450075,51.5299945402668],[-0.166180255456759,51.5302192154144],[-0.166171222346838,51.5304438905526],[-0.166162189120314,51.5306685656813],[-0.166153155777182,51.5308932408007],[-0.166144122317442,51.5311179159106],[-0.16613508874109,51.531342591011],[-0.166126055048126,51.5315672661021],[-0.166117021238547,51.5317919411837],[-0.166107987312352,51.5320166162558],[-0.16574776035139,51.5320109848869],[-0.16573872454763,51.532235659911],[-0.165729688627226,51.5324603349257],[-0.165369458260975,51.5324547023735],[-0.165360420462937,51.5326793773402],[-0.165351382548228,51.5329040522974],[-0.164991148776627,51.5328984185619],[-0.164630915121701,51.5328927837205],[-0.164621873568256,51.533117458591],[-0.164261638268998,51.5331118226049],[-0.163901403086461,51.5331061855128],[-0.163541168020669,51.5331005473147],[-0.163550214857194,51.5328758725602],[-0.163910448161961,51.5328815107197],[-0.164270681583471,51.5328871477731],[-0.164279724781205,51.5326624729318],[-0.164639956558428,51.5326681088406],[-0.164648997878439,51.5324434339512],[-0.165009228011372,51.5324490687154],[-0.165018267453706,51.5322243937779],[-0.165027306779352,51.531999718831],[-0.16503634598831,51.5317750438747],[-0.165045385080582,51.531550368909],[-0.165054424056171,51.5313256939338],[-0.165063462915079,51.5311010189492],[-0.165072501657307,51.5308763439552],[-0.16471228385063,51.5308707094615],[-0.164703243347577,51.5310953844169],[-0.164343023896755,51.5310897487786],[-0.164333981516154,51.5313144236859],[-0.164324939018824,51.5315390985838],[-0.164315896404766,51.5317637734723],[-0.164306853673977,51.5319884483513],[-0.16466708016832,51.5319940841442],[-0.164658039081735,51.5322187590524],[-0.164297810826455,51.5322131232209],[-0.163937582687888,51.5322074862835],[-0.163946627296346,51.5319828114525],[-0.163586401035449,51.5319771734477],[-0.163226174891309,51.531971534337],[-0.16323522290483,51.531746859574],[-0.162874998638377,51.531741219396],[-0.162514774488724,51.531735578112],[-0.162523825907212,51.5315109034169],[-0.162532877208855,51.5312862287124],[-0.162893097836767,51.531291869919],[-0.163253318581476,51.5312975100196],[-0.163244270801552,51.5315221848015],[-0.163604493423897,51.5315278238349],[-0.163964716162996,51.5315334617624],[-0.163973760421192,51.5313087869031],[-0.163982804562638,51.5310841120345],[-0.163991848587337,51.5308594371563],[-0.16400089249529,51.5306347622688],[-0.164361108307787,51.5306403989357],[-0.16437015033822,51.5304157240001],[-0.16473036450664,51.5304213595224],[-0.165090578791734,51.5304269939388],[-0.165099617183937,51.5302023189164],[-0.165108655459468,51.5299776438847],[-0.164748444695865,51.5299720095455],[-0.164757484615438,51.529747334543],[-0.164766524418321,51.529522659531],[-0.164406317292784,51.5295170241632],[-0.164415358739642,51.5292923491804],[-0.164424400069792,51.5290676741882],[-0.164064196582245,51.5290620377919],[-0.164073239556304,51.5288373628289],[-0.163713037946079,51.5288317253654],[-0.163722082564001,51.5286070504316],[-0.163361882831095,51.528601411901],[-0.163001683214939,51.5285957722645],[-0.163010731237243,51.5283710973986],[-0.163370929092835,51.5283767369964],[-0.163379975237805,51.5281520620824],[-0.163019779142754,51.5281464225233],[-0.163028826931476,51.5279217476385],[-0.162668632713711,51.5279161070123],[-0.162677682146138,51.5276914321568],[-0.162317489805655,51.5276857904634],[-0.162326540881742,51.5274611156372],[-0.161966350418535,51.5274554728767],[-0.161957297581982,51.5276801476642],[-0.161597105475141,51.5276745037593],[-0.16160616007216,51.5274498290105],[-0.161245969842639,51.5274441840384],[-0.161255026083223,51.5272195093189],[-0.160894837731016,51.5272138632798],[-0.16090389561512,51.5269891885895],[-0.160543709140224,51.5269835414834],[-0.160552768667801,51.5267588668225],[-0.160192584070212,51.5267532186493],[-0.160201645241216,51.5265285440177],[-0.159841462520929,51.5265228947775],[-0.159850525335316,51.5262982201752],[-0.159490344492328,51.5262925698681],[-0.159499408950053,51.5260678952951],[-0.159508473290775,51.5258432207127],[-0.159148296085373,51.5258375693773],[-0.159157362069367,51.5256128948242],[-0.159166428038606,51.5253882203347],[-0.158806254480849,51.5253825679776],[-0.158815322189435,51.5251578935846],[-0.159175493977482,51.5251635458976],[-0.159184559798866,51.5249388714508],[-0.158824389780504,51.524933219182],[-0.158464219879635,51.5249275658077],[-0.158473289122852,51.5247028914394],[-0.158482358248534,51.5244782170614],[-0.158122192004476,51.52447256267],[-0.157762025877954,51.5244669071731],[-0.157401859868988,51.5244612505709],[-0.15741093418597,51.5242365763156],[-0.157050770064194,51.5242309186521],[-0.156690606060018,51.5242252598832],[-0.156699683798567,51.5240005857065],[-0.156339521681596,51.5239949258764],[-0.156348601072059,51.5237702517341],[-0.155988440842289,51.5237645908428],[-0.155628280730185,51.5237589288462],[-0.155637363542047,51.5235342547825],[-0.15527720531716,51.5235285917247],[-0.155268120735771,51.5237532657442],[-0.154907960859068,51.5237476015368],[-0.154917047209984,51.5235229275615],[-0.15455688922054,51.523517262293],[-0.1545478011001,51.5237419362241],[-0.154187641458889,51.523736269806],[-0.154178551451124,51.5239609436831],[-0.153818390158151,51.5239552761155],[-0.15382748193546,51.5237306022825],[-0.153467322529833,51.5237249336537],[-0.153458228982983,51.5239496074424],[-0.153098067925644,51.523943937664],[-0.153088972491382,51.5241686113987],[-0.152728809782334,51.5241629404708],[-0.152737906986157,51.5239382667803],[-0.152377746164543,51.5239325947911],[-0.152017585460826,51.5239269216967],[-0.15200848471789,51.5241515952986],[-0.151648322362539,51.5241459210545],[-0.151639219732082,51.5243705946025],[-0.151279055960401,51.5243649193931],[-0.151288160345871,51.5241402458779],[-0.150927998499224,51.5241345696368],[-0.150918892353362,51.5243592431149],[-0.15055872886385,51.5243535657309],[-0.150549620840026,51.5245782391627],[-0.150189455707653,51.524572560636],[-0.149829290692856,51.5245668810035],[-0.149469125795657,51.5245612002653],[-0.149460012372963,51.5247858735765],[-0.149099845832956,51.5247801916955],[-0.148739679410596,51.5247745087087],[-0.148379513105905,51.5247688246161],[-0.148370394284218,51.5249934978068],[-0.148010226336773,51.5249878125714],[-0.147650058507044,51.5249821262302],[-0.147659180849618,51.5247574531137],[-0.147668303074433,51.5245327799879],[-0.148028467383299,51.5245384662549],[-0.148388631809878,51.5245441514161],[-0.14839775039614,51.5243194782067],[-0.148037587729961,51.5243137930826],[-0.14804670795889,51.5240891199009],[-0.147686547170795,51.5240834337081],[-0.147326386500431,51.5240777464097],[-0.147335510132331,51.5238530732929],[-0.147695669042346,51.5238587605543],[-0.147704790796147,51.523634087391],[-0.14734463364646,51.5236284001668],[-0.146984476614521,51.5236227118368],[-0.146975351340069,51.5238473849258],[-0.146615192665579,51.523841695453],[-0.146255034108888,51.5238360048744],[-0.146264162903983,51.5236113318597],[-0.146624319700355,51.5236170224011],[-0.146633446617313,51.5233923493398],[-0.146993601771179,51.5233980387384],[-0.147353757042816,51.5234037270313],[-0.147362880321403,51.5231790538864],[-0.147372003482222,51.5229543807322],[-0.147011851731121,51.5229486925136],[-0.146651700097785,51.5229430031893],[-0.14629154858224,51.5229373127593],[-0.145931397184506,51.5229316212236],[-0.145922266982673,51.5231562942293],[-0.145562113942525,51.5231506015508],[-0.145552981862562,51.5233752745099],[-0.145192827180005,51.5233695806886],[-0.145183693221867,51.5235942536012],[-0.145543849664717,51.5235999474597],[-0.145534717348986,51.5238246204002],[-0.145174559145821,51.5238189265045],[-0.144814401060544,51.5238132315031],[-0.144805265106253,51.5240379043599],[-0.144445105378554,51.5240322082156],[-0.144454243093178,51.523807535396],[-0.144094085243746,51.5238018381832],[-0.144084945768789,51.5240265109655],[-0.144075806175852,51.5242511837386],[-0.144066666464932,51.5244758565023],[-0.1437065034524,51.5244701580721],[-0.143715644923694,51.5242454853456],[-0.143724786276984,51.5240208126098],[-0.14373392751227,51.5237961398646],[-0.143373769898773,51.5237904404404],[-0.143013612403278,51.5237847399104],[-0.14302275704117,51.5235600672303],[-0.142662601423999,51.5235543656318],[-0.142671747704124,51.5233296929796],[-0.142311593965275,51.5233239903126],[-0.142320741887586,51.5230993176883],[-0.141960590027054,51.5230936139529],[-0.141969739591507,51.5228689413564],[-0.141978889037853,51.5226442687505],[-0.141618740815836,51.522638563984],[-0.141627891904257,51.522413891406],[-0.141267745560525,51.522408185571],[-0.141276898290975,51.522183513021],[-0.140916753825523,51.5221778061176],[-0.140925908197957,51.5219531335955],[-0.14056576561078,51.5219474256238],[-0.140574921625152,51.5217227531295],[-0.140214780916248,51.5217170440895],[-0.140223938572512,51.5214923716231],[-0.140233096110567,51.5212676991474],[-0.139872959039986,51.5212619890763],[-0.139882118219868,51.5210373166286],[-0.139521983027526,51.5210316054892],[-0.139531143849187,51.5208069330694],[-0.13917101053508,51.5208012208617],[-0.139180172998477,51.5205765484698],[-0.1388200415626,51.5205708351938],[-0.138829205667686,51.5203461628299],[-0.138838369654482,51.5201214904566],[-0.138478241856766,51.5201157761498],[-0.138487407485184,51.5198911038044],[-0.138127281565666,51.5198853884293],[-0.138136448835662,51.519660716112],[-0.138145615987329,51.5194360437853],[-0.137785493705865,51.5194303273793],[-0.137794662499042,51.5192056550806],[-0.137434542095743,51.5191999376064],[-0.137443712530385,51.5189752653357],[-0.137083594005246,51.5189695467933],[-0.137092766081309,51.5187448745506],[-0.136732649434326,51.5187391549401],[-0.136723475598476,51.5189638271455],[-0.136363357310098,51.5189581063921],[-0.136372532905733,51.5187334342241],[-0.136012416495553,51.5187277124027],[-0.136021593732512,51.5185030402627],[-0.135661479200525,51.5184973173731],[-0.135652300203807,51.5187219894757],[-0.13529218403052,51.5187162654432],[-0.135301364786994,51.518491593378],[-0.134941250491942,51.5184858682774],[-0.134950432889645,51.5182611962403],[-0.134590320852088,51.5182554705391],[-0.134599504879468,51.5180307985139],[-0.134608688788347,51.5178061264795],[-0.134617872578728,51.5175814544359],[-0.134257765978836,51.5175757277842],[-0.134266951409506,51.5173510557656],[-0.133906846686893,51.5173453280425],[-0.133897659497438,51.5175700000269],[-0.133537553134559,51.5175642711639],[-0.133546742082795,51.5173395992137],[-0.133186637597237,51.5173338692794],[-0.13319582830741,51.5171091974593],[-0.132835725709675,51.517103466463],[-0.132844918339549,51.5168787949105],[-0.132854110850776,51.5166541233487],[-0.132494011890803,51.5166483913193],[-0.132133913049476,51.5166426581843],[-0.131773814326817,51.5166369239439],[-0.13176461653693,51.5168615953972],[-0.131404516173414,51.5168558600151],[-0.131044415928614,51.5168501235276],[-0.130684315802554,51.5168443859345],[-0.130693518871084,51.5166197145898],[-0.130702721820832,51.5163950432357],[-0.130711924651801,51.5161703718724],[-0.13072112736399,51.5159457004998],[-0.130730329957403,51.5157210291178],[-0.130370238747595,51.5157152906003],[-0.130379442981664,51.5154906192453],[-0.130388647096938,51.5152659478809],[-0.130397851093419,51.5150412765073],[-0.130407054971109,51.5148166051243],[-0.130046970917648,51.5148108656463],[-0.130056176435886,51.5145861942902],[-0.130065381835315,51.5143615229249],[-0.130074587115936,51.5141368515503],[-0.129714508459198,51.5141311110754],[-0.12972371538028,51.5139064397277],[-0.129732922182535,51.5136817683707],[-0.129742128865965,51.5134570970044],[-0.129382055605758,51.5134513555329],[-0.129021982464372,51.513445612956],[-0.12903119254737,51.5132209416529],[-0.12867112128402,51.5132151980069],[-0.128680333007321,51.5129905267307],[-0.128320263622005,51.5129847820157],[-0.128329476985563,51.5127601107664],[-0.127969409478275,51.5127543649823],[-0.127978624482045,51.51252969376],[-0.127618558852781,51.5125239469069],[-0.127258493342446,51.5125181989484],[-0.126898427951062,51.5125124498846],[-0.126889207669947,51.5127371209981],[-0.126879987269834,51.5129617921023],[-0.126519918479178,51.5129560418606],[-0.126510696200908,51.5131807129192],[-0.126150625770098,51.5131749615359],[-0.125790555458313,51.5131692090472],[-0.125781329542665,51.5133938800238],[-0.125421257590755,51.5133881263936],[-0.125412029796839,51.5136127973245],[-0.125051956204807,51.5136070425525],[-0.125042726532576,51.5138317134379],[-0.124682651300427,51.5138259575242],[-0.124673419749836,51.5140506283639],[-0.124313342877574,51.5140448713085],[-0.123953266124459,51.5140391131478],[-0.123944030936205,51.5142637839054],[-0.123583952543006,51.5142580246029],[-0.123574715476281,51.5144826953149],[-0.123214635443001,51.5144769348706],[-0.123205396497758,51.5147016055369],[-0.122845314824401,51.5146958439509],[-0.122485233270288,51.5146900812594],[-0.12249447573412,51.514465410666],[-0.122134396058566,51.5144596469056],[-0.121774316502299,51.5144538820398],[-0.121765070519886,51.5146785525605],[-0.121404989323642,51.5146727865529],[-0.121044908246732,51.5146670194399],[-0.12068482728918,51.5146612512216],[-0.120694078549449,51.5144365808102],[-0.120333999470559,51.5144308115229],[-0.11997392051107,51.5144250411303],[-0.119613841671006,51.5144192696322],[-0.119253762950387,51.5144134970288],[-0.118893684349238,51.51440772332],[-0.118884424292581,51.514632393549],[-0.118524344051654,51.5146266186984],[-0.118515082116185,51.5148512888815],[-0.118155000391479,51.5148455129931],[-0.118145736593102,51.5150701831409],[-0.117785653672652,51.5150644064063],[-0.117425570871668,51.5150586285663],[-0.117416303439016,51.5152832986334],[-0.117056219000122,51.5152775196521],[-0.116696134680742,51.5152717395654],[-0.11668686361373,51.5154964095517],[-0.116326777656467,51.5154906283238],[-0.11631750471245,51.515715298265],[-0.11595741711731,51.5157095158959],[-0.115597329641755,51.5157037324213],[-0.115237242285811,51.5156979478412],[-0.114877155049498,51.5156921621557],[-0.11451706793284,51.5156863753647],[-0.114526349664037,51.5154617056025],[-0.114535631275534,51.515237035831],[-0.114175547793391,51.5152312480062],[-0.114184831042573,51.5150065782613],[-0.114194114172038,51.5147819085071],[-0.113834034324332,51.5147761196486],[-0.113473954596341,51.5147703296846],[-0.113113874988086,51.5147645386153],[-0.112753795499592,51.5147587464405],[-0.112744505340703,51.5149834160513],[-0.11238442421464,51.5149776227352],[-0.112024343208385,51.5149718283136],[-0.11201504941494,51.5151964978434],[-0.111654966771145,51.5151907022805],[-0.111664262321961,51.5149660327867],[-0.111673557752898,51.5147413632836],[-0.111682853063959,51.5145166937712],[-0.111322775812054,51.5145108972106],[-0.11133207276054,51.5142862277248],[-0.111341369589132,51.5140615582297],[-0.111350666297831,51.5138368887254],[-0.111710738277905,51.5138426851783],[-0.112070810377822,51.5138484805257],[-0.112080103452165,51.5136238109403],[-0.112089396406666,51.5133991413456],[-0.112098689241325,51.5131744717416],[-0.112458756189425,51.5131802658761],[-0.112468047147077,51.5129555962269],[-0.112828112457799,51.5129613892202],[-0.112837401538492,51.5127367195259],[-0.112846690499396,51.5125120498223],[-0.112486628702944,51.5125062569008],[-0.112495919301161,51.5122815872238],[-0.112505209779569,51.5120569175375],[-0.112145151617078,51.5120511235825],[-0.112154443732733,51.5118264539228],[-0.111794387447096,51.5118206588983],[-0.111803681199953,51.5115959892653],[-0.111812974832963,51.5113713196229],[-0.111822268346128,51.5111466499713],[-0.111462217451326,51.5111408539492],[-0.111471512601605,51.5109161843242],[-0.11148080763202,51.5106915146899],[-0.111840855012929,51.5106973106402],[-0.112200902513653,51.5107031054852],[-0.112560950134167,51.510708899225],[-0.11292099787445,51.5107146918595],[-0.113281045734479,51.5107204833888],[-0.113641093714232,51.5107262738128],[-0.114001141813685,51.5107320631315],[-0.114010424425808,51.5105073932368],[-0.11401970691823,51.5102827233329],[-0.11437975162353,51.5102885114747],[-0.114739796448481,51.5102942985112],[-0.114730517469869,51.5105189684868],[-0.115090564171357,51.510524754454],[-0.115450610992451,51.5105305393159],[-0.115459886457246,51.5103058692686],[-0.115099841393061,51.5103000844426],[-0.115109118495134,51.5100754144219],[-0.115469161802432,51.5100811992121],[-0.115478437028013,51.5098565291463],[-0.115838478698024,51.5098623127956],[-0.116198520487593,51.5098680953396],[-0.116189248775747,51.5100927654769],[-0.11654929244172,51.5100985469515],[-0.116909336227205,51.5101043273208],[-0.116918604425307,51.5098796571119],[-0.117278646573407,51.5098854363402],[-0.117287912895145,51.5096607660862],[-0.117647953405856,51.5096665441735],[-0.117657217851274,51.5094418738745],[-0.118017256724594,51.5094476508209],[-0.118007994036008,51.5096723211556],[-0.118368034968961,51.5096780971588],[-0.118377295914272,51.5094534267978],[-0.118386556740067,51.5092287564276],[-0.118746594645308,51.5092345315076],[-0.119106632670017,51.5092403054824],[-0.119466670814171,51.509246078352],[-0.119475926244278,51.509021407863],[-0.119835962749126,51.509027179591],[-0.119845216398986,51.5088025091368],[-0.119854470346756,51.5085778390166],[-0.120214503428503,51.5085836095468],[-0.120223755487493,51.5083589393729],[-0.120583786920295,51.5083647087542],[-0.12059303709055,51.5081400385265],[-0.120953066874404,51.508145806759],[-0.120962315155968,51.5079211364776],[-0.120971563317667,51.5076964661865],[-0.120611537071387,51.5076906980421],[-0.120620786881974,51.5074660277853],[-0.120980811359502,51.5074717958856],[-0.120990059281473,51.5072471255751],[-0.120999307083585,51.5070224552549],[-0.121008554765839,51.5067977849249],[-0.121017802328236,51.5065731145853],[-0.121377819850816,51.5065788814047],[-0.121737837493206,51.5065846471195],[-0.121747081398467,51.506359976682],[-0.121756325183922,51.5061353062349],[-0.121765568849573,51.505910635778],[-0.122125581305886,51.5059164002561],[-0.122485593881957,51.5059221636294],[-0.122845606577762,51.5059279258981],[-0.122836368217914,51.506152596487],[-0.122827129738328,51.5063772670662],[-0.123187146091078,51.5063830283183],[-0.123196382802036,51.5061583576951],[-0.123205619393281,51.5059336870622],[-0.123565632328489,51.5059394471216],[-0.12357486703144,51.505714776435],[-0.123584101614704,51.5054901057387],[-0.123593336078285,51.5052654350327],[-0.123602570422185,51.505040764317],[-0.123962576402854,51.5050465230959],[-0.123971808858579,51.5048218523265],[-0.123611804646405,51.5048160935916],[-0.123251800553887,51.5048103337522],[-0.122891796581048,51.5048045728081],[-0.122901034222527,51.504579902161],[-0.122910271744284,51.5043552315041],[-0.122919509146323,51.5041305608376],[-0.122928746428644,51.5039058901614],[-0.12293798359125,51.5036812194755],[-0.122947220634142,51.5034565487798],[-0.123307213996521,51.5034623094599],[-0.123316449151373,51.5032376387106],[-0.123325684186538,51.5030129679516],[-0.122965694360798,51.5030072073595],[-0.122974931044564,51.5027825366347],[-0.122984167608625,51.5025578659003],[-0.122993404052983,51.5023331951561],[-0.123002640377641,51.5021085244023],[-0.123011876582599,51.5018838536388],[-0.123021112667861,51.5016591828655],[-0.123030348633428,51.5014345120826],[-0.123039584479303,51.5012098412899],[-0.123399560159411,51.5012156015301],[-0.123759535959164,51.5012213606658],[-0.123768768149143,51.5009966897754],[-0.123408794117493,51.5009909306837],[-0.123048820205488,51.5009851704875],[-0.122688846413149,51.5009794091869],[-0.1223288727405,51.5009736467818],[-0.121968899187564,51.5009678832723],[-0.121978140098283,51.5007432125922],[-0.122338111883147,51.5007489760578],[-0.12269808378772,51.5007547384189],[-0.123058055811982,51.5007604996755],[-0.12341802795591,51.5007662598277],[-0.123427261674664,51.5005415889619],[-0.123436494522062,51.5003169183599],[-0.123445727138326,51.5000922477888],[-0.123454959635001,51.4998675772077],[-0.123814924852357,51.4998733360655],[-0.123824155462788,51.4996486654285],[-0.123833385953655,51.4994239947818],[-0.123842616324962,51.4991993241253],[-0.123851846576709,51.4989746534589],[-0.123861076708898,51.4987499827828],[-0.123870306721534,51.4985253120968],[-0.123879536614615,51.4983006414011],[-0.123888766388146,51.4980759706955],[-0.123897996042128,51.4978512999801],[-0.124257945479926,51.4978570573187],[-0.124267173247909,51.4976323865474],[-0.12462712103875,51.4976381427357],[-0.124987068949066,51.4976438978198],[-0.125347016978832,51.4976496517997],[-0.125337794510218,51.4978743227092],[-0.125697744425873,51.4978800756309],[-0.125688523604287,51.4981047465766],[-0.125679302663266,51.4983294175125],[-0.125670081602809,51.4985540884387],[-0.126030036937395,51.4985598403943],[-0.126039256231321,51.4983351694221],[-0.126399209918764,51.4983409202274],[-0.126408427326767,51.4981162491994],[-0.12641764461538,51.4978915781616],[-0.126426861784607,51.497666907114],[-0.126066913396625,51.4976611564467],[-0.125706965128027,51.4976554046753],[-0.125716185710749,51.49743073371],[-0.125725406174044,51.4972060627348],[-0.125734626517911,51.4969813917498],[-0.125374683667962,51.4969756390123],[-0.125383905658774,51.4967509680636],[-0.125393127530141,51.496526297105],[-0.125402349282065,51.4963016261367],[-0.125411570914547,51.4960769551585],[-0.125420792427591,51.4958522841706],[-0.125430013821196,51.4956276131728],[-0.125070081688528,51.4956218596074],[-0.125079304728929,51.4953971886459],[-0.12471937448192,51.4953914340225],[-0.12472859916907,51.4951667630972],[-0.124737823736743,51.4949420921621],[-0.124377897141571,51.4949363365267],[-0.124387123355926,51.4947116656279],[-0.124747048184943,51.4947174212172],[-0.124756272513669,51.4944927502625],[-0.124765496722924,51.494268079298],[-0.125125418139137,51.4942738336911],[-0.125134640462833,51.4940491626707],[-0.125143862667086,51.4938244916406],[-0.125153084751898,51.4935998206006],[-0.125162306717269,51.4933751495508],[-0.124802392365283,51.4933693953419],[-0.124811615977216,51.4931447243283],[-0.125171528563203,51.4931504784911],[-0.125180750289702,51.4929258074217],[-0.124820839469691,51.4929200533049],[-0.124830062842711,51.4926953822718],[-0.125189971896768,51.4927011363425],[-0.125199193384401,51.4924764652534],[-0.125208414752606,51.4922517941546],[-0.125217632812653,51.4920271237228],[-0.125226849255794,51.4918024535992],[-0.125586751499443,51.4918082063549],[-0.125595966065988,51.4915835361746],[-0.125236065579934,51.4915777834657],[-0.125245281785077,51.4913531133224],[-0.125605180513559,51.4913588659844],[-0.125614394842155,51.4911341957845],[-0.125974291932009,51.4911399472958],[-0.125983504384106,51.4909152770391],[-0.125992716717255,51.4906906067726],[-0.12635261041097,51.4906963570864],[-0.126361820867689,51.4904716867633],[-0.126371031205488,51.4902470164303],[-0.126730921503124,51.4902527655466],[-0.126740129964563,51.490028095157],[-0.12674933830711,51.4898034247575],[-0.127109225208727,51.4898091726764],[-0.127118431674984,51.4895845022203],[-0.127478316938019,51.4895902489886],[-0.127487521528032,51.4893655784759],[-0.127847405152482,51.4893713240935],[-0.128207288895703,51.4893770686072],[-0.128216489852158,51.4891523979911],[-0.127856607866297,51.4891466535241],[-0.127865810461294,51.488921982945],[-0.127875012937477,51.488697312356],[-0.128234891408689,51.4887030567295],[-0.128244092008768,51.4884783860839],[-0.12825329249006,51.4882537154284],[-0.128262492852566,51.4880290447631],[-0.128622366170708,51.4880347878926],[-0.128631564657206,51.4878101171707],[-0.128991436336834,51.4878158591496],[-0.129000632947369,51.4875911883712],[-0.129360502988479,51.4875969291996],[-0.129369697723096,51.4873722583646],[-0.129729566125684,51.4873779980425],[-0.129738758984429,51.4871533271509],[-0.12974795172449,51.4869286562495],[-0.130107816731409,51.4869343947302],[-0.130467681856942,51.4869401321071],[-0.130476870964079,51.4867154611025],[-0.130486059952582,51.486490790088],[-0.130845921682479,51.4864965262678],[-0.130855108795272,51.4862718551968],[-0.131214968886651,51.4862775902262],[-0.131224154123779,51.4860529190986],[-0.131584012576637,51.4860586529776],[-0.131593195938144,51.4858339817936],[-0.131953052752477,51.4858397145222],[-0.132312909685298,51.4858454461471],[-0.132322089414214,51.4856207748599],[-0.132681944708481,51.4856265053344],[-0.132691122561889,51.4854018339908],[-0.133050976217597,51.4854075633149],[-0.133410829991722,51.4854132915354],[-0.133401655652313,51.4856379629723],[-0.133392481194462,51.4858626343994],[-0.133752338601008,51.4858683616093],[-0.133743165781759,51.4860930330732],[-0.133733992844088,51.4863177045272],[-0.134093853883131,51.4863234307267],[-0.134084682584128,51.4865481022175],[-0.134444545498627,51.4865538273598],[-0.134435375838339,51.4867784988873],[-0.134075511166721,51.4867727736984],[-0.134066339630904,51.4869974451695],[-0.134426206059667,51.487003170405],[-0.134417036162607,51.4872278419129],[-0.134407866147159,51.4874525134109],[-0.13439869601332,51.4876771848991],[-0.134389525761089,51.4879018563774],[-0.134749399336998,51.4879075806955],[-0.13474023072363,51.4881322522106],[-0.135100106180435,51.4881379754622],[-0.135459981760473,51.4881436976014],[-0.135469146858982,51.4879190259859],[-0.135478311839144,51.4876943543604],[-0.135118439774379,51.487688632323],[-0.135127606393801,51.4874639607384],[-0.135136772894856,51.4872392891437],[-0.135145939277549,51.4870146175389],[-0.134786072606768,51.4870088945367],[-0.134795240628294,51.4867842229724],[-0.134804408531459,51.4865595513983],[-0.134813576316265,51.4863348798144],[-0.134453715040531,51.4863291558224],[-0.134462884464056,51.4861044842752],[-0.134472053769201,51.4858798127181],[-0.134112196125929,51.4858740877156],[-0.134121367069727,51.4856494161953],[-0.13448122295597,51.4856551411512],[-0.13484107896054,51.4856608650035],[-0.134850246271925,51.4854361933802],[-0.134490392024364,51.4854304695745],[-0.134130537895128,51.4854247446652],[-0.13377068388424,51.4854190186522],[-0.133779856348227,51.4851943471588],[-0.134139708602133,51.4852000731252],[-0.134499560974386,51.485205797988],[-0.134508729806036,51.4849811263916],[-0.134868580539647,51.484986850104],[-0.13485941346496,51.485211521747],[-0.135219266078268,51.4852172443387],[-0.135210100642407,51.4854419160239],[-0.135569955132165,51.4854476375518],[-0.135579118810651,51.4852229658157],[-0.135938971661308,51.4852286861892],[-0.135948133464118,51.485004014392],[-0.13630798467567,51.4850097336111],[-0.136317144602847,51.484785061753],[-0.136676994175292,51.4847907798177],[-0.137036843865938,51.4847964967789],[-0.137396693674763,51.4848022126367],[-0.137756543601746,51.484807927391],[-0.138116393646864,51.4848136410418],[-0.138476243810093,51.4848193535892],[-0.13883609409141,51.4848250650331],[-0.139195944490794,51.4848307753735],[-0.139555795008222,51.4848364846105],[-0.13991564564367,51.4848421927439],[-0.140275496397117,51.4848478997739],[-0.14063534726854,51.4848536057005],[-0.140995198257914,51.4848593105235],[-0.140986061176263,51.4850839830428],[-0.141345914040931,51.4850896868132],[-0.141705767023507,51.4850953894801],[-0.14206562012397,51.4851010910435],[-0.142425473342297,51.4851067915033],[-0.14241634317222,51.4853314642158],[-0.142776198265782,51.4853371636229],[-0.142767069735229,51.4855618363761],[-0.143126926704029,51.4855675347305],[-0.143136053477163,51.4853428619266],[-0.143495908806343,51.4853485591268],[-0.143855764253298,51.4853542552234],[-0.143846640995006,51.4855789281288],[-0.143486783790629,51.4855732319814],[-0.143477658657092,51.485797904826],[-0.143468533405728,51.4860225776605],[-0.143828394125017,51.4860282739094],[-0.143837517618913,51.4858036010241],[-0.144197376698492,51.4858092961188],[-0.144206498317137,51.4855846231727],[-0.144566355757,51.4855903171131],[-0.144557235895803,51.4858149901099],[-0.144917095210826,51.4858206829974],[-0.145276954643537,51.4858263747815],[-0.145286070989831,51.4856017016833],[-0.145645928782753,51.4856073923131],[-0.146005786693316,51.4856130818394],[-0.146365644721497,51.4856187702622],[-0.146725502867273,51.4856244575815],[-0.146716393550811,51.4858491308824],[-0.147076253571622,51.4858548171488],[-0.147067145895024,51.4860794904904],[-0.147058038100825,51.4863041638219],[-0.147048930189025,51.4865288371433],[-0.147039822159621,51.4867535104547],[-0.147399689328072,51.4867591958202],[-0.14739058293864,51.4869838691722],[-0.147381476431622,51.4872085425142],[-0.147372369807018,51.4874332158461],[-0.147732242365817,51.48743890026],[-0.147741347232794,51.4872142268774],[-0.147750451982208,51.4869895534848],[-0.14775955661406,51.4867648800821],[-0.147768661128351,51.4865402066694],[-0.147408795599921,51.4865345224581],[-0.147417901754188,51.4863098490861],[-0.147427007790876,51.4860851757039],[-0.147436113709987,51.4858605023117],[-0.147795973965881,51.4858661863711],[-0.147805078009949,51.4856415129182],[-0.148164936625881,51.4856471958234],[-0.148524795359294,51.4856528776251],[-0.148884654210167,51.4856585583232],[-0.149244513178476,51.4856642379179],[-0.149604372264199,51.485669916409],[-0.149613467403467,51.485445242693],[-0.149973324849125,51.48545092003],[-0.15033318241215,51.4854565962634],[-0.150324090787795,51.4856812700806],[-0.15031499904605,51.4859059438877],[-0.150305907186912,51.4861306176847],[-0.150665770139728,51.4861362929664],[-0.150656679920722,51.486360966804],[-0.151016544748396,51.4863666410327],[-0.15100745616957,51.4865913149108],[-0.151367322872105,51.4865969880865],[-0.151358235933502,51.4868216620051],[-0.151718104557982,51.4868273341528],[-0.152077973373863,51.4868330052363],[-0.152068889831649,51.48705767924],[-0.152428760523595,51.4870633492671],[-0.152419678622819,51.4872880233082],[-0.152779551190831,51.4872936922788],[-0.152770470931539,51.4875183663574],[-0.153130345375625,51.4875240342716],[-0.153121266757861,51.4877487083875],[-0.153481143078023,51.4877543752452],[-0.153472066101835,51.4879790493986],[-0.153831944298076,51.4879847151998],[-0.153822868963508,51.4882093893906],[-0.154182749035834,51.4882150541352],[-0.154173675342932,51.4884397283634],[-0.154533557291346,51.4884453920515],[-0.154524485240155,51.4886700663171],[-0.154884369064661,51.4886757289487],[-0.154875298655227,51.4889004032517],[-0.15523518435583,51.4889060648267],[-0.155226115588198,51.489130739167],[-0.155586003164901,51.4891363996854],[-0.155576936039118,51.4893610740631],[-0.155936825491925,51.4893667335249],[-0.155927760008035,51.48959140794],[-0.155918694407026,51.4898160823452],[-0.155558801436128,51.4898104227889],[-0.155549733958917,51.4900350971371],[-0.15554066636456,51.4902597714753],[-0.155531598653056,51.4904844458037],[-0.15589149690126,51.4904901055016],[-0.155882430831753,51.4907147798674],[-0.155873364645116,51.4909394542232],[-0.155864298341347,51.4911641285692],[-0.155855231920445,51.4913888029053],[-0.155846165382407,51.4916134772316],[-0.155486258338237,51.4916078172975],[-0.1554771899238,51.4918324915667],[-0.155117281237486,51.4918268304814],[-0.155108210946605,51.4920515046934],[-0.155099138844335,51.4922761792476],[-0.15545905095258,51.4922818404473],[-0.15544997825593,51.4925065155033],[-0.155809892246719,51.4925121756447],[-0.155800821197742,51.4927368507367],[-0.155791750031325,51.4929615258188],[-0.156151667669818,51.4929671849477],[-0.156142598151142,51.4931918600658],[-0.156133528515045,51.4934165351741],[-0.155773607346167,51.4934108759537],[-0.155764535827421,51.4936355510064],[-0.155404613010738,51.4936298906361],[-0.155395539609298,51.4938545656333],[-0.155386466090386,51.4940792406207],[-0.155746392437587,51.4940849010826],[-0.155737320566493,51.4943095761059],[-0.156097248796414,51.4943152355095],[-0.156088178573185,51.4945399105688],[-0.156079108232524,51.4947645856183],[-0.156070037774429,51.4949892606581],[-0.155710104248485,51.4949836011173],[-0.155701031907567,51.4952082761015],[-0.155691959449188,51.4954329510759],[-0.155682886873345,51.4956576260405],[-0.156042825695516,51.4956632857186],[-0.156033754767663,51.4958879607192],[-0.156024683722365,51.49611263571],[-0.156015612559622,51.496337310691],[-0.156006541279429,51.4965619856622],[-0.155997469881787,51.4967866606236],[-0.155988398366691,51.4970113355752],[-0.155628448951449,51.4970056756224],[-0.155619375553307,51.4972303505185],[-0.155259424489926,51.4972246894157],[-0.155250349208693,51.4974493642562],[-0.155610302037686,51.4974550254047],[-0.155970254984136,51.497460685449],[-0.155979326734142,51.497236010517],[-0.156339278032408,51.4972416694113],[-0.156330208048019,51.497466344389],[-0.156321137946193,51.497691019357],[-0.156312067726931,51.4979156943152],[-0.15667202443953,51.4979213522425],[-0.156662955868515,51.4981460272367],[-0.157022914464195,51.4981516841055],[-0.157013847541474,51.4983763591356],[-0.157373808020238,51.4983820149458],[-0.157364742745855,51.4986066900119],[-0.157724705107708,51.4986123447636],[-0.157715641481711,51.4988370198656],[-0.158075605726657,51.4988426735587],[-0.15806654374909,51.4990673486966],[-0.158057481654187,51.4992920238248],[-0.158048419441947,51.4995166989431],[-0.158039357112367,51.4997413740517],[-0.158030294665446,51.4999660491504],[-0.158021232101181,51.5001907242394],[-0.158381207058511,51.5001963771025],[-0.158372146142827,51.5004210522274],[-0.15836308463039,51.5006457274287],[-0.158354022674804,51.5008704026788],[-0.158344960601932,51.5010950779192],[-0.158704942717905,51.5011007298627],[-0.158695882292917,51.5013254051384],[-0.158686821750662,51.5015500804043],[-0.158677761091138,51.5017747556604],[-0.158668700314342,51.5019994309068],[-0.159028689608387,51.5020050819261],[-0.159388679019661,51.5020107318409],[-0.159397736265971,51.5017860565044],[-0.159757724029206,51.5017917052697],[-0.160117711909622,51.5017973529306],[-0.16012676550826,51.5015726774943],[-0.160486751740607,51.5015783240057],[-0.160846738090089,51.5015839694127],[-0.160855788041139,51.5013592938766],[-0.161215772742524,51.5013649381342],[-0.161224820811259,51.5011402625434],[-0.161584803864542,51.5011459056515],[-0.161593850051008,51.5009212300059],[-0.161602896120394,51.5006965543507],[-0.161962875760429,51.5007021962644],[-0.161971919823072,51.5004775205755],[-0.161980963079389,51.500252844994],[-0.162340939325732,51.5002584857091],[-0.162349980699029,51.5000338100722],[-0.162709955296492,51.5000394496373],[-0.162718994786815,51.499814773945],[-0.163078967735393,51.4998204123602],[-0.163088005342788,51.4995957366125],[-0.163447976642477,51.4996013738778],[-0.163457012366991,51.4993766980746],[-0.163816982017787,51.49938233419],[-0.163826015859464,51.4991576583315],[-0.164185983861363,51.499163293297],[-0.16419501582025,51.4989386173832],[-0.164554982173248,51.4989442511988],[-0.164914948643143,51.49894988391],[-0.164923976953483,51.4987252078953],[-0.165283941774449,51.4987308394567],[-0.165292968202109,51.4985061633866],[-0.165652931374142,51.4985117937982],[-0.165643906712264,51.4987364699138],[-0.165634881933535,51.4989611460196],[-0.165994848753985,51.4989667754179],[-0.166003871766906,51.4987420992666],[-0.166363836938352,51.498747727515],[-0.166372858068657,51.4985230513084],[-0.166732821591095,51.498528678407],[-0.166741840838831,51.4983040021451],[-0.167101802712256,51.4983096280939],[-0.167461764702413,51.4983152529385],[-0.167470780301876,51.4980905765758],[-0.167830740642992,51.4980962002706],[-0.167821726809278,51.4983208766788],[-0.16818168903283,51.4983264993147],[-0.168172676848178,51.4985511757586],[-0.168163664546839,51.4987758521927],[-0.168523630348757,51.4987814737648],[-0.168883596246987,51.4987870942181],[-0.169243562261435,51.4987927135671],[-0.16960352839208,51.4987983318119],[-0.169963494638899,51.4988039489524],[-0.169972498147487,51.4985792722863],[-0.170332462752667,51.4985848882764],[-0.170692427473972,51.4985905031623],[-0.171052392311382,51.4985961169438],[-0.171412357264873,51.4986017296211],[-0.171421353626204,51.4983770527611],[-0.171781316937978,51.4983826642881],[-0.172141280365784,51.4983882747108],[-0.172150273095526,51.498163597749],[-0.172510234881587,51.4981692070214],[-0.172870196783635,51.4981748151895],[-0.173230158801644,51.4981804222534],[-0.173590120935596,51.498186028213],[-0.173950083185465,51.4981916330684],[-0.173959067010483,51.4979669558668],[-0.174319027618503,51.4979725595719],[-0.174678988342395,51.4979781621728],[-0.175038949182134,51.4979837636694],[-0.175398910137699,51.4979893640617],[-0.175758871209066,51.4979949633497],[-0.176118832396212,51.4980005615335],[-0.176478793699116,51.4980061586131],[-0.176487765104125,51.4977814810802],[-0.176847724765028,51.4977870770095],[-0.177207684541641,51.4977926718346],[-0.177567644433941,51.4977982655555],[-0.177927604441904,51.497803858172],[-0.17828756456551,51.4978094496844],[-0.178647524804734,51.4978150400924],[-0.178656485547682,51.4975903622745],[-0.179016444144778,51.4975959515324],[-0.179376402857446,51.4976015396861],[-0.179736361685663,51.4976071267356],[-0.179727406215893,51.497831804691],[-0.179718450630571,51.4980564826366],[-0.179709494929697,51.4982811605725],[-0.179700539113268,51.4985058384985],[-0.180060505088067,51.4985114246269],[-0.180051550913902,51.498736102589],[-0.1800425966242,51.4989607805412],[-0.18003364221896,51.4991854584837],[-0.180024687698179,51.4994101364164],[-0.180015733061856,51.4996348143392],[-0.180006778309989,51.4998594922523],[-0.18036675494758,51.4998650775513],[-0.180357801838127,51.5000897555004],[-0.180348848613147,51.5003144334397],[-0.180339895215602,51.5005391113809],[-0.180330941293604,51.5007637893956],[-0.180321987255538,51.5009884674007],[-0.180313033101399,51.5012131453959],[-0.180673020424992,51.5012187298648],[-0.181033007864613,51.5012243132292],[-0.181392995420241,51.5012298954892],[-0.181752983091851,51.5012354766447],[-0.182112970879423,51.5012410566958]]],[[[-0.174058489029078,51.5044881977439],[-0.174418500911962,51.5044938016635],[-0.174778512911294,51.5044994044785],[-0.175138525027051,51.504505006189],[-0.175498537259211,51.5045106067948],[-0.17548955824778,51.5047352840501],[-0.175480579119947,51.5049599612955],[-0.175120563349348,51.5049543605997],[-0.174760547695156,51.5049487587992],[-0.174769530361449,51.5047240816437],[-0.174409516592912,51.5047184787837],[-0.174049502940826,51.5047128748191],[-0.174058489029078,51.5044881977439]]],[[[-0.152079793304161,51.5045936161453],[-0.15207069922331,51.5048182904524],[-0.152061605024749,51.5050429647497],[-0.152421616920044,51.505048636282],[-0.152412524369317,51.5052733106148],[-0.1524034317009,51.5054979849379],[-0.152394338914789,51.5057226592511],[-0.152034321722782,51.5057169875832],[-0.151674304648472,51.5057113148106],[-0.151683400965768,51.5054866405878],[-0.151692497165325,51.5052619663552],[-0.151701593247145,51.5050372921128],[-0.15171068921123,51.5048126178607],[-0.15171978505758,51.5045879435988],[-0.152079793304161,51.5045936161453]]],[[[-0.163550214857194,51.5328758725602],[-0.163189981669191,51.5328702332948],[-0.162829748597976,51.5328645929234],[-0.162469515643572,51.5328589514459],[-0.162109282806001,51.5328533088625],[-0.162118336569727,51.5326286342533],[-0.161758105610004,51.5326229906026],[-0.161767161017824,51.5323983160226],[-0.162127390216578,51.5324039596346],[-0.162487619532184,51.5324096021407],[-0.162847848964619,51.5324152435407],[-0.163208078513861,51.5324208838348],[-0.163199030149929,51.5326455585695],[-0.163559261576933,51.5326511977962],[-0.163550214857194,51.5328758725602]]],[[[-0.148694093642611,51.5258978752418],[-0.14868497640712,51.5261225487055],[-0.148675859054083,51.5263472221601],[-0.148315680426724,51.526341537817],[-0.148324799537259,51.5261168643951],[-0.147964622784943,51.5261111789787],[-0.147973743535383,51.5258865055804],[-0.147982864168233,51.5256618321729],[-0.147622691048404,51.525656145716],[-0.147631813468612,51.5254314724351],[-0.147640936046709,51.5252067993373],[-0.148001105636904,51.5252124857156],[-0.148361275344818,51.5252181709881],[-0.148721445170426,51.5252238551548],[-0.1487123278738,51.5254485283639],[-0.148703210760559,51.5256732017689],[-0.148694093642611,51.5258978752418]]],[[[-0.156012667445826,51.5053299656382],[-0.155652652609311,51.5053243051065],[-0.155661729270015,51.5050996303672],[-0.155670805813234,51.5048749556182],[-0.155679882238971,51.5046502808594],[-0.156039891778851,51.5046559412557],[-0.156048966321608,51.504431266442],[-0.156408974213421,51.5044369256887],[-0.156768982222645,51.5044425838308],[-0.157128990349257,51.5044482408684],[-0.157488998593234,51.5044538968014],[-0.157479931112495,51.5046785717955],[-0.15711992110301,51.5046729158174],[-0.156759911210892,51.5046672587347],[-0.156750840081729,51.5048919336289],[-0.157110851739374,51.5048975907566],[-0.15747086351439,51.5049032467798],[-0.157461795798917,51.5051279217544],[-0.157101782258349,51.5051222656861],[-0.15709271265993,51.5053469406059],[-0.156732697471159,51.5053412833879],[-0.156723625989748,51.5055659582528],[-0.156363609152778,51.5055602998851],[-0.156003592433228,51.5055546404129],[-0.156012667445826,51.5053299656382]]],[[[-0.170080354794027,51.5048758348762],[-0.169720340771924,51.5048702176116],[-0.16936032686657,51.5048645992425],[-0.16936933607106,51.5046399227631],[-0.169009324051676,51.5046343033345],[-0.169018334908549,51.5044096268905],[-0.169027345648611,51.5041849504367],[-0.169387354129669,51.504190569775],[-0.169747362727494,51.5041961880087],[-0.169738355525737,51.5044208645528],[-0.170098366009461,51.5044264817271],[-0.170089360460117,51.5046511583066],[-0.170080354794027,51.5048758348762]]],[[[-0.169009324051676,51.5046343033345],[-0.169000313077988,51.5048589797688],[-0.168640299406202,51.5048533591904],[-0.168280285851234,51.5048477375076],[-0.167920272339625,51.5048421146721],[-0.167560258936425,51.5048364907267],[-0.167569276982138,51.5046118144738],[-0.167929288619772,51.5046174383744],[-0.16828930036331,51.5046230611636],[-0.168649312149085,51.5046286828013],[-0.169009324051676,51.5046343033345]]],[[[-0.171871429718296,51.5051285814159],[-0.172231446209651,51.5051341920981],[-0.172240441377103,51.5049095152676],[-0.172249436427944,51.5046848384274],[-0.172258431362176,51.5044601615774],[-0.172618442662478,51.5044657710199],[-0.172978454079341,51.5044713793577],[-0.172969462683495,51.5046960562978],[-0.173329475986094,51.5047016635761],[-0.173689489405213,51.5047072697499],[-0.173680501431243,51.5049319467703],[-0.173320486242905,51.5049263405515],[-0.173311496383174,51.5051510175171],[-0.173302506406899,51.505375694473],[-0.173293516314079,51.5056003714191],[-0.173284526104711,51.5058250483555],[-0.172924503955787,51.5058194408519],[-0.172933495934466,51.5055947639606],[-0.172573475671402,51.5055891553975],[-0.17221345552491,51.5055835457298],[-0.171853435495014,51.5055779349574],[-0.171862432664974,51.5053532581915],[-0.171871429718296,51.5051285814159]]],[[[-0.173086712037601,51.5107679384745],[-0.173446773229171,51.5107735458628],[-0.17345576423026,51.5105488690977],[-0.173815823769074,51.5105544753363],[-0.174175883424385,51.5105600804702],[-0.174166895961854,51.5107847573251],[-0.174157908382826,51.5110094341702],[-0.173797845188932,51.5110038289466],[-0.173437782111538,51.5109982226182],[-0.173077719150669,51.510992615185],[-0.173086712037601,51.5107679384745]]]]}}