{"type":"Feature","properties":{"code":"E63000598","name":"Huntington (York)"},"geometry":{"type":"MultiPolygon","coordinates":[[[[-1.06411555888983,53.9973060831812],[-1.06449686337986,53.9973090510755],[-1.06450189697999,53.9970843952431],[-1.06488319952412,53.9970873619079],[-1.06526450213584,53.997090327363],[-1.06525947256273,53.9973149832352],[-1.06525444292198,53.9975396390988],[-1.06524941321361,53.9977642949537],[-1.06524438343761,53.9979889508],[-1.06486307277169,53.9979859852654],[-1.06448176217336,53.9979830185211],[-1.06410045164265,53.9979800505672],[-1.06409541575817,53.9982047063452],[-1.06409037980597,53.9984293621147],[-1.06370906531566,53.9984263929112],[-1.06332775089302,53.998423422498],[-1.06294643653808,53.9984204508751],[-1.06256512225088,53.9984174780425],[-1.06257016625764,53.9981928223527],[-1.06218885405182,53.9981898483304],[-1.06219390000437,53.9979651926519],[-1.06181258987995,53.9979622174398],[-1.06181763777823,53.9977375617726],[-1.06219894588906,53.9977405369648],[-1.06220399170591,53.9975158812691],[-1.06220903745491,53.9972912255648],[-1.06259034160644,53.9972941995074],[-1.06259538527409,53.9970695437745],[-1.06297668747988,53.9970725164875],[-1.06298172906624,53.996847860726],[-1.06298677058481,53.9966232049559],[-1.0633680688314,53.9966261764195],[-1.06374936714568,53.9966291466734],[-1.06374432965401,53.9968538024833],[-1.06412563004941,53.9968567715475],[-1.06412059450347,53.9970814273687],[-1.06411555888983,53.9973060831812]]],[[[-1.06181258987995,53.9979622174398],[-1.0618075419138,53.9981868730983],[-1.06218885405182,53.9981898483304],[-1.06218380803143,53.9984145040002],[-1.06217876194318,53.9986391596614],[-1.06217371578708,53.998863815314],[-1.06216866956312,53.999088470958],[-1.06254998982364,53.9990914450601],[-1.06254494554558,53.9993161007154],[-1.06253990119968,53.999540756362],[-1.06253485678595,53.999765412],[-1.0621535304841,53.9997624378381],[-1.06214848398871,53.9999870934475],[-1.06214343742546,54.0002117490483],[-1.0621383891599,54.0004364047915],[-1.06251972142309,54.0004393790117],[-1.06251467496903,54.0006640347695],[-1.06250962844871,54.0008886905189],[-1.06212829227647,54.0008857162663],[-1.06212324373533,54.0011103719909],[-1.06211819512789,54.0013350277071],[-1.06211314645416,54.0015596834146],[-1.06210809771414,54.0017843391137],[-1.06210304890782,54.0020089948042],[-1.0620980000352,54.0022336504862],[-1.06209295109629,54.0024583061597],[-1.06208790209108,54.0026829618246],[-1.06208285301957,54.0029076174811],[-1.06246420678386,54.0029105918792],[-1.06245915960086,54.0031352475433],[-1.06245411235158,54.0033599031988],[-1.06207275467765,54.0033569287683],[-1.06169139706997,54.0033539531278],[-1.0616863458447,54.0035786087425],[-1.06130498634843,54.0035756318757],[-1.06092362691846,54.003572653799],[-1.06091857171709,54.0037973093727],[-1.06053721039856,54.0037943300697],[-1.06015584914639,54.0037913495566],[-1.06015078996881,54.0040160050894],[-1.05976942682811,54.0040130233501],[-1.05976436562916,54.0042376788581],[-1.05975930436374,54.0044623343576],[-1.05937793737955,54.0044593513757],[-1.0589965704618,54.0044563671837],[-1.05861520361052,54.0044533817817],[-1.05823383682572,54.0044503951696],[-1.05785247010744,54.0044474073474],[-1.0574711034557,54.0044444183151],[-1.05708973687053,54.0044414280728],[-1.05670837035196,54.0044384366204],[-1.0563270039,54.004435443958],[-1.05633208276002,54.0042107886051],[-1.05595071832966,54.0042077947489],[-1.05595579907788,54.0039831394038],[-1.05557443666912,54.0039801443538],[-1.0555795193055,54.0037554890165],[-1.05596087975937,54.0037584840501],[-1.05596596037413,54.0035338286879],[-1.05597104092215,54.0033091733172],[-1.05635239753298,54.0033121671081],[-1.05635747605945,54.0030875117126],[-1.05636255451922,54.0028628563085],[-1.05598120181798,54.0028598625503],[-1.05559984918342,54.0028568675821],[-1.05521849661554,54.0028538714039],[-1.05483714411438,54.0028508740157],[-1.05445579167997,54.0028478754175],[-1.05407443931232,54.0028448756093],[-1.05369308701148,54.0028418745911],[-1.05331173477745,54.0028388723629],[-1.05293038261028,54.0028358689247],[-1.05254903050998,54.0028328642765],[-1.05216767847658,54.0028298584183],[-1.05178632651011,54.0028268513501],[-1.05140497581541,54.0028238445294],[-1.05141007961893,54.0025991892889],[-1.05141518335399,54.0023745340402],[-1.05142028702058,54.0021498787831],[-1.05142539061871,54.0019252235179],[-1.05143049414838,54.0017005682443],[-1.05143559760959,54.0014759129625],[-1.05181693660539,54.0014789199264],[-1.05182203805336,54.0012542646593],[-1.05182713943431,54.0010296093836],[-1.05183224074824,54.0008049540994],[-1.05221357512296,54.0008079610196],[-1.05221867441537,54.0005833057105],[-1.0522237736408,54.0003586503928],[-1.05222887273375,54.0001339951667],[-1.05223397165686,53.9999093400879],[-1.05223907051139,53.9996846850004],[-1.05224416929735,53.9994600299042],[-1.05224926801473,53.9992353747995],[-1.05225436666354,53.9990107196861],[-1.05263568515266,53.9990137252412],[-1.05264078171921,53.998789070099],[-1.05264587821722,53.9985644149481],[-1.05265097464668,53.9983397597886],[-1.05265607100761,53.9981151046205],[-1.05266116729999,53.9978904494438],[-1.05266626352384,53.9976657942584],[-1.05267135967915,53.9974411390644],[-1.05267645576592,53.9972164838617],[-1.05268155178416,53.9969918286504],[-1.05268664773386,53.9967671734305],[-1.05269174361504,53.996542518202],[-1.05269683942768,53.9963178629648],[-1.05270193517179,53.996093207719],[-1.05270703084738,53.9958685524645],[-1.05271212645444,53.9956438972014],[-1.05271722199297,53.9954192419297],[-1.05233593571955,53.9954162366977],[-1.05195464951461,53.9954132302561],[-1.05157336366611,53.9954102228324],[-1.05119208032394,53.9954072161247],[-1.05081079705022,53.995404208207],[-1.05080569148989,53.995628863445],[-1.05080058586099,53.9958535186749],[-1.05041929863675,53.9958505095429],[-1.05042440627517,53.9956258543151],[-1.050429513845,53.9954011990792],[-1.05043462134624,53.9951765438351],[-1.05043972877889,53.9949518885828],[-1.05044483614296,53.9947272333225],[-1.05082611331987,53.994730242444],[-1.05083121860596,53.9945055871734],[-1.05083632382351,53.9942809318947],[-1.0508414289725,53.9940562766078],[-1.05084653405293,53.9938316213128],[-1.05085163906482,53.9936069660096],[-1.05085674400815,53.9933823106983],[-1.05086184888294,53.9931576553788],[-1.05086695368917,53.9929330000512],[-1.05087205842686,53.9927083447154],[-1.05125331758876,53.9927113526084],[-1.05163457696742,53.9927143593985],[-1.05201583894674,53.9927173668071],[-1.05202093762038,53.9924927114636],[-1.05202603622547,53.9922680561114],[-1.05203113476199,53.9920434007506],[-1.05203623324704,53.9918187454044],[-1.052417487233,53.9918217515213],[-1.05279874128827,53.9918247564289],[-1.05317999541282,53.9918277601271],[-1.05356124960663,53.9918307626159],[-1.05356633988117,53.9916061072251],[-1.05394759209962,53.991609108483],[-1.0539526802603,53.991384453062],[-1.05395776835171,53.9911597976323],[-1.05433901655026,53.9911627976378],[-1.05472026481798,53.991165796434],[-1.05472534875111,53.9909411409526],[-1.05510659504347,53.990944138518],[-1.05548784140494,53.990947134874],[-1.05586908783549,53.9909501300206],[-1.0562503343351,53.9909531239579],[-1.05625541002109,53.9907284683819],[-1.05663665454524,53.9907314610885],[-1.05664172811767,53.9905068054824],[-1.05702297066636,53.9905097969581],[-1.05740421328403,53.9905127872245],[-1.05778545597063,53.9905157762816],[-1.05816669872615,53.9905187641294],[-1.05854794155056,53.9905217507679],[-1.05855300483175,53.990297095046],[-1.05855806804402,53.9900724393154],[-1.05893930684844,53.9900754247017],[-1.0589443679474,53.9898507689411],[-1.05856313118736,53.9898477835761],[-1.05818189449618,53.9898447970019],[-1.05780065787388,53.9898418092183],[-1.05779559064178,53.9900664649148],[-1.05741435204401,53.9900634759005],[-1.05703311351519,53.990060485677],[-1.0570280421253,53.9902851413219],[-1.05664680162104,53.9902821498676],[-1.05626556118577,53.990279157204],[-1.05588432081953,53.990276163331],[-1.05587924322731,53.9905008189029],[-1.05549800088569,53.9904978237992],[-1.05511675861316,53.9904948274862],[-1.05473551640974,53.9904918299639],[-1.05473043261503,53.9907164854626],[-1.05434918843629,53.9907134867094],[-1.05396794432672,53.9907104867469],[-1.05396285637385,53.990935142194],[-1.053581610289,53.9909321410006],[-1.05320036427336,53.990929138598],[-1.05281911832699,53.990926134986],[-1.05281402417134,53.9911507903597],[-1.05243277624974,53.9911477855168],[-1.05205152839744,53.9911447794646],[-1.05205662664209,53.990920124134],[-1.05206172481733,53.9906954687947],[-1.05244296858066,53.9906984748038],[-1.05282421241328,53.9907014796036],[-1.05282930643023,53.9904768242125],[-1.05283440037784,53.9902521688127],[-1.05283949425609,53.9900275134043],[-1.052844588065,53.9898028579872],[-1.05284968180456,53.9895782025615],[-1.05285477547478,53.989353547127],[-1.05285986907566,53.9891288916839],[-1.05247863955356,53.9891258870351],[-1.05248373512935,53.9889012316048],[-1.05210250772079,53.9888982257683],[-1.05172128038156,53.9888952187225],[-1.05134005479444,53.9888922116605],[-1.05095882994154,53.9888892038607],[-1.0505776051574,53.9888861948513],[-1.05057249945704,53.9891108502376],[-1.0505673936878,53.9893355056156],[-1.0505622878497,53.9895601609853],[-1.05055718194273,53.9897848163468],[-1.05055207596689,53.9900094717001],[-1.05054696992218,53.990234127045],[-1.05054186380859,53.9904587823818],[-1.05053675762613,53.9906834377102],[-1.050155516747,53.9906804274403],[-1.05015040847506,53.9909050827541],[-1.0505316513748,53.9909080930304],[-1.05052654505459,53.9911327483424],[-1.05090779004375,53.9911357574152],[-1.0512890351017,53.9911387652784],[-1.05129413738065,53.9909141099537],[-1.05167538090363,53.990917116894],[-1.05167028061448,53.991141772203],[-1.0516651802559,53.9913664275034],[-1.05128393275392,53.9913634205947],[-1.05127883033732,53.9915880759028],[-1.05089758123803,53.991585068027],[-1.05051633220754,53.9915820589415],[-1.05013508324583,53.9915790486461],[-1.04975383435297,53.991576037141],[-1.0497589448523,53.9913513818583],[-1.04937769804898,53.9913483691498],[-1.04938281050003,53.9911237138652],[-1.04900156578625,53.9911206999533],[-1.04862032114138,53.9911176848317],[-1.04823907656546,53.9911146685003],[-1.0478578320585,53.9911116509592],[-1.04786295252307,53.990886995692],[-1.04748171010573,53.9908839769475],[-1.04710046775742,53.9908809569933],[-1.04671922547815,53.9908779358294],[-1.04633798326796,53.9908749134557],[-1.04634311174581,53.9906502582059],[-1.04634824015448,53.9904256029479],[-1.04596700205454,53.9904225793774],[-1.04596187162531,53.990647234629],[-1.04558063157395,53.9906442098423],[-1.04519939159174,53.9906411838459],[-1.04481815167872,53.9906381566398],[-1.04482328816961,53.9904135014077],[-1.04444205034636,53.9904104729983],[-1.04406081259234,53.9904074433792],[-1.0436795749076,53.9904044125504],[-1.04329833729215,53.9904013805119],[-1.04330348179584,53.9901767252976],[-1.04292224627023,53.9901736920559],[-1.04254101081397,53.9901706576045],[-1.04215977542709,53.9901676219434],[-1.04216492592285,53.9899429667405],[-1.04217007634913,53.9897183115293],[-1.04217522670594,53.9894936563099],[-1.04179399744984,53.9894906194588],[-1.04179914975758,53.9892659642376],[-1.04218037699327,53.9892690010822],[-1.04218552721113,53.9890443458462],[-1.04219067735952,53.988819690602],[-1.04180945416455,53.9888166537706],[-1.04181460626378,53.9885919985246],[-1.04219582743843,53.9885950353495],[-1.04220097744787,53.9883703800887],[-1.04181975829352,53.9883673432705],[-1.04182491025376,53.988142688008],[-1.0418300621445,53.9879180327373],[-1.04183521396575,53.9876933774583],[-1.04221642705938,53.9876964142569],[-1.04222157679095,53.9874717589631],[-1.04222672645305,53.987247103661],[-1.0422318760457,53.9870224483507],[-1.04223702556888,53.9867977930321],[-1.04261823065132,53.9868008285948],[-1.04262337808497,53.9865761732613],[-1.04262852544918,53.9863515179197],[-1.04263367274396,53.9861268625697],[-1.04263881996931,53.9859022072115],[-1.04302001704098,53.9859052415385],[-1.04302516217693,53.9856805861655],[-1.04340635729795,53.9856836192763],[-1.04341150034457,53.9854589638885],[-1.04379269351495,53.9854619957833],[-1.04379783447228,53.9852373403807],[-1.04380297536028,53.9850126849699],[-1.04418416456011,53.9850157156421],[-1.04418930335891,53.9847910602165],[-1.04457049060812,53.9847940896728],[-1.04457562731777,53.9845694342324],[-1.04419444208839,53.9845664047826],[-1.04419958074856,53.9843417493404],[-1.04458076395814,53.9843447787837],[-1.04458590052923,53.9841201233268],[-1.04459103703103,53.9838954678615],[-1.04459617346356,53.9836708123881],[-1.0446013100704,53.9834461569683],[-1.04460644685426,53.9832215016028],[-1.04461158356843,53.9829968462288],[-1.04461672021292,53.9827721908463],[-1.04499788929429,53.9827752190037],[-1.04537905844524,53.9827782459519],[-1.04538419095049,53.9825535905312],[-1.04576535813621,53.9825566162554],[-1.04577048853709,53.9823319608113],[-1.04615165375759,53.9823349853114],[-1.04615678205414,53.982110329844],[-1.04577561886837,53.9821073053586],[-1.04578074913005,53.9818826498975],[-1.04616191028112,53.981885674368],[-1.04654307150169,53.9818886976293],[-1.04692423279173,53.9818917196815],[-1.0473053941512,53.9818947405246],[-1.04768655558009,53.9818977601586],[-1.04806771707836,53.9819007785835],[-1.04806259902488,53.9821254341336],[-1.04844376262721,53.9821284513642],[-1.04882492629887,53.9821314673856],[-1.04883004028294,53.9819068118058],[-1.04921120198919,53.9819098266033],[-1.04920609003984,53.9821344821979],[-1.04958725385007,53.9821374958011],[-1.04996841772956,53.9821405081952],[-1.05034958167826,53.9821435193801],[-1.05035468752349,53.9819188637412],[-1.0499735256095,53.981915852571],[-1.04959236376472,53.9819128401917],[-1.04959747361006,53.9816881845739],[-1.04960258338607,53.9814635289476],[-1.04998374116151,53.9814665412973],[-1.04997863342015,53.9816911969384],[-1.05035979329946,53.9816942080938],[-1.05036489900616,53.9814695524379],[-1.05037000464361,53.9812448967736],[-1.05075116052282,53.9812479066904],[-1.05113231647119,53.9812509153981],[-1.05113741797018,53.9810262596957],[-1.05151857195307,53.9810292671796],[-1.05189972727351,53.9810322743319],[-1.05228088307972,53.9810352805635],[-1.05266203895522,53.9810382855864],[-1.05304319489995,53.9810412894005],[-1.05342435091392,53.9810442920058],[-1.05380550699707,53.9810472934024],[-1.05380041976701,53.9812719492619],[-1.05379533246772,53.9814966051125],[-1.05417649270647,53.981499605354],[-1.05417140738119,53.9817242612226],[-1.05416632198669,53.9819489170825],[-1.05416123652299,53.9821735729335],[-1.05415615099007,53.9823982287757],[-1.05415106538793,53.9826228846091],[-1.05414597971657,53.9828475404337],[-1.054140893976,53.9830721962495],[-1.0541358081662,53.9832968520564],[-1.05375463158065,53.9832938516003],[-1.05374954365816,53.9835185073716],[-1.05413072228718,53.9835215078546],[-1.05412563651622,53.9837461635895],[-1.05412055070999,53.9839708193052],[-1.05411546483455,53.9841954750123],[-1.05411037888987,53.9844201307107],[-1.05410529287596,53.9846447864005],[-1.05410020679282,53.9848694420816],[-1.05409512064045,53.985094097754],[-1.05409003441884,53.9853187534177],[-1.0544712294693,53.9853217528638],[-1.05446614522227,53.9855464085404],[-1.05484734238568,53.9855494067989],[-1.0552285396182,53.9855524038483],[-1.0556097369198,53.9855553996887],[-1.05599093429045,53.9855583943199],[-1.05637213173013,53.985561387742],[-1.05675332923881,53.985564379955],[-1.05713452681646,53.985567370959],[-1.05751572446305,53.9855703607538],[-1.05789692217855,53.9855733493395],[-1.05827811996294,53.9855763367161],[-1.05865931781619,53.9855793228837],[-1.05904051573828,53.9855823078421],[-1.0590455754595,53.9853576519081],[-1.05905063511185,53.9851329959655],[-1.05905569469532,53.9849083400142],[-1.05906075420993,53.9846836840542],[-1.05906581365566,53.9844590280855],[-1.05868462595243,53.9844560432341],[-1.05868968737298,53.9842313872782],[-1.05869474872463,53.9840067313136],[-1.0586998100074,53.9837820753404],[-1.05831862850395,53.9837790893441],[-1.0583236917644,53.9835544333818],[-1.05870487122141,53.9835574193584],[-1.05908605074993,53.9835604041243],[-1.05946723034739,53.9835633876812],[-1.0594722876121,53.9833387315121],[-1.05947734481349,53.9831140753305],[-1.05909616930582,53.9831110918251],[-1.05910122848182,53.9828864356615],[-1.05910628758896,53.982661779489],[-1.05911134662724,53.9824371233077],[-1.05911640559667,53.9822124671177],[-1.05912146449725,53.9819878109188],[-1.05912652332897,53.9817631547111],[-1.05874536015029,53.981760170157],[-1.05875042095643,53.9815355139672],[-1.0587554816937,53.9813108577686],[-1.05837432267034,53.9813078720592],[-1.05837938538194,53.9810832158785],[-1.05838444802464,53.9808585596889],[-1.05800329315651,53.9808555728242],[-1.05800835777346,53.9806309166526],[-1.05801342232148,53.9804062604721],[-1.05763227160849,53.9804032724521],[-1.05725112096438,53.9804002832233],[-1.05725618952968,53.9801756270875],[-1.05726125802599,53.9799509709429],[-1.05726632645332,53.9797263147896],[-1.05764747096822,53.9797293039382],[-1.05802861555199,53.979732291878],[-1.05803367982431,53.9795076356624],[-1.05803874402772,53.9792829794379],[-1.0580438081622,53.9790583232047],[-1.05842494668586,53.9790613098557],[-1.05841988459434,53.9792859661157],[-1.05880102522979,53.9792889515848],[-1.05918216593403,53.9792919358451],[-1.05956330670703,53.9792949188968],[-1.05994444754878,53.9792979007399],[-1.06032558845924,53.9793008813742],[-1.06033064033593,53.9790762249808],[-1.06071177927211,53.9790792043798],[-1.06109291827693,53.9790821825701],[-1.06109796599899,53.9788575261146],[-1.0614791030295,53.9788605030696],[-1.06186024012861,53.9788634788159],[-1.06186528369614,53.9786388222983],[-1.06224641882091,53.9786417968094],[-1.06225146027691,53.9784171402564],[-1.06263259342732,53.9784201135322],[-1.06263763277185,53.9781954569437],[-1.0630187639479,53.9781984289843],[-1.06302380118101,53.9779737723604],[-1.06340493038272,53.9779767431658],[-1.06340996550446,53.9777520865065],[-1.06379109273181,53.9777550560767],[-1.06417222002758,53.9777580244382],[-1.06417725099523,53.977533367717],[-1.06455837631661,53.9775363348433],[-1.06493950170636,53.977539300761],[-1.06494452852003,53.977314643978],[-1.06532565193536,53.9773176086605],[-1.06570677541899,53.9773205721345],[-1.06608789897092,53.9773235343998],[-1.06608287828553,53.9775481912624],[-1.06607785753182,53.9777728481163],[-1.06645898523755,53.977775809226],[-1.06645396645834,53.9780004660976],[-1.06683509627512,53.9780034260252],[-1.06683007947045,53.9782280829144],[-1.06721121139829,53.9782310416599],[-1.06720619656823,53.9784556985668],[-1.06758733060713,53.9784586561301],[-1.06796846471418,53.9784616124847],[-1.06796345390168,53.9786862694358],[-1.06834459018608,53.9786892245362],[-1.06872572684817,53.9786921780914],[-1.06872072003244,53.9789168351105],[-1.06910185879145,53.9789197874999],[-1.06948299761815,53.978922738681],[-1.06947799479315,53.9791473957756],[-1.06985913571675,53.9791503457908],[-1.06985413485331,53.9793750029184],[-1.07023527787382,53.9793779517677],[-1.07023027897199,53.9796026089285],[-1.07061142408941,53.9796055566118],[-1.07060642714925,53.9798302138057],[-1.07022528000249,53.9798272660801],[-1.07022028096532,53.9800519232224],[-1.07021528186047,53.9802765803556],[-1.06983413072255,53.980273631337],[-1.06945297965227,53.9802706811101],[-1.06944797642091,53.9804953381493],[-1.06906682338887,53.9804923866717],[-1.06906181806034,53.9807170436594],[-1.06868066306655,53.9807140909311],[-1.06867565564078,53.9809387478672],[-1.06829449868523,53.9809357938882],[-1.06828948916218,53.9811604507727],[-1.06790833046317,53.9811574953165],[-1.06790331883227,53.981382152162],[-1.06752215816523,53.9813791954632],[-1.06751714442285,53.9816038522734],[-1.06751213061224,53.9818285090748],[-1.06750711673338,53.9820531658673],[-1.06788828353031,53.9820561226455],[-1.06788327162657,53.9822807794557],[-1.068264440535,53.9822837350515],[-1.06864560966255,53.9822866892901],[-1.06902677886323,53.9822896423149],[-1.06940794813161,53.9822925941314],[-1.06978911746766,53.9822955447394],[-1.07017028687135,53.982298494139],[-1.07055145634266,53.9823014423302],[-1.07093262588156,53.982304389313],[-1.07092763015926,53.9825290464386],[-1.0713088017954,53.9825319922553],[-1.07168997349906,53.9825349368636],[-1.07168498176853,53.9827595940646],[-1.07206615556941,53.9827625375067],[-1.07206116580103,53.9829871947408],[-1.07244234169913,53.9829901370168],[-1.07243735389296,53.9832147942839],[-1.07281853188827,53.9832177353937],[-1.07281354604437,53.9834423926939],[-1.0731947261369,53.9834453326375],[-1.07318974222237,53.9836699897266],[-1.073184758208,53.9838946465639],[-1.07317977412673,53.9841193033925],[-1.07279858799958,53.9841163633719],[-1.07279360184324,53.9843410201669],[-1.07241241377478,53.9843380789125],[-1.07203122577321,53.9843351364492],[-1.07202623553353,53.9845597931858],[-1.0716450455907,53.9845568494887],[-1.0712638557148,53.9845539045827],[-1.07125886139168,53.9847785612608],[-1.07125386700151,53.9850032179302],[-1.0712488725443,53.9852278745909],[-1.07124387802004,53.9854525312428],[-1.07086268017806,53.9854495850283],[-1.07085768357842,53.9856742416466],[-1.0708526869117,53.9858988982561],[-1.0708476901779,53.9861235548569],[-1.07084269337702,53.9863482114489],[-1.07083769650906,53.9865728680321],[-1.07045648869216,53.9865699204843],[-1.07045148974864,53.986794577034],[-1.07044649073801,53.9870192335748],[-1.07044149166028,53.9872438901069],[-1.07006027788493,53.9872409412755],[-1.07005527673152,53.9874655977739],[-1.07005027551098,53.9876902542636],[-1.0700452742233,53.9879149107446],[-1.06966405448928,53.9879119606294],[-1.06928283482238,53.9879090093051],[-1.06927782945028,53.9881336657275],[-1.06889660784188,53.9881307131691],[-1.06851538630063,53.9881277594017],[-1.06851037684403,53.9883524157655],[-1.06889160039393,53.9883553695579],[-1.06927282401099,53.9883583221411],[-1.06965404769518,53.9883612735152],[-1.06964904419736,53.988585929945],[-1.07003026995735,53.9885888801349],[-1.07003527144648,53.9883642236802],[-1.07041649526485,53.9883671726361],[-1.07042149467817,53.9881425161477],[-1.07042649402437,53.9879178596507],[-1.07080771389251,53.9879208073477],[-1.07081271116298,53.987696150817],[-1.07119392908953,53.98769909728],[-1.07119892428433,53.9874744407157],[-1.07120391941208,53.9872497841426],[-1.07158513338849,53.9872527293468],[-1.07196634743185,53.9872556733419],[-1.07196135632121,53.9874803299647],[-1.07234257244007,53.9874832727755],[-1.07234756154215,53.9872586161279],[-1.07235255057726,53.9870339594716],[-1.07197133847548,53.9870310167104],[-1.07197632945211,53.9868063600701],[-1.07235753954539,53.9868093028065],[-1.07273874970556,53.9868122443338],[-1.07274373659825,53.9865875876351],[-1.07312494481682,53.9865905279286],[-1.07350615310225,53.9865934670129],[-1.07388736145451,53.9865964048882],[-1.07426856987355,53.9865993415545],[-1.07427354866548,53.9863746847479],[-1.07465475514285,53.9863776201803],[-1.07503596168695,53.9863805544037],[-1.07504093639519,53.9861558975389],[-1.07542214099758,53.9861588305284],[-1.07580334566665,53.986161762309],[-1.07580831629131,53.9859371053859],[-1.07618951901863,53.9859400359326],[-1.0761944875682,53.985715378976],[-1.07657568835378,53.9857183082891],[-1.07695688920595,53.985721236393],[-1.07733809012471,53.985724163288],[-1.07771929111,53.985727088974],[-1.07810049216182,53.9857300134509],[-1.07810545060292,53.985505356362],[-1.07848664971287,53.9855082796053],[-1.07848169328012,53.9857329367188],[-1.07847673678085,53.9859575938235],[-1.07885793997401,53.985960515907],[-1.07885298541662,53.9861851730276],[-1.07884803079273,53.9864098301395],[-1.07846682358272,53.9864069080067],[-1.07846186688385,53.9866315650852],[-1.07808065773184,53.9866286417186],[-1.07807569895794,53.9868532987637],[-1.07807074011748,53.9870779558],[-1.07845195328651,53.9870808792159],[-1.07844699638803,53.9873055362681],[-1.07844203942303,53.9875301933116],[-1.07806082223688,53.9875272698463],[-1.07805586319672,53.9877519268564],[-1.07805090409001,53.9879765838577],[-1.07804594491672,53.9882012408502],[-1.07804098567687,53.988425897834],[-1.07765976052264,53.9884229730609],[-1.07765479920751,53.9886476300113],[-1.07764983782577,53.9888722869529],[-1.07764487637743,53.9890969438857],[-1.07763991486248,53.9893216008098],[-1.07763495328094,53.9895462577252],[-1.078016188479,53.9895491826216],[-1.07839742374357,53.9895521063089],[-1.07877865907462,53.989555028787],[-1.07915989447214,53.9895579500558],[-1.07916484801838,53.9893332930418],[-1.0795460814735,53.9893362130769],[-1.07954112993608,53.9895608701155],[-1.07992236546643,53.989563788966],[-1.08030360106315,53.9895667066073],[-1.08029865347697,53.9897913636864],[-1.08029370582438,53.9900160207568],[-1.07991246620991,53.9900131030663],[-1.079907516482,53.9902377601033],[-1.079526274925,53.990234841179],[-1.07953122666183,53.9900101841666],[-1.07953617833218,53.9897855271454],[-1.07915494085939,53.9897826070611],[-1.07877370345303,53.9897796857676],[-1.07839246611312,53.9897767632648],[-1.0780112288397,53.9897738395529],[-1.07800626913381,53.9899984964754],[-1.07762502991803,53.9899955715296],[-1.07762006813667,53.9902202284187],[-1.0776151062887,53.990444885299],[-1.07761014437412,53.9906695421706],[-1.07760518239293,53.9908941990334],[-1.07760022034512,53.9911188558875],[-1.07759525823072,53.9913435127328],[-1.07721400702764,53.9913405864296],[-1.07720904283754,53.9915652432415],[-1.0772040785808,53.9917899000446],[-1.07719911301083,53.9920145568629],[-1.07719414638295,53.9922392136914],[-1.07718917968947,53.9924638705111],[-1.07718421293038,53.992688527322],[-1.07717924610571,53.9929131841241],[-1.07679798111666,53.9929102564328],[-1.07679301225723,53.9931349132002],[-1.07678804333216,53.9933595699589],[-1.07678307434147,53.9935842267088],[-1.07677810528514,53.9938088834499],[-1.07639683248492,53.9938059544457],[-1.0763918613937,53.9940306111521],[-1.07601058668984,53.9940276809126],[-1.07600561356369,53.9942523375843],[-1.07638689023683,53.9942552678498],[-1.07638191901429,53.9944799245386],[-1.07637694772608,53.9947045812187],[-1.07675822840348,53.9947075103265],[-1.07675325901897,53.9949321670237],[-1.07674828956881,53.9951568237121],[-1.07636700495266,53.9951538945525],[-1.07636203346746,53.9953785512062],[-1.07635706191658,53.9956032078511],[-1.07635209030002,53.9958278644873],[-1.0767333808245,53.9958307937246],[-1.07672841111177,53.9960554503779],[-1.07672344133339,53.9962801070224],[-1.07671847148937,53.9965047636581],[-1.0767135015797,53.996729420285],[-1.07670853160437,53.9969540769031],[-1.07670356156341,53.9971787335125],[-1.07669859145678,53.9974033901131],[-1.0766936212845,53.9976280467049],[-1.0763123150033,53.9976251172602],[-1.07593100878772,53.9976221866061],[-1.0755497026378,53.9976192547425],[-1.07554472649073,53.9978439112478],[-1.07516341843678,53.9978409781487],[-1.07478211044854,53.9978380438401],[-1.07477713029626,53.9980627002847],[-1.07439582040402,53.9980597647406],[-1.07401451057755,53.998056827987],[-1.07363320081687,53.9980538900238],[-1.07362821468951,53.9982785463817],[-1.07324690302489,53.998275607183],[-1.07286559142611,53.9982726667748],[-1.0724842798932,53.998269725157],[-1.07247928779062,53.9984943814282],[-1.07247429562209,53.9987190376905],[-1.07246930338759,53.9989436939441],[-1.07246431108714,53.9991683501888],[-1.07245931872072,53.9993930064248],[-1.07284064010281,53.9993959481726],[-1.07283564964035,53.9996206044258],[-1.07283065911196,53.9998452606703],[-1.07244933379,53.9998423188704],[-1.07206800853396,53.999839375861],[-1.07168668334385,53.999836431642],[-1.07169167978207,53.9996117754756],[-1.07207300300224,53.9996147196686],[-1.07207799740454,53.9993900634674],[-1.07208299174084,53.9991654072575],[-1.07170167246048,53.9991624631165],[-1.07132035324606,53.999159517766],[-1.07093903409764,53.9991565712059],[-1.07093403385167,53.9993812273377],[-1.07092903353963,53.9996058834608],[-1.07092403316153,53.9998305395751],[-1.07091903271735,54.0000551956806],[-1.07053770575523,54.0000522478067],[-1.07015637885915,54.0000492987231],[-1.06977505202913,54.00004634843],[-1.06939372526522,54.0000433969272],[-1.06901239856742,54.0000404442148],[-1.06863107193577,54.0000374902928],[-1.06824974515635,54.0000345351843],[-1.06786841582703,54.0000315791491],[-1.06786339907199,54.0002562350636],[-1.06748206783885,54.000253277798],[-1.06710073667158,54.0002503193225],[-1.06671940557018,54.0002473596371],[-1.06672442824349,54.0000227037848],[-1.06672945057284,53.9997980479367],[-1.06673447283465,53.99957339208],[-1.06711579793407,53.9995763517049],[-1.06712081811458,53.9993516958198],[-1.06712583822758,53.999127039926],[-1.06713085827308,53.9989023840236],[-1.06751217739865,53.9989053423793],[-1.06751719536294,53.9986806864484],[-1.06752221325977,53.998456030509],[-1.06714089816159,53.9984530721929],[-1.06714591800461,53.9982284162646],[-1.06715093778013,53.9980037603277],[-1.06715595748815,53.9977791043822],[-1.06716097712869,53.997554448428],[-1.06677967015239,53.9975514889815],[-1.06678469173898,53.9973268330386],[-1.06678971325805,53.997102177087],[-1.06679473470961,53.9968775211268],[-1.06717603564537,53.9968804805138],[-1.06718105501595,53.9966558245252],[-1.06756235400567,53.9966587826828],[-1.06794365306279,53.9966617396307],[-1.06794866833902,53.9964370835939],[-1.06832996516212,53.9964400393401],[-1.06871126021151,53.9964429940539],[-1.06909255532705,53.9964459475583],[-1.06947385050872,53.9964488998531],[-1.06947885777401,53.9962242437113],[-1.06986015105225,53.9962271947706],[-1.07024144439657,53.9962301446205],[-1.07062273780693,53.996233093261],[-1.07100403128331,53.996236040692],[-1.07100903060442,53.9960113844371],[-1.07139032217729,53.9960143306326],[-1.07139531946286,53.9957896743429],[-1.07140031668241,53.9955650180444],[-1.07140531383593,53.995340361737],[-1.07178659956641,53.995343306645],[-1.07179159468452,53.9951186503029],[-1.07141031092344,53.995115705421],[-1.07141530794492,53.9948910490961],[-1.07142030490038,53.9946663927624],[-1.07103902514399,53.9946634467232],[-1.07065774545357,53.9946604994745],[-1.07065274455943,53.9948851557561],[-1.07027146296568,53.994882207272],[-1.06989018143798,53.9948792575786],[-1.06950889997634,53.9948763066757],[-1.0691276185808,53.9948733545635],[-1.06913262735231,53.9946486983862],[-1.06875134799222,53.9946457450907],[-1.06837006869828,53.9946427905857],[-1.06798878812155,53.9946398349884],[-1.06799380279097,53.9944151788739],[-1.06799881739297,53.9941905227508],[-1.06800383192755,53.9939658666191],[-1.06800884639472,53.9937412104787],[-1.06801386079448,53.9935165543297],[-1.06801887512682,53.9932918981721],[-1.06802388939175,53.9930672420059],[-1.06802890358928,53.9928425858311],[-1.06841016799543,53.9928455412688],[-1.06841518010955,53.9926208850646],[-1.06842019215745,53.9923962288517],[-1.06842520413912,53.9921715726299],[-1.06880646177215,53.9921745268476],[-1.06881147171859,53.991949870591],[-1.06881648060633,53.9917252143379],[-1.06919773435654,53.9917281672948],[-1.069202740804,53.9915035110125],[-1.06958399261229,53.9915064627352],[-1.06958899698349,53.9912818064193],[-1.06997024684985,53.9912847569078],[-1.06997524914485,53.9910601005583],[-1.06998025137268,53.9908354441999],[-1.07036149728813,53.9908383934294],[-1.07036649743984,53.9906137370375],[-1.07074774141339,53.9906166850329],[-1.07075273948904,53.9903920286073],[-1.07075773749757,53.9901673721729],[-1.07037649754186,53.9901644242272],[-1.07038149749218,53.989939767809],[-1.07038649737537,53.989715111382],[-1.07000526150445,53.9897121622769],[-1.07001026332934,53.989487505866],[-1.06962902953433,53.9894845555766],[-1.06963403330086,53.9892598991818],[-1.06925280158176,53.9892569477081],[-1.06925780728987,53.9890322913295],[-1.06926281293078,53.9888076349421],[-1.06888158529633,53.9888046823091],[-1.06850035772903,53.9888017284669],[-1.0681191299163,53.9887987734257],[-1.06773790173372,53.9887958171896],[-1.06773288799716,53.989020473483],[-1.06772787419235,53.9892451297678],[-1.06772286031928,53.9894697860439],[-1.06810409463476,53.9894727423434],[-1.06848532855209,53.9894756974532],[-1.06848031869192,53.9897003537645],[-1.06847530876448,53.989925010067],[-1.06847029876978,53.9901496663607],[-1.06846528870781,53.9903743226457],[-1.06846027857857,53.9905989789219],[-1.06845526838206,53.9908236351894],[-1.06807402222949,53.990820679945],[-1.06806900992313,53.9910453361816],[-1.06768776129657,53.991042379734],[-1.06730651273821,53.9910394220769],[-1.06731152913361,53.9908147658827],[-1.06693028268799,53.9908118070375],[-1.06654903631062,53.9908088469829],[-1.06616779000152,53.9908058857191],[-1.06616276747256,53.9910305418498],[-1.06615774487521,53.9912551979718],[-1.06653899527338,53.9912581592781],[-1.06692024573982,53.991261119375],[-1.06730149627451,53.9912640782626],[-1.06729647974251,53.9914887344395],[-1.06767773239001,53.9914916921389],[-1.0680589851057,53.9914946486289],[-1.0684402373889,53.9914976039393],[-1.0684352269233,53.9917222601717],[-1.06805397259462,53.9917193048395],[-1.06804895970529,53.9919439610454],[-1.06766770292452,53.9919410045132],[-1.06766268698374,53.9921656607027],[-1.06765767097553,53.9923903168837],[-1.06727641023634,53.9923873591024],[-1.06727139214775,53.9926120152549],[-1.06726637399171,53.9928366713988],[-1.0672613557682,53.993061327534],[-1.06725633747722,53.9932859836607],[-1.06725131911878,53.9935106397787],[-1.06687004838203,53.9935076806889],[-1.06686502794304,53.9937323367784],[-1.06648375526065,53.9937293764593],[-1.06647873274107,53.9939540325204],[-1.06609745811303,53.993951070972],[-1.06571618355248,53.9939481082141],[-1.06533490905944,53.9939451442466],[-1.06533993761832,53.993720488245],[-1.06495866520592,53.9937175230879],[-1.06457739286109,53.9937145567213],[-1.06419612058386,53.9937115891452],[-1.06381484837425,53.9937086203595],[-1.0634335762323,53.9937056503644],[-1.06305230415802,53.9937026791598],[-1.06267103215144,53.9936997067457],[-1.06266598950093,53.993924362608],[-1.062284715549,53.9939213889644],[-1.06190344166483,53.9939184141114],[-1.06152216784845,53.9939154380488],[-1.06114089409988,53.9939124607767],[-1.06113584332912,53.9941371165506],[-1.06075456763529,53.994134138049],[-1.06074951478347,53.9943587937943],[-1.06036823714437,53.9943558140632],[-1.06036318221145,53.9945804697799],[-1.06035812721056,53.9948051254879],[-1.06035307214171,53.9950297811873],[-1.06034801700487,53.9952544368781],[-1.06034296180007,53.9954790925602],[-1.06072424950526,53.9954820723912],[-1.06071919624578,53.9957067280847],[-1.06110048603215,53.9957097067261],[-1.06109543471805,53.995934362431],[-1.06109038333604,53.9961590181272],[-1.06147167721695,53.996161995599],[-1.06146662778039,53.9963866513065],[-1.06146157827594,53.9966113070055],[-1.06108028036823,53.9966083294938],[-1.06107522878245,53.9968329851642],[-1.0614565287036,53.9968359626958],[-1.06145147906335,53.9970606183775],[-1.0614464293552,53.9972852740506],[-1.06144137957915,53.997509929715],[-1.06106007361752,53.9975069521234],[-1.06105502176001,53.9977316077593],[-1.0614363297352,53.9977345853708],[-1.06143127982335,53.997959241018],[-1.06181258987995,53.9979622174398]]]]}}