{"type":"Feature","properties":{"code":"E63004906","name":"City and County of the City of London"},"geometry":{"type":"Polygon","coordinates":[[[-0.0921135354177758,51.508579521743],[-0.0921041455055499,51.5088041878495],[-0.0920947555905893,51.5090288538497],[-0.0917347250597823,51.5090229961647],[-0.0917253332612203,51.5092476620285],[-0.0920853655800172,51.5092535198159],[-0.0920759754467298,51.5094781857692],[-0.0920665851907237,51.5097028517098],[-0.0924266212082667,51.5097087086001],[-0.092436009676234,51.5094840425571],[-0.0927960440284082,51.5094898982433],[-0.0931560785032303,51.5094957528278],[-0.0931466936113471,51.5097204190754],[-0.0935067299968377,51.5097262726604],[-0.0938667665049316,51.5097321251437],[-0.0942268031356054,51.5097379765252],[-0.0945868398888352,51.509743826805],[-0.0945774620265857,51.5099684934489],[-0.0949375006904257,51.5099743427292],[-0.0952975394767787,51.5099801909077],[-0.09528816506817,51.5102048577434],[-0.0952787905370443,51.5104295245664],[-0.0956388330221166,51.5104353718476],[-0.0956482057651157,51.5102107049224],[-0.096008246584529,51.5102165509997],[-0.0963682875263878,51.5102223959751],[-0.0967283285906687,51.5102282398488],[-0.0970883697773475,51.5102340826207],[-0.0970790041868776,51.5104587499548],[-0.0974390472840698,51.5104645917271],[-0.0977990905036156,51.5104704323977],[-0.0977897283670655,51.5106950999234],[-0.0981497734971076,51.5107009395944],[-0.0985098187494611,51.5107067781635],[-0.0988698641241,51.5107126156308],[-0.099229909621004,51.5107184519963],[-0.0995899552401483,51.51072428726],[-0.0999500009815106,51.5107301214219],[-0.0999593523890429,51.5105054532831],[-0.100319396464422,51.5105112862411],[-0.10067944066197,51.5105171180972],[-0.101039484981664,51.5105229488515],[-0.101399529423482,51.5105287785041],[-0.101759573720152,51.5105346062472],[-0.102119617857499,51.5105404320391],[-0.102479662115274,51.5105462567259],[-0.102470323162144,51.5107709254599],[-0.102460984088581,51.5109955941847],[-0.102821031980552,51.5110014178384],[-0.102830369297207,51.5107767490775],[-0.102839706493453,51.5105520803074],[-0.10284904356929,51.510327411528],[-0.10285838052472,51.5101027427392],[-0.102867717359747,51.5098780739412],[-0.103227756587786,51.5098838963091],[-0.103587795936178,51.5098897175719],[-0.103578462614789,51.5101143864421],[-0.103569129173041,51.510339055303],[-0.103559795610932,51.5105637241547],[-0.10355046192846,51.510788392997],[-0.103541128125624,51.5110130618301],[-0.103901176378683,51.5110188821681],[-0.103910508424606,51.5107942132989],[-0.104270555041068,51.5108000324955],[-0.104279885209757,51.510575363581],[-0.104289215258129,51.5103506946572],[-0.104298545186186,51.5101260257241],[-0.104307874993929,51.5099013567817],[-0.104667914703243,51.5099071747288],[-0.104658586652325,51.5101318437072],[-0.104649258481118,51.5103565126764],[-0.104639930189616,51.5105811816363],[-0.104630601777822,51.5108058505869],[-0.104990648634846,51.510811667573],[-0.105350695612118,51.5108174834539],[-0.105710742709615,51.5108232982295],[-0.106070789927314,51.5108291118999],[-0.106430837265191,51.510834924465],[-0.106421517517715,51.5110595935865],[-0.106781566732678,51.5110654050824],[-0.107141616067779,51.511071215473],[-0.107150932301395,51.5108465462794],[-0.107510979999674,51.5108523555287],[-0.107871027818043,51.5108581636728],[-0.108231075756478,51.5108639707116],[-0.108591123814955,51.5108697766452],[-0.108951171993453,51.5108755814735],[-0.109311220291949,51.5108813851965],[-0.10967126871042,51.5108871878143],[-0.110031317248843,51.5108929893268],[-0.110391365907196,51.510898789734],[-0.110751414685456,51.510904589036],[-0.110760713229735,51.5106799194735],[-0.111120760370948,51.5106857176343],[-0.11148080763202,51.5106915146899],[-0.111471512601605,51.5109161843242],[-0.111462217451326,51.5111408539492],[-0.111102166676364,51.5111350568218],[-0.110742116021266,51.5111292585892],[-0.110382065486055,51.5111234592513],[-0.110022015070752,51.5111176588081],[-0.109661964775381,51.5111118572597],[-0.109301914599964,51.5111060546059],[-0.108941864544525,51.511100250847],[-0.108581814609086,51.5110944459827],[-0.108572505283168,51.5113191153109],[-0.108932556975572,51.5113249202112],[-0.108923249286591,51.5115495895661],[-0.108913941477581,51.5117742589117],[-0.109273996803988,51.5117800627786],[-0.109634052250378,51.5117858655402],[-0.109624747835408,51.5120105349484],[-0.109615443300449,51.5122352043474],[-0.109606138645499,51.5124598737371],[-0.109966199483035,51.5124656755012],[-0.110326260440514,51.51247147616],[-0.110335561581293,51.5122468066984],[-0.110344862602127,51.5120221372276],[-0.110354163503017,51.5117974677474],[-0.110363464283968,51.511572798258],[-0.110372764944979,51.5113481287593],[-0.110732817237165,51.5113539281331],[-0.11109286964924,51.5113597264017],[-0.111083572502225,51.5115843959722],[-0.111074275235317,51.5118090655335],[-0.111434331281283,51.5118148627686],[-0.111425035651527,51.5120395323564],[-0.111785093574389,51.5120453285221],[-0.11177579958183,51.5122699981366],[-0.111766505469419,51.5124946677418],[-0.112126567026277,51.512500462874],[-0.112117274551129,51.5127251325058],[-0.112107981956146,51.5129498021284],[-0.111747916885025,51.5129440069244],[-0.11173862241304,51.5131686765018],[-0.111378555704592,51.5131628801567],[-0.111369259355558,51.5133875496889],[-0.111729327821193,51.5133933460699],[-0.111720033109482,51.5136180156287],[-0.111359962886638,51.5136122192118],[-0.11099989278366,51.5136064216894],[-0.110990594437623,51.5138310911671],[-0.110981295971672,51.5140557606356],[-0.110971997385806,51.5142804300947],[-0.110962698680022,51.5145050995446],[-0.110953399854318,51.5147297689852],[-0.111313478743671,51.5147355666871],[-0.111304181555389,51.5149602361543],[-0.111294884247206,51.5151849056123],[-0.11128558681912,51.5154095750609],[-0.111276289271128,51.5156342445003],[-0.111636375309872,51.5156400412404],[-0.11162707939941,51.5158647107064],[-0.111617783369061,51.5160893801631],[-0.111977873042563,51.5160951758695],[-0.11196857864981,51.5163198453528],[-0.111959284137188,51.5165445148269],[-0.112319377445525,51.5165503094996],[-0.112310084570565,51.5167749790002],[-0.112300791575757,51.5169996484916],[-0.112660888519005,51.5170054421306],[-0.112651597200193,51.5172301116442],[-0.113011696029578,51.5172359042204],[-0.113002406491757,51.5174605737738],[-0.112993116833224,51.5176852433165],[-0.113353219333385,51.5176910349176],[-0.113343931329221,51.5179157045139],[-0.113334643204367,51.5181403740995],[-0.112974537154022,51.5181345823695],[-0.112614431224367,51.5181287895354],[-0.112254325415424,51.5181229955972],[-0.11189421972722,51.5181172005549],[-0.111534114159774,51.5181114044086],[-0.111174008713109,51.5181056071582],[-0.110813903387251,51.5180998088037],[-0.110823203937787,51.5178751396695],[-0.110463100507846,51.5178693402755],[-0.110102997198754,51.5178635397774],[-0.109742894010534,51.5178577381753],[-0.109382790943208,51.5178519354691],[-0.1090226879968,51.5178461316589],[-0.108662585171334,51.5178403267445],[-0.108671896251385,51.5176156579868],[-0.108311795321936,51.517609852033],[-0.107951694513473,51.5176040449752],[-0.107591593826016,51.5175982368133],[-0.10758227742081,51.5178229053773],[-0.107222175079337,51.5178170960468],[-0.10686207285892,51.5178112856123],[-0.106852752782516,51.5180359540363],[-0.106492648908111,51.5180301424331],[-0.10613254515481,51.5180243297258],[-0.106123221407124,51.5182489980098],[-0.105763115999865,51.5182431841339],[-0.105403010713756,51.5182373691539],[-0.105393683294702,51.5184620372979],[-0.105033576354665,51.5184562211491],[-0.104673469535828,51.5184504038963],[-0.104664138445319,51.5186750719002],[-0.104304029972582,51.5186692534787],[-0.103943921621094,51.5186634339531],[-0.103934586859046,51.5188881018169],[-0.103574476853686,51.5188822811225],[-0.103214366969622,51.5188764593241],[-0.103205028535948,51.5191011270477],[-0.102844916998044,51.5190953040804],[-0.102835576667841,51.5193199717286],[-0.102475463476099,51.5193141475925],[-0.102115350405725,51.5193083223524],[-0.102106006403744,51.5195329898603],[-0.101745891679563,51.5195271634514],[-0.101385776217922,51.5195213338182],[-0.101376428498799,51.5197460010723],[-0.101016310674162,51.5197401685165],[-0.100656192971418,51.5197343348579],[-0.100646841563397,51.5199590019236],[-0.100286722199076,51.5199531670738],[-0.0999266029566963,51.5199473311212],[-0.0999172478596917,51.5201719979983],[-0.0995571269557623,51.5201661608545],[-0.0991970061738239,51.5201603226077],[-0.0991876473877506,51.5203849892963],[-0.0988275249442926,51.5203791498584],[-0.0984674026228726,51.5203733093176],[-0.0981072804235163,51.5203674676739],[-0.0980979161647339,51.5205921340855],[-0.0977377923039113,51.5205862912506],[-0.0973776685651989,51.5205804473128],[-0.0973683006171576,51.5208051135358],[-0.0973589325469553,51.5210297797468],[-0.097349564354591,51.5212544459458],[-0.0973401960400622,51.5214791121328],[-0.0973308276033668,51.5217037783077],[-0.0973214590445022,51.5219284444707],[-0.0973120903634666,51.5221531106217],[-0.0973027215602586,51.5223777767606],[-0.0972933526348753,51.5226024428876],[-0.0969332129653331,51.5225965970518],[-0.0969238421339943,51.5228212630783],[-0.097283983587315,51.5228271090025],[-0.0972746144175754,51.5230517751054],[-0.0969144711804542,51.5230459290929],[-0.0965543280655132,51.5230400819774],[-0.0965637008028523,51.5228154160512],[-0.0962035595939109,51.5228095679211],[-0.0958434185071944,51.522803718688],[-0.0954832775427246,51.5227978683519],[-0.0954738994540016,51.523022534013],[-0.0951137568280122,51.5230166824855],[-0.0951231367005258,51.5227920169128],[-0.0951325164507217,51.5225673513281],[-0.0947723775145819,51.5225614988744],[-0.0947817589262044,51.522336833366],[-0.0947911402154912,51.5221121678457],[-0.094800521382444,51.5218875023133],[-0.0948099024270644,51.5216628367688],[-0.094449770748061,51.5216569835658],[-0.094459153454,51.5214323180978],[-0.0940990236809719,51.5214264638802],[-0.0937388940302937,51.5214206085597],[-0.093378764501989,51.5214147521363],[-0.0933881524364389,51.5211900869215],[-0.0930280248141477,51.5211842294836],[-0.0926678973142736,51.5211783709427],[-0.0926772886934904,51.5209537058928],[-0.0923171630996459,51.5209478463375],[-0.0919570376282639,51.5209419856793],[-0.0915969122793654,51.5209361239182],[-0.0916063088868136,51.5207114591216],[-0.0912461854439828,51.5207055963461],[-0.0908860621236819,51.5206997324676],[-0.0905259389259322,51.5206938674863],[-0.0901658158507577,51.5206880014021],[-0.0898056928981809,51.520682134215],[-0.0898150983007643,51.5204574698489],[-0.0901752194698125,51.5204633369475],[-0.0901846229662482,51.5202386724808],[-0.0901940263400668,51.5200140080021],[-0.0902034295912711,51.5197893435114],[-0.0898433137726708,51.5197834766784],[-0.089483198076683,51.5197776087425],[-0.0894926047721456,51.5195529444168],[-0.0891324909822259,51.5195470754665],[-0.0887723773149629,51.5195412054135],[-0.0887817874545857,51.5193165412528],[-0.0884216756934068,51.5193106701854],[-0.0880615640549307,51.5193047980153],[-0.0880709776386146,51.5190801340196],[-0.0877108679062392,51.5190742608352],[-0.087350758296609,51.5190683865479],[-0.087360175324256,51.5188437227174],[-0.0870000676207438,51.5188378474159],[-0.0866399600400222,51.5188319710116],[-0.0862798525821116,51.5188260935045],[-0.0862892748369465,51.5186014299276],[-0.0859291692851925,51.5185955514063],[-0.0859197452470365,51.5188202148946],[-0.085910321086,51.5190448783707],[-0.0859008968020806,51.5192695418349],[-0.0855407860231561,51.519263661945],[-0.0855313598329647,51.5194883253085],[-0.0855219335198619,51.5197129886599],[-0.0851618192970286,51.5197071074899],[-0.0851523910775823,51.5199317707407],[-0.0851429627351986,51.5201564339795],[-0.0847828446151447,51.5201505505325],[-0.0847922747676715,51.5199258874391],[-0.0844321577942803,51.519920001301],[-0.0840720409431475,51.5199141140583],[-0.0837119242142945,51.5199082257109],[-0.0837213595546046,51.5196835627675],[-0.0833612447180645,51.5196776733688],[-0.0830011300038487,51.5196717828654],[-0.0829916911235242,51.519896445702],[-0.0826315747616515,51.5198905540406],[-0.0826221339889266,51.5201152168135],[-0.0822620159794009,51.5201093239939],[-0.0822525733142313,51.5203339867033],[-0.081892453657057,51.5203280927255],[-0.0818830090993959,51.5205527553712],[-0.0815228877945761,51.5205468602353],[-0.0815134413443794,51.5207715228174],[-0.0815039947717116,51.5209961853892],[-0.0811438700491398,51.5209902890417],[-0.0811344215838651,51.5212149515498],[-0.0811249729960906,51.5214396140478],[-0.0811155242858158,51.5216642765356],[-0.0807553943752555,51.5216583789229],[-0.0803952645871973,51.5216524802054],[-0.0800351349216665,51.5216465803832],[-0.0796750053786847,51.5216406794563],[-0.0796844611696569,51.5214160171825],[-0.0793243335194169,51.5214101152043],[-0.0789642059917701,51.5214042121215],[-0.0789736652004404,51.5211795499445],[-0.0789831242864745,51.5209548877574],[-0.0789925832498748,51.52073022556],[-0.0790020420906441,51.5205055633525],[-0.0790115008087836,51.5202809011348],[-0.0790209594042944,51.5200562389068],[-0.0793810763114204,51.5200621416686],[-0.0793905330142998,51.5198374793769],[-0.0793999895945788,51.5196128170751],[-0.0794094460522602,51.519388154763],[-0.0794189023873443,51.5191634924408],[-0.0794283585998344,51.5189388301083],[-0.0794378146897329,51.5187141677656],[-0.0790777084023041,51.518708265325],[-0.0787176022374661,51.5187023617798],[-0.0787081426077855,51.5189270240154],[-0.0783480347956737,51.518921119312],[-0.0783574961952419,51.5186964571299],[-0.0783669574721528,51.5184717949377],[-0.0783764186264061,51.5182471327352],[-0.0780163162465218,51.5182412270878],[-0.0780257790479385,51.5180165649287],[-0.0780352417266801,51.5177919027594],[-0.077675143009059,51.5177859961145],[-0.0776846073348962,51.5175613339886],[-0.0776940715380398,51.5173366718524],[-0.0777035356328098,51.5171120096625],[-0.0773434423509255,51.5171061020716],[-0.0773529081346105,51.5168814398264],[-0.0773623737951662,51.5166567775707],[-0.0770022841916462,51.5166508689933],[-0.0770117515066691,51.516426206786],[-0.0770212186985447,51.5162015445682],[-0.0766611327733112,51.5161956350044],[-0.0766706016195871,51.515970972835],[-0.0763105175950432,51.5159650622259],[-0.076319988095673,51.515740400105],[-0.0759599059718144,51.5157344884505],[-0.0759693781267519,51.5155098263781],[-0.0756092979035749,51.5155039136784],[-0.0756187717127746,51.5152792516544],[-0.0752586933902746,51.5152733379094],[-0.0752681688536903,51.5150486759339],[-0.0749080924318636,51.5150427611436],[-0.0749175695494498,51.5148180992166],[-0.0745574950282905,51.5148121833811],[-0.0745669738000017,51.5145875215025],[-0.0742069011795071,51.5145816046219],[-0.0742163816052962,51.5143569427918],[-0.0742258619077729,51.5141322809512],[-0.0738657929652839,51.5141263630843],[-0.0738752749217723,51.5139017012922],[-0.0738847567549295,51.5136770394897],[-0.073524691490368,51.5136711206366],[-0.0735341749774703,51.5134464588825],[-0.0735436583412231,51.513221797118],[-0.0735531415816283,51.5129971353429],[-0.0735626246986888,51.5127724735574],[-0.0735721076924053,51.5125478117614],[-0.0732120514373019,51.5125418920992],[-0.0732215360848339,51.5123172303517],[-0.0732310206090048,51.5120925685937],[-0.0732405050098146,51.5118679068252],[-0.0732499892872677,51.5116432450462],[-0.0732594734413653,51.5114185832567],[-0.0732689574721089,51.5111939214568],[-0.0729089120029301,51.5111880010445],[-0.0729183976873397,51.510963339293],[-0.0729278832483762,51.5107386775311],[-0.0729373686860432,51.5105140157587],[-0.0729468540003411,51.5102893539757],[-0.0733068923615906,51.510295274152],[-0.073666930846162,51.5103011932243],[-0.0740269694540316,51.5103071111926],[-0.074036449314183,51.5100824492222],[-0.0743964862683973,51.5100883660275],[-0.0747565233458619,51.5100942817288],[-0.0751165605465537,51.5101001963262],[-0.0754765978704511,51.5101061098195],[-0.0754671251180363,51.5103307720257],[-0.0758271643420546,51.5103366844739],[-0.0758176932433979,51.5105613467286],[-0.0761777343675418,51.5105672581318],[-0.0765377756148249,51.5105731684309],[-0.0768978169852249,51.510579077626],[-0.0769072827529813,51.5103544151946],[-0.0772673224695042,51.5103603232268],[-0.0776273623090953,51.510366230155],[-0.077987402271733,51.5103721359792],[-0.0779968625855254,51.5101474733606],[-0.0783569008942304,51.5101533780219],[-0.0783663593080483,51.509928715334],[-0.0783758175988502,51.5097040526355],[-0.0787358524767084,51.5097099560751],[-0.0787453088676059,51.5094852933073],[-0.0791053420915458,51.509491195584],[-0.0791147965825865,51.5092665327469],[-0.0791242509506623,51.5090418698994],[-0.0791337051961288,51.5088172070114],[-0.079143159321037,51.5085925439068],[-0.0791526133229546,51.5083678807907],[-0.0791620672018832,51.5081432176632],[-0.0795220898859131,51.5081491184318],[-0.0795315418645063,51.5079244552156],[-0.0798915628941284,51.507930354804],[-0.0802515840466676,51.5079362532894],[-0.0806116053221005,51.5079421506719],[-0.0809716267204046,51.5079480469514],[-0.081331648241557,51.507953942128],[-0.0813222051497357,51.5081786057305],[-0.0813127619350642,51.5084032693216],[-0.0816727871337855,51.5084091635497],[-0.0820328124553125,51.5084150566748],[-0.0823928378996236,51.5084209486969],[-0.0827528634666943,51.508426839616],[-0.0831128891565023,51.5084327294322],[-0.0834729149690245,51.5084386181453],[-0.0838329409042384,51.5084445057555],[-0.0841929669621196,51.5084503922627],[-0.0845529931426466,51.5084562776669],[-0.0845435658018585,51.5086809419413],[-0.0849035938824329,51.5086868263197],[-0.0852636203705796,51.5086927050617],[-0.0852730441068963,51.5084680405045],[-0.0856330688622566,51.508473917863],[-0.0859930937403164,51.5084797941188],[-0.0859836735643942,51.5087044588392],[-0.0863437003453282,51.5087103340738],[-0.0867037272489173,51.5087162082056],[-0.0870637542751361,51.5087220812347],[-0.08707316911045,51.5084974162695],[-0.0870825838231349,51.5082727512926],[-0.0874426074115713,51.5082786230557],[-0.0874520202214682,51.5080539579856],[-0.0878120421523226,51.5080598285644],[-0.0878026311225882,51.5082844937161],[-0.0877932199702735,51.5085091588561],[-0.0877838086953756,51.5087338239845],[-0.0874237814239634,51.508727953161],[-0.0874143682682959,51.5089526180117],[-0.087774397325025,51.5089584889172],[-0.0881344265047213,51.5089643587209],[-0.0884944558073614,51.5089702274229],[-0.0888544852329222,51.5089760950233],[-0.0892145147813804,51.5089819615219],[-0.0895745444527138,51.5089878269188],[-0.0899345742468991,51.5089936912141],[-0.0902946041639118,51.5089995544076],[-0.0906546342037297,51.5090054164995],[-0.0910146643663299,51.5090112774896],[-0.0910240596506002,51.5087866117709],[-0.0913840881465931,51.5087924715666],[-0.0913934816192847,51.5085678056229],[-0.0917535084573765,51.5085736642343],[-0.0917629000275073,51.5083489981976],[-0.0921229252076945,51.5083548556247],[-0.0921135354177758,51.508579521743]]]}}