{"type":"Feature","properties":{"code":"E63005281","name":"West Kingsdown"},"geometry":{"type":"MultiPolygon","coordinates":[[[[0.253942946046823,51.344382086399],[0.253953970949413,51.3446067062513],[0.253595310229839,51.3446136071887],[0.253236649366492,51.3446205070285],[0.253247670867065,51.3448451269767],[0.252889008087042,51.3448520257719],[0.252900027958452,51.3450766457629],[0.252911047973628,51.3453012657436],[0.25255238150395,51.3453081635473],[0.252563399889897,51.3455327835708],[0.252204731503508,51.3455396803299],[0.252215748260181,51.3457643003962],[0.25222676516058,51.3459889204524],[0.251868093084428,51.3459958162198],[0.251879108355489,51.3462204363188],[0.251890123770258,51.3464450564076],[0.251531448004265,51.3464519511833],[0.251542461789628,51.3466765713149],[0.251183784106859,51.3466834650459],[0.25119479626277,51.3469080852203],[0.25083611666322,51.3469149779066],[0.250847127189636,51.3471395981238],[0.250858137859702,51.3473642183307],[0.250499454570171,51.3473711100253],[0.2504884456733,51.3471464897654],[0.250129764013371,51.3471533803092],[0.24977108220987,51.3471602697554],[0.249412400262822,51.3471671581039],[0.249423403840097,51.3473917785226],[0.249434407560935,51.3476163989313],[0.249445411425338,51.3478410193297],[0.249456415433309,51.3480656397179],[0.249467419584848,51.3482902600959],[0.249478423879961,51.3485148804637],[0.249489428318648,51.3487395008213],[0.249500432900912,51.3489641211687],[0.249859129034208,51.3489572323967],[0.249848122678583,51.3487326121022],[0.250206816894953,51.3487257222854],[0.250217825023936,51.3489503425269],[0.250228833296544,51.3491749627582],[0.249870135533434,51.349181852681],[0.249881142176267,51.3494064729551],[0.249892148962706,51.3496310932189],[0.249903155892755,51.3498557134726],[0.249544452665789,51.3498626024565],[0.249555457965975,51.3500872227529],[0.249566463409753,51.3503118430392],[0.249577469006989,51.3505364633189],[0.249218760339721,51.3505433513723],[0.2492297650628,51.3507679719683],[0.249240769928377,51.3509925925541],[0.248882057606538,51.3509994796158],[0.248893060858533,51.3512241002446],[0.24890406425301,51.3514487208631],[0.248545348276523,51.3514556069332],[0.248556350057353,51.3516802275946],[0.248915067789973,51.3516733414714],[0.248926071469424,51.3518979620695],[0.249284790815742,51.3518910747953],[0.249295796393859,51.35211569533],[0.24965451735387,51.3521088069048],[0.250013238171374,51.3521019173817],[0.250371958846348,51.3520950267607],[0.250382969835562,51.3523196471259],[0.250741692124174,51.3523127553538],[0.250752705012186,51.3525373756557],[0.250393980967363,51.3525442674809],[0.25040499224175,51.3527688878256],[0.250416003658728,51.3529935081602],[0.250427015218298,51.3532181284845],[0.250785744531893,51.3532112364999],[0.251144473702902,51.3532043434173],[0.251155488917669,51.3534289636251],[0.251514219702365,51.3534220693914],[0.251872950344428,51.3534151740598],[0.251883969214476,51.353639794151],[0.252242701470195,51.3536328976682],[0.252601433583233,51.3536260000875],[0.252960165553567,51.3536191014088],[0.253318897381171,51.3536122016321],[0.253677629066027,51.3536053007575],[0.25403636060811,51.353598398785],[0.254025331200207,51.3533737790129],[0.254384060843194,51.3533668759957],[0.254742790343365,51.3533599718805],[0.255101519700697,51.3533530666673],[0.255460248915169,51.3533461603562],[0.255471285348261,51.3535707799152],[0.255482321924268,51.353795399464],[0.255123589197187,51.3538023058817],[0.255134624159776,51.3540269254735],[0.255493358643196,51.3540200190026],[0.255504395505044,51.354244638531],[0.255515432509815,51.3544692580492],[0.255156694513651,51.3544761646266],[0.255167729904942,51.3547007841878],[0.255526469657514,51.3546938775571],[0.255537506948141,51.3549184970548],[0.255548544381699,51.3551431165424],[0.255559581958191,51.3553677360197],[0.255570619677619,51.3555923554867],[0.255929366313134,51.3555854475449],[0.255940405932018,51.3558100669485],[0.255951445693865,51.3560346863419],[0.256310195699502,51.3560277771955],[0.256321237360874,51.3562523965254],[0.256332279165238,51.356477015845],[0.256691032541055,51.356470105494],[0.257049785773886,51.3564631940449],[0.257408538863708,51.3564562814978],[0.257419586080866,51.3566809006473],[0.257778340784254,51.3566739869488],[0.258137095344585,51.3566670721522],[0.258495849761838,51.3566601562575],[0.25885460403599,51.3566532392648],[0.258865658422669,51.3568778581908],[0.259224414310305,51.3568709400466],[0.259583170054793,51.3568640208045],[0.259941925656108,51.3568571004642],[0.259930865999611,51.3566324816983],[0.260289619701132,51.3566255603134],[0.260648373259438,51.3566186378304],[0.261007126674507,51.3566117142494],[0.260996061891505,51.3563870956335],[0.260637310233009,51.3563940191611],[0.260278558431279,51.3564009415907],[0.259919806486337,51.3564078629223],[0.259908747116281,51.356183244136],[0.259897687889444,51.3559586253395],[0.260256436321297,51.3559517041147],[0.260615184609944,51.3559447817919],[0.260604122013303,51.355720163092],[0.260962868402213,51.3557132397245],[0.261321614647875,51.3557063152591],[0.261680360750264,51.3556993896956],[0.261669293027438,51.3554747711457],[0.262028037230056,51.3554678445376],[0.262386781289358,51.3554609168315],[0.262397852525132,51.3556855352746],[0.262408923904278,51.3559101537074],[0.262050176332006,51.3559170815204],[0.262061246098005,51.3561416999964],[0.262419995426795,51.3561347721301],[0.26277874461224,51.3561278431656],[0.262767671333206,51.3559032247965],[0.262756598197567,51.3556786064171],[0.262745525205322,51.3554539880275],[0.262734452356468,51.3552293696276],[0.262723379651002,51.3550047512175],[0.262364639247912,51.3550116799147],[0.262353568442235,51.354787061441],[0.262342497779918,51.354562442957],[0.262331427260961,51.3543378244629],[0.262320356885359,51.3541132059584],[0.262309286653111,51.3538885874438],[0.262298216564214,51.3536639689189],[0.261939486555883,51.3536708961975],[0.261950554888488,51.3538955147758],[0.261961623364421,51.3541201333439],[0.261972691983685,51.3543447519017],[0.261983760746282,51.3545693704494],[0.261994829652216,51.3547939889868],[0.262005898701488,51.3550186075139],[0.261647158011753,51.3550255340151],[0.261658225447935,51.3552501525855],[0.26129948285848,51.3552570780422],[0.260940740125758,51.3552640024008],[0.260581997249789,51.3552709256614],[0.2602232542306,51.3552778478241],[0.260212193820164,51.3550532290401],[0.260201133552956,51.3548286102459],[0.260190073428972,51.3546039914414],[0.260548811178909,51.354597069439],[0.260537749441777,51.3543724506777],[0.26089648529213,51.3543655276306],[0.260885421941893,51.3541409089125],[0.261244155892666,51.354133984821],[0.261233090929369,51.3539093661461],[0.261591822980566,51.3539024410099],[0.261580756404256,51.3536778223782],[0.26156968997125,51.3534532037363],[0.261558623681544,51.3532285850841],[0.261547557535137,51.3530039664217],[0.261536491532027,51.3527793477491],[0.26152542567221,51.3525547290662],[0.261514359955684,51.3523301103732],[0.261873079570018,51.3523231845131],[0.261862012240644,51.3520985658632],[0.262220729955562,51.3520916389586],[0.262209661013387,51.351867020352],[0.26219859221454,51.3516424017351],[0.261839878011822,51.3516493285328],[0.261828811112368,51.3514247098523],[0.261817744356217,51.3512000911615],[0.261806677743364,51.3509754724605],[0.261795611273807,51.3507508537493],[0.262154318452397,51.3507439271653],[0.262143250378837,51.3505193085148],[0.261784544952649,51.350526235037],[0.261773478922598,51.3503016165765],[0.26176241303692,51.3500769981058],[0.261403711013288,51.3500839234237],[0.261392647045395,51.3498593048896],[0.261381583221844,51.3496346863452],[0.261022884600712,51.3496416104588],[0.261011822694877,51.349416991851],[0.261000760933356,51.349192373233],[0.260989699316149,51.3489677546047],[0.260978637843253,51.3487431359663],[0.260967576514666,51.3485185173176],[0.260608886615898,51.3485254400673],[0.260597827204878,51.3483008213552],[0.260586767938139,51.3480762026329],[0.260575708815678,51.3478515839004],[0.260564649837493,51.3476269651577],[0.260553591003582,51.3474023464047],[0.260542532313942,51.3471777276416],[0.26053147376857,51.3469531088682],[0.260520415367463,51.3467284900846],[0.260509357110621,51.3465038712908],[0.260868031050854,51.3464969490201],[0.260856971165216,51.3462723302693],[0.261215643188142,51.3462654069541],[0.261204581673753,51.3460407882463],[0.261193520303667,51.3458161695283],[0.261182459077879,51.3455915508001],[0.261541125637514,51.3455846265469],[0.261899792052859,51.3455777011961],[0.262258458323892,51.3455707747477],[0.262617124450593,51.3455638472016],[0.262606056277274,51.3453392286762],[0.262964720486666,51.3453323000858],[0.262953650684804,51.3451076816034],[0.263312312976892,51.3451007519686],[0.263670975124583,51.3450938212363],[0.264029637127852,51.3450868894063],[0.264388298986678,51.3450799564787],[0.264377222237625,51.3448553381993],[0.264735882179091,51.3448484042274],[0.265094542070963,51.3448414691653],[0.265453202484613,51.3448345330573],[0.265442120562131,51.3446099149252],[0.265800779081861,51.3446029777724],[0.266159437458405,51.3445960395221],[0.266518095691742,51.3445891001741],[0.266876753781849,51.3445821597284],[0.26686566499964,51.3443575417977],[0.26722432119577,51.3443506003074],[0.267582977248629,51.3443436577194],[0.267941633158192,51.3443367140339],[0.268300288924438,51.3443297692508],[0.268658944547343,51.34432282337],[0.26864784715493,51.3440982056936],[0.268636749905907,51.343873588007],[0.268278097784363,51.3438805337819],[0.268267002429375,51.3436559160321],[0.268255907217749,51.3434312982722],[0.268244812149484,51.3432066805021],[0.268233717224577,51.3429820627217],[0.268592362343671,51.3429751171586],[0.268581265811563,51.342750499421],[0.268939909036754,51.3427435528132],[0.26892881089749,51.3425189351183],[0.268917712901622,51.3422943174133],[0.268906615156064,51.3420696996162],[0.269265252983611,51.3420627520673],[0.269623890666932,51.342055803421],[0.269612789612653,51.3418311856679],[0.269971425387682,51.3418242359804],[0.270330061018443,51.3418172851955],[0.270318956580399,51.3415926675441],[0.270677590302853,51.3415857157179],[0.270666484245136,51.3413610981121],[0.271025116059287,51.3413541452447],[0.271383747729107,51.3413471912799],[0.271742379254573,51.3413402362179],[0.271731268049295,51.3411156187699],[0.271372638287793,51.3411225737759],[0.27101400838194,51.3411295276846],[0.271002900848951,51.340904910114],[0.271361528990862,51.3408979562614],[0.271720156988423,51.3408910013115],[0.271709046071952,51.3406663838427],[0.271697935299881,51.3404417663635],[0.271686824672207,51.3402171488739],[0.271675714188928,51.3399925313739],[0.271317093246904,51.3399994860997],[0.271305984671846,51.3397748685333],[0.271664603850042,51.3397679138636],[0.271653493655545,51.3395432963428],[0.271642383605436,51.3393186788117],[0.27200099911169,51.3393117231569],[0.272359614473567,51.3393047664048],[0.272348501040331,51.3390801489754],[0.272707114494055,51.3390731911823],[0.27306572780336,51.3390662322919],[0.273424340968221,51.3390592723044],[0.273782953988616,51.3390523112196],[0.274141566864522,51.3390453490377],[0.274130444757092,51.3388207318783],[0.273771833644904,51.3388276940042],[0.273760713445709,51.3386030767783],[0.273749593391026,51.338378459542],[0.273738473480856,51.3381538422954],[0.273379867515213,51.3381608031558],[0.273368749513183,51.3379361858427],[0.273357631655635,51.3377115685192],[0.273346513942569,51.3374869511853],[0.273335396373982,51.337262333841],[0.273324278949871,51.3370377164863],[0.273682876097583,51.3370307559064],[0.273671757054427,51.3368061385974],[0.273313161670233,51.3368130991212],[0.272954566141599,51.336820058548],[0.272965681657715,51.3370446759691],[0.272607084221139,51.3370516343548],[0.272618198118161,51.3372762518216],[0.272259598773638,51.3372832091662],[0.272270711051521,51.3375078266788],[0.271912109799046,51.3375147829823],[0.271923220457743,51.3377394005405],[0.271564617297313,51.337746355803],[0.271575726336779,51.3379709734068],[0.271217121268387,51.3379779276282],[0.270858516055679,51.3379848807524],[0.270869621712221,51.3382094984579],[0.270511014591567,51.338216450541],[0.270522118628761,51.3384410682921],[0.270533222810263,51.3386656860329],[0.27017461201796,51.3386726371308],[0.27018571458005,51.3388972549172],[0.269827101879765,51.338904204974],[0.269838202822398,51.339128822806],[0.269479588214129,51.3391357718216],[0.269490687537259,51.3393603896992],[0.269501787004637,51.3395850075665],[0.269143168724581,51.3395919555968],[0.269132071021,51.3393673376736],[0.268773454360545,51.3393742845507],[0.268784550300327,51.3395989025299],[0.268425931731898,51.3396058483658],[0.268437026052061,51.3398304663907],[0.268078405575652,51.3398374111853],[0.268067313019316,51.3396127931045],[0.267708694162605,51.3396197367459],[0.267697603514236,51.3393951185988],[0.267338986277228,51.3394020610871],[0.266980368896137,51.3394090024781],[0.266991456016885,51.3396336207371],[0.266632836727921,51.3396405610869],[0.266274217294918,51.3396475003394],[0.2659155977179,51.3396544384947],[0.265926679691222,51.3398790569111],[0.265937761808571,51.3401036753171],[0.266296384913295,51.34009673705],[0.266307468938561,51.3403213553897],[0.265948844069949,51.3403282937128],[0.265590219057337,51.3403352309385],[0.265579138559848,51.340110612487],[0.265568058206366,51.3398859940251],[0.265556977996888,51.3396613755528],[0.265198358131907,51.3396683115136],[0.265209436577537,51.3398929300418],[0.264850815571497,51.3398998650661],[0.264839738953021,51.3396752464956],[0.264481120214641,51.3396821804634],[0.264122501330185,51.3396891133331],[0.264133574350652,51.339913731989],[0.264144647517208,51.3401383506353],[0.264155720829853,51.340362969272],[0.264166794288592,51.3405875878991],[0.264525420369207,51.3405806548587],[0.264536495773138,51.3408052734337],[0.264177867893425,51.3408122065168],[0.264188941644356,51.3410368251248],[0.264200015541386,51.3412614437233],[0.264558647019363,51.3412545105549],[0.264569722861664,51.3414791291011],[0.26421108958452,51.3414860623122],[0.263852456161305,51.3414929944252],[0.263863528551352,51.3417176130472],[0.263504893182892,51.3417245441047],[0.263146257668403,51.341731474064],[0.263157326606097,51.3419560927618],[0.26279868914638,51.3419630216656],[0.26280975643087,51.3421876403965],[0.262451117025922,51.3421945682448],[0.26246218316231,51.3424191869161],[0.262103541854886,51.3424261137166],[0.261744900403162,51.3424330394196],[0.261755963154345,51.3426576581843],[0.26139731978568,51.342664582843],[0.261408380908489,51.3428892016507],[0.261419442175586,51.3431138204482],[0.261060795117268,51.3431207441159],[0.261049735622881,51.3428961252651],[0.26103867627276,51.3426715064042],[0.260680032615606,51.3426784288678],[0.260668975182418,51.3424538099435],[0.260310333153723,51.3424607312564],[0.259951690980842,51.3424676514718],[0.259962744868689,51.3426922705026],[0.259604100778971,51.3426991896738],[0.259615153038317,51.3429238087475],[0.259256507031757,51.3429307268743],[0.258897860881076,51.3429376439035],[0.258539214586295,51.3429445598353],[0.258550261671642,51.3431691790583],[0.2585613089011,51.3433937982712],[0.258919958741357,51.3433868822332],[0.259278608437512,51.3433799650976],[0.259289659356626,51.3436045841939],[0.259648310681422,51.3435976659076],[0.259659363517487,51.3438222849405],[0.259300710419901,51.34382920328],[0.258942057178182,51.343836120522],[0.258953106612804,51.3440607396511],[0.25896415619157,51.3442853587699],[0.258605499260082,51.3442922750206],[0.258594451454159,51.3440676558486],[0.258235796151424,51.3440745709486],[0.257877140704626,51.3440814849509],[0.257518485113784,51.3440883978557],[0.257507442770451,51.343863778514],[0.257148788808418,51.3438706902681],[0.257137748381941,51.3436460708631],[0.256779096048721,51.3436529814665],[0.256768057539053,51.3434283619981],[0.257126708099487,51.3434214514478],[0.257115667961055,51.3431968320224],[0.257104627966642,51.3429722125867],[0.257463274837589,51.3429653010452],[0.25745223321448,51.3427406816524],[0.257441191735407,51.3425160622495],[0.257799834916945,51.3425091497166],[0.25778879180924,51.3422845303567],[0.257777749392525,51.3420599110138],[0.258136388893912,51.3420529974841],[0.258125345145559,51.3418283781902],[0.258483982702009,51.3418214636048],[0.25847293730014,51.3415968443439],[0.258461892044008,51.3413722250735],[0.258820525856319,51.341365309475],[0.258809478946738,51.3411406902376],[0.259168110814147,51.3411337735835],[0.259157062251162,51.340909154379],[0.259146013833952,51.340684535165],[0.258787385564837,51.3406914517339],[0.258776339092511,51.3404668324678],[0.258765292765934,51.3402422131921],[0.25840666794931,51.340249128578],[0.258395623567545,51.3400245092502],[0.2583845793315,51.3397998899129],[0.258743200550012,51.3397929746121],[0.258732154660662,51.3395683553078],[0.258721108917048,51.3393437359939],[0.258710063319169,51.3391191166704],[0.258699017867023,51.3388944973374],[0.258687972560608,51.3386698779949],[0.258329360336976,51.338676793083],[0.258318316975194,51.3384521736884],[0.257959706404805,51.338459087636],[0.257601095688772,51.3384660004855],[0.257590056070467,51.3382413809963],[0.257579016597816,51.3380167614976],[0.257567977270816,51.3377921419893],[0.257209371805769,51.3377990536133],[0.256850766195135,51.3378059641394],[0.256492160438935,51.3378128735675],[0.256133554537192,51.3378197818976],[0.256144586668796,51.3380444015759],[0.256155618945957,51.3382690212445],[0.25616665136868,51.3384936409037],[0.256177683936968,51.3387182605533],[0.25653629703426,51.3387113520533],[0.256894909986,51.3387044424553],[0.256905946297741,51.3389290620104],[0.257264560902846,51.3389221512719],[0.257275599159164,51.3391467707749],[0.257634215417629,51.3391398588958],[0.257645255618572,51.3393644783469],[0.25765629596518,51.3395890977883],[0.257297676108726,51.3395960097523],[0.256939056106663,51.3396029206183],[0.256950093000877,51.3398275401352],[0.256591471054194,51.3398344499456],[0.256602506294976,51.3400590694955],[0.256613541681362,51.3402836890357],[0.256254915990972,51.340290597833],[0.256265949723858,51.3405152174062],[0.256276983602331,51.3407398369699],[0.256288017626393,51.340964456524],[0.255929386393061,51.3409713643506],[0.255940418763536,51.3411959839376],[0.255951451279581,51.341420603515],[0.255592816302336,51.3414275103284],[0.255581785585493,51.3412028907085],[0.255223152261941,51.3412097963813],[0.254864518792903,51.341216700956],[0.254875545911331,51.3414413206608],[0.254886573175263,51.3416659403561],[0.255245210242741,51.3416590356965],[0.255256239451433,51.3418836553398],[0.255614878172672,51.3418767495396],[0.255625909326172,51.3421013691309],[0.255267268805659,51.3421082749735],[0.25527829892394,51.3423328946667],[0.254919656507548,51.3423397994638],[0.254930685433852,51.3425644192486],[0.25494171450403,51.3427890390233],[0.254583068398405,51.342795942829],[0.254594095839729,51.3430205626465],[0.254235447817547,51.3430274654078],[0.254246473629973,51.3432520852681],[0.254257499586235,51.3434767051183],[0.254268525686337,51.3437013249583],[0.254279551930281,51.3439259447881],[0.254290578318069,51.3441505646077],[0.253931921288061,51.3441574665366],[0.253942946046823,51.344382086399]]],[[[0.272145463964926,51.3422317495076],[0.272504102254429,51.3422247920305],[0.27249298693867,51.3420001747474],[0.272134350409968,51.3420071321722],[0.272123237007432,51.3417825148114],[0.272112123749331,51.3415578974402],[0.271753490604258,51.3415648536555],[0.271394857314805,51.3415718087736],[0.27140596704489,51.3417964262569],[0.27104733184707,51.3418033803337],[0.27105843995751,51.3420279978627],[0.271417076919364,51.3420210437299],[0.271428186955243,51.3422456611692],[0.271786825531856,51.3422387058871],[0.272145463964926,51.3422317495076]]],[[[0.272504102254429,51.3422247920305],[0.272515217755252,51.3424494092058],[0.272526333399695,51.3426740263708],[0.272884975046596,51.3426670676902],[0.272896092585191,51.3428916847921],[0.273254735839,51.3428847249609],[0.273613378949168,51.3428777640321],[0.273602257909526,51.3426531470364],[0.273591137013576,51.3424285300304],[0.27323249740443,51.342435490853],[0.272873857651648,51.3424424505782],[0.272862740400343,51.3422178334559],[0.272504102254429,51.3422247920305]]],[[[0.270130203212445,51.3377741658814],[0.270488806950088,51.3377672150075],[0.270847410543462,51.3377602630365],[0.270836305175569,51.3375356453102],[0.270825199951995,51.3373110275735],[0.270814094872738,51.3370864098264],[0.270802989937796,51.336861792069],[0.270444393398709,51.3368687438159],[0.270085796715363,51.3368756944657],[0.26972719988778,51.3368826440185],[0.269368602915983,51.3368895924741],[0.269379700796758,51.3371142104555],[0.269021101917223,51.33712115787],[0.268662502893516,51.3371281041874],[0.268303903725662,51.3371350494076],[0.268314996459943,51.3373596675466],[0.268326089338384,51.3375842856752],[0.268337182360985,51.3378089037935],[0.268695786819633,51.3378019584054],[0.269054391134126,51.3377950119201],[0.269412995304442,51.3377880643377],[0.269401896990985,51.3375634463874],[0.269760499253486,51.3375564977638],[0.270119101371765,51.3375495480431],[0.270130203212445,51.3377741658814]]],[[[0.264728980805063,51.3374290602648],[0.26474005596234,51.3376536789309],[0.2650986586,51.3376467442928],[0.265109735749906,51.3378713629144],[0.26546834150493,51.3378644274008],[0.265826947116004,51.3378574907899],[0.266185552583104,51.3378505530819],[0.266174470142277,51.337625934628],[0.266163387845475,51.3374013161637],[0.266152305692697,51.3371766976891],[0.266510905724963,51.3371697590517],[0.266499821952637,51.3369451406225],[0.266858420077326,51.3369382009439],[0.267217018057983,51.3369312601682],[0.267205930902616,51.3367066418405],[0.267194843891332,51.3364820235025],[0.266836249437732,51.3364889641664],[0.266825164334023,51.3362643457621],[0.266814079374371,51.3360397273473],[0.266455488303714,51.3360466668023],[0.266466571499893,51.3362712852729],[0.26610797852176,51.3362782236867],[0.265749385399648,51.3362851610034],[0.265738305730425,51.3360605424209],[0.265727226205188,51.3358359238281],[0.26536863646606,51.3358428599358],[0.265357558848241,51.3356182412767],[0.265346481374381,51.3353936226073],[0.265335404044476,51.3351690039274],[0.265693988493363,51.3351620679873],[0.266052572798306,51.3351551309502],[0.266411156959283,51.335148192816],[0.266400074483233,51.3349235742934],[0.266758656736859,51.3349166351181],[0.267117238846475,51.3349096948457],[0.267475820812059,51.3349027534763],[0.267834402633587,51.3348958110098],[0.267823313248218,51.3346711927006],[0.26818189316234,51.334664249193],[0.268170802157772,51.3344396309294],[0.268159711297331,51.3342150126554],[0.268518287540771,51.3342080681628],[0.268876863640094,51.3342011225731],[0.268865769397264,51.3339765044006],[0.268854675912451,51.3337518864131],[0.268843583135751,51.3335272685947],[0.268832490504597,51.3333026507664],[0.269191059386312,51.3332957042902],[0.269549628122498,51.3332887567164],[0.269908196713129,51.333281808045],[0.270266765158184,51.333274858276],[0.270255665530601,51.3330502406227],[0.270244566048651,51.3328256229597],[0.269886001174553,51.3328325726363],[0.269897098871035,51.3330571903455],[0.269538532065897,51.3330641389708],[0.269527436154882,51.3328395212154],[0.269516340389454,51.3326149034502],[0.269157777009684,51.3326218508855],[0.269146683175263,51.3323972330643],[0.268788121435399,51.3324041793559],[0.268429559550037,51.3324111245499],[0.268418469431987,51.3321865066267],[0.268059909186561,51.332193450677],[0.268048820999408,51.3319688326978],[0.268037732957738,51.3317442147089],[0.26802664506155,51.3315195967102],[0.268015557310838,51.3312949787017],[0.268374110414851,51.331288034836],[0.268385199950881,51.3315126527983],[0.268743754694748,51.3315057077889],[0.269102309293127,51.331498761682],[0.269091216186467,51.331274143812],[0.269449768854024,51.3312671966538],[0.269808321376051,51.3312602483981],[0.26979722484436,51.3310356306106],[0.269786128458258,51.3308110128134],[0.269775032217742,51.3305863950065],[0.269416485051505,51.3305933431236],[0.269405390741789,51.3303687252607],[0.269046845215249,51.3303756722342],[0.269057937739745,51.3306002901433],[0.268699390282484,51.3306072360656],[0.268340842679746,51.3306141808903],[0.268351931779286,51.330838798882],[0.267993382245843,51.3308457426554],[0.267634832566965,51.3308526853313],[0.267276282742678,51.3308596269097],[0.267287366631885,51.33108424503],[0.266928814876928,51.3310911855571],[0.266570262976604,51.3310981249867],[0.266581343440629,51.3313227431894],[0.266592424050039,51.3315473613824],[0.266603504804835,51.3317719795656],[0.266614585705022,51.3319965977391],[0.266256026517982,51.3320035362556],[0.266267105778159,51.3322281544654],[0.266278185183709,51.3324527726654],[0.26591962228051,51.3324597101765],[0.265908544660386,51.3322350919304],[0.265897467185611,51.3320104736745],[0.265538907707932,51.3320174099959],[0.265527832163885,51.3317927916842],[0.265169274326306,51.331799726862],[0.264810717862061,51.3318066612658],[0.264452162008264,51.3318135947334],[0.264463232135067,51.3320382131789],[0.264474302406777,51.3322628316142],[0.264832861820148,51.3322558980417],[0.26484393401659,51.3324805164144],[0.264855006357965,51.3327051347769],[0.264496443384929,51.3327120684544],[0.264507514091375,51.3329366868593],[0.264148949193593,51.3329436194922],[0.264160018265063,51.3331682379393],[0.263801451442531,51.3331751695275],[0.263442884475164,51.3331821000185],[0.263453950131695,51.3334067185604],[0.263095381239592,51.3334136480067],[0.263106445261031,51.3336382665909],[0.263117509427302,51.333862885165],[0.263128575018099,51.3340875041432],[0.263487149226864,51.3340805745357],[0.263498216797519,51.3343051934732],[0.263856792658749,51.3342982627252],[0.264215368373986,51.3342913308793],[0.264226439687552,51.3345159497219],[0.264585017055223,51.3345090167356],[0.264596090313313,51.3347336355259],[0.264607163717481,51.3349582543067],[0.264965744536074,51.3349513201372],[0.264976819884837,51.3351759388658],[0.264618237267726,51.335182873078],[0.264259654504567,51.3351898061924],[0.264270726402351,51.3354144249967],[0.264281798446195,51.3356390437915],[0.263923211939897,51.3356459758933],[0.263564625287591,51.3356529068973],[0.263553556840883,51.3354282880171],[0.263194971841164,51.3354352178805],[0.262836386695487,51.335442146646],[0.262847451545046,51.3356667656114],[0.262488864454855,51.3356736933216],[0.262130277218748,51.3356806199339],[0.262141338617074,51.335905238975],[0.26178274943647,51.335912164532],[0.261793809182095,51.3361367836061],[0.261435218056989,51.3361437081078],[0.261076626786032,51.3361506315116],[0.261087683080253,51.3363752506613],[0.261098739520336,51.3365998698015],[0.261109796106286,51.3368244889322],[0.261468392773283,51.3368175654006],[0.261479451303827,51.3370421844791],[0.261120852838105,51.3370491080533],[0.261131909715794,51.3372737271648],[0.261142966739357,51.3374983462668],[0.2615015688026,51.3374914226074],[0.261490509980264,51.3372668035481],[0.261849110098873,51.3372598788334],[0.261860170719977,51.3374844978501],[0.261871231487004,51.3377091168574],[0.261882292399955,51.337933735855],[0.262240897769047,51.3379268099145],[0.262599502992223,51.3379198828761],[0.262958108069459,51.3379129547396],[0.263316713000732,51.3379060255051],[0.263305644892544,51.337681406678],[0.263664247879027,51.3376744763882],[0.264022850719503,51.3376675450004],[0.264011779159773,51.337442926249],[0.264370380055445,51.3374359938059],[0.264728980805063,51.3374290602648]]],[[[0.25615018731968,51.3600778334664],[0.256139144713169,51.359853214296],[0.256497924565654,51.3598463042386],[0.25685670427527,51.3598393930831],[0.257215483841996,51.3598324808295],[0.257226531712882,51.3600570998358],[0.257585312891481,51.3600501864293],[0.257944093927142,51.3600432719248],[0.257955145450589,51.3602678908113],[0.257966197117028,51.3604925096875],[0.25832498151936,51.3604855939753],[0.258683765778702,51.360478677165],[0.258672710602612,51.3602540583983],[0.258661655569558,51.3600294396214],[0.259020436176268,51.3600225218225],[0.259379216639949,51.3600156029255],[0.259390275182599,51.3602402215929],[0.259749057258023,51.3602333015431],[0.26010783919037,51.3602263803951],[0.260118901385735,51.3604509989426],[0.259760117698573,51.3604579201454],[0.259771178282232,51.3606825387373],[0.260129963724232,51.3606756174797],[0.260141026205861,51.3609002360066],[0.260499813259614,51.3608933135961],[0.260510877639259,51.3611179320578],[0.260869666304761,51.3611110084943],[0.260880732582467,51.3613356268909],[0.26089179900336,51.3615602452772],[0.260902865567439,51.3617848636532],[0.261261659354549,51.361777938827],[0.261620452998474,51.3617710129027],[0.261631523215674,51.3619956311587],[0.261272727816785,51.3620025571379],[0.261283796422237,51.3622271754384],[0.261642593576112,51.3622202494044],[0.262001390586775,51.3622133222722],[0.262360187454204,51.3622063940418],[0.262371261467893,51.3624310121675],[0.262730059947067,51.362424082784],[0.262718984178377,51.3621994647133],[0.262707908552996,51.3619748466322],[0.263066703378912,51.3619679162603],[0.263425498061529,51.3619609847903],[0.26343657719686,51.3621856027616],[0.263077780759269,51.3621925342865],[0.263088858282958,51.3624171523024],[0.263099935949981,51.362641770308],[0.262741135859067,51.3626487008445],[0.262752211914382,51.3628733188946],[0.262763288113012,51.3630979369345],[0.263122091714035,51.3630910062882],[0.263480895171747,51.3630840745437],[0.263839698486124,51.363077141701],[0.263828617022301,51.3628525238259],[0.264187418438262,51.3628455899399],[0.264546219710846,51.3628386549557],[0.264535134880335,51.36261403718],[0.264893934254487,51.3626071011525],[0.264882847812395,51.3623824834215],[0.265241645345473,51.3623755462872],[0.265230557291253,51.3621509286052],[0.26558935298118,51.3621439903741],[0.265578263320511,51.3619193727381],[0.26593705711773,51.3619124334654],[0.265925965850656,51.3616878158754],[0.265914874726755,51.3614631982751],[0.266273664881737,51.3614562580171],[0.266262572151498,51.3612316404628],[0.266251479564449,51.361007022898],[0.26661026607727,51.361000081655],[0.266599171883949,51.3607754641363],[0.266588077833837,51.3605508466071],[0.266946860704576,51.3605439043789],[0.266935765048255,51.3603192868958],[0.266924669535162,51.3600946694024],[0.267283448763895,51.3600877261891],[0.267272351644657,51.3598631087416],[0.267631128980806,51.3598561644868],[0.267620030255472,51.3596315470854],[0.267608931673401,51.3594069296736],[0.267967705367651,51.3593999844337],[0.267956605179547,51.359175367068],[0.268315376981249,51.3591684207867],[0.268304275187157,51.358943803467],[0.267945505134726,51.3589507496919],[0.267934405332469,51.3587261322671],[0.267575636885447,51.3587330773385],[0.267564539043157,51.3585084598221],[0.267205772208984,51.3585154037376],[0.266847005231157,51.3585223465552],[0.266858099560391,51.3587469641877],[0.267216868294746,51.358740021312],[0.267227964600136,51.3589646388477],[0.267239061146407,51.3591892563368],[0.266880288915012,51.3591961993243],[0.266521516540432,51.3592031412138],[0.266532609731337,51.3594277588054],[0.266173835464287,51.3594346996533],[0.265815061054093,51.3594416394033],[0.265456286500779,51.3594485780554],[0.265097511804366,51.3594555156094],[0.265086425610698,51.3592308977921],[0.265075339560133,51.3590062799644],[0.265064253734582,51.3587816620984],[0.265423023186872,51.358774724712],[0.265411935883778,51.3585501068474],[0.265053168188029,51.3585570441758],[0.264694400538121,51.3585639803179],[0.264683316897786,51.3583393623286],[0.264672233400985,51.358114744329],[0.264661150047719,51.3578901263193],[0.264650066837983,51.3576655082993],[0.264638983771775,51.3574408902691],[0.264997742636155,51.3574339543955],[0.264986657956836,51.3572093364086],[0.264627900849094,51.3572162722287],[0.264616818069935,51.356991654178],[0.264605735434298,51.3567670361171],[0.264246981696273,51.3567739707322],[0.264235900960726,51.3565493526076],[0.263877148835809,51.3565562860711],[0.263888227814782,51.3567809042491],[0.263529473789848,51.3567878366681],[0.263540551155695,51.3570124548894],[0.263181795230739,51.3570193862638],[0.262823039162382,51.3570263165401],[0.262834113158431,51.3572509348581],[0.263192870983415,51.3572440045283],[0.263203946879524,51.3574686227827],[0.263215022919069,51.3576932410268],[0.263573784113965,51.3576863094921],[0.26358486205364,51.3579109276725],[0.263595940136777,51.3581355458427],[0.263237175428473,51.3581424774844],[0.262878410576757,51.358149408028],[0.262889485289882,51.3583740262949],[0.262900560146431,51.3585986445516],[0.262541791637817,51.358605574104],[0.262183022985832,51.3586125025582],[0.262194094472227,51.3588371209116],[0.2618353239201,51.3588440483211],[0.261476553224643,51.3588509746325],[0.26111778238588,51.3588578998458],[0.260759011403832,51.3588648239609],[0.260400240284636,51.3588717469765],[0.260389177576112,51.3586471283575],[0.260030408064369,51.3586540502229],[0.259671638409412,51.3586609709902],[0.259660579363835,51.3584363522528],[0.259301811322474,51.3584432718686],[0.25929075417688,51.3582186530675],[0.258931987749119,51.3582255715318],[0.258920932503464,51.3580009526672],[0.258562167689308,51.35800786998],[0.258551114343546,51.3577832510518],[0.258540061140926,51.3575586321134],[0.258181299697084,51.3575655482214],[0.258170248394287,51.3573409292194],[0.257811488564042,51.357347844176],[0.257800439161022,51.3571232251105],[0.257441680944377,51.3571301389157],[0.257430633441088,51.3569055197866],[0.257071876838047,51.3569124324404],[0.257060831234445,51.3566878132478],[0.256702076245014,51.3566947247502],[0.256713120091993,51.3569193439961],[0.256354363202949,51.3569262544537],[0.2563654054363,51.3571508737427],[0.256006646647637,51.3571577831556],[0.256017687267316,51.3573824024877],[0.255658926579031,51.3573893108557],[0.255669965584992,51.3576139302309],[0.255681004733914,51.3578385495958],[0.2556920440258,51.3580631689505],[0.255703083460649,51.358287788295],[0.255344315602499,51.3582946957781],[0.255333277924417,51.3580700763803],[0.254974511680123,51.3580769827119],[0.25461574529294,51.3580838879454],[0.254626779457477,51.3583085074498],[0.254268011170651,51.3583154116384],[0.253909242740978,51.3583223147289],[0.253550474168482,51.3583292167213],[0.253191705453184,51.3583361176156],[0.253202732733414,51.3585607373226],[0.25284396211853,51.3585676371719],[0.252832936595108,51.3583430174117],[0.252474167594277,51.3583499161097],[0.252115398450711,51.3583568137095],[0.252126420460509,51.3585814335761],[0.252137442613052,51.3588060534326],[0.25214846512478,51.359030673262],[0.252507239528265,51.3590237755023],[0.252518264016122,51.3592483952607],[0.252529288646619,51.3594730150088],[0.252170510733651,51.3594799128777],[0.252181533752017,51.3597045326702],[0.252540313419761,51.3596976347466],[0.252551338335549,51.3599222544741],[0.252910119615471,51.3599153553977],[0.253268900752751,51.3599084552233],[0.253257872327374,51.3596838356051],[0.253246844044689,51.3594592159766],[0.253605621529746,51.3594523148133],[0.253964398872119,51.359445412552],[0.254323176071789,51.3594385091926],[0.254681953128731,51.359431604735],[0.254670917969766,51.3592069853148],[0.254312142667563,51.3592138897177],[0.254301109406091,51.3589892702325],[0.254659882953579,51.3589823658844],[0.254648848215254,51.3587577464277],[0.255007619872825,51.3587508410344],[0.255366391387499,51.358743934543],[0.255377429620295,51.3589685538938],[0.255736202739479,51.3589616462514],[0.25609497571585,51.358954737511],[0.256083933988068,51.3587301182656],[0.256442705073917,51.3587232084797],[0.256453748549384,51.3589478276724],[0.256464792339114,51.3591724468294],[0.256475836271734,51.3593970659761],[0.256486880347246,51.3596216851125],[0.256128102249533,51.3596285951152],[0.255769324008977,51.3596355040197],[0.2554105456256,51.3596424118262],[0.255421584579686,51.3598670311164],[0.255780364717839,51.3598601232552],[0.255791405569553,51.3600847424804],[0.25615018731968,51.3600778334664]]],[[[0.258683765778702,51.360478677165],[0.258694821097834,51.3607032959214],[0.25905360696901,51.3606963779581],[0.259064664186051,51.3609209966494],[0.259423451669057,51.3609140775333],[0.259412392697151,51.3606894588968],[0.259401333868332,51.36046484025],[0.259390275182599,51.3602402215929],[0.259031492964121,51.3602471405447],[0.259042549895034,51.3604717592566],[0.258683765778702,51.360478677165]]],[[[0.259064664186051,51.3609209966494],[0.258705876560008,51.3609279146674],[0.258347088790948,51.3609348315872],[0.257988300878896,51.360941747409],[0.257999352974326,51.3611663662542],[0.258358142641275,51.3611594503778],[0.258716932165227,51.3611525334031],[0.258727987913494,51.3613771521286],[0.259086779049341,51.361370234001],[0.259445570042144,51.3613633147753],[0.259456629443329,51.3615879333809],[0.259815422047996,51.3615810130022],[0.259826483347231,51.3618056315426],[0.260185277563757,51.361798710011],[0.260174214509572,51.3615740915254],[0.260163151598528,51.3613494730294],[0.25980436089188,51.3613563944514],[0.259793299878882,51.3611317758904],[0.259434510784054,51.3611386961595],[0.259075721546161,51.3611456153304],[0.259064664186051,51.3609209966494]]],[[[0.262834113158431,51.3572509348581],[0.262475355190068,51.3572578640898],[0.262116597078346,51.3572647922233],[0.26175783882329,51.3572717192588],[0.261768907692787,51.357496337727],[0.26141014753776,51.3575032637178],[0.26105138723944,51.3575101886106],[0.260692626797851,51.3575171124053],[0.260333866213015,51.3575240351019],[0.260344928199116,51.3577486537734],[0.259986165714365,51.3577555754253],[0.259975105484955,51.3575309567004],[0.259616344613693,51.3575378772008],[0.259605286284187,51.3573132584122],[0.25924652702642,51.3573201777611],[0.259235470596772,51.357095558909],[0.258876712952505,51.3571024771065],[0.2588877676255,51.357327096012],[0.258529008081448,51.3573340131648],[0.258540061140926,51.3575586321134],[0.258898822441656,51.3575517149073],[0.258909877400977,51.3577763337924],[0.258920932503464,51.3580009526672],[0.259279697174481,51.3579940342563],[0.259638461702336,51.3579871147472],[0.259997226087008,51.35798019414],[0.260355990328474,51.3579732724348],[0.26071475442671,51.3579663496314],[0.260703690540641,51.3577417310234],[0.261062452738917,51.3577348071754],[0.261421214793921,51.3577278822292],[0.261779976705629,51.3577209561849],[0.262138738474022,51.3577140290425],[0.262149809386914,51.3579386474368],[0.262508572768665,51.3579317191429],[0.262497500099074,51.3577071008021],[0.262486427572875,51.357482482451],[0.262845187297892,51.3574755531659],[0.262834113158431,51.3572509348581]]],[[[0.266936021854024,51.3385105293383],[0.267294632180094,51.338503588171],[0.267283544016074,51.338278969916],[0.267272455996156,51.3380543516507],[0.267261368120335,51.3378297333749],[0.266902763085292,51.3378366743744],[0.266544157906207,51.3378436142767],[0.26655524225472,51.3380682326643],[0.266196635167958,51.3380751715254],[0.266207717896843,51.3382997899586],[0.26621880076976,51.3385244083813],[0.266577411383905,51.3385174694084],[0.266936021854024,51.3385105293383]]],[[[0.25900754928676,51.3305697494858],[0.259018591849294,51.3307943687786],[0.258660042579133,51.3308012844301],[0.258671083506516,51.3310259037651],[0.259029634556378,51.3310189880612],[0.259040677408014,51.3312436073338],[0.259399230093086,51.3312366904804],[0.259388185461728,51.3310120712602],[0.259746736222545,51.3310051533621],[0.260105286838804,51.3309982343669],[0.260094238792631,51.3307736152413],[0.260083190891077,51.3305489961056],[0.259724643834182,51.3305559149961],[0.259366096632736,51.3305628327895],[0.25900754928676,51.3305697494858]]],[[[0.25900754928676,51.3305697494858],[0.258996506868774,51.3303451301828],[0.259355052435096,51.3303382135388],[0.259713597856893,51.3303312957978],[0.259702552024194,51.3301066765894],[0.260061095521816,51.3300997578037],[0.260419638874866,51.3300928379209],[0.260408589627553,51.3298682188071],[0.260767131056413,51.3298612978796],[0.260778182083324,51.330085916941],[0.261136725147165,51.330078994864],[0.26114777809835,51.3303036138629],[0.261506322797167,51.3302966906365],[0.261517377672672,51.3305213095728],[0.26187592400646,51.3305143851968],[0.261886980806331,51.3307390040705],[0.262245528775085,51.3307320785451],[0.262604076599123,51.3307251519225],[0.262615137103081,51.3309497706812],[0.262973686562055,51.3309428429091],[0.262962624278422,51.3307182242029],[0.26295156213959,51.3304936054865],[0.263310107894478,51.3304866767222],[0.263668653504585,51.3304797468608],[0.263679719202712,51.3307043654723],[0.263690785045686,51.3309289840736],[0.263332235876263,51.3309359140399],[0.263343300084394,51.3311605326835],[0.263354364437354,51.3313851513169],[0.263365428935144,51.3316097699402],[0.263376493577768,51.3318343885533],[0.263735049866095,51.3318274583771],[0.263746116433339,51.3320520769276],[0.264104674356625,51.3320451456018],[0.264093606009601,51.3318205271038],[0.264082537807458,51.3315959085957],[0.264441092026366,51.3315889762777],[0.264430022189371,51.3313643578118],[0.264418952497274,51.3311397393358],[0.264777503011882,51.3311328060257],[0.264766431684998,51.330908187592],[0.264755360503033,51.3306835691481],[0.265113907712413,51.3306766349263],[0.265102834825502,51.3304520165098],[0.265091762083873,51.3302273980836],[0.2654503074244,51.3302204632284],[0.265439233042851,51.3299958448384],[0.265428158806602,51.3297712264388],[0.265417084715652,51.3295466080293],[0.265406010769997,51.3293219896101],[0.265047472587282,51.3293289242842],[0.264688936454373,51.3293358582714],[0.264330400176602,51.3293427911616],[0.263971863753992,51.3293497229548],[0.263613327186566,51.3293566536509],[0.263624392160497,51.3295812723132],[0.263265853668746,51.3295882019647],[0.262907315032224,51.3295951305192],[0.26289625361736,51.329370511752],[0.262537716615625,51.329377439157],[0.262526657125062,51.3291528203272],[0.26216812175812,51.3291597465827],[0.262157064191812,51.3289351276902],[0.261798530459668,51.3289420527963],[0.261787474817568,51.3287174338412],[0.261428942720227,51.3287243577978],[0.261070410478237,51.3287312806574],[0.260711878091625,51.32873820242],[0.26035334556041,51.3287451230855],[0.259994812884616,51.328752042654],[0.259636280064266,51.3287589611255],[0.259277747099385,51.3287658785],[0.259288790285101,51.3289904978217],[0.258930255396215,51.3289974141515],[0.258941296946968,51.3292220335154],[0.258582760134076,51.3292289488005],[0.25859380004982,51.3294535682067],[0.258235261312915,51.329460482447],[0.258246299593605,51.3296851018954],[0.258257338018787,51.3299097213335],[0.258268376588464,51.3301343407615],[0.258279415302638,51.3303589601793],[0.258290454161311,51.330583579587],[0.258649001796277,51.3305766650849],[0.25900754928676,51.3305697494858]]],[[[0.248906427380621,51.3368346151476],[0.249265027194151,51.336827728989],[0.249276024421506,51.3370523495202],[0.249287021793969,51.3372769700419],[0.248928418382841,51.3372838562851],[0.248939414101583,51.3375084768396],[0.249298019311544,51.3375015905541],[0.249656624376435,51.3374947031706],[0.250015229296229,51.3374878146891],[0.250004228180995,51.3372631942616],[0.250362831156845,51.3372563047245],[0.250721433987556,51.3372494140894],[0.250732438700441,51.3374740344323],[0.250743443558532,51.3376986547656],[0.25038483713015,51.3377055454854],[0.250026230556624,51.3377124351071],[0.250037231962182,51.3379370555156],[0.250048233512904,51.3381616759145],[0.250059235208795,51.3383862963038],[0.250070237049854,51.3386109166836],[0.250081239036087,51.3388355370539],[0.249722623322837,51.3388424257892],[0.249733623655254,51.3390670461923],[0.250092241167494,51.3390601574146],[0.250103243444079,51.3392847777658],[0.250114245865844,51.3395093981074],[0.250125248432791,51.3397340184395],[0.250483871196996,51.3397271284368],[0.250842493816033,51.3397202373361],[0.251201116289881,51.3397133451373],[0.251559738618516,51.3397064518404],[0.251918360801914,51.3396995574454],[0.251907349239711,51.339474937325],[0.251896337822805,51.3392503171951],[0.252254956262879,51.3392434217868],[0.252613574557676,51.3392365252804],[0.252624589572622,51.3394611453256],[0.252635604732911,51.3396857653612],[0.252276982840054,51.3396926619523],[0.252287996346626,51.3399172820208],[0.252646620038546,51.3399103853873],[0.25265763548953,51.3401350054039],[0.253016260835228,51.3401281076299],[0.253005243585159,51.3399034876557],[0.252994226480462,51.339678867672],[0.253352848082682,51.3396719688848],[0.253711469539551,51.3396650689994],[0.253700448982152,51.339440449091],[0.254059068494613,51.33943354815],[0.254048046283618,51.3392089282744],[0.254037024218056,51.3389843083892],[0.25367840830359,51.3389912092454],[0.253667388182421,51.3387665893083],[0.253308773921551,51.338773489024],[0.252950159515337,51.3387803876417],[0.25293914313746,51.3385557676103],[0.252928126904939,51.3383311475693],[0.252917110817773,51.3381065275188],[0.253275719827222,51.3380996290282],[0.253264702086532,51.3378750090106],[0.253623309151773,51.3378681094644],[0.253612289757606,51.3376434894796],[0.253970894878644,51.3376365888779],[0.254329499854305,51.3376296871782],[0.254688104684565,51.3376227843805],[0.254677080039325,51.3373981645133],[0.254666055539544,51.3371735446367],[0.254307454306898,51.3371804473495],[0.253948852928857,51.3371873489644],[0.253590251405445,51.3371942494813],[0.253231649736684,51.3372011489002],[0.252873047922598,51.3372080472212],[0.252862032562166,51.3369834271229],[0.252851017347072,51.3367588070151],[0.252840002277314,51.3365341868977],[0.25319859869512,51.3365272887039],[0.253557194967607,51.3365203894122],[0.253915791094754,51.3365134890225],[0.254274387076536,51.3365065875349],[0.25463298291293,51.3364996849493],[0.254991578603914,51.3364927812658],[0.254980552887243,51.3362681613934],[0.254621958994961,51.3362750650344],[0.254610935222439,51.33605044511],[0.254252342983429,51.3360573476107],[0.25424132115501,51.3358327276343],[0.25423029947201,51.3356081076484],[0.254219277934425,51.3353834876529],[0.254208256542255,51.3351588676479],[0.253849671352368,51.335165768881],[0.253838651904178,51.334941148824],[0.253480068367513,51.3349480489169],[0.253121484685525,51.3349549479118],[0.253132500536571,51.3351795680536],[0.252773914910705,51.3351864659931],[0.252784929108494,51.3354110861677],[0.252795943451605,51.3356357063328],[0.252437354083233,51.3356426032591],[0.252426341538748,51.3354179830517],[0.252067753823743,51.3354248788377],[0.251709165963502,51.3354317735258],[0.251350577958049,51.3354386671161],[0.250991989807408,51.3354455596084],[0.250633401511599,51.3354524510028],[0.250622398105458,51.335227830574],[0.250263811463124,51.3352347208282],[0.249905224675674,51.3352416099844],[0.249894225011904,51.3350169894615],[0.249883225493267,51.334792368929],[0.249524642157896,51.3347992569027],[0.24916605867746,51.3348061437786],[0.249155062901061,51.334581523152],[0.249144067269743,51.3343569025158],[0.249133071783504,51.33413228187],[0.249491649868343,51.3341253951211],[0.249480652728696,51.3339007745081],[0.249839228869993,51.3338938867036],[0.250197804866213,51.3338869978012],[0.250556380717331,51.333880107801],[0.250545378961576,51.333655487382],[0.250534377383814,51.3334308669569],[0.250175805073713,51.3334377568512],[0.250164805419968,51.3332131363638],[0.250153805910226,51.3329885158663],[0.250512374660372,51.3329816260764],[0.25052337595008,51.3332062465217],[0.25088194633621,51.3331993555824],[0.25087094326654,51.3329747351892],[0.251229511728704,51.3329678432048],[0.251218507023143,51.3327432228537],[0.251207502461648,51.3325186024923],[0.250848937559338,51.3325254943724],[0.250837934921801,51.3323008739487],[0.250826932428304,51.332076253515],[0.250468370941762,51.3320831441935],[0.25010980931125,51.3320900337749],[0.249751247536791,51.3320969222591],[0.249762244690664,51.3323215428493],[0.249773241988509,51.3325461634294],[0.249784239430328,51.3327707839993],[0.249795237016123,51.3329954045591],[0.249806234745896,51.3332200251087],[0.249447663927889,51.3332269127564],[0.249458660021649,51.333451533348],[0.249100087279734,51.3334584199505],[0.248741514393924,51.3334653054559],[0.248752507071607,51.3336899261416],[0.248393932261904,51.3336968106018],[0.248035358329131,51.3337036941918],[0.248046347732476,51.3339283149704],[0.24768777194691,51.3339351975218],[0.247329196018672,51.333942078976],[0.247340182441925,51.3341666998641],[0.247698760131736,51.3341598183578],[0.24770974845928,51.3343844391836],[0.247351169007874,51.334391320742],[0.246992589413813,51.334398201203],[0.24663400967712,51.3344050805669],[0.246275429797818,51.3344119588334],[0.24591684977593,51.3344188360027],[0.24592782943808,51.3346434570787],[0.245938809242838,51.3348680781445],[0.245949789190208,51.3350926992002],[0.245960769280193,51.3353173202458],[0.245971749512794,51.3355419412812],[0.245982729888014,51.3357665623065],[0.246341320480008,51.3357596848249],[0.246699910929402,51.335752806246],[0.247058501236172,51.3357459265698],[0.247417091400295,51.3357390457963],[0.24777568142175,51.3357321639255],[0.247786670748385,51.3359567846803],[0.247428078965177,51.3359636666032],[0.247439066672773,51.3361882874],[0.247450054523086,51.3364129081866],[0.247461042516119,51.336637528963],[0.247819639584725,51.3366306468838],[0.247830629482324,51.3368552675981],[0.24818922817007,51.3368483843694],[0.24854782742205,51.3368415002083],[0.248536833937333,51.3366168795829],[0.248895432097138,51.3366099945646],[0.248906427380621,51.3368346151476]]],[[[0.25088194633621,51.3331993555824],[0.25089294954993,51.3334239759654],[0.250903952907702,51.3336485963383],[0.250914956423323,51.3338732167029],[0.251273531991672,51.333866324508],[0.251632107429781,51.3338594312177],[0.251990682723832,51.3338525368302],[0.252001692399296,51.3340771571382],[0.252360269323022,51.3340702616064],[0.252371280995751,51.3342948818711],[0.252382292813768,51.3345195021263],[0.252393304777073,51.334744122372],[0.252751886951083,51.3347372256152],[0.253110468979819,51.3347303277605],[0.253469050863257,51.3347234288079],[0.253458033504361,51.3344988086894],[0.253816613443953,51.3344919086814],[0.253805594431913,51.3342672885957],[0.253794575565251,51.3340426685005],[0.253783557032403,51.3338180484341],[0.253772539290412,51.3335934284889],[0.25341396649701,51.3336003283104],[0.253402950679245,51.3333757083028],[0.253044379521664,51.3333826069749],[0.253033365628079,51.3331579869049],[0.252674796106325,51.3331648844275],[0.25231622644045,51.3331717808529],[0.251957656630478,51.3331786761811],[0.251599086676432,51.3331855704121],[0.251240516578335,51.3331924635458],[0.25088194633621,51.3331993555824]]],[[[0.250947969859602,51.3345470780054],[0.250958974628752,51.3347716984204],[0.250969979543101,51.334996318826],[0.251328564096543,51.3349894264183],[0.2516871485048,51.3349825329128],[0.252045732767851,51.3349756383094],[0.252034722457812,51.3347510180309],[0.252023712293042,51.3345263977429],[0.25166513162709,51.3345332922616],[0.251306550815935,51.3345401856824],[0.250947969859602,51.3345470780054]]],[[[0.252430073955447,51.3574514367537],[0.252071311838908,51.3574583341407],[0.252082333277755,51.3576829540482],[0.252093354859336,51.3579075739455],[0.252104376583654,51.3581321938326],[0.252463143970429,51.358125296286],[0.252452120489344,51.3579006764521],[0.252810885976623,51.3578937778605],[0.252799860881553,51.3576691580696],[0.252441097151018,51.357676056608],[0.252430073955447,51.3574514367537]]],[[[0.231246321826724,51.327954323846],[0.231257226801786,51.3281789473009],[0.23161576153677,51.3281721156063],[0.231626668401748,51.3283967389952],[0.231637575407646,51.3286213623737],[0.231996113653666,51.328614529418],[0.232007022555524,51.3288391527313],[0.231648482554468,51.3288459857419],[0.231659389842217,51.3290706090997],[0.231300848111024,51.329077441017],[0.231311753790593,51.3293020644202],[0.231670297270894,51.3292952324471],[0.231681204840503,51.3295198557842],[0.231692112551044,51.3297444791109],[0.231703020402521,51.3299691024272],[0.231713928394937,51.3301937257332],[0.23172483653068,51.3304183490283],[0.231735744811031,51.3306429723125],[0.23174665323232,51.3308675955866],[0.231757561794546,51.3310922188505],[0.232116119326167,51.3310853853068],[0.232105209014807,51.3308607620949],[0.232463764656379,51.3308539275061],[0.232822320157013,51.3308470918202],[0.232833233966634,51.3310717149281],[0.232474676716871,51.3310785506661],[0.232485588918348,51.3313031738158],[0.232844147917263,51.3312963380259],[0.232855062008903,51.3315209611135],[0.233213622616024,51.3315141241743],[0.233224538597872,51.3317387471997],[0.232865976241556,51.3317455841909],[0.23250741374427,51.3317524200849],[0.23251832636872,51.3319770432043],[0.232529239134165,51.3322016663135],[0.232540152040608,51.3324262894125],[0.232898719785619,51.3324194533625],[0.233257287389652,51.3324126162152],[0.233246370984683,51.3321879932202],[0.233235454720757,51.331963370215],[0.233594018685294,51.3319565320746],[0.233583100813194,51.3317319091114],[0.233941662887502,51.3317250699258],[0.233930743407273,51.3315004470045],[0.233919824068125,51.331275824073],[0.234278382503043,51.3312689838944],[0.234636940796906,51.3312621426186],[0.23464786363438,51.331486765446],[0.23465878661298,51.3317113882632],[0.235017348264107,51.3317045457862],[0.235375909774128,51.331697702212],[0.235364983297165,51.3314730794989],[0.235723542916881,51.3314662348796],[0.236082102395449,51.3314593891631],[0.236440661732845,51.3314525423495],[0.236451593457333,51.3316771649063],[0.236462525323062,51.3319017874529],[0.236821088017628,51.3318949394379],[0.236832021773816,51.3321195619222],[0.236842955671272,51.3323441843965],[0.237201521723067,51.33233733518],[0.237212457511052,51.3325619575919],[0.237571025170854,51.3325551072262],[0.237581962849412,51.3327797295758],[0.237940532117218,51.3327728780607],[0.237951471686396,51.3329975003481],[0.237962411396918,51.3332221226253],[0.23832098402204,51.3332152699086],[0.238331925623252,51.3334398921235],[0.238690499856387,51.3334330382575],[0.238679556505838,51.3332084160948],[0.239038128848287,51.3332015611837],[0.239027183889817,51.332976939063],[0.239385754341585,51.3329700831069],[0.239374807775239,51.3327454610282],[0.23973337633633,51.332738604027],[0.239722428162154,51.3325139819904],[0.23971148012943,51.3322893599436],[0.239352915066844,51.3322962168403],[0.23934196892479,51.3320715947312],[0.238983405470041,51.3320784504786],[0.238624841873934,51.3320853051288],[0.238613899371706,51.3318606829052],[0.238972461218611,51.3318538283071],[0.238961517108584,51.3316292061255],[0.238602957010856,51.3316360606714],[0.238244396771797,51.3316429141201],[0.237885836391431,51.3316497664717],[0.237874897670277,51.3314251441234],[0.238233456301482,51.331418291824],[0.238592014791383,51.3314114384275],[0.238581072713283,51.3311868161734],[0.238570130776554,51.3309621939091],[0.238559188981195,51.3307375716347],[0.238548247327203,51.3305129493502],[0.23818969583371,51.3305198025381],[0.238178756070127,51.3302951801913],[0.238167816447883,51.3300705578343],[0.237809268311168,51.3300774098208],[0.237798330579264,51.3298527874015],[0.237787392988672,51.329628164972],[0.237428848208675,51.3296350157572],[0.237417912508353,51.3294103932654],[0.237059369336078,51.3294172429013],[0.23704843552598,51.3291926203473],[0.237406976949315,51.3291857707636],[0.23739604153156,51.3289611482515],[0.237754581064742,51.3289542976228],[0.237765518231413,51.3291789200827],[0.238124059372252,51.3291720683048],[0.238482600371809,51.3291652154298],[0.238493541177653,51.3293898377753],[0.238852083784836,51.329382983751],[0.238841141230062,51.3291583614578],[0.239199681946987,51.3291515063887],[0.239188737784679,51.3289268841374],[0.239177793763764,51.328702261876],[0.238819256544627,51.3287091168408],[0.238808314413961,51.328484494517],[0.238797372424662,51.3282598721832],[0.238438838561906,51.3282667259466],[0.238080304557855,51.3282735786129],[0.238091243049472,51.3284982010511],[0.237732707155304,51.3285050526726],[0.237743644039373,51.3287296751528],[0.237385106255083,51.3287365257294],[0.237374171119884,51.328511903197],[0.237015634943235,51.3285187526244],[0.236657098625379,51.3285256009548],[0.23666803026283,51.3287502235913],[0.236309492054912,51.3287570708768],[0.236320422084696,51.3289816935553],[0.236331352255692,51.3292063162237],[0.236342282567902,51.3294309388819],[0.235983738972044,51.3294377852266],[0.235625195235039,51.3294446304742],[0.235636122190524,51.3296692532265],[0.235277576563418,51.3296760974291],[0.235288501911079,51.3299007202233],[0.234929954393866,51.3299075633809],[0.234940878133661,51.3301321862171],[0.234582328726337,51.3301390283296],[0.234571406735567,51.3299144054414],[0.234560484885907,51.329689782543],[0.234201938835548,51.3296966234543],[0.234191018875977,51.3294720004937],[0.233832474433564,51.3294788402559],[0.233473929850138,51.329485678921],[0.233115385125719,51.329492516489],[0.233104470554123,51.3292678933621],[0.233463013529574,51.3292610558462],[0.233821556364036,51.3292542172331],[0.233810638435564,51.3290295942002],[0.233799720648148,51.3288049711571],[0.233788803001783,51.3285803481039],[0.234147340448483,51.32857350855],[0.234136421194296,51.3283488855386],[0.234494956751101,51.3283420449397],[0.234853492166859,51.3283352032437],[0.234842569556051,51.3281105803263],[0.235201103081897,51.3281037375854],[0.235190178863383,51.32787911471],[0.235179254785999,51.3276544918244],[0.234820724757769,51.3276613344613],[0.234462194588476,51.3276681760011],[0.234451274149775,51.3274435530012],[0.234092745588222,51.327450393392],[0.234081827039361,51.32722577033],[0.234440353852157,51.3272189299913],[0.234429433695618,51.3269943069712],[0.234418513680157,51.3267696839409],[0.234407593805772,51.3265450609005],[0.23404907223911,51.326551901083],[0.233690550531444,51.3265587401686],[0.233332028682795,51.3265655781572],[0.233342943311105,51.3267902013537],[0.232984419572799,51.3267970382974],[0.232995332593399,51.3270216615358],[0.232636806965433,51.3270284974344],[0.232647718378276,51.3272531207147],[0.232658629932088,51.3274777439849],[0.232300100665687,51.3274845788906],[0.232289190860643,51.3272599555684],[0.231930663202111,51.3272667893251],[0.231919755286762,51.3270421659408],[0.23156122932562,51.3270489985064],[0.23120270333539,51.3270558299225],[0.231213607746891,51.3272804534189],[0.231224512299278,51.327505076905],[0.230865982670371,51.3275119073357],[0.230876885614694,51.327736530867],[0.230887788699888,51.327961154388],[0.231246321826724,51.327954323846]]],[[[0.239199681946987,51.3291515063887],[0.23921062625069,51.3293761286298],[0.238852083784836,51.329382983751],[0.238863026480986,51.3296076060342],[0.23922157069579,51.3296007508607],[0.239232515282289,51.3298253730815],[0.239591061104711,51.3298185167588],[0.239602007581606,51.3300431389173],[0.239960555011639,51.3300362814453],[0.240319102300268,51.3300294228762],[0.24067764944747,51.33002256321],[0.241036196453225,51.3300157024467],[0.241394743317507,51.3300088405863],[0.241383788095681,51.3297842186889],[0.241372833015393,51.3295595967813],[0.241014289649051,51.3295664585372],[0.241003336459234,51.3293418365673],[0.240644794700364,51.3293486971739],[0.240633843400972,51.3291240751416],[0.24027530324958,51.329130934599],[0.239916762956768,51.3291377929593],[0.239558222522564,51.3291446502225],[0.239199681946987,51.3291515063887]]],[[[0.241394743317507,51.3300088405863],[0.241405698680871,51.3302334624736],[0.241416654185778,51.3304580843507],[0.241775204406591,51.3304512212887],[0.242133754485884,51.3304443571297],[0.242144713630426,51.3306689788921],[0.242503265317215,51.3306621135837],[0.242514226352413,51.3308867352838],[0.242155672916559,51.3308936006445],[0.242166632344286,51.3311182223866],[0.242177591913612,51.3313428441186],[0.242188551624535,51.3315674658405],[0.242547110307716,51.331560600323],[0.242905668849319,51.3315537337085],[0.243264227249321,51.3315468659967],[0.24325326229101,51.3313222444317],[0.243242297474365,51.3310976228564],[0.242883742572594,51.3311044904637],[0.242872779646695,51.330879868826],[0.243231332799384,51.3308730012711],[0.243589885810457,51.3308661326191],[0.243578919528081,51.3306415110758],[0.243937470648459,51.3306346413789],[0.243926502758733,51.3304100198778],[0.24391553501071,51.3301853983666],[0.243556987388372,51.3301922679589],[0.243546021531035,51.3299676463851],[0.243535055815373,51.3297430248013],[0.243524090241383,51.3295184032072],[0.243165547724314,51.3295252715456],[0.242807005065644,51.3295321387869],[0.242817967141743,51.3297567604855],[0.24282892935947,51.3299813821739],[0.242839891718825,51.3302060038521],[0.24248134367166,51.3302128701531],[0.242122795482932,51.3302197353571],[0.242111836621566,51.3299951135743],[0.241753290040295,51.3300019776288],[0.241394743317507,51.3300088405863]]],[[[0.243589885810457,51.3308661326191],[0.243600852234517,51.3310907541521],[0.243611818800264,51.3313153756751],[0.243970375167874,51.3313085058213],[0.243981343624432,51.3315331272818],[0.244339901599496,51.3315262562786],[0.24435087194691,51.3317508776766],[0.244361842436064,51.3319754990645],[0.244720403767739,51.3319686268595],[0.245078964957695,51.3319617535574],[0.24543752600591,51.3319548791582],[0.245448501884353,51.3321795003789],[0.245089939086957,51.3321863748305],[0.245100913358009,51.3324109960934],[0.245111887770852,51.3326356173461],[0.245122862325488,51.3328602385888],[0.245481430370559,51.3328533639802],[0.245839998273856,51.3328464882744],[0.245829020220727,51.3326218671365],[0.246187586232985,51.3326149903858],[0.246546152103428,51.332608112538],[0.246535170693699,51.3323834914946],[0.246893734673088,51.332376612602],[0.246904717832032,51.332601233593],[0.246915701132883,51.3328258545739],[0.246557133655041,51.3328327335712],[0.24656811534854,51.3330573545943],[0.246209545979594,51.3330642325468],[0.246220526065697,51.3332888536121],[0.246579097183929,51.3332819756072],[0.246937668160314,51.3332750965051],[0.2469486518869,51.3334997174555],[0.246959635755401,51.3337243383957],[0.247318210088547,51.3337174580916],[0.247307224470721,51.3334928372038],[0.247665796912648,51.3334859558549],[0.24802436921266,51.3334790734088],[0.248013380238173,51.3332544526156],[0.248002391405667,51.3330298318122],[0.24799140271514,51.3328052109986],[0.247980414166589,51.3325805901749],[0.247969425760012,51.3323559693411],[0.248327989171832,51.3323490860597],[0.248316999158044,51.3321244652681],[0.248675561349963,51.3321175811287],[0.248664569679634,51.331892960372],[0.249023130105934,51.3318860752314],[0.249381690388359,51.3318791889937],[0.249370695302255,51.331654568331],[0.249729253660947,51.3316476810483],[0.250087811875721,51.3316407926683],[0.250076813373937,51.3314161720998],[0.250065815016139,51.3311915515211],[0.249707260360958,51.3311984397968],[0.249348705561865,51.3312053269753],[0.249337710907576,51.3309807062823],[0.248979157744357,51.3309875923116],[0.248620604437275,51.3309944772437],[0.248262051218931,51.3310013611575],[0.248251062057056,51.3307767403048],[0.24824007303716,51.3305521194421],[0.247881523618176,51.3305590023042],[0.247522974057285,51.3305658840693],[0.247533959579128,51.3307905050368],[0.247544945242903,51.3310151259942],[0.247186392042046,51.3310220067669],[0.24682783869932,51.3310288864425],[0.246838821006877,51.3312535074945],[0.246480265773228,51.3312603861253],[0.246469285214752,51.331035765021],[0.246458304798142,51.3308111439064],[0.246099752920812,51.3308180213354],[0.246088774395105,51.3305934001584],[0.245730224125018,51.3306002764379],[0.245719247490168,51.3303756551984],[0.245708270997133,51.3301510339487],[0.245349724083292,51.3301579090265],[0.24536069882733,51.3303825303285],[0.245002150022744,51.3303894043615],[0.244643601076435,51.3303962772974],[0.244654572464218,51.3306208986939],[0.244296021627179,51.3306277705849],[0.243937470648459,51.3306346413789],[0.24394843867989,51.3308592628699],[0.243589885810457,51.3308661326191]]],[[[0.248554660890327,51.3296467522469],[0.24854367080274,51.3294221313786],[0.248532680859024,51.3291975105002],[0.248521691059176,51.3289728896116],[0.248163153873043,51.328979773118],[0.247804616696608,51.3289866556134],[0.247446079378282,51.3289935370118],[0.247457063906668,51.3292181580505],[0.247098524697602,51.3292250384041],[0.246739985346689,51.3292319176608],[0.246381445853952,51.3292387958204],[0.246392425277559,51.329463417006],[0.246750966519197,51.3294565387941],[0.246761947833577,51.3296811599172],[0.247120490682308,51.3296742805558],[0.247131473887506,51.3298989016164],[0.247142457234604,51.3301235226668],[0.247501003439386,51.3301166421036],[0.247859549502288,51.3301097604434],[0.247870536489257,51.3303343813789],[0.248229084159238,51.3303274985691],[0.248218095423288,51.330102877686],[0.248576641497124,51.3300959939531],[0.248565651121787,51.3298713731051],[0.248554660890327,51.3296467522469]]],[[[0.231889956437033,51.3412070902563],[0.231900869742453,51.3414317131134],[0.231911783189646,51.3416563359603],[0.231922696778613,51.3418809587971],[0.232281338871761,51.3418741238651],[0.232639980823154,51.3418672878355],[0.232650898078797,51.3420919105588],[0.232292254364957,51.3420987466401],[0.231933610509359,51.3421055816239],[0.231574966770727,51.3421124155486],[0.2315858790743,51.3423370385648],[0.231596791654374,51.3425616616681],[0.231607704375924,51.3427862847613],[0.231618617238953,51.3430109078444],[0.231629530243464,51.3432355309173],[0.231988182964804,51.3432286967467],[0.232346835741315,51.3432218615041],[0.232705488374452,51.3432150251637],[0.233064140864192,51.3432081877256],[0.233075061182651,51.3434328105908],[0.232716406904071,51.343439648079],[0.232727325577132,51.3436642709844],[0.23236866936629,51.343671107425],[0.232357752482094,51.3434464844695],[0.23199909791674,51.3434533197623],[0.231640443389459,51.3434601539802],[0.231651356676941,51.343684777033],[0.231292700886014,51.343691610285],[0.231303612557034,51.3439162333791],[0.231314524369523,51.344140856463],[0.231673183676371,51.3441340231083],[0.231684097388326,51.3443586461308],[0.232042759158462,51.3443518117245],[0.232401420879418,51.3443449762312],[0.23276008245699,51.3443381396402],[0.233118743891154,51.3443313019514],[0.23312966492696,51.3445559247665],[0.233488328006642,51.3445490859297],[0.233846990942869,51.3445422459952],[0.233857915700096,51.3447668686999],[0.234216580281812,51.3447600276174],[0.234575244720021,51.3447531854371],[0.234564316384859,51.3445285628327],[0.234922978890575,51.3445217196048],[0.23491204891004,51.3442970970405],[0.234901119073094,51.3440724744662],[0.235259777857407,51.3440656302409],[0.235248846375154,51.3438410077068],[0.235237915036509,51.3436163851626],[0.235226983841469,51.3433917626085],[0.23521605279003,51.3431671400443],[0.235205121882191,51.34294251747],[0.235563771578715,51.3429356723979],[0.235552839025698,51.3427110498639],[0.23591148678987,51.3427042037443],[0.23590055259172,51.3424795812504],[0.235541906616298,51.3424864273198],[0.235183260497302,51.3424932722915],[0.235194191117949,51.3427178948858],[0.234835543066648,51.34272473881],[0.234476894871818,51.3427315816364],[0.234118246533481,51.3427384233652],[0.233759598051659,51.3427452639962],[0.233400949426378,51.3427521035295],[0.23304230065766,51.3427589419651],[0.233031380769581,51.3425343190698],[0.233390027749532,51.3425274806843],[0.233379106216164,51.3423028578291],[0.233737751263937,51.3422960183962],[0.234096396168256,51.3422891778655],[0.234455040929096,51.3422823362371],[0.234444114520838,51.3420577136881],[0.234085471516126,51.3420645552575],[0.233726828369544,51.3420713957292],[0.233368185081113,51.3420782351033],[0.233357264300582,51.3418536124835],[0.23334634366192,51.3416289898536],[0.233704983425494,51.3416221505829],[0.234063623047223,51.3416153102147],[0.234422262527086,51.3416084687489],[0.234411336743113,51.3413838462641],[0.234052699025639,51.3413906876782],[0.234041775145965,51.3411660651315],[0.234400411101071,51.3411592237692],[0.234759046914293,51.3411523813094],[0.235117682585607,51.341145537752],[0.235106753560813,51.3409209153505],[0.235095824677991,51.3406962929388],[0.235084895937138,51.3404716705171],[0.235443526179578,51.3404648260175],[0.235432595818424,51.3402402036374],[0.235791224156652,51.3402333580921],[0.235780292175241,51.3400087357537],[0.235769360335838,51.3397841134051],[0.236127985007639,51.3397772668659],[0.236117051548046,51.339552644559],[0.236106118230477,51.339328022242],[0.236095185054932,51.3391033999148],[0.235736565669651,51.3391102462987],[0.235377946142417,51.339117091585],[0.235367016633153,51.3388924691442],[0.235356087265862,51.3386678466932],[0.23534515804054,51.3384432242321],[0.235703772281448,51.3384363791011],[0.235692841436033,51.3382117566817],[0.235681910732606,51.3379871342521],[0.235670980171165,51.3377625118124],[0.236029588984013,51.3377556657394],[0.2363881976549,51.3377488185689],[0.23639913174037,51.337973440905],[0.23641006596787,51.3381980632309],[0.236768678020816,51.3381912148594],[0.236779614152406,51.3384158371234],[0.237138227825394,51.3384089876027],[0.237496841356344,51.3384021369844],[0.237507781154143,51.3386267591347],[0.237866396305105,51.3386199073671],[0.237855454745236,51.3383952852688],[0.237844513327493,51.3381706631602],[0.238203124812255,51.338163810399],[0.238561736154914,51.3381569565403],[0.238550791355251,51.3379323345253],[0.238539846697756,51.3377077125003],[0.238181238879116,51.3377145662552],[0.238170296125761,51.3374899441682],[0.238159353514546,51.337265322071],[0.238148411045468,51.3370406999637],[0.237789808370596,51.3370475524657],[0.237431205553657,51.3370544038703],[0.237072602594672,51.3370612541776],[0.236713999493665,51.3370681033874],[0.236703064214377,51.3368434810626],[0.237061665553467,51.3368366319046],[0.237420266750537,51.3368297816492],[0.237778867805564,51.3368229302964],[0.237767927382642,51.336598308117],[0.237756987101827,51.3363736859274],[0.238115584491037,51.3363668335809],[0.238474181738163,51.3363599801371],[0.238485125542705,51.336584602223],[0.238843724409584,51.3365777476299],[0.239202323134333,51.3365708919394],[0.239560921716928,51.3365640351516],[0.239549972626814,51.3363394132214],[0.239908569305379,51.3363325553881],[0.239897618595653,51.3361079334996],[0.239539023678918,51.336114791281],[0.239528074873238,51.3358901693305],[0.239517126209771,51.3356655473699],[0.239158534674461,51.3356724039502],[0.238799942997006,51.3356792594331],[0.238788997999283,51.3354546373586],[0.238430407941476,51.3354614916924],[0.238071817741573,51.3354683449288],[0.238060876409509,51.3352437227404],[0.23804993521956,51.335019100542],[0.238408521895987,51.3350122474092],[0.238767108430323,51.3350053931792],[0.239125694822544,51.3349985378519],[0.239114748489605,51.3347739157988],[0.239103802298844,51.3345492937357],[0.23909285625026,51.3343246716623],[0.23908191034385,51.3341000495789],[0.239070964579611,51.3338754274854],[0.238712386995657,51.3338822825533],[0.238353809269601,51.3338891365241],[0.237995231401466,51.3338959893975],[0.238006171880872,51.3341206116467],[0.238017112502382,51.3343452338857],[0.237658530968937,51.3343520857656],[0.237669469970893,51.3345767080463],[0.237680409114934,51.3348013303169],[0.237321823916099,51.3348081812031],[0.237310886533744,51.3345835588807],[0.236952302954578,51.3345904086178],[0.236593719233415,51.3345972572577],[0.236235135370279,51.3346041048002],[0.236246067467562,51.3348287272781],[0.236604653092391,51.3348218796837],[0.236615587093387,51.3350465020997],[0.236626521236406,51.3352711245055],[0.23663745552145,51.3354957469012],[0.236648389948522,51.3357203692868],[0.236289797276693,51.3357272170883],[0.235931204462903,51.3357340637926],[0.235942135508389,51.3359586862716],[0.236300730083988,51.3359518395156],[0.236659324517623,51.3359449916622],[0.236670259228757,51.3361696140275],[0.237028855282231,51.3361627650249],[0.237387451193692,51.336155914925],[0.237398389570557,51.3363805371765],[0.237039791897249,51.3363873873283],[0.236681194081926,51.3363942363827],[0.23632259612461,51.3364010843397],[0.236311663033293,51.3361764619327],[0.235953066695862,51.3361833087405],[0.235594470216486,51.336190154451],[0.235235873595188,51.3361969990641],[0.234877276831991,51.3362038425798],[0.234518679926917,51.3362106849982],[0.234529604208939,51.3364353076641],[0.234171005400145,51.3364421490369],[0.234181928062179,51.3366667717444],[0.234192850866093,51.3368913944419],[0.233834248391661,51.3368982348208],[0.233475645775412,51.3369050741023],[0.233117043017371,51.3369119122864],[0.23275844011756,51.3369187493731],[0.232399837076002,51.3369255853624],[0.232410751212091,51.3371502083084],[0.232052146266859,51.337157043252],[0.23206305878275,51.3373816662395],[0.232073971440394,51.337606289217],[0.232432579909591,51.3375994541699],[0.232443494471006,51.3378240770856],[0.232802104560486,51.3378172408894],[0.232813021025719,51.3380418637431],[0.232454409174201,51.338048699991],[0.232095797180947,51.3380555351415],[0.231737185045979,51.3380623691945],[0.231748096366829,51.3382869921933],[0.231759007829418,51.3385116151819],[0.23176991943375,51.3387362381605],[0.231780831179825,51.3389608611289],[0.231422212245731,51.3389676943459],[0.231433122366724,51.3391923173556],[0.231444032628708,51.339416940355],[0.231454943031687,51.3396415633442],[0.231813567268539,51.3396347299734],[0.231824479581615,51.3398593529013],[0.231835392036447,51.3400839758191],[0.231846304633037,51.3403085987268],[0.232204934389671,51.3403017641567],[0.232563564004566,51.3402949284891],[0.2329221934777,51.340288091724],[0.233280822809051,51.3402812538614],[0.233639451998595,51.3402744149012],[0.233650373548378,51.3404990375401],[0.233661295240038,51.3407236601689],[0.233672217073577,51.3409482827876],[0.233313582597121,51.340955121903],[0.233324502810191,51.3411797445633],[0.23296586642957,51.3411865826329],[0.232954947978851,51.3409619599209],[0.232944029669967,51.3407373371987],[0.232585396672238,51.3407441740673],[0.232226763532742,51.3407510098383],[0.231868130251504,51.3407578445118],[0.231879043273385,51.3409824673891],[0.231889956437033,51.3412070902563]]],[[[0.239560921716928,51.3365640351516],[0.239571870949264,51.3367886570717],[0.239582820323822,51.3370132789817],[0.239941422288013,51.3370064209927],[0.240300024110001,51.3369995619063],[0.240289071211648,51.3367749401002],[0.240278118455565,51.3365503182839],[0.239919520157346,51.3365571772664],[0.239560921716928,51.3365640351516]]],[[[0.240300024110001,51.3369995619063],[0.240310977150625,51.3372241837024],[0.240321930333521,51.3374488054883],[0.240332883658694,51.3376734272641],[0.240691490624269,51.3376665669246],[0.240680535537136,51.3374419452007],[0.2406695805923,51.3372173234667],[0.241028183891724,51.3372104621337],[0.241039140598496,51.3374350838157],[0.241050097447587,51.3376597054877],[0.241061054439004,51.3378843271495],[0.241419662882022,51.3378774645633],[0.241778271182736,51.3378706008796],[0.241767310667364,51.3376459793217],[0.241756350294362,51.3374213577536],[0.242114954928821,51.3374144930764],[0.242125917063775,51.3376391145926],[0.242484523317839,51.337632248766],[0.242473559420937,51.3374076273019],[0.242462595666446,51.3371830058275],[0.242103992936256,51.3371898715502],[0.241745390063725,51.3371967361754],[0.241734429975454,51.336972114587],[0.241375828722509,51.3369789780629],[0.241017227327272,51.3369858404415],[0.240658625789761,51.3369927017226],[0.240300024110001,51.3369995619063]]],[[[0.239418594889247,51.333643949282],[0.23942954202144,51.3338685713201],[0.239788119329098,51.333861714058],[0.239799068608568,51.3340863360474],[0.240157647527681,51.3340794776357],[0.240146696495424,51.3338548556986],[0.240505273520306,51.333847996242],[0.24086385040372,51.3338411356882],[0.241222427145643,51.3338342740371],[0.241581003746054,51.3338274112888],[0.241939580204931,51.3338205474433],[0.241928620827243,51.3335959257707],[0.241917661591157,51.333371304088],[0.241906702496668,51.3331466823951],[0.24154813128581,51.333153546084],[0.241189559933424,51.3331604086756],[0.240830988439533,51.33316727017],[0.240841942286064,51.3333918920195],[0.240483368901366,51.3333987524689],[0.240124795375205,51.3334056118211],[0.239766221707605,51.333412470076],[0.239777170447619,51.3336370920721],[0.239418594889247,51.333643949282]]],[[[0.239985228256348,51.3379049083237],[0.239974276550884,51.3376802865061],[0.239615669300862,51.3376871446508],[0.239626619244339,51.3379117665202],[0.239637569330049,51.3381363883795],[0.239648519557998,51.3383610102287],[0.240007132094054,51.3383541519284],[0.240365744487891,51.3383472925306],[0.240724356739486,51.3383404320354],[0.240735312395837,51.3385650537187],[0.241093926267218,51.3385581920741],[0.241082968848817,51.3383335704427],[0.241072011572746,51.3381089488012],[0.240713401225442,51.3381158103419],[0.240702445853704,51.3378911886383],[0.240343837126144,51.3378980490297],[0.239985228256348,51.3379049083237]]],[[[0.238627407938544,51.3395046884171],[0.238616462285825,51.339280066463],[0.238605516775289,51.3390554444987],[0.238964135024124,51.3390485893351],[0.239322753130801,51.339041733074],[0.239311804238229,51.3388171112033],[0.23967042044062,51.3388102538966],[0.239659469928188,51.3385856320677],[0.239300855487877,51.3385924893225],[0.239289906879747,51.3383678674316],[0.238931294059323,51.3383747235371],[0.238572681096747,51.3383815785451],[0.238583626180752,51.3386062005397],[0.238225011313982,51.3386130545022],[0.238235954778073,51.3388376765386],[0.238246898384319,51.3390622985648],[0.237888279851236,51.3390691515335],[0.237899221837501,51.3392937736015],[0.23754060140019,51.3393006255246],[0.237181980820809,51.3393074763502],[0.237192919424885,51.3395320985117],[0.237203858171054,51.3397567206631],[0.237562482274787,51.3397498697339],[0.237921106236444,51.3397430177071],[0.237932048649126,51.3399676397447],[0.237573422925261,51.3399744918233],[0.237584363717858,51.3401991139027],[0.237595304652578,51.3404237359718],[0.237606245729425,51.3406483580309],[0.237964876740047,51.3406415057968],[0.237975819721319,51.3408661277939],[0.238334452352131,51.3408592744103],[0.238323507608563,51.3406346524651],[0.238682138334949,51.3406277980359],[0.238671191971285,51.3404031761324],[0.239029820793251,51.3403963206576],[0.239040768919183,51.3406209425092],[0.239051717187335,51.3408455643507],[0.239410349391682,51.3408387076745],[0.23976898145383,51.3408318499009],[0.239758029661105,51.3406072281631],[0.239747078010643,51.3403826064153],[0.239736126502445,51.3401579846573],[0.239725175136506,51.3399333628892],[0.239714223912824,51.3397087411109],[0.240072847021559,51.3397018824992],[0.240061894177962,51.3394772607628],[0.239703272831396,51.3394841193226],[0.239692321892222,51.3392594975241],[0.239333702165598,51.3392663549345],[0.239344651342623,51.3394909767849],[0.238986029711665,51.3394978331498],[0.238627407938544,51.3395046884171]]],[[[0.237628128309505,51.3410976021187],[0.237617186948399,51.3408729800798],[0.237258554033393,51.3408798312683],[0.237247614576718,51.3406552091675],[0.23723667526215,51.3404305870566],[0.236878045729661,51.3404374370438],[0.236519416055139,51.3404442859336],[0.236530351845145,51.3406689081481],[0.236171720266323,51.3406757559921],[0.236182654436082,51.3409003782483],[0.236193588747882,51.3411250004945],[0.235834953502424,51.3411318473445],[0.235845886193911,51.3413564696323],[0.236204523201724,51.3413496227304],[0.236215457797611,51.3415742449563],[0.236226392535546,51.341798867172],[0.236585032926132,51.341792019069],[0.23694367317469,51.3417851698683],[0.237302313281197,51.3417783195701],[0.237313253448437,51.3420029416202],[0.237324193847815,51.3422275636927],[0.236965550235635,51.3422344141027],[0.236976489656314,51.3424590364559],[0.2369874292207,51.3426836587991],[0.236998368928795,51.3429082811323],[0.237357017907196,51.3429014305716],[0.237715666741903,51.3428945789132],[0.238074315432892,51.342887726157],[0.238063370358514,51.3426631039746],[0.238052425427915,51.3424384817821],[0.238411070397675,51.3424316280288],[0.238400123822141,51.3422070058766],[0.238389178202662,51.3419823839845],[0.238030536760034,51.3419892376273],[0.237671895175284,51.3419960901726],[0.237660953245631,51.3417714681743],[0.237650011458118,51.3415468461659],[0.237639069812744,51.3413222241473],[0.237628128309505,51.3410976021187]]],[[[0.232345268522054,51.3358024704807],[0.232334355236548,51.335577847474],[0.232692947706904,51.335571011795],[0.23270386275422,51.33579563475],[0.233062456844651,51.3357887979219],[0.233421050793325,51.3357819599964],[0.233410132222395,51.3355573371449],[0.233399213793289,51.3353327142832],[0.233388295506003,51.3351080914114],[0.233029706842679,51.3351149291817],[0.23301879045895,51.334890306248],[0.232660203415615,51.3348971428693],[0.232671118037604,51.3351217658546],[0.232312529090801,51.3351286014302],[0.231953940002292,51.3351354359085],[0.231964851242522,51.3353600589871],[0.23160626033872,51.3353668924299],[0.231247669482715,51.3353737247972],[0.231258577348172,51.3355983479709],[0.231269485354582,51.3358229711343],[0.231280393501948,51.3360475942874],[0.230921797255738,51.3360544257189],[0.230932703794249,51.3362790489156],[0.230574105657334,51.3362858793036],[0.230585010586946,51.3365105025438],[0.230943610473697,51.3365036721021],[0.230954517294086,51.3367282952783],[0.2313131187898,51.3367214636854],[0.231324027501011,51.3369460867976],[0.231682630605682,51.3369392540537],[0.231671720144594,51.3367146309954],[0.232030321660323,51.3367077972465],[0.232388923081681,51.3367009624063],[0.232747524361316,51.3366941264687],[0.232736608746862,51.3364695035542],[0.232725693274197,51.3362448806296],[0.232714777943317,51.3360202576948],[0.232356181949317,51.3360270934773],[0.232345268522054,51.3358024704807]]],[[[0.231854310753907,51.325694425422],[0.231865217823771,51.3259190488671],[0.231506700637143,51.3259258811473],[0.231148183391105,51.325932712285],[0.231159087098207,51.3261573358332],[0.230800567962546,51.3261641659299],[0.230811470061706,51.3263887895234],[0.230452949036417,51.326395618579],[0.230463849527588,51.3266202422179],[0.230822372301719,51.3266134131066],[0.230833274682591,51.3268380366794],[0.231191799064774,51.3268312064157],[0.23155032330612,51.3268243750553],[0.231539417427525,51.3265997515938],[0.231897939878822,51.3265929191418],[0.231887032386225,51.326368295727],[0.232245553049899,51.3263614621783],[0.232234643949558,51.3261368388055],[0.232593162723686,51.3261300042118],[0.232582252015644,51.3259053808808],[0.23222373499015,51.3259122154225],[0.232212826171672,51.3256875920293],[0.231854310753907,51.325694425422]]],[[[0.227160947923468,51.3251092854845],[0.22717183182959,51.3253339097844],[0.227530345377356,51.3253270908735],[0.227888858784537,51.3253202708658],[0.227899746328539,51.3255448950424],[0.228258261343649,51.3255380738865],[0.228616776218162,51.3255312516318],[0.22897529095204,51.3255244282792],[0.229333805545241,51.3255176038299],[0.229344700226616,51.3257422276857],[0.229703216427783,51.3257354020873],[0.229714112998906,51.3259600258685],[0.230072630808117,51.3259531991177],[0.230083529268826,51.326177822833],[0.230442048686078,51.3261709949298],[0.23043114847657,51.3259463712702],[0.230420248407888,51.3257217476003],[0.230409348480552,51.3254971239012],[0.230050834309519,51.3255039516409],[0.230039936274067,51.3252793277873],[0.230029038379404,51.3250547039235],[0.229670527564768,51.3250615304573],[0.229312016609414,51.3250683558943],[0.229301122352612,51.3248437319111],[0.229290228236549,51.3246191079176],[0.228931720637559,51.3246259321488],[0.228942613005103,51.3248505561969],[0.228584103516923,51.3248573793859],[0.228594994276639,51.3250820034781],[0.228236482899266,51.3250888256249],[0.227877971381264,51.3250956466749],[0.227867084118643,51.3248710224736],[0.227508574208587,51.3248778423724],[0.227150064157951,51.3248846611743],[0.227160947923468,51.3251092854845]]]]}}