{"type":"Feature","properties":{"code":"E63001326","name":"Stretford"},"geometry":{"type":"Polygon","coordinates":[[[-2.28604540060279,53.4489614564196],[-2.28642182522913,53.4489605533663],[-2.28642333135832,53.4491852647699],[-2.28642483750798,53.4494099761651],[-2.28604840885386,53.4494108792118],[-2.28604991301006,53.4496355905952],[-2.28567348232155,53.4496364924524],[-2.28567498448423,53.4498612038241],[-2.28529855176134,53.4498621044918],[-2.28530005193045,53.4500868158517],[-2.28530155212152,53.4503115272004],[-2.28567798887394,53.4503106265405],[-2.28567949111426,53.4505353378778],[-2.28605592986846,53.4505344360404],[-2.28605743415156,53.450759147378],[-2.28605893845518,53.4509838587073],[-2.28643538123347,53.4509829557011],[-2.28643688757995,53.4512076670307],[-2.28643839394696,53.4514323783519],[-2.28681484074943,53.4514314741768],[-2.28719128753134,53.4514305688154],[-2.28756773429264,53.4514296622677],[-2.2875692467474,53.4516543736067],[-2.28794569551047,53.4516534658814],[-2.2879441810333,53.4514287545337],[-2.28832062775331,53.4514278456133],[-2.28869707445264,53.4514269355067],[-2.28869555595137,53.4512022241332],[-2.28907200060761,53.4512013128316],[-2.2894484452431,53.4512004003436],[-2.28982488985784,53.4511994866693],[-2.28982336531022,53.4509747752615],[-2.29019980788181,53.4509738603923],[-2.29057625043258,53.4509729443368],[-2.29057472186111,53.4507482329033],[-2.29095116236871,53.4507473156529],[-2.29132760285544,53.4507463972161],[-2.29132607026022,53.4505216857571],[-2.29094963179579,53.4505226042025],[-2.29057319331048,53.4505235214615],[-2.29057166478068,53.4502988100113],[-2.29057013637806,53.4500740986055],[-2.29056860801319,53.4498493871997],[-2.29056707966908,53.4496246757855],[-2.29094351008958,53.4496237585078],[-2.29131994048928,53.4496228400438],[-2.2913214728613,53.4498475514644],[-2.29169790525411,53.4498466318174],[-2.29207433762607,53.4498457109842],[-2.29207587404687,53.4500704224028],[-2.2920774105075,53.450295133823],[-2.29245384688688,53.4502942118102],[-2.29245230841192,53.4500695003865],[-2.29245076997714,53.4498447889648],[-2.2928272023073,53.4498438657592],[-2.29282566187947,53.4496191543259],[-2.29282412147257,53.4493944428842],[-2.29320054975391,53.4493935184861],[-2.29319900735405,53.4491688070329],[-2.29319746497513,53.4489440955712],[-2.29319592261718,53.4487193841011],[-2.29357234483594,53.4487184585074],[-2.29357080048512,53.4484937470257],[-2.29319438028017,53.4484946726225],[-2.29319283796413,53.4482699611356],[-2.292816419752,53.4482708855494],[-2.29281796005426,53.4484955970332],[-2.29244153980741,53.4484965202577],[-2.29244307811678,53.44872123173],[-2.2920666558352,53.4487221537652],[-2.29206819215163,53.4489468652258],[-2.29169176783532,53.4489477860717],[-2.29169023353274,53.4487230746143],[-2.29131381120941,53.4487239942772],[-2.29131227894149,53.4484992828145],[-2.29093585861115,53.4485002012944],[-2.29093432837784,53.4482754898265],[-2.29055791004049,53.4482764071234],[-2.29055638184174,53.4480516956503],[-2.29055485366375,53.4478269841687],[-2.29055332550652,53.4476022726787],[-2.29092973780266,53.4476013553721],[-2.29092820765252,53.4473766438705],[-2.29130461791417,53.4473757253746],[-2.29168102815499,53.4473748056926],[-2.29167949399833,53.4471500941762],[-2.29205590220464,53.447149173305],[-2.29243231039007,53.4471482512476],[-2.29243077222699,53.4469235397164],[-2.29280717837788,53.4469226164698],[-2.2928056382221,53.4466979049271],[-2.29318204233845,53.4466969804912],[-2.29355844643384,53.4466960548693],[-2.29355999061683,53.4469207664184],[-2.29356153482079,53.4471454779589],[-2.29318512669817,53.4471464035746],[-2.29318666890946,53.4473711151036],[-2.29356307904573,53.4473701894911],[-2.29393948916101,53.4473692626925],[-2.29431589925527,53.4473683347078],[-2.29431435100302,53.4471436231694],[-2.29431280277181,53.4469189116225],[-2.29468920881774,53.4469179824455],[-2.29468765859396,53.4466932708872],[-2.29468610839124,53.4464685593204],[-2.29468455820958,53.4462438477452],[-2.29506095819373,53.4462429173728],[-2.29505940601961,53.4460182057861],[-2.29505785386657,53.445793494191],[-2.29505630173462,53.4455687825874],[-2.2954326956572,53.4455678510197],[-2.2954311415329,53.4453431394047],[-2.2954295874297,53.4451184277812],[-2.29542803334762,53.4448937161493],[-2.29542647928665,53.444669004509],[-2.29505009341765,53.444669936089],[-2.29467370752755,53.4446708664831],[-2.29429732161638,53.4446717956912],[-2.29392093568417,53.4446727237133],[-2.29354454973095,53.4446736505494],[-2.29354300575772,53.4444489389162],[-2.29316662179684,53.4444498645694],[-2.29316507985789,53.444225152931],[-2.29316353793989,53.444000441284],[-2.29316199604284,53.4437757296287],[-2.29316045416673,53.443551017965],[-2.29353683007457,53.4435500922992],[-2.29353528620621,53.4433253806239],[-2.29391166007987,53.4433244537691],[-2.29428803393251,53.4433235257283],[-2.29466440776411,53.4433225965016],[-2.29504078157465,53.4433216660889],[-2.29541715536409,53.4433207344903],[-2.29541870929842,53.4435454461812],[-2.29579508507993,53.4435445133997],[-2.29579664104858,53.4437692250852],[-2.29617301882216,53.4437682911209],[-2.29654939657457,53.4437673559707],[-2.29654783657949,53.4435426442791],[-2.29654627660559,53.4433179325791],[-2.29654471665288,53.4430932208706],[-2.29654315672136,53.4428685091538],[-2.29616678702166,53.4428694443162],[-2.29616522912444,53.442644732594],[-2.29616367124838,53.4424200208634],[-2.29616211339347,53.4421953091243],[-2.29616055555973,53.4419705973768],[-2.29615899762592,53.4417458856793],[-2.29615743969086,53.4415211739842],[-2.29615588177709,53.4412964622807],[-2.29615432388462,53.4410717505688],[-2.29615276601345,53.4408470388486],[-2.29652911751303,53.4408461036376],[-2.29690546899127,53.4408451672407],[-2.29728182044814,53.440844229658],[-2.29765817188362,53.4408432908894],[-2.29765973787444,53.4410680026394],[-2.29803609131841,53.4410670626924],[-2.29841244474092,53.4410661215595],[-2.29878879814196,53.4410651792407],[-2.29879037024401,53.4412898910046],[-2.29916672565348,53.4412889475073],[-2.29954308104142,53.4412880028242],[-2.2999194364078,53.4412870569552],[-2.29992101462124,53.4415117687328],[-2.29992259285625,53.441736480502],[-2.29992417107665,53.4419611922657],[-2.29992574904066,53.4421859040433],[-2.29992732702611,53.4424106158125],[-2.30030369248638,53.442409668785],[-2.30068005792517,53.4424087205717],[-2.30068163995821,53.4426334323383],[-2.30105800738858,53.442632482942],[-2.30143437471094,53.4426315323254],[-2.30181073205789,53.4426305765652],[-2.30218708938342,53.4426296196193],[-2.30256344668749,53.4426286614875],[-2.30256503871167,53.4428533731926],[-2.30294139798955,53.4428524138611],[-2.30331775724592,53.4428514533438],[-2.30369411648076,53.4428504916407],[-2.30407047569402,53.4428495287519],[-2.30406887568864,53.4426248171031],[-2.30444523288501,53.4426238530426],[-2.30444683488569,53.4428485646773],[-2.30482319405575,53.442847599417],[-2.30482479807336,53.443072311029],[-2.3052011592171,53.4430713445688],[-2.30557752033915,53.4430703769228],[-2.30595388143951,53.443069408091],[-2.30595549146482,53.4432941196522],[-2.30595710151184,53.4435188312047],[-2.30595871158057,53.4437435427487],[-2.30596032167101,53.4439682542841],[-2.30558395258909,53.4439692231724],[-2.30558556070578,53.4441939347134],[-2.30596193178317,53.444192965811],[-2.30596354191704,53.4444176773293],[-2.30633991496819,53.4444167072269],[-2.30633830283883,53.4441919957227],[-2.30633669073121,53.44396728421],[-2.30633507864533,53.4437425726887],[-2.30671144568834,53.443741601443],[-2.3067098316288,53.4435168899273],[-2.30670821759102,53.443292178403],[-2.30670660357501,53.4430674668702],[-2.30670498958076,53.4428427553288],[-2.30708134862053,53.4428417829538],[-2.30707973265274,53.4426170714181],[-2.30707811670675,53.4423923598737],[-2.30670176165756,53.4423933322203],[-2.3067001477286,53.4421686206532],[-2.30707650078255,53.4421676483208],[-2.30707488488014,53.4419429367593],[-2.30707326853136,53.4417182252479],[-2.30707165218757,53.4414935137301],[-2.30707003586563,53.4412688022036],[-2.30744638089463,53.4412678287529],[-2.30744476259257,53.4410431172356],[-2.30744314431239,53.4408184057097],[-2.30781948531558,53.4408174311087],[-2.30819582629686,53.4408164553221],[-2.30857216725619,53.4408154783499],[-2.30857379154219,53.4410401898226],[-2.30895013448148,53.441039211647],[-2.30894850819354,53.440814500192],[-2.30894688192758,53.4405897887284],[-2.30932322084103,53.4405888094027],[-2.30969955973244,53.4405878288913],[-2.3096979294847,53.4403631174547],[-2.31007426635217,53.4403621357754],[-2.31045060319757,53.4403611529105],[-2.31082694002085,53.44036016886],[-2.311203276822,53.4403591836239],[-2.31157961360099,53.4403581972022],[-2.31195595035779,53.4403572095948],[-2.31233228709237,53.4403562208018],[-2.31270862380471,53.4403552308232],[-2.31270697756417,53.4401305195205],[-2.31270533134587,53.4399058082092],[-2.31270368514982,53.4396810968893],[-2.31270203897601,53.4394563855608],[-2.31307836765883,53.439455394468],[-2.31307671950553,53.4392306831488],[-2.31307507137451,53.439005971821],[-2.31345139603157,53.4390049795783],[-2.3138277206663,53.4390039861501],[-2.31382937280077,53.4392286974422],[-2.31383102495756,53.4394534087257],[-2.31420735357341,53.4394524140761],[-2.31458368216688,53.439451418241],[-2.31496001073795,53.4394504212203],[-2.31495835257593,53.4392257099905],[-2.31533467912283,53.4392247118021],[-2.31571100564727,53.4392237124282],[-2.31608733214922,53.4392227118687],[-2.31608899631647,53.4394474230447],[-2.31646532479766,53.4394464212817],[-2.31684165325631,53.439445418333],[-2.31721798169239,53.4394444141988],[-2.31721965188743,53.4396691253124],[-2.31722132210505,53.4398938364173],[-2.31722299234523,53.4401185475137],[-2.31722466260799,53.4403432586015],[-2.31722633289332,53.4405679696806],[-2.31684999444813,53.4405689739046],[-2.31685166275413,53.4407936849931],[-2.31685333108267,53.4410183960731],[-2.31647698861108,53.4410193991474],[-2.31610064611695,53.441020401036],[-2.31610231046413,53.4412451121432],[-2.31647865496022,53.4412441102366],[-2.31648032133187,53.4414688213173],[-2.3168566678074,53.4414678182071],[-2.31723301426036,53.4414668139112],[-2.31760936069073,53.4414658084297],[-2.31761103309093,53.4416905194479],[-2.31798738150069,53.4416895127627],[-2.31798905592553,53.4419142237543],[-2.3183654058373,53.4419132162653],[-2.31874175553835,53.4419122077481],[-2.31874343335363,53.4421369188504],[-2.31874511112375,53.4423616299596],[-2.31912146479088,53.4423606202247],[-2.31912314457684,53.4425853313093],[-2.31912482438543,53.4428100423853],[-2.31912650421666,53.4430347534528],[-2.31950286384092,53.4430337424843],[-2.31987922344251,53.44303273033],[-2.3202555830214,53.4430317169899],[-2.32025726885521,53.4432564280008],[-2.32063363040468,53.443255413459],[-2.32063531825454,53.4434801244453],[-2.3210116817746,53.4434791087017],[-2.32101337164058,53.4437038196633],[-2.32138973713121,53.4437028027179],[-2.32139142901335,53.443927513655],[-2.32176779647457,53.4439264955078],[-2.32176949037293,53.4441512064202],[-2.32214585980473,53.4441501870712],[-2.32252222921367,53.4441491665363],[-2.3228985985997,53.4441481448156],[-2.32327496796282,53.4441471219092],[-2.32365133730299,53.4441460978169],[-2.32402770662018,53.4441450725389],[-2.32402941250205,53.4443697833463],[-2.32440578378969,53.4443687568663],[-2.32478215505429,53.4443677292006],[-2.3247838649461,53.4445924399671],[-2.32516023818112,53.4445914110995],[-2.32515852629584,53.444366700349],[-2.32553489751431,53.4443656703116],[-2.32553661139306,53.4445903810459],[-2.32591298458189,53.4445893498066],[-2.32628935774758,53.4445883173815],[-2.3266657308901,53.4445872837705],[-2.32666745077244,53.4448119944478],[-2.32704382588527,53.4448109596348],[-2.32742020097488,53.4448099236361],[-2.32779657604125,53.4448088864515],[-2.32779830192733,53.4450335970716],[-2.32817467896395,53.445032558685],[-2.32817640686683,53.4452572692803],[-2.32780002783666,53.4452583076831],[-2.32780175376924,53.445483018286],[-2.32780347972507,53.4457077288803],[-2.32742709668445,53.4457087661297],[-2.32742882066991,53.4459334767317],[-2.3274305446786,53.446158187325],[-2.32743226871051,53.4463828979098],[-2.32743399276566,53.446607608486],[-2.32743571684403,53.4468323190536],[-2.32743744094563,53.4470570296126],[-2.32743916507046,53.4472817401631],[-2.32744088921853,53.4475064507049],[-2.32744261338982,53.4477311612382],[-2.32744433758434,53.4479558717629],[-2.3274460618021,53.448180582279],[-2.32744778604309,53.4484052927865],[-2.32744951030731,53.4486300032854],[-2.32745123459476,53.4488547137758],[-2.32745295890545,53.4490794242575],[-2.32745468323937,53.4493041347307],[-2.32745640759652,53.4495288451953],[-2.32745813197691,53.4497535556513],[-2.32745985638053,53.4499782660987],[-2.32746158080739,53.4502029765375],[-2.32783800372572,53.4502019389641],[-2.32783973020579,53.4504266495472],[-2.32784145672373,53.4506513601906],[-2.32784318326494,53.4508760708253],[-2.32784490982943,53.4511007814514],[-2.32784663641721,53.4513254920688],[-2.32784836302826,53.4515502026777],[-2.32785008966259,53.4517749132778],[-2.32785181632019,53.4519996238693],[-2.32785354300108,53.4522243344522],[-2.32785526970525,53.4524490450264],[-2.32823171255783,53.4524480060413],[-2.32860815538707,53.45244696587],[-2.32860988610646,53.4526716763903],[-2.32898633090832,53.4526706350103],[-2.3293627756868,53.4526695924442],[-2.32973922044187,53.452668548692],[-2.3301156651735,53.4526675037537],[-2.33049210988167,53.4526664576293],[-2.33086855456635,53.4526654103189],[-2.33086681187117,53.4524406999347],[-2.33124325453637,53.4524396514609],[-2.33161969717802,53.4524386018009],[-2.33199613979611,53.4524375509549],[-2.33199439113661,53.4522128406303],[-2.33237083173516,53.452211788621],[-2.3327472723101,53.4522107354255],[-2.33312371286138,53.452209681044],[-2.33350015338898,53.4522086254764],[-2.33349839676942,53.4519839152342],[-2.33387483527741,53.4519828585033],[-2.33425127376167,53.4519818005864],[-2.33462771222218,53.4519807414834],[-2.3350041505914,53.4519796815594],[-2.33500238601597,53.4517549713905],[-2.33537882233441,53.4517539104904],[-2.33575525862906,53.4517528484041],[-2.33613169489989,53.4517517851317],[-2.33650813114689,53.4517507206732],[-2.33650635863341,53.4515260105451],[-2.3368827928661,53.4515249449128],[-2.33725922707489,53.4515238780943],[-2.33763566125976,53.4515228100897],[-2.33763388279888,53.4512980999902],[-2.33801031496939,53.4512970308119],[-2.33838674711592,53.4512959604474],[-2.33876317923845,53.4512948888968],[-2.33913961133696,53.45129381616],[-2.3391413977595,53.4515185262098],[-2.33914318420608,53.451743236251],[-2.33951962026139,53.4517421623032],[-2.33952140872247,53.4519668723234],[-2.33914497067669,53.4519679462836],[-2.33914675717134,53.4521926563077],[-2.33952319720761,53.4521915823351],[-2.33952498571681,53.4524162923381],[-2.33952677425007,53.4526410023327],[-2.3395285628074,53.4528657123187],[-2.33953035138878,53.4530904222961],[-2.33953213999424,53.453315132265],[-2.33953392862375,53.4535398422254],[-2.33953571727733,53.4537645521771],[-2.33953750595497,53.4539892621204],[-2.33953929465668,53.4542139720551],[-2.33954108338245,53.4544386819812],[-2.33916462343976,53.4544397560783],[-2.33916641019881,53.4546644660084],[-2.3391681969819,53.4548891759298],[-2.33916998378903,53.4551138858428],[-2.3391717706202,53.4553385957471],[-2.33917355747541,53.455563305643],[-2.33879708755444,53.455564378616],[-2.33879887244277,53.4557890885157],[-2.33880065735511,53.4560137984069],[-2.33880244229147,53.4562385082895],[-2.33880422725184,53.4564632181636],[-2.33842774934297,53.45646429],[-2.33842596637361,53.4562395801135],[-2.33842418342823,53.4560148702185],[-2.33804770947733,53.4560159408438],[-2.33804592854689,53.4557912309278],[-2.33766945656297,53.4557923003543],[-2.33729298455509,53.4557933685945],[-2.33729476150363,53.4560180785353],[-2.33767123550246,53.4560170102827],[-2.33767301446588,53.4562417202026],[-2.33804949043173,53.4562406507512],[-2.3380512714101,53.4564653606501],[-2.33805305241242,53.4566900705405],[-2.33805483343871,53.4569147804223],[-2.33805661448896,53.4571394902955],[-2.33843309839502,53.4571384196082],[-2.33843131535368,53.4569137097473],[-2.33880779724464,53.456912637886],[-2.33880958227706,53.4571373477344],[-2.3388113673335,53.4573620575743],[-2.33843488146035,53.4573631294605],[-2.33805839556318,53.4573642001603],[-2.33806017666136,53.4575889100164],[-2.33843666454967,53.4575878393042],[-2.33881315241396,53.4575867674056],[-2.33881493751843,53.4578114772283],[-2.33843844766298,53.4578125491394],[-2.33844023080028,53.458037258966],[-2.33844201396157,53.4582619687841],[-2.33844379714686,53.4584866785936],[-2.33882029297598,53.4584856066453],[-2.33919678878105,53.4584845335105],[-2.33919857583206,53.4587092435199],[-2.33920036276048,53.4589339537638],[-2.33957686252926,53.4589328794056],[-2.33995336227391,53.458931803861],[-2.33995515321423,53.4591565140582],[-2.33995694417866,53.4593812242467],[-2.33958044044617,53.4593822998294],[-2.33957865147566,53.4591575896218],[-2.33920214971298,53.459158663999],[-2.3388256479262,53.4591597371899],[-2.33844914611536,53.4591608091943],[-2.33844736315068,53.458936098921],[-2.33844558021002,53.458711388639],[-2.33806908236294,53.458712459419],[-2.33807086330971,53.4589371697199],[-2.33807264428048,53.4591618800123],[-2.33769614242159,53.4591629496438],[-2.33769792142242,53.4593876599466],[-2.3373214175456,53.4593887284107],[-2.33732319457643,53.4596134387238],[-2.3373249716312,53.4598381490283],[-2.33694846374247,53.4598392163441],[-2.33695023882716,53.4600639266589],[-2.33695201393576,53.4602886369652],[-2.33657550203504,53.4602897031324],[-2.33619899011041,53.4602907681132],[-2.3361972189899,53.460066057769],[-2.33657372892048,53.4600649928072],[-2.33657195582981,53.4598402824733],[-2.33619544789325,53.4598413474162],[-2.33619367682046,53.4596166370548],[-2.33581717085401,53.4596177007922],[-2.33544066486371,53.4596187633432],[-2.33506415884958,53.4596198247078],[-2.33468765275811,53.4596208850445],[-2.33431114641801,53.4596219448604],[-2.33393464005413,53.4596230034899],[-2.33393288097497,53.4593982930331],[-2.33393112191954,53.4591735825678],[-2.33392936288783,53.4589488720939],[-2.33392760387986,53.4587241616116],[-2.33392584475387,53.4584994513528],[-2.33392408547436,53.4582747413756],[-2.33430057985419,53.4582736828201],[-2.33467707421024,53.4582726230782],[-2.33467531096119,53.4580479131379],[-2.33505180310305,53.4580468528883],[-2.33505356834335,53.4582715628178],[-2.33543006239638,53.4582705015598],[-2.33542829516485,53.4580457916426],[-2.33580478720286,53.4580447292105],[-2.33580301800391,53.4578200192971],[-2.33580124882877,53.4575953093752],[-2.33542476077313,53.4575963717826],[-2.3350482726937,53.4575974330036],[-2.3346717845344,53.4575984932316],[-2.33429529616816,53.457599552905],[-2.33391880777815,53.4576006113921],[-2.3335423193644,53.457601668693],[-2.33354056217632,53.4573769586584],[-2.33316407573541,53.4573780147501],[-2.33316583092693,53.4576027248075],[-2.33278934246578,53.4576037797357],[-2.33279109568439,53.4578284898072],[-2.332414605203,53.4578295435718],[-2.33203811469797,53.4578305961502],[-2.33203636547252,53.4576058860331],[-2.33165987694047,53.4576069374024],[-2.33128338838484,53.4576079875854],[-2.33090689980566,53.457609036582],[-2.33090515659346,53.4573843263881],[-2.33090341340477,53.4571596161855],[-2.33052692879514,53.4571606639504],[-2.33015044416202,53.457161710529],[-2.33015218335765,53.457386420777],[-2.32977569670453,53.457387466192],[-2.32939921002796,53.4573885104207],[-2.32902272332798,53.4573895534631],[-2.32902099012193,53.4571648431471],[-2.32901925693926,53.4569401328223],[-2.32864277420892,53.4569411746331],[-2.32826629145522,53.4569422152575],[-2.32788980867818,53.4569432546957],[-2.32751332587783,53.4569442929476],[-2.3271368430542,53.4569453300132],[-2.32676036020731,53.4569463658925],[-2.3263838773372,53.4569474005856],[-2.32600739444388,53.4569484340923],[-2.3260091116545,53.4571731445982],[-2.3256326267415,53.4571741769412],[-2.32563091152739,53.4569494664128],[-2.32525442858775,53.456950497547],[-2.32487794562499,53.4569515274948],[-2.32450146263913,53.4569525562564],[-2.32449975343759,53.4567278456516],[-2.32412327242515,53.4567288732043],[-2.32374679138968,53.4567298995708],[-2.32374508620409,53.4565051889123],[-2.32336860714206,53.4565062140699],[-2.32299212805704,53.4565072380413],[-2.32299042688731,53.456282527329],[-2.32261394977576,53.4562835500916],[-2.32261225062537,53.4560588393482],[-2.3226105514979,53.4558341285961],[-2.3222340783562,53.4558351501274],[-2.3218576051916,53.4558361704725],[-2.32185591007974,53.4556114596668],[-2.32185421499073,53.4553867488524],[-2.32147774579593,53.4553877679663],[-2.32147605272608,53.4551630571208],[-2.32109958550472,53.4551640750259],[-2.32109789445397,53.4549393641494],[-2.32109620342602,53.4547146532641],[-2.32071974017436,53.4547156699381],[-2.32034327689991,53.4547166854259],[-2.3203415898872,53.4544919744871],[-2.32033990289724,53.4542672635397],[-2.31996344359243,53.4542682777963],[-2.31996175862137,53.4540435668178],[-2.31958530128999,53.4540445798659],[-2.3192088439359,53.4540455917278],[-2.31920716297984,53.4538208806958],[-2.31920548204645,53.4535961696551],[-2.31882902866192,53.453597180286],[-2.31845257525474,53.4535981897308],[-2.31807612179215,53.4535991980061],[-2.31807779674036,53.4538239091119],[-2.31770134066729,53.4538249165163],[-2.31732488457172,53.4538259227345],[-2.31694842845366,53.4538269277663],[-2.31657197231314,53.4538279316119],[-2.31619551615018,53.4538289342713],[-2.31619718117731,53.4540536454196],[-2.31582072300323,53.4540546469028],[-2.31582238606399,53.4542793580528],[-2.31544592587879,53.4542803583599],[-2.31544426480678,53.4540556471998],[-2.31506780658797,53.4540566463104],[-2.31469134834684,53.4540576442348],[-2.31469300544135,53.4542823554152],[-2.31431654518918,53.4542833521635],[-2.31394008491473,53.4542843477254],[-2.31356362461804,53.4542853421011],[-2.31318716429913,53.4542863352904],[-2.31318881346081,53.4545110465028],[-2.31281235113093,53.454512038516],[-2.31243588877888,53.4545130293428],[-2.31243753398512,53.4547377405669],[-2.31206106962213,53.4547387302175],[-2.31168460523704,53.4547397186818],[-2.31168624648773,53.4549644299174],[-2.31130978009171,53.4549654172055],[-2.31093331367364,53.4549664033072],[-2.31093495096867,53.4551911145544],[-2.31055848253971,53.4551920994799],[-2.31018201408873,53.455193083219],[-2.31018364742801,53.4554177944778],[-2.30980717696617,53.4554187770406],[-2.30980554561578,53.4551940657718],[-2.30980391428733,53.4549693544946],[-2.30942744778129,53.454970335851],[-2.30942907712088,53.4551950471383],[-2.30943070648238,53.4554197584171],[-2.30943233586578,53.4556444696873],[-2.30905586337114,53.4556454498874],[-2.30867939085461,53.4556464289012],[-2.30868101628203,53.4558711401829],[-2.30830454175468,53.4558721180203],[-2.30792806720549,53.4558730946713],[-2.30792644575596,53.4556483833697],[-2.30792482432823,53.4554236720595],[-2.30754835373508,53.4554246475043],[-2.3075499731739,53.4556493588244],[-2.30717350057004,53.4556503330928],[-2.30679702794442,53.4556513061748],[-2.30679864342711,53.4558760175063],[-2.30680025893153,53.4561007288292],[-2.30642378230625,53.4561017007447],[-2.30642539584338,53.456326412069],[-2.30604891720739,53.4563273828081],[-2.30605052877719,53.4565520941339],[-2.30567404813049,53.4565530636964],[-2.30529756746213,53.4565540320727],[-2.30529917507549,53.4567787434097],[-2.30492269239644,53.4567797106094],[-2.30492429804233,53.4570044219478],[-2.30454781335259,53.4570053879709],[-2.30454941703097,53.4572300993107],[-2.30417293033054,53.4572310641573],[-2.30379644360856,53.4572320278176],[-2.30379804333022,53.4574567391685],[-2.30342155459758,53.4574577016521],[-2.30342315235158,53.4576824130044],[-2.30304666160828,53.4576833743115],[-2.30304825739457,53.4579080856651],[-2.3026717646406,53.4579090457955],[-2.30267335845914,53.4581337571504],[-2.3022968636945,53.4581347161042],[-2.30229845554522,53.4583594274604],[-2.30192195876992,53.4583603852376],[-2.30192354865276,53.4585850965951],[-2.3015470498668,53.4585860531956],[-2.30154863779278,53.4588107643793],[-2.30117212877983,53.4588117161822],[-2.30117371476787,53.459036427365],[-2.30079719998959,53.4590373763373],[-2.3004206851897,53.4590383241229],[-2.30041910324871,53.4588136129547],[-2.30004259045078,53.458814559561],[-2.2996660776313,53.4588155049807],[-2.29966765552523,53.4590402161341],[-2.29929114066071,53.4590411603598],[-2.29929271655258,53.4592658714974],[-2.29966923344067,53.4592649272791],[-2.29967081137761,53.4594896384158],[-2.29929429246594,53.4594905826266],[-2.29929586840077,53.4597152937475],[-2.298919347444,53.4597162367643],[-2.29892092137667,53.4599409478694],[-2.29854439837479,53.4599418896922],[-2.29816787535147,53.4599428303282],[-2.29816944525826,53.4601675414101],[-2.29779292018986,53.4601684808521],[-2.29741639510008,53.4601694191073],[-2.29741796098088,53.4603941301659],[-2.29704143384604,53.460395067227],[-2.29703986998894,53.4601703561759],[-2.29666334485647,53.4601712920577],[-2.29666178304435,53.4599465810056],[-2.29628525991425,53.4599475157083],[-2.29628370014706,53.4597228046553],[-2.29590717901932,53.4597237381787],[-2.295905621297,53.4594990271248],[-2.29552910217163,53.459499959469],[-2.29552754649413,53.4592752484142],[-2.29552599083784,53.459050537351],[-2.29514947573839,53.4590514685236],[-2.29514792212684,53.4588267574595],[-2.29477140902973,53.458827687453],[-2.29476985746286,53.4586029763881],[-2.2943933463681,53.4586039052024],[-2.29439179685546,53.4583791939706],[-2.29401528776277,53.4583801216076],[-2.29401374029461,53.4581554103732],[-2.29401219284755,53.4579306991305],[-2.29363568778015,53.4579316255979],[-2.29363414237733,53.4577069143554],[-2.29325763931201,53.4577078396448],[-2.29325609595339,53.4574831284024],[-2.29287959489014,53.4574840525137],[-2.29287805357567,53.4572593412716],[-2.2925015545145,53.4572602642049],[-2.29250001524411,53.4570355529629],[-2.29212351818502,53.4570364747183],[-2.29212198095866,53.4568117634765],[-2.29212044375325,53.4565870522264],[-2.29174395071928,53.4565879728123],[-2.29174241555782,53.4563632615624],[-2.2913659245259,53.4563641809704],[-2.29136439140833,53.4561394697208],[-2.29098790237847,53.4561403879508],[-2.29098637130475,53.4559156767014],[-2.29060988427695,53.4559165937536],[-2.29060835524701,53.4556918825044],[-2.29060682623792,53.4554671712468],[-2.29023034323506,53.4554680871298],[-2.29022881626968,53.4552433758724],[-2.28985233526885,53.4552442905775],[-2.28985081034712,53.4550195793205],[-2.28947433134833,53.4550204928477],[-2.28947280847019,53.4547957815909],[-2.28909633147344,53.4547966939404],[-2.28909481063884,53.4545719826839],[-2.28871833564413,53.4545728938555],[-2.28871681685302,53.4543481825993],[-2.28871529808261,53.4541234713348],[-2.28833882711267,53.4541243813373],[-2.28833731038567,53.453899670073],[-2.28833579367935,53.4536749588004],[-2.28795932673408,53.4536758676339],[-2.28795781207109,53.4534511563615],[-2.28758134712781,53.4534520640173],[-2.28757983450809,53.4532273527453],[-2.2872033715668,53.4532282592233],[-2.28720186099029,53.4530035479517],[-2.28720035043437,53.4527788366716],[-2.28719883989905,53.4525541253832],[-2.28682238300485,53.452555030701],[-2.28644592609008,53.4525559348324],[-2.28644441962038,53.4523312235531],[-2.28682087451264,53.4523303194129],[-2.28681936604099,53.4521056081165],[-2.28644291317122,53.4521065122654],[-2.28606646028089,53.4521074152279],[-2.28606495587473,53.4518827039405],[-2.28606345148907,53.4516579926448],[-2.28568700262312,53.4516588944385],[-2.28568550028038,53.4514341831431],[-2.28530905341634,53.4514350837592],[-2.28530755311647,53.4512103724642],[-2.28530605283705,53.4509856611608],[-2.28492960999727,53.4509865606081],[-2.28492811176063,53.4507618493052],[-2.28455166703295,53.450762745775],[-2.28455017079162,53.4505380344531],[-2.28454867457041,53.4503133231227],[-2.28417223086753,53.450314217045],[-2.28417073665259,53.4500895056788],[-2.28416924245758,53.4498647942977],[-2.28379280271132,53.4498656870185],[-2.28379131052491,53.4496409756207],[-2.28341487274707,53.4496418671471],[-2.28341338256921,53.4494171557324],[-2.2834118924114,53.4491924443093],[-2.28303545859041,53.4491933346331],[-2.28303397044108,53.4489686231931],[-2.28341040227364,53.4489677328776],[-2.28378683408614,53.4489668413761],[-2.28416326587856,53.4489659486884],[-2.28453969765086,53.4489650548147],[-2.28491612660116,53.4489641584626],[-2.28529255128878,53.4489632589678],[-2.285668975956,53.4489623582868],[-2.28604540060279,53.4489614564196]]]}}