{"type":"Feature","properties":{"code":"E63004521","name":"London Colney"},"geometry":{"type":"MultiPolygon","coordinates":[[[[-0.277699632853529,51.7171522334576],[-0.277708155568525,51.7169275508593],[-0.277716678169636,51.7167028682533],[-0.278078387931483,51.7167081772353],[-0.278086908569922,51.7164834946185],[-0.27844861659672,51.7164888024824],[-0.278810324737238,51.7164941092314],[-0.279172032991451,51.7164994148653],[-0.279163517899396,51.7167240974913],[-0.279155002693554,51.7169487801095],[-0.278793290741724,51.7169434744695],[-0.278784773867246,51.7171681567057],[-0.278423060056376,51.7171628501086],[-0.278414546303132,51.7173875260637],[-0.278052830809726,51.7173822184198],[-0.278061346356593,51.717157542393],[-0.277699632853529,51.7171522334576]]],[[[-0.281848513127716,51.7127169168985],[-0.281840012908523,51.7129415996772],[-0.282201692493672,51.7129468963438],[-0.282193194009324,51.7131715791177],[-0.281831512575743,51.7131662824482],[-0.281469831255635,51.7131609846639],[-0.281478333436843,51.7129363018958],[-0.281116654078659,51.7129310029996],[-0.281125157994661,51.7127063202268],[-0.281486835504442,51.71271161912],[-0.281848513127716,51.7127169168985]]],[[[-0.281848513127716,51.7127169168985],[-0.281857013233325,51.7124922341119],[-0.281865513225352,51.7122675513177],[-0.281503839298817,51.7122622535452],[-0.281512341025597,51.7120375707462],[-0.281150669060883,51.7120322718618],[-0.28078899720968,51.7120269718627],[-0.280427325472011,51.7120216707487],[-0.280418818200241,51.7122463535388],[-0.280780491786238,51.7122516546557],[-0.280771986249144,51.7124763374411],[-0.281133661797031,51.7124816374462],[-0.281125157994661,51.7127063202268],[-0.280763480598397,51.7127010202186],[-0.280401803315673,51.7126957190957],[-0.280410310814796,51.7124710363211],[-0.280048635494012,51.7124657340863],[-0.280040126146515,51.7126904168578],[-0.279678449090946,51.7126851135052],[-0.279686960286814,51.7124604307366],[-0.279325285193228,51.7124551262722],[-0.278963610213278,51.7124498206929],[-0.27897212499211,51.7122251379226],[-0.278980639657171,51.7120004551446],[-0.278989154208464,51.7117757723589],[-0.278627484887127,51.7117704656738],[-0.278265815679467,51.711765157874],[-0.278274333813532,51.7115404750866],[-0.278636001172923,51.7115457828834],[-0.278644517344929,51.7113211000852],[-0.279006182969749,51.7113264067641],[-0.27936784870822,51.7113317123283],[-0.279729514560315,51.7113370167776],[-0.279738025073862,51.7111123339625],[-0.28009968919133,51.7111176372941],[-0.280461353422374,51.7111229395109],[-0.280452846605287,51.7113476223319],[-0.280814512798115,51.7113529234369],[-0.280823017766969,51.7111282406128],[-0.280831522622182,51.710903557781],[-0.281193185232094,51.7109088577652],[-0.28120168812548,51.7106841749226],[-0.281563349000704,51.7106894737891],[-0.28157184993231,51.7104647909358],[-0.281933509072843,51.7104700886845],[-0.282295168326824,51.7104753853184],[-0.282286671091553,51.7107000681777],[-0.28264833230713,51.7107053636998],[-0.282639836806511,51.7109300465543],[-0.282631341192372,51.711154729401],[-0.282993006217769,51.7111600238143],[-0.282984512338351,51.7113847066561],[-0.283346179325376,51.7113899999576],[-0.283337687180727,51.7116146827946],[-0.283699356129386,51.7116199749842],[-0.283690865719553,51.7118446578164],[-0.283682375196264,51.7120693406409],[-0.28332070255099,51.7120640484455],[-0.283312210065898,51.7122887312593],[-0.282950535685648,51.7122834379462],[-0.282942041238707,51.7125081207493],[-0.282580365123486,51.7125028263183],[-0.282571868714646,51.7127275091108],[-0.282210190864458,51.712722213562],[-0.281848513127716,51.7127169168985]]],[[[-0.303256477031292,51.7208961023803],[-0.303618235266064,51.720901321854],[-0.30360983071845,51.7211259985712],[-0.3039715904208,51.7211312170341],[-0.303963187160405,51.7213558938387],[-0.303954783809802,51.7215805706311],[-0.304316546357199,51.7215857881827],[-0.304308144293871,51.7218104650625],[-0.304669908308877,51.7218156816032],[-0.304661507532863,51.7220403585704],[-0.304653106666675,51.7222650355254],[-0.305014873526819,51.7222702511548],[-0.305006473948001,51.7224949281971],[-0.305368242275784,51.7225001428156],[-0.305359843984373,51.7227248199453],[-0.305351445602823,51.7229494970628],[-0.305713216775835,51.7229547107699],[-0.305704819681748,51.7231793879748],[-0.306066592322431,51.7231846006708],[-0.306058196515846,51.7234092779631],[-0.306419970624204,51.7234144896481],[-0.306411576105158,51.7236391670277],[-0.306773351681197,51.7236443777017],[-0.30676495844973,51.7238690551687],[-0.306756565128193,51.7240937326235],[-0.306748171716585,51.724318410066],[-0.307109951515701,51.7243236199281],[-0.307101559391745,51.724548297458],[-0.307463340658593,51.724553506309],[-0.307471731404822,51.7243288286795],[-0.307833511383932,51.7243340363201],[-0.308195291453011,51.7243392428499],[-0.308203679353789,51.7241145650089],[-0.308565458135111,51.7241197703283],[-0.308573844568201,51.7238950923754],[-0.308935622061765,51.7239002964845],[-0.309297399645246,51.7239054994829],[-0.309289015967544,51.724130177635],[-0.309650795018622,51.7241353796221],[-0.309642412628699,51.7243600578616],[-0.309634030148858,51.7245847360887],[-0.309272248342331,51.7245795339023],[-0.308910466625707,51.7245743306052],[-0.308902081300437,51.7247990086209],[-0.308540298295983,51.7247938041134],[-0.308531911502983,51.7250184820172],[-0.3081701272107,51.7250132762993],[-0.30816173894993,51.7252379540913],[-0.30815335059916,51.725462631871],[-0.308144961516031,51.7256873114208],[-0.308136572250803,51.7259119911788],[-0.307774782046908,51.7259067838138],[-0.307412991945622,51.7259015753402],[-0.307051201946966,51.7258963657581],[-0.307042807630403,51.7261210450559],[-0.307034413211148,51.7263457243391],[-0.306672620015988,51.7263405133514],[-0.306664223844428,51.7265651924715],[-0.306302429102335,51.7265599802266],[-0.306294031178426,51.7267846591836],[-0.305932234889404,51.7267794456815],[-0.305923835213103,51.7270041244754],[-0.305562037377152,51.7269989097162],[-0.305553635948416,51.727223588347],[-0.30554523441689,51.7274482669632],[-0.305183433384325,51.7274430507981],[-0.305191836565541,51.7272183723305],[-0.304830037285433,51.7272131552055],[-0.304838442013505,51.7269884768719],[-0.30447664448585,51.7269832587869],[-0.304468238108113,51.7272079369718],[-0.304106439033602,51.7272027176296],[-0.303744640061921,51.7271974971787],[-0.303736230281961,51.7274221750519],[-0.30337442976345,51.7274169533438],[-0.303366018230886,51.7276416310538],[-0.303004216165547,51.7276364080884],[-0.302995802880335,51.7278610856352],[-0.302987389492175,51.7280857631673],[-0.303349194856982,51.72809098643],[-0.30334078301564,51.7283156640962],[-0.303332371071368,51.7285403417479],[-0.303323959024165,51.7287650193851],[-0.303685769441225,51.728770241985],[-0.303677358940924,51.7289949197563],[-0.304039171110684,51.7290001413962],[-0.304400983383288,51.7290053619275],[-0.304392576079792,51.7292300399814],[-0.304384168673425,51.7294547180208],[-0.304745984348599,51.7294599377407],[-0.304737578489265,51.7296846159142],[-0.305099395917151,51.729689834674],[-0.305090991604894,51.7299145129815],[-0.305452810785497,51.7299197307812],[-0.305814630068866,51.7299249474722],[-0.305806228953685,51.7301496260624],[-0.305797827735713,51.7303743046381],[-0.305436005152412,51.7303690876499],[-0.305074182671882,51.7303638695529],[-0.304712360294143,51.7303586503473],[-0.304350538019216,51.7303534300329],[-0.304342130098468,51.7305781079995],[-0.303980306276383,51.7305728864277],[-0.303618482557154,51.7305676637473],[-0.303256658940803,51.7305624399581],[-0.30326507181152,51.7303377624374],[-0.302903249948054,51.7303325376881],[-0.302911664365789,51.7301078603016],[-0.302549844255204,51.7301026345923],[-0.302541428187506,51.7303273118302],[-0.302179606529897,51.7303220848635],[-0.301817784975248,51.7303168567881],[-0.301455961972562,51.73031162756],[-0.301447540799666,51.7305363043481],[-0.301809365504598,51.730541533714],[-0.301800945930912,51.7307662106254],[-0.30143911953173,51.7307609811237],[-0.301077290420996,51.7307557504774],[-0.301085713166972,51.7305310738098],[-0.300723885629284,51.7305258421608],[-0.30036205818662,51.7305206094012],[-0.300353632484567,51.730745285853],[-0.30071546140527,51.7307505187205],[-0.300707037086174,51.7309751952675],[-0.300345206687414,51.7309699622921],[-0.299983376383699,51.730964728206],[-0.299621546175047,51.7309594930093],[-0.299629974928311,51.7307348167861],[-0.299268146292795,51.7307295805867],[-0.298906317752378,51.7307243432768],[-0.298544489307079,51.7307191048562],[-0.298552922399295,51.7304944289442],[-0.298561355396312,51.7302697530196],[-0.298199530002186,51.7302645137043],[-0.298191095527161,51.730489189521],[-0.29782926875018,51.7304839489872],[-0.297837704703211,51.7302592732785],[-0.297475879499407,51.7302540317421],[-0.297484316835184,51.7300293561288],[-0.297846140561003,51.7300345975572],[-0.297854576323558,51.7298099218231],[-0.297492754075703,51.7298046805027],[-0.297130931923034,51.7297994380718],[-0.297139370546241,51.729574762541],[-0.296777549966717,51.7295695191075],[-0.296415729482416,51.7295642745635],[-0.296424170966189,51.7293395992361],[-0.296062352055045,51.7293343536895],[-0.296070794921403,51.7291096784575],[-0.295708977583412,51.7291044319084],[-0.295347160340697,51.7290991842488],[-0.295338714518549,51.7293238592647],[-0.294976895893233,51.7293186103865],[-0.294985343193274,51.7290939354786],[-0.294993790397923,51.7288692605581],[-0.294631974823683,51.7288640107855],[-0.294640423410791,51.7286393359603],[-0.294648871902491,51.7284146611224],[-0.294287059379259,51.7284094104554],[-0.29392524695137,51.7284041586779],[-0.293916795504014,51.7286288332996],[-0.293554981693661,51.7286235803036],[-0.293193167978692,51.728618326197],[-0.2932016223817,51.7283936517914],[-0.292839810239955,51.7283883966825],[-0.292848266025277,51.7281637223724],[-0.292486455456752,51.728158466261],[-0.292494912624347,51.7279337920463],[-0.292133103629037,51.7279285349326],[-0.292141562178866,51.7277038608133],[-0.291779754756767,51.7276986026973],[-0.29178821468879,51.7274739286735],[-0.291426408839896,51.7274686695551],[-0.291434870154072,51.7272439956267],[-0.291073065878378,51.727238735506],[-0.291081528574667,51.7270140616731],[-0.29071972587217,51.7270088005501],[-0.290728189950531,51.7267841268127],[-0.290366388821225,51.7267788646874],[-0.290374854281619,51.7265541910454],[-0.290383319646375,51.7263295173907],[-0.290391784915497,51.7261048437233],[-0.290029988314615,51.7260995808121],[-0.289668191809284,51.7260943167906],[-0.289676659937946,51.7258696433268],[-0.289314865005771,51.7258643783031],[-0.289323334516327,51.7256397049348],[-0.289685127970937,51.7256449698504],[-0.290046921521115,51.7256502336555],[-0.290055386886827,51.725425559674],[-0.290417179133695,51.7254308223131],[-0.290778971478605,51.7254360838381],[-0.290787430837487,51.7252114087875],[-0.290795890098226,51.7249867337278],[-0.291157679478093,51.7249919940794],[-0.29116613710919,51.724767318981],[-0.291527925055554,51.724772578189],[-0.291889713099899,51.7247778362829],[-0.29189816756991,51.7245531611162],[-0.292259954180728,51.7245584180665],[-0.292268407021198,51.7243337428612],[-0.291906621941846,51.7243284859406],[-0.291915076215709,51.7241038107559],[-0.291923530391503,51.7238791355621],[-0.291561748472976,51.7238738775868],[-0.291570204082102,51.7236492024137],[-0.291931984469226,51.7236544603594],[-0.292293764954303,51.7236597171912],[-0.292302217402576,51.7234350419498],[-0.292310669752803,51.7232103666994],[-0.292672447273064,51.7232156223579],[-0.292680897993904,51.7229909470689],[-0.292689348616723,51.7227662717709],[-0.292697799141523,51.7225415964638],[-0.292336026215231,51.7225363408942],[-0.292344478173294,51.7223116656077],[-0.292706249568304,51.7223169211478],[-0.292714699897069,51.7220922458227],[-0.292352930033321,51.7220869903123],[-0.292361381795311,51.7218623150078],[-0.291999613560723,51.7218570584132],[-0.291637845424074,51.7218518007046],[-0.291629390599607,51.7220764759498],[-0.291267621029683,51.7220712170976],[-0.290905851557738,51.7220659571315],[-0.290897393572684,51.7222906323084],[-0.290535622667486,51.7222853711988],[-0.290527163053039,51.722510046337],[-0.290888935489511,51.7225153074763],[-0.290880477308216,51.7227399826351],[-0.291242251373986,51.7227452426902],[-0.291233794625885,51.7229699178696],[-0.291225337779679,51.7231945930401],[-0.290863560651255,51.7231893329257],[-0.290855102175587,51.7234140080575],[-0.290493323613815,51.7234087467996],[-0.290131545150072,51.7234034844276],[-0.290123083513522,51.723628159491],[-0.289761303616453,51.7236228959754],[-0.289752840350338,51.7238475710001],[-0.290114621778801,51.7238528345455],[-0.290106159945908,51.7240775095909],[-0.28974437698603,51.7240722460159],[-0.289735913523526,51.7242969210226],[-0.289374129130286,51.7242916563039],[-0.28901234483514,51.7242863904712],[-0.289003878211531,51.7245110654095],[-0.288642092483046,51.7245057984331],[-0.288633624229725,51.7247304733326],[-0.288271837067903,51.7247252052125],[-0.288280306852695,51.7245005303426],[-0.287918521320497,51.7244952611382],[-0.287926992538457,51.7242705862891],[-0.287935463658115,51.7240459114309],[-0.287573681286964,51.724040641172],[-0.287582153839729,51.7238159663346],[-0.28722037309817,51.7238106949913],[-0.287228847084001,51.7235860201747],[-0.286867067972031,51.7235807477472],[-0.286875543390885,51.7233560729513],[-0.286884018711384,51.7231313981463],[-0.286522242760336,51.7231261246644],[-0.286530719513798,51.7229014498802],[-0.286539196168887,51.722676775087],[-0.286900969057321,51.7226820485093],[-0.286909444082762,51.7224573736773],[-0.286547672725604,51.7224521002848],[-0.286556149183952,51.7222274254735],[-0.286564625543931,51.7220027506532],[-0.286202857347496,51.7219974762062],[-0.286211335140322,51.7217728014067],[-0.286219812834761,51.7215481265982],[-0.286228290430817,51.7213234517806],[-0.286590054033676,51.7213287261383],[-0.286598530000199,51.721104051282],[-0.286960292170134,51.7211093244959],[-0.286968766507166,51.7208846496008],[-0.28697724074586,51.7206599746967],[-0.286985714886218,51.7204352997835],[-0.287347472561023,51.7204405717944],[-0.287355945071977,51.7202158968425],[-0.287717701313892,51.7202211677097],[-0.287726172195482,51.719996492719],[-0.288087927004505,51.7200017624427],[-0.288449681911668,51.7200070310526],[-0.288458149632901,51.7197823559934],[-0.28881990310715,51.7197876234597],[-0.289181656679498,51.7197928898122],[-0.289543410349926,51.7197981550508],[-0.289905164118416,51.7198034191757],[-0.289913625617333,51.7195787439887],[-0.290275377952842,51.71958400697],[-0.290637130386372,51.7195892688375],[-0.290645588725123,51.7193645935821],[-0.290654046965755,51.7191399183177],[-0.291015796435299,51.7191451790121],[-0.291024253046851,51.718920503709],[-0.291032709560308,51.7186958283969],[-0.291394456065921,51.7187010879182],[-0.291402910950363,51.7184764125674],[-0.291764656023007,51.7184816709452],[-0.291773109278474,51.7182569955559],[-0.292134852918148,51.7182622527902],[-0.292126401193587,51.7184869282093],[-0.292488146462082,51.7184921843595],[-0.29247969617042,51.7187168597992],[-0.292117949370997,51.7187116036193],[-0.292109497450376,51.7189362790203],[-0.291747749217923,51.718931021697],[-0.291739295668301,51.7191556970593],[-0.292101045431722,51.7191609544123],[-0.292462795293063,51.7191662106514],[-0.292471245780748,51.7189415352298],[-0.292832994209018,51.7189467903255],[-0.292841443067741,51.7187221148652],[-0.293203190062939,51.7187273688176],[-0.29321163729274,51.7185026933187],[-0.293573382854866,51.7185079461276],[-0.293581828455788,51.7182832705901],[-0.293943572584836,51.7182885222557],[-0.293952016556921,51.7180638466796],[-0.294313759252891,51.7180690972018],[-0.294322201596179,51.7178444215871],[-0.29468394285907,51.7178496709659],[-0.294692383573602,51.7176249953127],[-0.295054123403412,51.7176302435482],[-0.295415863330975,51.71763549067],[-0.295407425678157,51.7178601663824],[-0.295769167234314,51.71786541242],[-0.295760731014539,51.7180900881529],[-0.296122474199295,51.7180953331062],[-0.296114039412603,51.7183200088597],[-0.295752294696945,51.7183147638768],[-0.29574385828153,51.7185394395917],[-0.295382112132669,51.7185341934654],[-0.295373674088489,51.7187588691418],[-0.295735421768292,51.7187641152975],[-0.295726985157231,51.7189887909944],[-0.296088734465722,51.7189940360659],[-0.296450483871919,51.7189992800236],[-0.296458917421048,51.7187746042677],[-0.296820665393963,51.7187798470821],[-0.296829097314362,51.7185551712876],[-0.296837529137002,51.7183304954841],[-0.297199274145703,51.7183357371257],[-0.297561019252047,51.7183409776535],[-0.297569447915111,51.718116301782],[-0.297931191588166,51.7181215411665],[-0.298292935358823,51.7181267794373],[-0.29830136086239,51.7179021034978],[-0.298663103199736,51.7179073406253],[-0.298671527074757,51.7176826646473],[-0.29903326797879,51.7176879006316],[-0.299041690225307,51.7174632246152],[-0.299050112374197,51.7172385485898],[-0.29868837453185,51.7172333126644],[-0.298696796904519,51.717008633822],[-0.299058533156103,51.7170138698795],[-0.299066953089957,51.716789189595],[-0.299428687752423,51.7167944246002],[-0.299790422520023,51.7167996584873],[-0.299782005974725,51.7170243386397],[-0.300143742541719,51.7170295713425],[-0.30013532648638,51.7172542496834],[-0.300497064718758,51.7172594811538],[-0.300858803048594,51.7172647115105],[-0.301220541475872,51.7172699407534],[-0.301212128512015,51.7174946169554],[-0.301573868552525,51.7174998450965],[-0.301935605677345,51.717505068627],[-0.301927195597258,51.7177297450298],[-0.301918785426873,51.7179544214203],[-0.30155704540908,51.7179491975499],[-0.301548633683613,51.7181738737543],[-0.301540221860658,51.7183985499497],[-0.301531809940215,51.7186232261361],[-0.30152339792228,51.7188479023135],[-0.301514985806852,51.7190725784819],[-0.30187673322043,51.7190778031886],[-0.301868322508228,51.7193024795055],[-0.301859911705717,51.71952715581],[-0.302221661315603,51.7195323791277],[-0.302213251800084,51.7197570555196],[-0.302204842194273,51.7199817318993],[-0.302566594648998,51.719986954306],[-0.302558186330235,51.7202116307731],[-0.302919940252503,51.7202168521689],[-0.302911533220825,51.7204415287235],[-0.303273288610641,51.7204467491084],[-0.303264882866087,51.7206714257505],[-0.303256477031292,51.7208961023803]]],[[[-0.291032709560308,51.7186958283969],[-0.29067096315267,51.7186905677619],[-0.29066250510827,51.7189152430443],[-0.290300757267686,51.7189099812659],[-0.29029229759421,51.7191346565096],[-0.289930548320682,51.7191293935876],[-0.28956879914519,51.7191241295519],[-0.289560336311617,51.7193488047272],[-0.289198585703205,51.719343539548],[-0.288836835192869,51.7193382732549],[-0.288475084780631,51.719333005848],[-0.288466617255889,51.7195576809252],[-0.288104865410773,51.7195524123748],[-0.288096396256772,51.7197770874133],[-0.287734642978782,51.7197718177193],[-0.287726172195482,51.719996492719],[-0.287364417484619,51.7199912218815],[-0.287355945071977,51.7202158968425],[-0.286994188928242,51.7202106248614],[-0.286632432882708,51.7202053517664],[-0.286623957309615,51.7204300266588],[-0.286262199831233,51.7204247524203],[-0.285900442451091,51.7204194770679],[-0.285891963717468,51.7206441518917],[-0.285530204904501,51.7206388753956],[-0.285168446189816,51.7206335977857],[-0.285159964295585,51.720858272541],[-0.284798208844356,51.7208529918176],[-0.284436464447243,51.7208477053855],[-0.284444949371309,51.7206230307144],[-0.284083206878923,51.7206177430917],[-0.28409169348611,51.7203930683445],[-0.283729952898447,51.7203877795313],[-0.283738441188709,51.720163104708],[-0.283376702505766,51.7201578147042],[-0.283385192479056,51.7199331398048],[-0.283023455700828,51.7199278486107],[-0.2830319473571,51.7197031736352],[-0.282670212483584,51.7196978812505],[-0.282678705822791,51.719473206199],[-0.282687199051029,51.7192485311432],[-0.282325467876077,51.7192432374963],[-0.282333962787184,51.7190185623645],[-0.281972233516911,51.7190132675272],[-0.281980730110837,51.7187885923193],[-0.281619002745239,51.7187832962915],[-0.281627501021939,51.7185586210076],[-0.281265775561013,51.7185533237895],[-0.28127427552044,51.7183286484296],[-0.280912551964181,51.7183233500211],[-0.280550828518857,51.7183180504941],[-0.280559331954694,51.7180933749863],[-0.280197610414055,51.718088074269],[-0.280206115532501,51.7178633986853],[-0.279844395896544,51.7178580967776],[-0.279852902697552,51.7176334211178],[-0.279491184966272,51.7176281180199],[-0.279499693449795,51.7174034422842],[-0.27986140938742,51.7174087454539],[-0.279869915966153,51.7171840697858],[-0.280231630221143,51.7171893719088],[-0.280240139230997,51.7169646903394],[-0.279878426938214,51.7169593880444],[-0.279516714759059,51.7169540846345],[-0.279525228116078,51.7167294020132],[-0.279533741359336,51.7165047193842],[-0.279895449840866,51.7165100227882],[-0.279903961121586,51.7162853401484],[-0.280265667867961,51.7162906424344],[-0.280627374727933,51.7162959436053],[-0.280635882197406,51.7160712609518],[-0.280274177186191,51.7160659597838],[-0.280282686390713,51.7158412771256],[-0.280644389553195,51.7158465782905],[-0.281006092829245,51.7158518783405],[-0.281014598222639,51.7156271956685],[-0.281376299763522,51.7156324946005],[-0.281738001417922,51.7156377924176],[-0.281746503000278,51.7154131097318],[-0.282108202919479,51.715418406431],[-0.282469902952148,51.7154237020152],[-0.282478400723557,51.7151990193158],[-0.282486898381407,51.7149743366086],[-0.282495395925702,51.7147496538937],[-0.282133701438974,51.7147443583184],[-0.281772007065709,51.7147390616282],[-0.281780508193647,51.7145143789114],[-0.282142200718314,51.7145196755987],[-0.282150699884078,51.7142949928713],[-0.281789009207984,51.7142896961869],[-0.281797510108724,51.7140650134547],[-0.281435821394662,51.7140597156584],[-0.28144432403033,51.7138350329214],[-0.281806010895868,51.7138403307147],[-0.281814511569418,51.713615647967],[-0.282176196699932,51.7136209446424],[-0.282184695411411,51.7133962618839],[-0.282546378806897,51.7134015574415],[-0.282537881943899,51.7136262402029],[-0.282899567301293,51.7136315346486],[-0.282891072173257,51.7138562174052],[-0.282529384967356,51.7138509229566],[-0.282520887877267,51.7140756057025],[-0.282882576931698,51.7140809001541],[-0.283244266099538,51.7140861934907],[-0.28323577259301,51.7143108762348],[-0.283597463722792,51.7143161684595],[-0.283588971951344,51.7145408511987],[-0.283580480066415,51.7147655339301],[-0.283942175006749,51.7147708250457],[-0.284303870060426,51.7147761150464],[-0.284312358248138,51.7145514323091],[-0.28467405156652,51.714556721192],[-0.285035752799089,51.7145620062912],[-0.285044237747148,51.7143373233914],[-0.285405951351504,51.7143426026643],[-0.285767665061828,51.7143478808191],[-0.285759183501737,51.7145725635874],[-0.286120899011994,51.7145778405582],[-0.286482614628176,51.714583116411],[-0.286844330350263,51.7145883911455],[-0.287206046178232,51.714593664762],[-0.287567762112062,51.7145989372603],[-0.28755928891597,51.7148236196952],[-0.287550815613924,51.7150483021257],[-0.28791253504165,51.7150535733742],[-0.28790406332771,51.7152782557344],[-0.287895591507833,51.71550293809],[-0.288257314429532,51.7155082080888],[-0.288248844197826,51.7157328903741],[-0.288240373860203,51.7159575726548],[-0.288602100275949,51.7159628414039],[-0.288593631526562,51.7161875236143],[-0.288585162671276,51.7164122058202],[-0.288946892581143,51.7164174733194],[-0.288938425314159,51.7166421554549],[-0.288929957941294,51.7168668375859],[-0.288921490462548,51.7170915197124],[-0.288559755470008,51.7170862524106],[-0.288551288082574,51.7173109297475],[-0.288913024716794,51.717316196887],[-0.288904559606988,51.717540872075],[-0.288896094398972,51.7177655472541],[-0.288534354703115,51.7177602800552],[-0.288525887866039,51.7179849551955],[-0.288887629092745,51.7179902224241],[-0.288879163688307,51.7182148975851],[-0.289240906543972,51.7182201637296],[-0.289232442572212,51.7184448389113],[-0.28959418705684,51.7184501039718],[-0.28995593163952,51.7184553679185],[-0.290317676320231,51.7184606307514],[-0.290326135699304,51.7182359554806],[-0.290687878947129,51.7182412171701],[-0.290679421098955,51.7184658924705],[-0.291041165975672,51.7184711530759],[-0.291032709560308,51.7186958283969]]],[[[-0.296415729482416,51.7295642745635],[-0.296407287903329,51.7297889498781],[-0.29676910986557,51.7297941945302],[-0.297130931923034,51.7297994380718],[-0.297122493204552,51.7300241135898],[-0.297114054390792,51.7302487890951],[-0.297105615481753,51.7304734645878],[-0.296743788990345,51.7304682207223],[-0.296735348508004,51.7306928960942],[-0.296373520633803,51.73068765101],[-0.29601169285485,51.7306824048153],[-0.296003249321127,51.7309070799585],[-0.295641420159405,51.7309018325451],[-0.295649865171165,51.7306771575099],[-0.295658310087562,51.730452482462],[-0.295666754908597,51.7302278074014],[-0.295675199634273,51.7300031323282],[-0.295683644264591,51.7297784572423],[-0.295692088799553,51.7295537821437],[-0.296053909093355,51.7295590289088],[-0.296415729482416,51.7295642745635]]],[[[-0.300707037086174,51.7309751952675],[-0.30106886757996,51.7309804271323],[-0.301060444643863,51.7312051037746],[-0.301422276710738,51.7312103346367],[-0.301784106474429,51.7312155644044],[-0.302145934629133,51.7312207930746],[-0.302507762886804,51.731226020636],[-0.302499346304143,51.7314506978011],[-0.302490929618485,51.7316753749516],[-0.302852761279268,51.7316806017017],[-0.30321459304298,51.731685827343],[-0.303206179554554,51.7319105047763],[-0.303197765963171,51.732135182195],[-0.302835930899203,51.7321299562563],[-0.302474095938166,51.7321247292089],[-0.302112261080082,51.7321195010527],[-0.302103842435261,51.7323441780108],[-0.301742006029995,51.7323389485971],[-0.301380167994976,51.7323337181977],[-0.301018328537394,51.732328486796],[-0.301026751948824,51.732103810217],[-0.301035175265184,51.7318791336254],[-0.301043598486476,51.7316544570212],[-0.300681763558391,51.7316492248326],[-0.300690188162736,51.7314245483235],[-0.300698612671997,51.7311998718019],[-0.300707037086174,51.7309751952675]]],[[[-0.306040578498662,51.7141922608417],[-0.306032189086195,51.7144169407208],[-0.306023799579923,51.7146416205928],[-0.3056620801715,51.7146364092924],[-0.305300360856829,51.7146311968766],[-0.304938641635929,51.7146259833453],[-0.304576922508816,51.7146207686985],[-0.304215203475509,51.7146155529363],[-0.304223600268614,51.714390873015],[-0.303861882786493,51.7143856561275],[-0.303853484536027,51.7146103360586],[-0.303491765690388,51.7146051180654],[-0.303483365888612,51.7148297979992],[-0.303121645679456,51.7148245789003],[-0.30275992556418,51.714819358686],[-0.302398205542804,51.7148141373561],[-0.302406609716711,51.7145894573929],[-0.30241501379661,51.7143647774225],[-0.302776730903254,51.714369998772],[-0.302785133431811,51.7141453188042],[-0.302423417782501,51.7141400974449],[-0.302061702227105,51.7141348749702],[-0.30169998676564,51.71412965138],[-0.30133827166038,51.7141244238439],[-0.300976556802143,51.7141191936361],[-0.300968146601297,51.7143438736448],[-0.300606430154071,51.7143386423851],[-0.300598018154063,51.7145633224553],[-0.300589606048907,51.7147880025209],[-0.300581193838602,51.715012682582],[-0.300219472414248,51.7150074504025],[-0.300211058404688,51.7152321305251],[-0.299849335391309,51.7152268972936],[-0.299857751094972,51.7150022171049],[-0.299496029880794,51.7149969826891],[-0.299134308771735,51.7149917471552],[-0.299125889679876,51.7152164274761],[-0.298764166981863,51.7152111908901],[-0.298755746090642,51.7154358712725],[-0.298394021803679,51.7154306336345],[-0.298385599113052,51.7156553140784],[-0.298023873237141,51.7156500753883],[-0.297662147466443,51.71564483558],[-0.297670573545342,51.715420155004],[-0.297308849574012,51.7154149140115],[-0.29731727724169,51.715190233365],[-0.297325704804012,51.7149655527139],[-0.296963984326134,51.7149603104712],[-0.296972413477169,51.7147356297495],[-0.297334132260982,51.7147408720582],[-0.297342559612601,51.714516191398],[-0.297350986858872,51.7142915107333],[-0.296989271463121,51.7142862682925],[-0.296997700298042,51.7140615875572],[-0.297006129027595,51.7138369068174],[-0.296644417125082,51.7138316631266],[-0.296652847443222,51.7136069823162],[-0.296661277655974,51.7133823015012],[-0.296669707763342,51.7131576206817],[-0.297031414584067,51.7131628645705],[-0.297393121510051,51.7131681073414],[-0.297754828541272,51.7131733489941],[-0.298116535677708,51.7131785895287],[-0.298478242919337,51.7131838289453],[-0.298486664451882,51.7129591484514],[-0.298848370104789,51.712964386816],[-0.299210075862844,51.7129696240626],[-0.299218493902374,51.7127449436962],[-0.298856789838193,51.7127397063836],[-0.298865209466351,51.7125150259466],[-0.298873628989266,51.7122903455051],[-0.298511928417906,51.7122851069424],[-0.298520349529383,51.7120604264302],[-0.29815865075699,51.7120551866834],[-0.298167073456985,51.7118305061007],[-0.298175496051698,51.7116058255135],[-0.297813800772024,51.7116005845166],[-0.297822224955189,51.7113759038588],[-0.297460531474449,51.7113706616779],[-0.297468957246024,51.7111459809495],[-0.297107265564214,51.7111407375847],[-0.297115692924152,51.7109160567857],[-0.297124120178747,51.7106913759822],[-0.296762431989526,51.7106861313674],[-0.29677086083242,51.7104614504934],[-0.296409174442097,51.7104562046946],[-0.296417604873245,51.71023152375],[-0.296055920281816,51.7102262767673],[-0.296064352301173,51.7100015957522],[-0.295702669508635,51.7099963475856],[-0.295711103116157,51.7097716665],[-0.295719536618257,51.7095469854098],[-0.295357857318147,51.7095417359934],[-0.295366292408347,51.7093170548327],[-0.295727970014936,51.7093223043152],[-0.296089647726841,51.7093275526797],[-0.296098079324601,51.7091028716464],[-0.296459755448297,51.709108118959],[-0.296451325544039,51.7093327999263],[-0.296813003466509,51.709338046055],[-0.296804575150403,51.7095627269518],[-0.297166254871651,51.7095679718966],[-0.29715782814374,51.7097926527228],[-0.29751950966377,51.7097978964837],[-0.29788119128901,51.7098031391267],[-0.298242873019438,51.7098083806518],[-0.298604554855033,51.7098136210589],[-0.298966236795772,51.7098188603481],[-0.299327918841634,51.7098240985194],[-0.299689600992597,51.7098293355728],[-0.300051283248638,51.7098345715082],[-0.300412965609737,51.7098398063258],[-0.300774648075873,51.7098450400254],[-0.301136330647021,51.7098502726071],[-0.301498013323161,51.7098555040709],[-0.301859700009552,51.7098607300696],[-0.302221387785494,51.7098659538458],[-0.302583075655338,51.7098711765067],[-0.302944763619066,51.7098763980523],[-0.303306451676659,51.7098816184825],[-0.303298052390502,51.7101062985769],[-0.303659741998902,51.7101115178821],[-0.304021431701132,51.710116736072],[-0.304383121497174,51.7101219531466],[-0.304374726488022,51.7103466332043],[-0.304013035234998,51.7103414161395],[-0.304004638674966,51.7105660961999],[-0.303996242021035,51.7107907762531],[-0.304357936188084,51.7107959932981],[-0.304349540897293,51.7110206733343],[-0.304711236615184,51.7110258892542],[-0.304702842687574,51.7112505692733],[-0.3046944486661,51.7114752492853],[-0.30468605455076,51.71169992929],[-0.304677660341553,51.7119246092876],[-0.305039361981606,51.7119298240527],[-0.305030969135675,51.7121545040333],[-0.305022576195892,51.7123791840066],[-0.305384280844028,51.7123843976366],[-0.30537588926758,51.7126090775929],[-0.305737595466658,51.7126142900976],[-0.305729205253584,51.7128389700369],[-0.305720814946695,51.713063649969],[-0.305712424545988,51.7132883298938],[-0.305704034051463,51.7135130098116],[-0.305695643463117,51.7137376897221],[-0.30568725278095,51.7139623696254],[-0.306048967817323,51.7139675809554],[-0.306040578498662,51.7141922608417]]],[[[-0.29981567152466,51.716125618003],[-0.299807255294989,51.716350298169],[-0.299798838960111,51.7165749783304],[-0.299437105886766,51.7165697443773],[-0.299075372918554,51.7165645093059],[-0.298713640055497,51.7165592731163],[-0.29872206147307,51.7163345927567],[-0.29873048278537,51.7161099123925],[-0.298738903992397,51.7158852320237],[-0.298747325094154,51.7156605516504],[-0.299109051180425,51.7156657881042],[-0.299470777371844,51.7156710234399],[-0.299832503668389,51.7156762576574],[-0.299824087649126,51.7159009378325],[-0.29981567152466,51.716125618003]]],[[[-0.305746804250986,51.7220560018276],[-0.305385038588196,51.7220507885192],[-0.305023273015483,51.7220455741002],[-0.305031672413993,51.7218208970333],[-0.305040071722351,51.7215962199541],[-0.305401834540071,51.7216014341738],[-0.305763597447864,51.7216066472828],[-0.306125360445714,51.7216118592813],[-0.306116965269821,51.7218365366594],[-0.306478729735201,51.7218417476468],[-0.306840494290605,51.7218469575236],[-0.307202258936015,51.7218521662897],[-0.307193867802565,51.7220768439545],[-0.307555633915479,51.7220820517096],[-0.307917400118367,51.722087258354],[-0.307925788496785,51.7218625804899],[-0.307564023671414,51.7218573739451],[-0.307572413337331,51.7216326961684],[-0.307934176785205,51.7216379026135],[-0.308295940323033,51.721643107948],[-0.308657703950797,51.7216483121718],[-0.30901946766848,51.721653515285],[-0.309027851734459,51.7214288370976],[-0.309389614164561,51.7214340390005],[-0.309381231476065,51.7216587172875],[-0.309372848697649,51.7218833955622],[-0.309734613972624,51.7218885965536],[-0.30972623248181,51.7221132749156],[-0.309717850901092,51.7223379532654],[-0.30935608287105,51.7223327520749],[-0.309347699822864,51.7225574303128],[-0.309339316684752,51.7227821085385],[-0.309330933456713,51.7230067867519],[-0.308969161383821,51.7230015841519],[-0.308960776688233,51.7232262622535],[-0.308599003327635,51.7232210584431],[-0.308237230056966,51.7232158535221],[-0.307875456876244,51.7232106474904],[-0.307867067957803,51.7234353252808],[-0.307505293489412,51.7234301180387],[-0.307143519111005,51.7234249096859],[-0.306781744822596,51.7234197002224],[-0.306790137873928,51.7231950227308],[-0.306798530835195,51.7229703452269],[-0.306436759392039,51.722965134852],[-0.306445153640831,51.7227404574355],[-0.306083383665292,51.7227352460495],[-0.306091779201572,51.7225105687204],[-0.306100174647752,51.722285891379],[-0.306108570003835,51.7220612140253],[-0.305746804250986,51.7220560018276]]]]}}