{"type":"Feature","properties":{"code":"E63002734","name":"Walsall"},"geometry":{"type":"MultiPolygon","coordinates":[[[[-2.01286245816227,52.5737596584176],[-2.01249356889149,52.5737596976801],[-2.01249350422637,52.5735349507148],[-2.01249343956197,52.573310203741],[-2.0124933748983,52.5730854567586],[-2.01212449107392,52.5730854948884],[-2.01212442822665,52.572860747903],[-2.01212436538008,52.572636000909],[-2.01212430253421,52.5724112539065],[-2.01249318091165,52.5724112157602],[-2.01249324557314,52.5726359627682],[-2.01249331023535,52.5728607097677],[-2.0128621922433,52.5728606704832],[-2.01286225872191,52.5730854174796],[-2.01286232520128,52.5733101644675],[-2.0128623916814,52.5735349114468],[-2.01286245816227,52.5737596584176]]],[[[-2.01286245816227,52.5737596584176],[-2.01323134743225,52.5737596180058],[-2.01323141572964,52.5739843649735],[-2.01323148402781,52.5742091119327],[-2.01323155232675,52.5744338588832],[-2.01323162062646,52.5746586058253],[-2.01323168892695,52.5748833527588],[-2.01323175722822,52.5751080996837],[-2.01323182553026,52.5753328466001],[-2.01360072751032,52.5753328050774],[-2.01360079623536,52.575557552051],[-2.01360086465532,52.5757822990292],[-2.01360093307609,52.5760070459988],[-2.01360100149766,52.5762317929599],[-2.01360106992004,52.5764565399124],[-2.01360113834323,52.5766812868564],[-2.01323222533754,52.5766813283742],[-2.01323229192323,52.5769060753089],[-2.0132323585097,52.5771308222352],[-2.01323242509695,52.5773555691528],[-2.01323249168498,52.5775803160619],[-2.0132325582738,52.5778050629625],[-2.01360148047128,52.5778050214481],[-2.01360141204405,52.5775802745469],[-2.01397033240229,52.5775802318825],[-2.01397040266792,52.5778049787844],[-2.01433932486369,52.5778049349713],[-2.01470824705858,52.5778048900088],[-2.01507716925256,52.5778048438968],[-2.01544609144561,52.5778047966355],[-2.01544616906579,52.5780295435315],[-2.01544624668691,52.5782542904189],[-2.01507732081698,52.5782543376789],[-2.01507724503432,52.5780295907922],[-2.01470832100191,52.5780296369035],[-2.01433939696859,52.5780296818653],[-2.01433946907434,52.5782544287508],[-2.01433954118094,52.5784791756277],[-2.01433961328841,52.5787039224961],[-2.01470854283717,52.5787038775362],[-2.01507747238502,52.5787038314269],[-2.01544640193193,52.5787037841681],[-2.01544647955584,52.5789285310299],[-2.01581541094032,52.5789284826223],[-2.01581549040371,52.5791532294761],[-2.01544655718068,52.5791532778831],[-2.01544663480644,52.5793780247278],[-2.01507769974387,52.5793780719846],[-2.01507777553196,52.5796028188201],[-2.01470883862984,52.5796028649269],[-2.01470876468035,52.579378118092],[-2.01433982961593,52.57937816305],[-2.0143397575059,52.5791534162072],[-2.01433968539672,52.578928669356],[-2.01397075400855,52.5789287131658],[-2.01397082427917,52.5791534600164],[-2.01397089455062,52.5793782068584],[-2.0139709648229,52.5796029536919],[-2.01360202791813,52.5796029963502],[-2.01360195948444,52.5793782495174],[-2.01323302441743,52.5793782910269],[-2.0128640893496,52.579378331387],[-2.01249515428098,52.5793783705976],[-2.01249509136384,52.5791536237583],[-2.01249502844744,52.5789288769104],[-2.01249496553177,52.578704130054],[-2.01212603597804,52.5787041681173],[-2.01175710642358,52.5787042050311],[-2.01175716566219,52.5789289518861],[-2.01175722490149,52.5791536987325],[-2.01212615813304,52.5791536618201],[-2.0121262192116,52.5793784086587],[-2.01175728414147,52.5793784455704],[-2.01138834907063,52.5793784813326],[-2.01138829166922,52.5791537344954],[-2.01101935843626,52.5791537691089],[-2.01101930287407,52.578929022264],[-2.01065037147899,52.5789290557287],[-2.01028144008327,52.578929088044],[-2.01028138819878,52.5787043411921],[-2.00991245864096,52.5787043723587],[-2.00991240859556,52.5784796254989],[-2.00954348087566,52.5784796555169],[-2.00954352908255,52.5787044023759],[-2.00954357728999,52.5789291492263],[-2.00917464589248,52.5789291780933],[-2.00880571449442,52.5789292058108],[-2.00880575902528,52.5791539526511],[-2.00880580355664,52.5793786994829],[-2.00917473863183,52.5793786717669],[-2.00917478500228,52.5796034185909],[-2.00917483137324,52.5798281654064],[-2.00917487774472,52.5800529122133],[-2.00917492411671,52.5802776590116],[-2.00954386654591,52.5802776301494],[-2.00954391475711,52.58050237694],[-2.00954396296885,52.580727123722],[-2.00954401118113,52.5809518704955],[-2.00991295912594,52.5809518404861],[-2.00991290907491,52.5807270937118],[-2.01028185518037,52.5807270625521],[-2.01028190707015,52.5809518093271],[-2.01028195896051,52.5811765560936],[-2.01065090874288,52.5811765237859],[-2.01101985852459,52.5811764903286],[-2.01138880830564,52.5811764557218],[-2.01138886571299,52.581401202482],[-2.01175781733214,52.5814011667264],[-2.01212676895057,52.5814011298212],[-2.01212683003623,52.5816258765743],[-2.01249578349275,52.5816258385203],[-2.01249584641796,52.5818505852656],[-2.01286480171255,52.5818505460627],[-2.01286473694849,52.5816257993168],[-2.01286467218519,52.5814010525623],[-2.01323362380133,52.5814010122085],[-2.01360257541664,52.5814009707051],[-2.0136025069765,52.5811762239407],[-2.01397145675219,52.5811761812871],[-2.01397152703112,52.5814009280522],[-2.0139715973109,52.5816256748087],[-2.0139716675915,52.5818504215568],[-2.01360271229935,52.5818504642083],[-2.01360264385759,52.581625717461],[-2.01323369040345,52.5816257589637],[-2.01323375700636,52.5818505057103],[-2.01323382361005,52.5820752524484],[-2.01323389021452,52.5822999991779],[-2.01323395681978,52.5825247458989],[-2.01323402342582,52.5827494926114],[-2.01323409003264,52.5829742393153],[-2.01323415664025,52.5831989860106],[-2.01323422324864,52.5834237326974],[-2.01286525508222,52.5834237730449],[-2.01286531985234,52.5836485197225],[-2.01286538405846,52.5838732663821],[-2.01323435593602,52.5838732260338],[-2.01323442183349,52.5840979726795],[-2.01323448773175,52.5843227193166],[-2.0128655120877,52.5843227596691],[-2.01286557610348,52.5845475062998],[-2.01286564012004,52.584772252922],[-2.01286570413736,52.5849969995356],[-2.01323468543133,52.5849969591766],[-2.01323461953067,52.5847722125652],[-2.01323455363081,52.5845474659452],[-2.01360353115732,52.5845474244408],[-2.01360346337498,52.5843226778144],[-2.01397243901735,52.5843226351625],[-2.01397236935257,52.5840978885297],[-2.01434134311081,52.5840978447303],[-2.01434141465884,52.584322591361],[-2.01434148620775,52.5845473379831],[-2.01434155775753,52.5847720845966],[-2.01434162930818,52.5849968312016],[-2.0143417008597,52.5852215777981],[-2.01434177241209,52.585446324386],[-2.01434184396536,52.5856710709654],[-2.0143419155195,52.5858958175362],[-2.01434198707451,52.5861205640984],[-2.0143420586304,52.5863453106521],[-2.01434213018716,52.5865700571973],[-2.01397313571173,52.5865701010204],[-2.01397320538583,52.5867948475592],[-2.01397327506077,52.5870195940894],[-2.01434227330329,52.5870195502619],[-2.01434234486267,52.5872442967814],[-2.01434241642291,52.5874690432924],[-2.01434248798403,52.5876937897948],[-2.01434255954603,52.5879185362886],[-2.01434263110889,52.5881432827739],[-2.01434270267263,52.5883680292507],[-2.01434277423724,52.5885927757189],[-2.01397376280914,52.5885928195615],[-2.01397369312826,52.5883680730911],[-2.01360468358301,52.5883681157817],[-2.01360461578668,52.5881433693007],[-2.01360454799118,52.5879186228111],[-2.0136044801965,52.5876938763129],[-2.01323547630144,52.5876939178472],[-2.01323554221246,52.5879186643476],[-2.01286653643292,52.5879187047342],[-2.01286660046107,52.5881434512281],[-2.01249759279705,52.5881434904671],[-2.01249765494226,52.5883682369545],[-2.01286666448999,52.5883681977134],[-2.01286672851968,52.5885929441902],[-2.01286679255014,52.5888176906584],[-2.01323580586455,52.5888176502632],[-2.01323587177957,52.5890423967208],[-2.01323593769538,52.5892671431698],[-2.013236003612,52.5894918896102],[-2.013605022577,52.5894918480587],[-2.01360509037826,52.5897165944885],[-2.01360515818035,52.5899413409097],[-2.01360522598326,52.5901660873224],[-2.013605293787,52.5903908337265],[-2.01360536159155,52.590615580122],[-2.01360542939693,52.590840326509],[-2.01397445966458,52.5908402837947],[-2.01397452935479,52.591065030171],[-2.01360549720314,52.5910650728875],[-2.01323646505063,52.5910651144539],[-2.01323639912843,52.5908403680734],[-2.0128673688591,52.5908404084878],[-2.01249833858897,52.5908404477522],[-2.01249827643553,52.5906157013588],[-2.0121292480486,52.5906157394712],[-2.01176021966092,52.5906157764337],[-2.01176027804641,52.5908405228313],[-2.01176033643259,52.5910652692204],[-2.0113913042762,52.5910653050372],[-2.01139136077905,52.5912900514198],[-2.01139141728257,52.5915147977938],[-2.01139147378677,52.5917395441594],[-2.01139153029164,52.5919642905163],[-2.01176056998429,52.5919642546912],[-2.01212960967622,52.5919642177161],[-2.01212966991175,52.5921889640644],[-2.01212973012924,52.5924137104063],[-2.01212979034746,52.5926384567396],[-2.01212985056641,52.5928632030644],[-2.01176080332241,52.5928632400339],[-2.01176086165365,52.5930879863484],[-2.0117609199856,52.5933127326544],[-2.01176097831825,52.5935374789518],[-2.01139192540818,52.5935375147661],[-2.01139198185302,52.5937622610533],[-2.01176103665159,52.5937622252406],[-2.01176109498564,52.593986971521],[-2.01176115332038,52.5942117177927],[-2.01213021189529,52.5942116808335],[-2.01213027211931,52.5944364270984],[-2.01213033234405,52.5946611733548],[-2.01213039256951,52.5948859196026],[-2.01249945680946,52.5948858814983],[-2.0124995189243,52.5951106277393],[-2.01249958103989,52.5953353739717],[-2.01286864905638,52.5953353347208],[-2.01286871306141,52.5955600809464],[-2.0132377829658,52.595560040547],[-2.01360685286935,52.5955599989975],[-2.01360678508692,52.5953352527685],[-2.01397585310093,52.5953352100672],[-2.01397592277206,52.5955599562978],[-2.01397599244403,52.5957847025198],[-2.01397606211686,52.5960094487333],[-2.01360698843669,52.5960094914297],[-2.01323791475566,52.5960095329758],[-2.01323798065179,52.5962342791775],[-2.01286890508116,52.5962343195718],[-2.01249982950974,52.596234358816],[-2.01213075393753,52.59623439691],[-2.01213081416807,52.596459143098],[-2.01176173670631,52.5964591800401],[-2.01139265924383,52.5964592158321],[-2.01102358178064,52.5964592504739],[-2.01065450431677,52.5964592839655],[-2.01028542685225,52.5964593163069],[-2.00991634938711,52.5964593474982],[-2.00991639828544,52.5966840936672],[-2.00954731893086,52.5966841237066],[-2.00917823957571,52.5966841525957],[-2.00880916022001,52.5966841803347],[-2.00844008086378,52.5966842069235],[-2.00807100150705,52.5966842323621],[-2.00770192214984,52.5966842566505],[-2.00770188458444,52.5964595104922],[-2.00770184701947,52.5962347643254],[-2.00807092259906,52.5962347400334],[-2.00807088314574,52.5960099938562],[-2.00843995683608,52.5960099684122],[-2.00880903052592,52.596009941818],[-2.00917810421523,52.5960099140737],[-2.00954717790399,52.5960098851792],[-2.00991625159217,52.5960098551345],[-2.00991620269557,52.5957851089399],[-2.00991615379953,52.5955603627367],[-2.01028522370964,52.5955603315383],[-2.01028517292549,52.5953355853248],[-2.00991610490408,52.5953356165249],[-2.00954703688207,52.5953356465748],[-2.00917796885948,52.5953356754746],[-2.00880890083633,52.5953357032243],[-2.00843983281266,52.5953357298239],[-2.00807076478849,52.5953357552733],[-2.00807072533697,52.5951110090619],[-2.00770165920099,52.595111033363],[-2.00770162163857,52.5948862871449],[-2.00770158407657,52.5946615409183],[-2.00770154651499,52.594436794683],[-2.00770150895385,52.5942120484393],[-2.00733245037185,52.5942120715976],[-2.00733241469968,52.5939873253471],[-2.0073323790279,52.593762579088],[-2.00696332422255,52.5937626010999],[-2.00696329043967,52.5935378548341],[-2.00696325665717,52.5933131085598],[-2.00733230768555,52.5933130865443],[-2.00733227201497,52.5930883402596],[-2.00733223634479,52.5928635939663],[-2.00696318909328,52.5928636159856],[-2.0069631553119,52.5926388696856],[-2.00659410994839,52.5926388905566],[-2.00659407805575,52.5924141442499],[-2.00659404616347,52.5921893979347],[-2.0065940142323,52.5919646515943],[-2.00659398222079,52.5917399052109],[-2.00659395020962,52.591515158819],[-2.00622491427759,52.5915151785403],[-2.00585587834521,52.5915151971117],[-2.0054868424125,52.5915152145332],[-2.00511780647949,52.5915152308047],[-2.00474877054619,52.5915152459262],[-2.00437973461265,52.5915152598977],[-2.00437975531934,52.5917400063013],[-2.00437977602622,52.5919647526964],[-2.00401073632426,52.5919647655218],[-2.0036416966221,52.5919647771972],[-2.00364167968343,52.5917400307983],[-2.0036416627449,52.5915152843909],[-2.00327262681074,52.5915152949126],[-2.00290359087643,52.5915153042842],[-2.002534554942,52.5915153125059],[-2.00216551900746,52.5915153195777],[-2.00216552840967,52.5917400659926],[-2.00179649059097,52.5917400719162],[-2.00179649810912,52.5919648183244],[-2.00142745840626,52.5919648230999],[-2.00105841840864,52.5919648266411],[-2.000689378411,52.5919648290324],[-2.00032033841339,52.5919648302736],[-2.00032033833839,52.5921895766114],[-1.9999512964779,52.5921895767049],[-1.99958225461748,52.5921895756483],[-1.99958225066834,52.59241432196],[-1.99995129440967,52.592414323012],[-1.99995129234134,52.5926390693105],[-1.99958224671907,52.5926390682632],[-1.9992132010969,52.5926390660659],[-1.99921319526655,52.5928638123651],[-1.99884414776354,52.5928638090224],[-1.99847510026068,52.5928638045297],[-1.9984750906682,52.5930885508295],[-1.99847508107552,52.5933132971209],[-1.99847507148265,52.5935380434036],[-1.99847506188957,52.5937627896778],[-1.99810600686278,52.5937627840535],[-1.99810599538842,52.5939875303237],[-1.99773693848074,52.5939875235538],[-1.99773692512505,52.5942122698201],[-1.99736786633648,52.5942122619048],[-1.99736785109939,52.5944370081671],[-1.99699879042993,52.5944369991062],[-1.99699877331142,52.5946617453645],[-1.9969987561926,52.5948864916143],[-1.99699873907348,52.5951112378556],[-1.99662967276074,52.5951112276582],[-1.99662965376008,52.5953359738955],[-1.9962605855664,52.5953359625526],[-1.99626056468416,52.5955607087858],[-1.99589149460953,52.5955606962973],[-1.99552242453525,52.5955606826587],[-1.99552244918001,52.5953359364164],[-1.99552247382437,52.5951111901656],[-1.99515340751295,52.5951111753678],[-1.99478434120193,52.5951111594199],[-1.99478436960831,52.5948864131515],[-1.99478439801424,52.5946616668745],[-1.99441533546604,52.5946616497675],[-1.99441536575269,52.5944369034775],[-1.99404630508609,52.5944368852159],[-1.9940463372534,52.5942121389128],[-1.9940463694202,52.5939873926012],[-1.99367731251632,52.5939873731806],[-1.99367734656372,52.593762626856],[-1.99330829154142,52.5937626062808],[-1.99330825561294,52.5939873526099],[-1.99293919871007,52.5939873308891],[-1.99293916089993,52.5942120772141],[-1.99257010211649,52.5942120543476],[-1.99257006242464,52.5944368006685],[-1.99293912308921,52.5944368235305],[-1.99330818375433,52.5944368452424],[-1.9933081478242,52.5946615915458],[-1.99367721037099,52.5946616121032],[-1.9936771763215,52.5948863583936],[-1.99367714227149,52.5951111046755],[-1.99404620858117,52.5951111240737],[-1.99404617641187,52.5953358703426],[-1.99404614424207,52.5955606166029],[-1.99441521431472,52.595560634842],[-1.99441518402571,52.5957853810893],[-1.99478425598009,52.5957853981738],[-1.99478422757191,52.5960101444081],[-1.99515330140803,52.5960101603379],[-1.99552237524454,52.5960101751177],[-1.99589144908141,52.5960101887472],[-1.9958914263168,52.5962349349593],[-1.99626050203535,52.5962349474342],[-1.99626048115172,52.5964596936333],[-1.99626046026774,52.5966844398237],[-1.99589138078643,52.5966844273579],[-1.99589135802069,52.5969091735444],[-1.99589133525458,52.5971339197223],[-1.99589131248809,52.5973586658917],[-1.99552222736282,52.5973586522893],[-1.99552220271447,52.5975833984547],[-1.99515311570809,52.5975833837066],[-1.99515314223793,52.5973586375367],[-1.99478405711342,52.5973586216339],[-1.99478402870211,52.5975833678082],[-1.99441494169654,52.5975833507597],[-1.99404585469142,52.5975833325609],[-1.99367676768677,52.5975833132119],[-1.99330768068261,52.5975832927127],[-1.99293859367898,52.5975832710633],[-1.99256950667588,52.5975832482637],[-1.99220041967336,52.5975832243138],[-1.99183133267143,52.5975831992137],[-1.99146224567012,52.5975831729634],[-1.99109315866946,52.5975831455629],[-1.99072407166946,52.5975831170121],[-1.99035498467016,52.5975830873112],[-1.98998589767157,52.59758305646],[-1.98961681067373,52.5975830244586],[-1.98924772367666,52.5975829913069],[-1.98924778031025,52.5973582450661],[-1.98887869519546,52.5973582107599],[-1.98850961008148,52.5973581753034],[-1.98814052496835,52.5973581386968],[-1.9881405872455,52.5971333924343],[-1.9877715040147,52.5971333546731],[-1.98740242078479,52.5971333157618],[-1.98740248682391,52.5969085694821],[-1.98703340547635,52.5969085294162],[-1.98666432412973,52.5969084882001],[-1.98629524278408,52.5969084458338],[-1.98629531446649,52.5966836995327],[-1.98592623500324,52.5966836560119],[-1.98592630856601,52.5964589096979],[-1.98629538614787,52.596458953223],[-1.98629545782824,52.5962342069048],[-1.98592638212773,52.5962341633754],[-1.98555730642825,52.5962341186959],[-1.98518823072981,52.5962340728663],[-1.98518830805315,52.5960093265267],[-1.9851883853754,52.5957845801785],[-1.9855574573112,52.5957846260167],[-1.98592652924804,52.5957846707048],[-1.98592660280662,52.5955599243566],[-1.98555753275107,52.5955598796643],[-1.98555760818986,52.5953351333033],[-1.98555768362758,52.5951103869338],[-1.98555775906424,52.5948856405557],[-1.98555783449982,52.5946608941691],[-1.9851887719702,52.5946608483096],[-1.98518869465343,52.5948855947004],[-1.98518861733557,52.5951103410828],[-1.98481955104462,52.5951102940817],[-1.98481963024369,52.5948855476951],[-1.98445056389891,52.594885499638],[-1.98445048287333,52.5951102460205],[-1.98445040184664,52.5953349923945],[-1.98445032081883,52.59555973876],[-1.9844502397899,52.5957844851169],[-1.98408116583003,52.5957844359053],[-1.98371209187128,52.5957843855435],[-1.98371200720915,52.5960091318807],[-1.98408108298395,52.5960091822481],[-1.98408100013672,52.5962339285823],[-1.9844500777287,52.5962339778051],[-1.98444999669643,52.5964587241363],[-1.98481907582663,52.5964587722217],[-1.98481899661971,52.5966835185485],[-1.98444991566304,52.596683470459],[-1.98408083443885,52.5966834212251],[-1.98408091728835,52.596458674908],[-1.98371183788139,52.5964586245295],[-1.98334275847556,52.5964585730008],[-1.98297367907089,52.5964585203219],[-1.9826045996674,52.5964584664929],[-1.98223552026512,52.5964584115137],[-1.98186644086406,52.5964583553843],[-1.98149736146426,52.5964582981048],[-1.98149726590194,52.5966830443827],[-1.9811281846873,52.5966829859473],[-1.98075910347395,52.5966829263618],[-1.98075920266851,52.5964581800952],[-1.98112828206573,52.5964582396751],[-1.98112837944284,52.5962334933943],[-1.98075930186171,52.5962334338201],[-1.9803902242819,52.5962333730957],[-1.98002114670344,52.5962333112212],[-1.98002124952741,52.5960085649489],[-1.97965217376639,52.5960085019299],[-1.979652278405,52.5957837556547],[-1.97965238304218,52.5955590093709],[-1.97928331091462,52.5955589452132],[-1.97928341736637,52.5953341989266],[-1.97928352381665,52.5951094526314],[-1.97928363026549,52.5948847063277],[-1.97965269694513,52.5948847704684],[-1.97965280157659,52.5946600241505],[-1.98002186644171,52.5946600871354],[-1.98002196925584,52.5944353408032],[-1.98039103230643,52.5944354026323],[-1.98076009535838,52.5944354633114],[-1.98076019453935,52.5942107169593],[-1.98076029371896,52.5939859705987],[-1.98112935314051,52.5939860301163],[-1.98112945050294,52.5937612837415],[-1.98112954786403,52.5935365373581],[-1.98076049207412,52.5935364778517],[-1.98076059124965,52.5933117314655],[-1.98039153727684,52.5933116708147],[-1.98039163826677,52.5930869244256],[-1.98039173925532,52.5928621780278],[-1.98002268891533,52.5928621162384],[-1.9800227917182,52.5926373698378],[-1.98002289451967,52.5924126234286],[-1.98039194122827,52.5924126852067],[-1.98039204221268,52.5921879387833],[-1.98039214241778,52.5919631924194],[-1.98076118548753,52.5919632530369],[-1.98076108710697,52.5921879994057],[-1.98076098793823,52.5924127458348],[-1.9811300346495,52.5924128053128],[-1.98112993729508,52.592637551739],[-1.98149898582333,52.5926376100727],[-1.98149908136208,52.5924128636409],[-1.98186812807593,52.5924129208189],[-1.98223717479104,52.592412976847],[-1.98223708288365,52.5926377232901],[-1.98260613141567,52.5926377781737],[-1.98260622150737,52.5924130317251],[-1.98260631159784,52.5921882852678],[-1.98223726669716,52.5921882303954],[-1.98223735777958,52.5919634840072],[-1.98186831470466,52.5919634279896],[-1.98186840598687,52.5917386817398],[-1.98149936475745,52.5917386245753],[-1.98149945788258,52.59151387832],[-1.98113041849867,52.5915138200087],[-1.98076137911606,52.5915137605474],[-1.98039233973478,52.5915136999361],[-1.98039224107698,52.591738446182],[-1.98002319985282,52.5917383844177],[-1.98002309934938,52.5919631306519],[-1.98002299731973,52.5921878770109],[-1.97965395242815,52.5921878140885],[-1.97965384781244,52.5924125605006],[-1.97965374319529,52.5926373069041],[-1.97928469467378,52.5926372428203],[-1.97928458823949,52.5928619892095],[-1.97891553790369,52.59286192397],[-1.97891542965223,52.593086670345],[-1.97891532139929,52.5933114167114],[-1.97854626743345,52.5933113503105],[-1.97854615736325,52.5935360966627],[-1.97854604729155,52.5937608430063],[-1.9781769896956,52.5937607754439],[-1.97817687780657,52.5939855217732],[-1.97780781839628,52.593985453055],[-1.97743875898752,52.5939853831867],[-1.9774388745082,52.5937606368689],[-1.9770698169168,52.5937605658563],[-1.97706969958029,52.5939853121684],[-1.97670064017463,52.59398524],[-1.97633158077055,52.5939851666816],[-1.97633145980074,52.5942099129736],[-1.97596239858243,52.5942098384993],[-1.9759622757951,52.594434584777],[-1.97559321276254,52.5944345091468],[-1.97522414973165,52.5944344323666],[-1.97485508670243,52.5944343544362],[-1.97485495846573,52.594659100688],[-1.97448589362233,52.5946590216017],[-1.97448576356797,52.5948837678391],[-1.97411669691037,52.594883687597],[-1.97411656503829,52.59510843382],[-1.9737474965665,52.5951083524219],[-1.97374736287665,52.5953330986305],[-1.97337829259067,52.5953330160765],[-1.97337815708301,52.5955577622707],[-1.97300908498284,52.5955576785607],[-1.97300894765731,52.5957824247405],[-1.97263987374295,52.5957823398745],[-1.97263973459951,52.5960070860399],[-1.97227065887095,52.5960070000179],[-1.97190158314427,52.5960069128457],[-1.97153250741948,52.5960068245234],[-1.97116343169662,52.596006735051],[-1.97116328528702,52.5962314811843],[-1.97079420775003,52.5962313905558],[-1.97042513021501,52.5962312987771],[-1.97042528025674,52.5960065526556],[-1.97005620453979,52.5960064597326],[-1.97005605268199,52.5962312058482],[-1.96968697515098,52.5962311117692],[-1.96968682147503,52.5964558578703],[-1.969686667797,52.5966806039628],[-1.96931758663582,52.5966805087218],[-1.96931743113956,52.5969052547998],[-1.96931727564119,52.5971300008693],[-1.9693171201407,52.5973547469302],[-1.9689480335331,52.5973546505211],[-1.96857894692759,52.5973545529618],[-1.96820986032419,52.5973544542523],[-1.96784077187305,52.5973543544509],[-1.96747168262078,52.5973542535247],[-1.96710259337073,52.5973541514482],[-1.96710275987544,52.5971294054177],[-1.96673367248309,52.597129302195],[-1.96636458509301,52.5971291978222],[-1.96599549770522,52.5971290922991],[-1.96562641031975,52.5971289856259],[-1.96562623639325,52.5973537316404],[-1.96562606246435,52.5975784776463],[-1.96562588853306,52.5978032236437],[-1.96562571459938,52.5980279696326],[-1.96525661979432,52.598027861793],[-1.96488752499162,52.5980277528032],[-1.96451843019132,52.5980276426632],[-1.96451860969157,52.5978028966864],[-1.96414951674921,52.5978027854002],[-1.96414969810248,52.597578039419],[-1.96451878918935,52.5975781507012],[-1.96451896868466,52.5973534047073],[-1.9645191481775,52.5971286587049],[-1.96451932766788,52.596903912694],[-1.9645195071558,52.5966791666745],[-1.96451968664125,52.5964544206464],[-1.9641506048315,52.5964543093846],[-1.96415042349067,52.5966790554086],[-1.96378133982799,52.5966789429925],[-1.96378115662928,52.5969036890038],[-1.96378097342806,52.5971284350067],[-1.96341188605702,52.5971283214322],[-1.96304279868847,52.5971282067076],[-1.96304298560054,52.5969034607129],[-1.96267390008994,52.5969033448422],[-1.96267408885484,52.5966785988431],[-1.96304317251005,52.5966787147097],[-1.96304335941699,52.5964539686979],[-1.96341244121934,52.5964540834103],[-1.96341262626837,52.5962293373859],[-1.96304354632137,52.5962292226776],[-1.96304373322318,52.5960044766487],[-1.96267465513402,52.5960043607944],[-1.96230557704739,52.5960042437899],[-1.96230576765724,52.5957794977607],[-1.96193669142848,52.5957793796101],[-1.96156761520231,52.5957792603094],[-1.96119853897875,52.5957791398586],[-1.96119873515181,52.5955543938332],[-1.96082966078616,52.5955542722364],[-1.96082985881178,52.5953295262065],[-1.96046078630405,52.5953294034638],[-1.96046098618218,52.5951046574295],[-1.96009191553236,52.5951045335408],[-1.96009211726295,52.5948797875021],[-1.95972304847104,52.5948796624674],[-1.95935397968186,52.5948795362826],[-1.95935418512005,52.5946547902438],[-1.95898511818881,52.5946546629131],[-1.95861605126035,52.5946545344323],[-1.95861626040603,52.5944297883932],[-1.95824719533553,52.5944296587665],[-1.95824740633347,52.5942049127232],[-1.95787834312094,52.5942047819506],[-1.95750927991126,52.594204650028],[-1.95750949461652,52.5939799039845],[-1.95714043326482,52.593979770916],[-1.95714064982223,52.5937550248682],[-1.95677159032852,52.5937548906539],[-1.95640253083773,52.5937547552895],[-1.95640275110228,52.5935300092417],[-1.95603369346951,52.5935298727315],[-1.95603391558608,52.5933051266794],[-1.95603413769961,52.5930803806187],[-1.95603435981011,52.5928556345494],[-1.95603458191758,52.5926308884716],[-1.95603480402202,52.5924061423852],[-1.95566575566712,52.5924060047464],[-1.95566597962343,52.5921812586557],[-1.95566620348166,52.5919565125737],[-1.95603524811492,52.5919566502047],[-1.95603546991769,52.5917319041417],[-1.95603569171738,52.59150715807],[-1.956035913514,52.5912824119899],[-1.95603613530755,52.5910576659011],[-1.95603635709803,52.5908329198039],[-1.95640539229572,52.5908330562743],[-1.95677442749641,52.5908331915949],[-1.95714346270007,52.5908333257654],[-1.9571432465726,52.591058071869],[-1.95751228366687,52.5910582048918],[-1.95788132076406,52.5910583367646],[-1.95825035786414,52.5910584674874],[-1.95825014739674,52.5912832135888],[-1.95861918638739,52.5912833431637],[-1.95861939496709,52.5910585970604],[-1.9586196035439,52.5908338509484],[-1.95898863876203,52.5908339793693],[-1.9589888454483,52.5906092332467],[-1.95935787878161,52.5906093605157],[-1.95935808357738,52.5903846143825],[-1.95972711502587,52.5903847404994],[-1.9597273179312,52.5901599943557],[-1.96009634749486,52.5901601193207],[-1.96046537706127,52.5901602431358],[-1.96046557618865,52.5899354969794],[-1.96083460387021,52.5899356196426],[-1.96083480110727,52.5897108734757],[-1.96083499834158,52.5894861273002],[-1.96120402225077,52.5894862488094],[-1.96120421759484,52.5892615026234],[-1.96120441293619,52.5890367564288],[-1.96157343307309,52.5890368767842],[-1.96157362652428,52.5888121305791],[-1.96194264477638,52.5888122497826],[-1.96194283633745,52.588587503567],[-1.96231185270475,52.5885876216187],[-1.96231204237575,52.5883628753925],[-1.96268105685826,52.5883629922924],[-1.96268124463925,52.5881382460557],[-1.96268143241761,52.5879134998104],[-1.96305044312797,52.5879136155566],[-1.9630506290164,52.5876888693008],[-1.96341963784199,52.5876889838952],[-1.9637886466701,52.5876890973398],[-1.96378846455631,52.5879138435994],[-1.96415747527423,52.5879139558961],[-1.96452648599462,52.587914067043],[-1.96452630765298,52.588138813298],[-1.96489532026316,52.5881389232969],[-1.96489514380638,52.5883636695452],[-1.96526415830634,52.5883637783963],[-1.96526433287575,52.5881390321461],[-1.96526450744271,52.5879142858873],[-1.96526468200723,52.58768953962],[-1.96526485656929,52.5874647933441],[-1.96526503112891,52.5872400470597],[-1.96563403619468,52.5872401547515],[-1.96600304126282,52.5872402612935],[-1.9660032120455,52.5870155149967],[-1.96637221522874,52.587015620387],[-1.9663720463333,52.5872403666856],[-1.96637187743549,52.5874651129757],[-1.96674088439556,52.58746521722],[-1.96674071738267,52.5876899635033],[-1.96710972623232,52.5876900665996],[-1.9671095611044,52.5879148128763],[-1.96747857184365,52.5879149148247],[-1.96747840860075,52.5881396610947],[-1.96710939597416,52.5881395591445],[-1.96674038334984,52.5881394560444],[-1.9667402163299,52.5883642023022],[-1.96710923084159,52.588364305404],[-1.9671090657067,52.5885890516551],[-1.96747808210805,52.5885891536089],[-1.96747791885825,52.5888138998533],[-1.96747775560616,52.589038646089],[-1.96784677578462,52.5890387468967],[-1.96784661441769,52.5892634931258],[-1.96747759235177,52.5892633923163],[-1.96747742909507,52.5894881385349],[-1.96784645304849,52.5894882393463],[-1.96821547661154,52.5894883390134],[-1.9682153171143,52.5897130852277],[-1.96858434168521,52.5897131837603],[-1.96858418402979,52.5899379299694],[-1.96895321044686,52.5899380273556],[-1.9689530546333,52.5901627735596],[-1.96932208289653,52.5901628697993],[-1.96932192892488,52.5903876159982],[-1.9693217749511,52.5906123621885],[-1.96932162097518,52.5908371083704],[-1.96969065477279,52.5908372034703],[-1.97005968857245,52.5908372974204],[-1.97042872237415,52.5908373902205],[-1.97042857392854,52.5910621364039],[-1.97079760957639,52.5910622280575],[-1.97116664522623,52.5910623185611],[-1.97153568087803,52.5910624079148],[-1.97153553796288,52.5912871540998],[-1.97190457546079,52.5912872423069],[-1.97227361296061,52.591287329364],[-1.97227375218742,52.5910625831722],[-1.97264278784495,52.5910626690761],[-1.97264292522567,52.5908379228724],[-1.97264306260448,52.5906131766602],[-1.97301209457561,52.5906132614075],[-1.9730122301084,52.5903885151834],[-1.9730123656393,52.5901637689508],[-1.9733813939241,52.5901638525414],[-1.9737504222107,52.5901639349822],[-1.97375029036795,52.5903886812214],[-1.97411932050042,52.5903887625156],[-1.9741194504991,52.590164016273],[-1.97448847878926,52.590164096414],[-1.97448860694208,52.5899393501596],[-1.9744887350931,52.5897146038966],[-1.97485775969693,52.5897146828811],[-1.97485788600216,52.5894899366063],[-1.9752269087637,52.5894900144376],[-1.97522703322319,52.589265268151],[-1.97485801230562,52.589265190323],[-1.97485813860731,52.5890404440311],[-1.97485826490724,52.5888156977307],[-1.97448924767927,52.5888156187593],[-1.97412023045304,52.5888155386382],[-1.97412036043901,52.5885907923358],[-1.97375134505845,52.588590711068],[-1.97338232967968,52.5885906286504],[-1.97338246335159,52.5883658823461],[-1.97301344981851,52.588365798782],[-1.97264443628727,52.588365714068],[-1.9726442989276,52.5885904603657],[-1.97227528355435,52.5885903744986],[-1.97227514434886,52.5888151207845],[-1.97190612713359,52.5888150337641],[-1.97190598608224,52.5890397800381],[-1.97153696702496,52.5890396918646],[-1.97153682412769,52.5892644381266],[-1.97153668122844,52.58948918438],[-1.97116765848516,52.5894890950499],[-1.97116751373993,52.5897138412915],[-1.97079848915461,52.5897137508081],[-1.97079834256333,52.5899384970377],[-1.97042931613597,52.5899384054011],[-1.97006028971062,52.5899383126146],[-1.9696912632873,52.5899382186781],[-1.96969141541065,52.5897134724587],[-1.96969156753189,52.5894887262307],[-1.96969171965102,52.5892639799942],[-1.96969187176805,52.5890392337491],[-1.96969202388296,52.5888144874954],[-1.97006104108639,52.5888145814149],[-1.97043005829186,52.5888146741844],[-1.97079907549934,52.5888147658041],[-1.97079922208044,52.5885900195318],[-1.97079936865949,52.5883652732508],[-1.97043035513979,52.5883651816379],[-1.9700613416221,52.5883650888751],[-1.96969232810645,52.5883649949625],[-1.96969248021503,52.5881402486832],[-1.96932346854528,52.5881401536241],[-1.96895445687762,52.5881400574153],[-1.96895461267175,52.5879153111342],[-1.96858560285002,52.587915213779],[-1.96821659303042,52.5879151152739],[-1.96821675250999,52.5876903689912],[-1.96784774393842,52.5876902693429],[-1.96784790528943,52.5874655230539],[-1.96821691198736,52.5874656227],[-1.96858591811938,52.5874657211981],[-1.96858607575078,52.5872409748949],[-1.96821707146252,52.5872408764001],[-1.96821723093548,52.5870161300918],[-1.96784822798464,52.5870160304505],[-1.96747922479227,52.5870159296593],[-1.96747938802368,52.5867911833465],[-1.96711038672078,52.5867910814074],[-1.96711055183708,52.586566335088],[-1.96674155242364,52.5865662320009],[-1.9663725530125,52.5865661277641],[-1.96637272190082,52.5863413814399],[-1.96600372437916,52.5863412760552],[-1.96600389515225,52.5861165297242],[-1.96563489952008,52.5861164231917],[-1.96563507217789,52.585891676854],[-1.96526607843521,52.5858915691736],[-1.96526625297769,52.5856668228294],[-1.96489726112449,52.5856667140011],[-1.9648974375516,52.5854419676502],[-1.96489761397623,52.5852172212907],[-1.96452862589956,52.5852171113166],[-1.96415963782534,52.5852170001927],[-1.96415981802153,52.5849922538285],[-1.9637908318368,52.5849921415569],[-1.96379101391746,52.584767395186],[-1.96342202962222,52.5847672817666],[-1.96305304532949,52.5847671671976],[-1.96305285947483,52.5849919135645],[-1.96268387329766,52.5849917978438],[-1.96231488712304,52.5849916809734],[-1.96231507675168,52.5847669346104],[-1.96194609246666,52.5847668165922],[-1.96194628397962,52.5845420702227],[-1.96157730158418,52.5845419510568],[-1.96157749498141,52.5843172046807],[-1.96120851447556,52.5843170843671],[-1.96120870975701,52.5840923379844],[-1.96120890503575,52.5838675915931],[-1.96083992830637,52.583867470134],[-1.96084012546687,52.5836427237386],[-1.96047115062683,52.583642601131],[-1.9604713496646,52.5834178547323],[-1.9604715486996,52.5831931083252],[-1.96010257763436,52.5831929845659],[-1.95973360657186,52.583192859657],[-1.95936463551212,52.5831927335985],[-1.95936443081904,52.5834174800086],[-1.95899545787607,52.5834173528014],[-1.95862648493592,52.5834172244445],[-1.95825751199861,52.5834170949381],[-1.95825772234977,52.5831923485252],[-1.95825793269801,52.5829676021037],[-1.95825814304333,52.5827428556736],[-1.95825835338573,52.5825181092351],[-1.95825856372521,52.5822933627879],[-1.95788960022065,52.5822932321272],[-1.95788981244311,52.5820684856706],[-1.95789002466262,52.5818437392055],[-1.9582589843954,52.5818438698681],[-1.95862794413105,52.5818439993811],[-1.95899690386954,52.5818441277445],[-1.95899711042855,52.5816193812737],[-1.95899731698469,52.5813946347942],[-1.95899752353796,52.5811698883062],[-1.95899773008837,52.5809451418097],[-1.95936668228641,52.5809452690274],[-1.95936688694819,52.5807205225233],[-1.95936709160713,52.5804957760106],[-1.95936729626322,52.5802710294894],[-1.95899834972235,52.5802709022688],[-1.95862940318431,52.5802707738987],[-1.9582604566491,52.5802706443791],[-1.95826066695938,52.5800458978465],[-1.95789172231272,52.5800457671765],[-1.95789193450573,52.5798210206344],[-1.95752299174761,52.579820888814],[-1.95715404899241,52.579820755844],[-1.95715426495373,52.5795960092916],[-1.95678532408709,52.5795958751713],[-1.95678510624015,52.5798206217246],[-1.95641616349085,52.5798204864557],[-1.95641638322342,52.5795957399015],[-1.95604744236275,52.5795956034822],[-1.95604766397788,52.5793708569185],[-1.95567872500582,52.5793707193489],[-1.9553097860368,52.5793705806298],[-1.95494084707085,52.5793704407613],[-1.95494061979891,52.5795951873276],[-1.95457167895044,52.5795950463104],[-1.95420273810509,52.5795949041438],[-1.95383379726288,52.5795947608276],[-1.95346485642383,52.5795946163621],[-1.95309591558798,52.579594470747],[-1.95272697475534,52.5795943239824],[-1.95235803392594,52.5795941760684],[-1.9519890930998,52.5795940270049],[-1.95162015227696,52.5795938767919],[-1.95125121157914,52.5795937253828],[-1.9512514577098,52.579368978808],[-1.95125170383705,52.5791442322246],[-1.95088276705161,52.5791440796139],[-1.95088251903292,52.5793688261992],[-1.95088227101081,52.5795935727759],[-1.95051333044586,52.5795934190194],[-1.95051358035942,52.5793686724408],[-1.95014464168932,52.579368517533],[-1.94977570302264,52.5793683614758],[-1.94940676435941,52.579368204269],[-1.94903782569965,52.5793680459128],[-1.94903756822028,52.5795927924989],[-1.94866862767257,52.5795926329951],[-1.94866888704339,52.5793678864072],[-1.94829994839066,52.579367725752],[-1.94830020964933,52.5791429791537],[-1.94793127289157,52.5791428173473],[-1.94756233613739,52.5791426543914],[-1.9471933993868,52.5791424902861],[-1.94719366631608,52.5789177436738],[-1.94682473146052,52.5789175784172],[-1.94682446263983,52.5791423250312],[-1.94682419381544,52.5793670716368],[-1.9464552551807,52.5793669052343],[-1.94645498446115,52.5795916518331],[-1.94608604393863,52.5795914842829],[-1.9457171034198,52.5795913155832],[-1.9453481629047,52.5795911457341],[-1.945347886507,52.5798158923296],[-1.94497894410416,52.5798157213328],[-1.94497866581116,52.5800404679215],[-1.9446097215206,52.5800402957769],[-1.94460944133223,52.5802650423588],[-1.94424049515395,52.5802648690664],[-1.94424021307018,52.5804896156415],[-1.94387126500416,52.5804894412014],[-1.94387098102494,52.5807141877697],[-1.94387069704182,52.5809389343294],[-1.94350174519647,52.5809387587432],[-1.943132793355,52.5809385820074],[-1.94313250558472,52.581163328562],[-1.94276355185552,52.5811631506784],[-1.94239459813024,52.5811629716452],[-1.9423943065727,52.5813877181946],[-1.94202535095972,52.5813875380136],[-1.94202505750651,52.5816122845562],[-1.94165610000583,52.5816121032273],[-1.94165580465688,52.5818368497629],[-1.9412868452685,52.5818366672861],[-1.94091788588414,52.5818364836597],[-1.94091758674769,52.5820612301902],[-1.94054862547565,52.5820610454158],[-1.94054832444334,52.5822857919394],[-1.94054802340691,52.5825105384544],[-1.94054772236634,52.5827352849608],[-1.94017875542305,52.5827350990418],[-1.94017845248653,52.5829598455413],[-1.94017814954586,52.5831845920323],[-1.94017784660104,52.5834093385147],[-1.94017754365206,52.5836340849886],[-1.94017724074169,52.5838588313773],[-1.94054621714238,52.5838590172891],[-1.94054591613715,52.5840837636326],[-1.9405456151278,52.5843085099676],[-1.9401766349492,52.5843083240561],[-1.93980765477469,52.5843081369949],[-1.9394386746043,52.5843079487841],[-1.93906969443806,52.5843077594236],[-1.93907000300329,52.5840830130881],[-1.9390703115643,52.583858266744],[-1.93943928795262,52.5838584561048],[-1.9398082643451,52.5838586443159],[-1.93980856914541,52.5836338979265],[-1.93943959464289,52.5836337097147],[-1.93907062014452,52.5836335203532],[-1.93870164565032,52.5836333298422],[-1.93870195616691,52.5834085833618],[-1.93870226667924,52.583183836873],[-1.93907123738966,52.5831840273873],[-1.93907154600588,52.5829592808915],[-1.93907185461788,52.5827345343871],[-1.93907216322565,52.5825097878742],[-1.93907247182919,52.5822850413527],[-1.93870350868603,52.5822848508321],[-1.93833454554707,52.5822846591619],[-1.93796558241233,52.5822844663421],[-1.9379658966869,52.5820597198073],[-1.93759693544816,52.5820595258363],[-1.9372279742137,52.5820593307158],[-1.93685901298354,52.5820591344456],[-1.9364900517577,52.5820589370259],[-1.93612109053621,52.5820587384566],[-1.9357521293191,52.5820585387378],[-1.93538316810639,52.5820583378693],[-1.93501420689811,52.5820581358513],[-1.93464524573619,52.5820579327369],[-1.93427628466328,52.5820577285803],[-1.93427661787468,52.5818329820307],[-1.93390765871607,52.5818327767299],[-1.93353869956201,52.5818325702795],[-1.93316974041254,52.5818323626795],[-1.93280078126768,52.58183215393],[-1.93280112211342,52.5816074073932],[-1.93280146295448,52.5813826608479],[-1.9324325076337,52.5813824509596],[-1.93206355231757,52.5813822399217],[-1.9320632076571,52.5816069864563],[-1.93169425043595,52.5816067742635],[-1.93132529321952,52.5816065609212],[-1.93132494473484,52.5818313074364],[-1.93095598561341,52.5818310929391],[-1.93058702649674,52.5818308772923],[-1.93021806738486,52.5818306604959],[-1.92984910827779,52.5818304425499],[-1.9298494644014,52.5816056960563],[-1.92984982052012,52.5813809495541],[-1.93021877580775,52.5813811674892],[-1.9302191300119,52.5811564209731],[-1.93058808339466,52.5811566377532],[-1.9309570367822,52.5811568533839],[-1.93095738716217,52.5809321068483],[-1.93132633864482,52.580932321324],[-1.93132599017451,52.5811570678649],[-1.93169494357155,52.5811572811965],[-1.93206389697331,52.5811574933785],[-1.93243285037975,52.581157704411],[-1.93280180379085,52.581157914294],[-1.93280214462253,52.5809331677315],[-1.93243319312109,52.5809329578539],[-1.93206424162431,52.5809327468268],[-1.93206458627057,52.5807080002665],[-1.9316956366881,52.5807077880952],[-1.93132668711035,52.5807075747745],[-1.93132703557108,52.5804828282164],[-1.93095808790767,52.5804826137515],[-1.93058914024902,52.5804823981372],[-1.93022019259516,52.5804821813733],[-1.93022054677985,52.5802574348229],[-1.93058949252413,52.5802576515813],[-1.9309584382732,52.5802578671903],[-1.93095878863392,52.5800331206205],[-1.93132773247819,52.5800333350746],[-1.93132808092457,52.5798085884908],[-1.93169702286404,52.57980880179],[-1.93206596480823,52.5798090139397],[-1.9320663094308,52.5795842673366],[-1.93243524947017,52.5795844783315],[-1.93243559217852,52.5793597317144],[-1.93280453031307,52.5793599415545],[-1.93280487110725,52.5791351949235],[-1.93317380733698,52.5791354036087],[-1.93317414621705,52.5789106569638],[-1.93354308054195,52.5789108644943],[-1.93354341750795,52.5786861178355],[-1.93391234992803,52.5786863242111],[-1.93428128235266,52.5786865294373],[-1.93428161549527,52.5784617827593],[-1.93465054601506,52.5784619868308],[-1.93465087724372,52.5782372401389],[-1.93501980615487,52.5782374432446],[-1.93538873520722,52.5782376452881],[-1.935757664264,52.5782378461822],[-1.93575733871463,52.5784625928715],[-1.9357570131608,52.5786873395523],[-1.93575668760253,52.5789120862244],[-1.93612562233775,52.5789122859646],[-1.93612529866642,52.5791370326267],[-1.93649423529743,52.5791372312159],[-1.93686317193278,52.5791374286555],[-1.93686349182131,52.5789126819965],[-1.93686381170546,52.5786879353289],[-1.93723274456236,52.5786881316222],[-1.93723306255079,52.5784633849476],[-1.93760199352064,52.578463580093],[-1.93760230961338,52.5782388334114],[-1.93797123869618,52.578239027409],[-1.93834016778323,52.5782392202571],[-1.93834048008905,52.5780144735701],[-1.93870940728901,52.5780146652704],[-1.93907833449318,52.5780148558213],[-1.93907864301217,52.5777901091289],[-1.93944756832924,52.577790298532],[-1.93944787495275,52.5775655518326],[-1.93944818157206,52.5773408051248],[-1.93981710311079,52.5773409933816],[-1.9398174078347,52.5771162466668],[-1.94018632748636,52.577116433776],[-1.94018663031491,52.5768916870542],[-1.93981771255443,52.5768914999435],[-1.93944879479807,52.5768913116834],[-1.93944910140478,52.5766665649498],[-1.93908018554372,52.5766663755388],[-1.93908049403735,52.5764416287951],[-1.93908080252675,52.5762168820429],[-1.93871189045209,52.5762166914792],[-1.93871220082834,52.5759919447169],[-1.93871251120034,52.575767197946],[-1.93908141949288,52.5757673885128],[-1.9390817279696,52.5755426417349],[-1.93945063437528,52.575542831154],[-1.93981954078511,52.5755430194238],[-1.93981984626408,52.575318272683],[-1.9398201541233,52.5750935260617],[-1.93982046197829,52.5748687794318],[-1.93982076982906,52.5746440327934],[-1.93982107767559,52.5744192861464],[-1.94018997449704,52.574419473172],[-1.94019028041667,52.5741947264938],[-1.9401905863321,52.573969979807],[-1.94019089224333,52.5737452331117],[-1.94055978330102,52.5737454189203],[-1.94056008728545,52.5735206721938],[-1.94056039126571,52.5732959254587],[-1.94092927848238,52.5732961100731],[-1.94092958053591,52.5730713633068],[-1.94092988258529,52.5728466165319],[-1.94129876596103,52.572846799952],[-1.94129906608377,52.572622053146],[-1.94129936620237,52.5723973063315],[-1.94166824573724,52.5723974885573],[-1.94166854392928,52.5721727417116],[-1.94166884211722,52.5719479948573],[-1.9420377178113,52.571948175889],[-1.94203801407275,52.5717234290035],[-1.94203831033012,52.5714986821095],[-1.94203860658341,52.5712739352069],[-1.94240747651444,52.5712741150219],[-1.94240777084134,52.5710493680882],[-1.94240806516419,52.5708246211459],[-1.94277693125463,52.5708247997668],[-1.94277722365117,52.5706000527934],[-1.94314608782334,52.5706002302426],[-1.94314637829361,52.5703754832382],[-1.94277751604368,52.5703753058114],[-1.94240865379774,52.5703751272356],[-1.94240894810843,52.5701503802675],[-1.94204008778871,52.5701502005652],[-1.94167122747303,52.5701500197138],[-1.94130236716142,52.5701498377133],[-1.94130266723462,52.5699250908043],[-1.94093380884928,52.5699249076773],[-1.94056495046805,52.5699247234013],[-1.94056525438145,52.5696999765288],[-1.94019639792653,52.5696997911263],[-1.93982754147577,52.5696996045748],[-1.9394586850292,52.5696994168743],[-1.93945837534932,52.5699241636791],[-1.93945806566519,52.5701489104753],[-1.93908920537849,52.5701487215806],[-1.93908889376789,52.5703734683456],[-1.93908858215301,52.570598215102],[-1.93871971802611,52.5705980250131],[-1.93835085390347,52.570597833775],[-1.93835116936283,52.5703730870638],[-1.93835148481785,52.5701483403439],[-1.93835180026854,52.5699235936155],[-1.9383521157149,52.5696988468785],[-1.93872097214874,52.5696990380261],[-1.93872128566864,52.5694742912579],[-1.93872159918424,52.5692495444812],[-1.93872191269553,52.5690247976958],[-1.93835306202802,52.569024606616],[-1.93835337745706,52.5687998598446],[-1.93835369288178,52.5685751130647],[-1.93835400830216,52.5683503662761],[-1.93872285320357,52.5683505572881],[-1.93872316669765,52.5681258104683],[-1.93872348018742,52.56790106364],[-1.93872379367288,52.5676763168031],[-1.93909263281269,52.5676765065983],[-1.93909294437194,52.5674517597301],[-1.93946178159408,52.5674519483538],[-1.93946209122717,52.5672272014545],[-1.93909325592692,52.5672270128534],[-1.9390935685084,52.5670022661961],[-1.93872473514252,52.5670020764741],[-1.93872505450068,52.5667773309256],[-1.93835622307908,52.5667771401014],[-1.93835654437282,52.5665523945909],[-1.9383568656622,52.5663276490717],[-1.938725693204,52.5663278398026],[-1.93909452075014,52.5663280293846],[-1.93946334830057,52.5663282178178],[-1.93946366376601,52.56610347215],[-1.93946397922716,52.5658787264737],[-1.93909515555642,52.5658785381338],[-1.93872633188998,52.5658783486451],[-1.93835750822788,52.5658781580075],[-1.93798868457012,52.5658779662212],[-1.93761986091675,52.565877773286],[-1.93762018607267,52.5656530278343],[-1.93762051122419,52.565428282374],[-1.93725169145481,52.5654280883834],[-1.93725136436352,52.565652833797],[-1.93725103726778,52.565877579202],[-1.93688221362325,52.5658773839692],[-1.93651338998317,52.5658771875876],[-1.93651305900332,52.5661019328905],[-1.93614423342789,52.5661017353134],[-1.93577540785697,52.5661015365874],[-1.93577574271648,52.5658767913779],[-1.93577607757146,52.5656520461598],[-1.93540725588471,52.5656518463784],[-1.93540759267494,52.5654271011984],[-1.93503877293254,52.565426900315],[-1.93503911165796,52.5652021551731],[-1.93467029385631,52.5652019531405],[-1.93467063450073,52.5649772080284],[-1.93430181857143,52.5649770047287],[-1.93430216108923,52.5647522596222],[-1.93393334704233,52.5647520551879],[-1.93393369143345,52.5645273100871],[-1.93356487926895,52.5645271045183],[-1.93356522553335,52.5643023594232],[-1.93319641525125,52.5643021527198],[-1.93319676338888,52.5640774076304],[-1.93282795498918,52.5640771997925],[-1.93282830499999,52.5638524547088],[-1.93319711152192,52.5638526625324],[-1.93319745965035,52.5636279174259],[-1.93319780777419,52.5634031723107],[-1.93356661054523,52.563403378957],[-1.93356695678676,52.5631786338191],[-1.93393575768467,52.5631788393023],[-1.93393610204395,52.5629540941415],[-1.93393644639868,52.5627293489721],[-1.9343052435458,52.5627295532781],[-1.93430558601835,52.5625048080858],[-1.93467438129236,52.5625050112288],[-1.93467472188279,52.5622802660138],[-1.93467506246872,52.5620555207901],[-1.93504385333203,52.5620557222793],[-1.93541264398072,52.5620559224615],[-1.93578143463396,52.5620561214951],[-1.93578109985158,52.5622808668514],[-1.93614989244876,52.5622810647831],[-1.93614955960127,52.5625058101775],[-1.93651835414239,52.5625060070072],[-1.93688714868798,52.5625062026882],[-1.93688681971489,52.5627309481674],[-1.9372556162044,52.5627311427464],[-1.93762441269833,52.5627313361767],[-1.93762408759974,52.5629560817407],[-1.93799288603756,52.562956274069],[-1.93799256287406,52.563181019671],[-1.93836136325577,52.5631812108973],[-1.93873016364182,52.5631814009749],[-1.9390989640322,52.5631815899037],[-1.93909928137718,52.5629568441618],[-1.93909959871786,52.5627320984112],[-1.93909991605422,52.562507352652],[-1.93946871063047,52.5625075402923],[-1.93983750521098,52.5625077267838],[-1.94020629979575,52.5625079121267],[-1.94057509438475,52.5625080963209],[-1.94094388897794,52.5625082793665],[-1.9413126835753,52.5625084612633],[-1.94131237787567,52.5627332073022],[-1.94131207217187,52.5629579533325],[-1.94131176646393,52.5631826993541],[-1.94168056688388,52.563182880242],[-1.94204936730795,52.5631830599812],[-1.94241816773612,52.5631832385717],[-1.94278696816836,52.5631834160134],[-1.94315576860464,52.5631835923065],[-1.94315606461505,52.562958846052],[-1.94352486311585,52.5629590211498],[-1.94389366162063,52.5629591950988],[-1.94426246012938,52.5629593678992],[-1.94426275031733,52.5627346214965],[-1.94389395374806,52.5627344487427],[-1.94389424587151,52.5625097023779],[-1.94352545124566,52.5625095285219],[-1.94352574530456,52.562284782195],[-1.94352603935947,52.5620600358595],[-1.94352633341037,52.5618352895153],[-1.94315754460673,52.5618351146502],[-1.94315784059298,52.561610368344],[-1.9431581365752,52.5613856220292],[-1.94278935165426,52.5613854461085],[-1.94278964957176,52.5611606998316],[-1.94278994748521,52.560935953546],[-1.94315872852758,52.5609361293736],[-1.94352750957396,52.5609363040525],[-1.94352780360485,52.5607115576653],[-1.94315902449772,52.5607113830328],[-1.94315932046384,52.5604866366835],[-1.94279054329995,52.560486460949],[-1.94279084120125,52.5602617146375],[-1.94279113909849,52.5600369683175],[-1.943159912384,52.5600371439589],[-1.94316020833804,52.5598123975836],[-1.94352897968842,52.5598125720299],[-1.94352868567353,52.5600373184517],[-1.94389745896705,52.560037491796],[-1.94389716688734,52.5602622382556],[-1.94389687480365,52.5604869847067],[-1.94389658271598,52.5607117311491],[-1.94389629062433,52.5609364775829],[-1.94389599852872,52.561161224008],[-1.94352721553906,52.5611610504312],[-1.94352692150017,52.5613857968012],[-1.94352662745727,52.5616105431626],[-1.94389541432555,52.5616107168325],[-1.943895122218,52.5618354632318],[-1.94389483010648,52.5620602096224],[-1.94389453799098,52.5622849560045],[-1.94426333068137,52.5622851286653],[-1.94426304050132,52.5625098750852],[-1.94463183513508,52.5625100466439],[-1.94463154689054,52.5627347931017],[-1.94463125864207,52.5629595395508],[-1.94500005715868,52.5629597100538],[-1.9449997708458,52.5631844565409],[-1.9453685713058,52.5631846259416],[-1.94573737176966,52.5631847941936],[-1.94573708933194,52.563409540765],[-1.94610589173918,52.5634097079147],[-1.94610561123717,52.563634454524],[-1.94647441558777,52.5636346205715],[-1.94647413702152,52.5638593672186],[-1.94684294331549,52.5638595321638],[-1.94684266668505,52.5640842788487],[-1.94684239005084,52.564309025525],[-1.94721120022782,52.5643091894144],[-1.9472114749224,52.5640844426916],[-1.94758028316347,52.5640846053857],[-1.9475805559147,52.5638598586079],[-1.94794936221988,52.5638600201068],[-1.94831816852874,52.563860180457],[-1.94831843739707,52.5636354335777],[-1.94868724177001,52.5636355927327],[-1.94905604614657,52.563635750739],[-1.94942485052675,52.5636359075965],[-1.9497936549105,52.5636360633053],[-1.9497933938005,52.5638608103701],[-1.94942458747716,52.563860654615],[-1.94942432442399,52.5640854016249],[-1.94905551616462,52.5640852446746],[-1.94905578115741,52.5638604977111],[-1.94868697484126,52.5638603396584],[-1.94868670790886,52.5640850865755],[-1.94831789965673,52.5640849273277],[-1.94794909140826,52.5640847669311],[-1.94794882059295,52.5643095137467],[-1.94758001040853,52.5643093521549],[-1.94757973764986,52.5645340989155],[-1.94757946488747,52.5647588456675],[-1.94757919212136,52.5649835924108],[-1.94794800812484,52.5649837541419],[-1.94794827895124,52.5647590073521],[-1.94831709301869,52.564759167888],[-1.9486859070898,52.5647593272751],[-1.94905472116454,52.5647594855133],[-1.94905445615727,52.5649842324423],[-1.94905419114638,52.5652089793627],[-1.94942300910418,52.565209136545],[-1.94942274602943,52.5654338835032],[-1.94942248295109,52.5656586304527],[-1.94979130479202,52.5656587865789],[-1.9501601266365,52.5656589415563],[-1.95016038583526,52.565434194514],[-1.95052920574348,52.5654343482962],[-1.95052946299894,52.5652096011989],[-1.9508982809709,52.5652097537859],[-1.95126709894634,52.5652099052241],[-1.95126735231881,52.5649851580255],[-1.95163616868108,52.5649853084327],[-1.95163642010775,52.5647605611862],[-1.95200523478843,52.5647607105428],[-1.9520054842665,52.5645359632536],[-1.95237429700545,52.5645361114274],[-1.95274310974778,52.5645362584523],[-1.95274286416,52.5647610058096],[-1.95311167885083,52.5647611517197],[-1.95311143520484,52.5649858991023],[-1.95348025184417,52.5649860438977],[-1.95348001014004,52.5652107913057],[-1.95347976843259,52.5654355387051],[-1.95384858896564,52.5654356824196],[-1.95421740950197,52.5654358249853],[-1.95421717168168,52.5656605724441],[-1.95458599416651,52.5656607138948],[-1.95458575828823,52.565885461379],[-1.95495458272156,52.5658856017149],[-1.95532340715809,52.5658857409019],[-1.95532317516717,52.5661104884454],[-1.95569200155217,52.5661106265175],[-1.95569177150337,52.5663353740863],[-1.95606059983685,52.5663355110434],[-1.95606037173023,52.5665602586376],[-1.95642920201218,52.5665603944798],[-1.9564289758478,52.5667851420993],[-1.95679780807822,52.5667852768265],[-1.95679758385612,52.5670100244714],[-1.95716641803502,52.5670101580836],[-1.95753525221696,52.5670102905468],[-1.95753503597636,52.5672350383932],[-1.95790387208292,52.5672351697244],[-1.95790365841322,52.5674599175991],[-1.95790344474055,52.5676846654652],[-1.95827228467897,52.5676847956755],[-1.9586411246203,52.5676849247368],[-1.95864091477366,52.5679096726224],[-1.95900975663238,52.5679098005488],[-1.95937859849396,52.5679099273262],[-1.95937880451158,52.5676851794126],[-1.95974764446148,52.567685305027],[-1.96011648441419,52.5676854294925],[-1.96011628222558,52.567910177434],[-1.96048512409557,52.5679103007644],[-1.96048492381866,52.5681350487113],[-1.96085376760594,52.5681351709067],[-1.96085356924079,52.568359918859],[-1.96085337087286,52.5685846668027],[-1.96048452325644,52.5685845445794],[-1.96011567564278,52.5685844212071],[-1.96011547344285,52.5688091691143],[-1.96048432297113,52.5688092925006],[-1.96048412268301,52.5690340404132],[-1.96085297412867,52.5690341626644],[-1.96085277575241,52.5692589105824],[-1.96122162911546,52.5692590316985],[-1.96122143265111,52.5694837796219],[-1.96159028793155,52.5694838996029],[-1.96159009337915,52.5697086475317],[-1.96195895057698,52.5697087663776],[-1.96195875793659,52.5699335143117],[-1.9623276170518,52.5699336320224],[-1.96232742632347,52.5701583799619],[-1.96232723559246,52.5703831278928],[-1.96232704485878,52.5706078758151],[-1.96232685412242,52.5708326237288],[-1.96195798734802,52.5708325059624],[-1.96195779469412,52.5710572538537],[-1.96158892600752,52.5710571349243],[-1.96158873143603,52.5712818827931],[-1.96195760203753,52.5712820017364],[-1.96195740937823,52.5715067496106],[-1.96232628189729,52.5715068674187],[-1.96269515441898,52.5715069840777],[-1.96269496558685,52.5717317319711],[-1.96269477675207,52.5719564798559],[-1.96306365310626,52.5719565953936],[-1.96306384002608,52.5717318474949],[-1.96306402694327,52.5715070995876],[-1.96306421385783,52.5712823516717],[-1.96306440076977,52.5710576037473],[-1.96269553207528,52.5710574882652],[-1.96269572089945,52.5708327403461],[-1.96269590972098,52.5706079924185],[-1.96306477458578,52.5706081078727],[-1.96306496148984,52.5703833599226],[-1.96306514839128,52.5701586119639],[-1.96343400942906,52.5701587262414],[-1.96343419441312,52.5699339782602],[-1.96380305353869,52.5699340913747],[-1.9641719126668,52.5699342033401],[-1.96417209381878,52.5697094553226],[-1.96454095103465,52.5697095661251],[-1.96454113026938,52.5694848180853],[-1.96490998557301,52.5694849277248],[-1.9652788408791,52.5694850362154],[-1.96527901628194,52.5692602881392],[-1.96564786967577,52.5692603954669],[-1.966016723072,52.5692605016455],[-1.96601689464304,52.5690357535331],[-1.96638574612699,52.5690358585489],[-1.96638591578097,52.5688111104142],[-1.96675476535264,52.5688112142671],[-1.96675493308961,52.56858646611],[-1.96712378074899,52.5685865688001],[-1.96712394656901,52.5683618206207],[-1.96749279231611,52.568361922148],[-1.96786163806547,52.5683620225263],[-1.96786180005403,52.5681372743108],[-1.96823064407378,52.5681373737975],[-1.96859948841654,52.5681374726115],[-1.96859964660286,52.5679127243954],[-1.96896848905445,52.5679128220725],[-1.96896864534522,52.5676880738601],[-1.96933748590565,52.5676881704003],[-1.96933764030093,52.5674634221914],[-1.96970647897019,52.5674635175948],[-1.97007531764156,52.5674636118491],[-1.970444156315,52.5674637049545],[-1.97044430502829,52.5672389567736],[-1.97081314181052,52.5672390487421],[-1.97118197859477,52.5672391395617],[-1.97118183366802,52.5674638877182],[-1.97155067234755,52.5674639773766],[-1.97155081538103,52.5672392292323],[-1.97191965216926,52.5672393177539],[-1.97228848895945,52.5672394051265],[-1.97265732575156,52.5672394913501],[-1.97302616254558,52.5672395764248],[-1.97339499934147,52.5672396603505],[-1.97376383613921,52.5672397431272],[-1.97413267293878,52.5672398247549],[-1.97450150974015,52.5672399052337],[-1.97450163800738,52.5670151571006],[-1.9748704729122,52.5670152364411],[-1.97523930781882,52.5670153146327],[-1.9756081427272,52.5670153916753],[-1.97597697763732,52.5670154675689],[-1.97634581254916,52.5670155423136],[-1.97671464746269,52.5670156159093],[-1.97708348237788,52.567015688356],[-1.97745231729472,52.5670157596538],[-1.97782115221316,52.5670158298026],[-1.9781899871332,52.5670158988025],[-1.9785588220548,52.5670159666533],[-1.97855893203216,52.5667912178842],[-1.97855904200795,52.5665664691065],[-1.97892787307794,52.5665665358024],[-1.97892798112562,52.5663417870132],[-1.97929681027058,52.566341852557],[-1.9792969163902,52.5661171037562],[-1.97892808917176,52.5661170382153],[-1.97892819721634,52.565892289409],[-1.97892830525939,52.565667540594],[-1.97929712862489,52.5656676061288],[-1.97929723473995,52.5654428573023],[-1.97892841330088,52.5654427917706],[-1.97855959186333,52.5654427250899],[-1.9785594818954,52.5656674739104],[-1.97819065853294,52.5656674060778],[-1.97819077042731,52.5654426572604],[-1.97819088232008,52.5652179084344],[-1.97782206281203,52.5652178394591],[-1.97782217662959,52.5649930906276],[-1.97745335904952,52.5649930205064],[-1.97745324330558,52.5652177693348],[-1.97708442380073,52.5652176980616],[-1.97671560429753,52.5652176256396],[-1.97634678479599,52.5652175520687],[-1.97597796529614,52.5652174773489],[-1.97560914579801,52.5652174014801],[-1.97524032630162,52.5652173244626],[-1.97524019899757,52.5654420732638],[-1.97487137757653,52.5654419950942],[-1.97450255615729,52.5654419157757],[-1.97413373473987,52.5654418353083],[-1.97413360165471,52.5656665840915],[-1.9737647783127,52.565666502472],[-1.9737646432992,52.5658912512435],[-1.97413346856768,52.5658913328661],[-1.97413333547877,52.5661160816323],[-1.97376450828381,52.5661160000065],[-1.97339568109072,52.5661159172318],[-1.97339554414691,52.566340665983],[-1.9730267150292,52.5663405820562],[-1.97265788591341,52.5663404969804],[-1.97228905679957,52.5663404107558],[-1.97228919952291,52.5661156620141],[-1.97192037233755,52.5661155746437],[-1.97192051698537,52.5658908258967],[-1.97155169172849,52.5658907373806],[-1.97155154515418,52.5661154861244],[-1.97118271797284,52.5661153964561],[-1.97081389079355,52.5661153056389],[-1.97081404122083,52.5658905569016],[-1.9704452159701,52.5658904649388],[-1.97007639072146,52.565890371827],[-1.96970756547495,52.5658902775663],[-1.96970740926822,52.5661150262939],[-1.96933858209737,52.566114930881],[-1.96933842396195,52.5663396795967],[-1.96933826582431,52.5665644283039],[-1.9697070968482,52.5665645237233],[-1.96970694063493,52.5667892724252],[-1.96933810768447,52.5667891770025],[-1.96933794954243,52.5670139256926],[-1.96896911466756,52.5670138291177],[-1.9686002797949,52.5670137313938],[-1.96860044179012,52.5667889827103],[-1.96860060378309,52.5665642340183],[-1.9689694348026,52.5665643317355],[-1.96896959486677,52.5663395830317],[-1.96860076577379,52.5663394853176],[-1.96823193668304,52.5663393864547],[-1.96786310801618,52.5663392870562],[-1.96786327386925,52.5661145383724],[-1.96749444739398,52.5661144382136],[-1.96749461519002,52.5658896895548],[-1.96712579066237,52.5658895882808],[-1.96712596040134,52.5656648396471],[-1.96675713782131,52.5656647372578],[-1.96638831524365,52.5656646337196],[-1.96638848887075,52.5654398851446],[-1.96601966824074,52.5654397804912],[-1.96565084761315,52.565439674689],[-1.96565102512826,52.5652149261728],[-1.9656512026409,52.5649901776481],[-1.96528238590619,52.5649900707643],[-1.96528256536151,52.5647653222647],[-1.96491375057445,52.5647652142658],[-1.96491393197242,52.5645404657913],[-1.96491411336786,52.5643157173081],[-1.96454530247357,52.5643156082278],[-1.96454548581157,52.5640908597698],[-1.96491429476077,52.5640909688164],[-1.96491447615115,52.5638662203161],[-1.964914657539,52.5636414718072],[-1.96528346260059,52.5636415796376],[-1.96565226766465,52.5636416863192],[-1.96565244515993,52.5634169377343],[-1.96602124828142,52.5634170432335],[-1.96639005140534,52.5634171475838],[-1.96639022500816,52.563192398923],[-1.96675902618948,52.5631925020909],[-1.96675919784491,52.5629677533879],[-1.96712799708364,52.5629678553733],[-1.96749679632471,52.56296795621],[-1.96786559556811,52.562968055898],[-1.96823439516777,52.5629681549686],[-1.96860319536352,52.562968253782],[-1.96860335731812,52.5627435049446],[-1.96897215558997,52.5627436026059],[-1.9689723156162,52.5625188537566],[-1.96934111196415,52.5625189502659],[-1.96970990831427,52.5625190456264],[-1.96971006448611,52.5622942967619],[-1.9700788589123,52.5622943909704],[-1.97007901315591,52.5620696420941],[-1.97044780565817,52.5620697351506],[-1.97081659816253,52.5620698270583],[-1.97081674855192,52.561845078167],[-1.97081689893921,52.5616203292671],[-1.9708170493244,52.5613955803587],[-1.97081719970748,52.5611708314417],[-1.97081735008846,52.5609460825162],[-1.971186132965,52.5609461732589],[-1.97118628141797,52.5607214243216],[-1.97118642986886,52.5604966753757],[-1.97118657831767,52.5602719264213],[-1.97118672676441,52.5600471774583],[-1.97118687520906,52.5598224284868],[-1.97118702365164,52.5595976795067],[-1.97118717209214,52.5593729305181],[-1.97155594148994,52.5593730200895],[-1.97192471088976,52.5593731085123],[-1.97229348029158,52.5593731957865],[-1.97266224969537,52.559373281912],[-1.97303101910111,52.5593733668889],[-1.9730311579109,52.5591486178757],[-1.97339992539283,52.5591487017008],[-1.97339978850876,52.5593734507171],[-1.97376855791831,52.5593735333968],[-1.97413732732973,52.5593736149277],[-1.97413746036234,52.559148865905],[-1.97413759339309,52.5589241168737],[-1.97413772664672,52.558699367963],[-1.97413786503323,52.5584746219963],[-1.97413800341786,52.558249876021],[-1.97413814180061,52.558025130037],[-1.97450689964538,52.5580252101925],[-1.97450703609657,52.5578004641288],[-1.97413828018149,52.5578003840445],[-1.97413841856048,52.5575756380433],[-1.97450717254591,52.5575757180566],[-1.97450730899339,52.5573509719757],[-1.97450744543902,52.5571262258862],[-1.97487619556706,52.5571263046088],[-1.97487633008125,52.5569015584396],[-1.97487646459362,52.5566768122618],[-1.97487659910416,52.5564520660754],[-1.97524534344535,52.5564521434361],[-1.97524547602455,52.55622739717],[-1.97524560860196,52.5560026508953],[-1.97561434908595,52.5560027269655],[-1.97598308957171,52.5560028018872],[-1.97598296085327,52.5562275483041],[-1.97598283213308,52.5564522947123],[-1.97598270341113,52.556677041112],[-1.97635144968716,52.5566771150984],[-1.9767201959649,52.5566771879364],[-1.97672007110032,52.5569019344696],[-1.97671994623404,52.5571266809942],[-1.97671982136606,52.5573514275102],[-1.97708857343424,52.5573514994128],[-1.97708845049419,52.5575762459913],[-1.97708832755247,52.5578009925611],[-1.97671957162499,52.5578009205163],[-1.9763508156992,52.557800847323],[-1.97598205977513,52.5578007729812],[-1.97598193104268,52.5580255193293],[-1.97561317319067,52.5580254437679],[-1.97561304252676,52.5582501900362],[-1.97598180230848,52.5582502656687],[-1.97598167357252,52.5584750119996],[-1.97635043528571,52.5584750865546],[-1.97635030847777,52.5586998329479],[-1.97671907212244,52.5586999064254],[-1.97671895236319,52.5589246553845],[-1.97708771793721,52.5589247277201],[-1.97708760031206,52.5591494767763],[-1.97745636781342,52.5591495479664],[-1.97745625211233,52.5593742970172],[-1.97782502154102,52.5593743670616],[-1.97782490776404,52.5595991161069],[-1.97819367912007,52.5595991850058],[-1.9781937909713,52.5593744359575],[-1.97856256040314,52.5593745037047],[-1.97893132983652,52.5593745703032],[-1.97893122183679,52.5595993193576],[-1.97893111383551,52.5598240684035],[-1.9785623405506,52.5598240017989],[-1.97856223062198,52.5600487508332],[-1.97893100583268,52.5600488174409],[-1.9792997810449,52.5600488828999],[-1.97929967496636,52.5602736319317],[-1.97966845210589,52.560273696245],[-1.97966834795167,52.5604984452713],[-1.98003712701851,52.560498508439],[-1.98003702478868,52.5607232574597],[-1.98040580578284,52.5607233194817],[-1.98040570547744,52.5609480684968],[-1.9807744883989,52.5609481293731],[-1.98077439001799,52.5611728783827],[-1.98114317486677,52.5611729381133],[-1.98114307841038,52.5613976871173],[-1.98114298195261,52.5616224361128],[-1.98151177065468,52.5616224947006],[-1.98151186518647,52.5613977457021],[-1.98188065196389,52.5613978031382],[-1.98224943874262,52.5613978594255],[-1.98261822552262,52.5613979145642],[-1.98261831427519,52.5611731655483],[-1.98261840302646,52.5609484165238],[-1.98298718595584,52.5609484705078],[-1.98335596888645,52.5609485233431],[-1.98335588398703,52.5611732723734],[-1.98372466884478,52.5611733240629],[-1.98372458587007,52.5613980730876],[-1.98335579908638,52.5613980213952],[-1.98335571418448,52.5616227704084],[-1.98372450289415,52.5616228221037],[-1.98372441991702,52.5618475711113],[-1.98409321055387,52.5618476216608],[-1.98409329160501,52.5616228726503],[-1.98446208031701,52.5616229220482],[-1.98483086906035,52.5616229703405],[-1.98483079185919,52.5618477193556],[-1.98519958264934,52.5618477666826],[-1.98519950736239,52.562072515686],[-1.98556830006897,52.5620725618611],[-1.98593709277659,52.5620726068874],[-1.9859370213193,52.5622973558762],[-1.98630581594332,52.5622973997506],[-1.98667461056834,52.5622974424763],[-1.98667454294081,52.5625221914502],[-1.98704333948221,52.562522233024],[-1.9870432737691,52.5627469819863],[-1.98741207222687,52.5627470224081],[-1.98778087068557,52.5627470616812],[-1.98778080880239,52.5629718106286],[-1.98814960917744,52.5629718487497],[-1.98851840955336,52.562971885722],[-1.98851835150021,52.5631966346546],[-1.98888715379246,52.5631966704749],[-1.98925595608552,52.5631967051464],[-1.98925590186251,52.5634214540641],[-1.98888709765394,52.5634214193957],[-1.98888704151456,52.563646168308],[-1.98925584763867,52.5636462029731],[-1.98925579341399,52.5638709518736],[-1.98888698537433,52.5638709172117],[-1.98888692923323,52.5640956661068],[-1.98925573918848,52.5640957007656],[-1.98962454914452,52.5640957342755],[-1.98999335910133,52.5640957666366],[-1.99036216905888,52.5640957978489],[-1.99036221753763,52.5638710489666],[-1.98999340949567,52.5638710177511],[-1.98999345988923,52.563646268857],[-1.99036226601563,52.5636463000757],[-1.99073107214275,52.5636463301455],[-1.99109987827056,52.5636463590666],[-1.99109992291673,52.5634216101736],[-1.99146872712967,52.563421637949],[-1.99146868439904,52.5636463868388],[-1.99183749052816,52.5636464134622],[-1.9918374497124,52.5638711623401],[-1.99220625775769,52.5638711878114],[-1.99220621885686,52.5640959366775],[-1.99257502881833,52.5640959609967],[-1.99257499183248,52.564320709851],[-1.9922061799554,52.5643206855351],[-1.99183736807891,52.5643206600703],[-1.99183732726119,52.5645454089226],[-1.9918372864428,52.5647701577663],[-1.99220610215059,52.5647701832246],[-1.99257491785896,52.564770207534],[-1.99294373356789,52.5647702306945],[-1.99331254927737,52.5647702527061],[-1.99368136498735,52.5647702735689],[-1.99405018069783,52.5647702932828],[-1.9940501513729,52.5649950420982],[-1.99441896899952,52.5649950606599],[-1.99441894158981,52.5652198094635],[-1.99478776113258,52.565219826873],[-1.99478773563811,52.5654445756648],[-1.99515655709703,52.565444591922],[-1.99515653351788,52.5656693407019],[-1.99515650993829,52.5658940894732],[-1.99552533522915,52.5658941045748],[-1.99552531356494,52.5661188533342],[-1.99589414077197,52.5661188672836],[-1.9958941210232,52.5663436160311],[-1.99589410127405,52.56656836477],[-1.99589408152453,52.5667931135004],[-1.99626291447948,52.5667931262908],[-1.99626289664548,52.5670178750093],[-1.99626288021178,52.5672426224121],[-1.99626286393863,52.5674673696561],[-1.99626284766513,52.5676921168917],[-1.99663168821031,52.5676921284864],[-1.99663167382694,52.5679168756985],[-1.99663165944323,52.5681416229021],[-1.99663164505921,52.5683663700972],[-1.99663163067485,52.5685911172837],[-1.99663161629018,52.5688158644617],[-1.99663160190517,52.5690406116311],[-1.99663158751985,52.5692653587919],[-1.99663157313419,52.5694901059442],[-1.99663155874821,52.569714853088],[-1.99700041630883,52.5697148634002],[-1.99700042880413,52.5694901162713],[-1.99700044129914,52.5692653691338],[-1.99700045379384,52.5690406219878],[-1.99736930568276,52.5690406311955],[-1.99736931628657,52.5688158840557],[-1.9973693268901,52.5685911369074],[-1.99773817499806,52.5685911449958],[-1.99773818371077,52.5683663978538],[-1.99773819242323,52.5681416507032],[-1.99773820113544,52.5679169035441],[-1.99810704357203,52.567916910528],[-1.99810705039351,52.5676921633752],[-1.99810705721477,52.5674674162139],[-1.99847589587062,52.5674674220785],[-1.99847590080123,52.5672426749235],[-1.99847590587628,52.5670179276032],[-1.99847591221479,52.5667931789051],[-1.99884474517137,52.5667931836528],[-1.99884474959379,52.5665684349496],[-1.99921358063462,52.5665684385518],[-1.999213583141,52.5663436898435],[-1.99921358564723,52.5661189411266],[-1.99958241285647,52.5661189435867],[-1.99958241344673,52.5658941948648],[-1.99995123874023,52.5658941961794],[-1.99995124006578,52.566118944898],[-2.00032006727515,52.5661189450602],[-2.00068889448455,52.5661189440736],[-2.00068889964167,52.5663436927766],[-2.00068890479874,52.5665684414711],[-2.00032007375764,52.5665684424647],[-2.00032007699877,52.5667931911541],[-2.00068890995576,52.566793190157],[-2.00068891511273,52.5670179388344],[-2.00105774998564,52.5670179366849],[-2.00142658485853,52.5670179333864],[-2.00142659492785,52.5672426805966],[-2.00179543156451,52.5672426756439],[-2.00179544357236,52.5674674226854],[-2.00216428202401,52.5674674165895],[-2.0021642682011,52.5672426695422],[-2.00253310483759,52.5672426622916],[-2.00253312047557,52.5674674093446],[-2.002901958927,52.5674674009508],[-2.00327079737828,52.5674673914079],[-2.00327077811017,52.5672426443435],[-2.00363961474622,52.5672426336459],[-2.00400845138207,52.5672426217994],[-2.00400847428031,52.5674673688754],[-2.00437731273101,52.5674673558856],[-2.00437733744452,52.5676921029587],[-2.00400849717873,52.5676921159427],[-2.00400852007732,52.5679168630015],[-2.00400854297607,52.5681416100518],[-2.00437738687211,52.5681415970792],[-2.0043774115862,52.5683663441266],[-2.00437743630048,52.5685910911655],[-2.00437746101495,52.5688158381958],[-2.00474631035632,52.5688158240912],[-2.00474633688622,52.5690405711187],[-2.00437748572962,52.5690405852175],[-2.00437751044448,52.5692653322307],[-2.00474636341635,52.5692653181376],[-2.00474638994669,52.5694900651479],[-2.00474641647724,52.5697148121497],[-2.00474644300802,52.569939559143],[-2.00511530142554,52.5699395439178],[-2.00548415984277,52.5699395275435],[-2.00548412968133,52.5697147805389],[-2.00548409952015,52.5694900335257],[-2.00585295430643,52.569490015991],[-2.00622180909237,52.5694899973073],[-2.00622184288416,52.5697147443318],[-2.00622187667627,52.5699394913477],[-2.00622191046869,52.5701642383551],[-2.00585305023675,52.5701642570218],[-2.00548419000448,52.5701642745395],[-2.00548422016645,52.570389021527],[-2.00585308221411,52.570389004015],[-2.00622194426143,52.5703889853539],[-2.00622197805448,52.5706137323442],[-2.00622201184784,52.5708384793259],[-2.00659087752564,52.570838459527],[-2.00695974320304,52.5708384385789],[-2.00732860888004,52.5708384164818],[-2.0076974745566,52.5708383932355],[-2.00769743350151,52.5706136462313],[-2.00806629736219,52.5706136218303],[-2.00843516122238,52.5706135962802],[-2.00880402508206,52.570613569581],[-2.00917288894122,52.5706135417327],[-2.00917293725803,52.5708382887593],[-2.00954180293206,52.5708382597675],[-2.00991066860552,52.5708382296265],[-2.00991072055375,52.5710629766557],[-2.00991077250253,52.5712877236764],[-2.01027964180632,52.5712876923974],[-2.01027969557116,52.571512439415],[-2.01027974933658,52.5717371864242],[-2.01064862227077,52.5717371540071],[-2.01064867785233,52.5719619010132],[-2.01064873343449,52.5721866480108],[-2.01101760999916,52.5721866144557],[-2.01101766739753,52.5724113614502],[-2.01101772479652,52.5726361084362],[-2.01138660499174,52.572636073743],[-2.01138666420702,52.5728608207259],[-2.01138672342294,52.5730855677004],[-2.01175560724879,52.573085531869],[-2.01175566828107,52.5733102788404],[-2.01175572931403,52.5735350258032],[-2.01138684185676,52.5735350616235],[-2.01138690107465,52.5737598085723],[-2.01175579034766,52.5737597727575],[-2.01175585138197,52.5739845197032],[-2.01212474247003,52.5739844827446],[-2.01212480532081,52.5742092296873],[-2.0121248681723,52.5744339766214],[-2.01249376289123,52.5744339385246],[-2.01249382755926,52.5746586854557],[-2.01249389222801,52.5748834323783],[-2.01286279057788,52.5748833931432],[-2.01286272409326,52.5746586462151],[-2.01286265760938,52.5744338992786],[-2.01286259112626,52.5742091523335],[-2.01286252464389,52.5739844053798],[-2.01286245816227,52.5737596584176]]],[[[-1.97190598608224,52.5890397800381],[-1.97227500514144,52.5890398670617],[-1.97264402420253,52.5890399529355],[-1.97264388683712,52.5892646992075],[-1.97301290774402,52.5892647839348],[-1.97301277222068,52.5894895302016],[-1.9726437494698,52.589489445471],[-1.97227472672079,52.5894893595906],[-1.97190570397366,52.5894892725602],[-1.97190584502893,52.5892645263034],[-1.97190598608224,52.5890397800381]]],[[[-1.99405018069783,52.5647702932828],[-1.99405021002225,52.5645455444587],[-1.99368139622743,52.5645455247415],[-1.99368142746698,52.5643207759057],[-1.99405023934616,52.5643207956262],[-1.9944190512258,52.5643208141978],[-1.9944190786336,52.56409606536],[-1.99478788859806,52.5640960827861],[-1.99478786310587,52.5643208316206],[-1.99478783761323,52.5645455804466],[-1.99478781212013,52.5647703292639],[-1.99441899640876,52.5647703118478],[-1.99405018069783,52.5647702932828]]],[[[-1.99552533522915,52.5658941045748],[-1.99552535689294,52.5656693558069],[-1.99552537855634,52.5654446070304],[-1.99552540021932,52.5652198582454],[-1.99589421976325,52.5652198722082],[-1.99626303930751,52.5652198850221],[-1.99663185885209,52.5652198966872],[-1.99663184293631,52.5654446454621],[-1.9970006643969,52.5654446559749],[-1.99736948585775,52.5654446653388],[-1.99773830731884,52.5654446735538],[-1.99773829715002,52.56566942231],[-1.99810712052707,52.5656694293726],[-1.99847594390431,52.5656694352864],[-1.99884476728171,52.5656694400513],[-1.99921359065924,52.5656694436672],[-1.99921358815331,52.5658941924012],[-1.99884476286,52.5658941887887],[-1.99884475843811,52.5661189375175],[-1.99847593122911,52.5661189327595],[-1.99810710402027,52.5661189268526],[-1.99773827681162,52.5661189197968],[-1.99773826664204,52.5663436685273],[-1.99736943751775,52.566343660326],[-1.9970006083937,52.5663436509757],[-1.99700062239496,52.5661189022383],[-1.996631795187,52.5661188917357],[-1.99626296797933,52.5661188800841],[-1.99626298581191,52.5658941313314],[-1.99589416052036,52.5658941185276],[-1.99552533522915,52.5658941045748]]],[[[-1.94463500556597,52.5600378350387],[-1.94500377887131,52.5600380049371],[-1.94537255218054,52.560038173687],[-1.94574132549363,52.5600383412883],[-1.94574104310979,52.5602630879805],[-1.9457407607221,52.560487834664],[-1.94537198353063,52.5604876669697],[-1.94537169919987,52.5607124135981],[-1.94500292007304,52.5607122447088],[-1.9446341409501,52.5607120746709],[-1.94426536183107,52.5607119034843],[-1.94426565197951,52.5604871569953],[-1.944265942124,52.5602624104978],[-1.9446347173646,52.5602625815914],[-1.94463500556597,52.5600378350387]]],[[[-1.95935992661119,52.5883618987992],[-1.95972894107224,52.5883620248978],[-1.96009795553607,52.5883621498466],[-1.96009775454071,52.5885868960608],[-1.96046677089467,52.5885870198617],[-1.96046657178393,52.5888117660693],[-1.96083559002803,52.5888118887224],[-1.96083539280196,52.5890366349236],[-1.96046637267042,52.5890365122685],[-1.96046617355414,52.589261258459],[-1.96009715153785,52.589261134652],[-1.9600969505313,52.589485880832],[-1.95972792663026,52.5894857558731],[-1.959358902732,52.5894856297643],[-1.95935910751353,52.5892608835884],[-1.95935931229222,52.589036137404],[-1.95899029217171,52.5890360101494],[-1.95899049883499,52.5888112639584],[-1.9589907054954,52.5885865177589],[-1.95862168915256,52.5885863893586],[-1.95862189769749,52.5883616431526],[-1.95899091215293,52.5883617715508],[-1.95935992661119,52.5883618987992]]],[[[-2.00253463317157,52.5930885367829],[-2.00216558402835,52.5930885438498],[-2.00216557479609,52.5928637975831],[-2.00179652754121,52.592863803502],[-2.0017965201974,52.5926390572286],[-2.00142747483087,52.5926390619994],[-2.00142746937545,52.5924143157195],[-2.00179651285361,52.5924143109467],[-2.00216555633171,52.5924143050239],[-2.00216556556388,52.5926390513078],[-2.00253461093028,52.5926390442369],[-2.00253462205089,52.5928637905142],[-2.00253463317157,52.5930885367829]]],[[[-2.00732837344791,52.5694899343617],[-2.00695951866313,52.5694899564927],[-2.00695955608554,52.5697147035284],[-2.00695959350831,52.5699394505556],[-2.00695963093145,52.5701641975743],[-2.00695966835495,52.5703889445844],[-2.00695970577881,52.5706136915859],[-2.00659084191684,52.5706137125396],[-2.00659080630838,52.5703889655437],[-2.00659077070026,52.5701642185392],[-2.00659073509248,52.5699394715262],[-2.00659069948504,52.5697147245046],[-2.00659066387794,52.5694899774745],[-2.00659062827118,52.5692652304358],[-2.00695948124108,52.5692652094484],[-2.00732833421057,52.5692651873118],[-2.00732837344791,52.5694899343617]]],[[[-2.00732825573707,52.5688156931863],[-2.0073282165009,52.5685909461107],[-2.00769706402425,52.5685909228083],[-2.00806591154714,52.5685908983568],[-2.00806595441374,52.5688156454436],[-2.00806599728077,52.5690403925219],[-2.00769714612743,52.5690404169621],[-2.00732829497363,52.5690404402533],[-2.00732825573707,52.5688156931863]]]]}}