{"type":"Feature","properties":{"code":"E63004158","name":"Burton End"},"geometry":{"type":"MultiPolygon","coordinates":[[[[0.282300272251895,51.8984790698254],[0.282288889536684,51.8982544754251],[0.282651933505041,51.8982474307886],[0.282640549102104,51.8980228364636],[0.283003591081569,51.8980157907974],[0.283366632910445,51.8980087440138],[0.283355244981531,51.8977841498519],[0.282992204990953,51.8977911965478],[0.282629164849789,51.8977982421264],[0.282266124558062,51.8978052865876],[0.281903084115796,51.8978123299315],[0.281540043588265,51.8978193722269],[0.281528665003292,51.8975947776245],[0.28151728656844,51.8973701830104],[0.281154249644979,51.897377224131],[0.280791212571479,51.8973842641335],[0.280802587343322,51.897608858901],[0.280439548288301,51.8976158978622],[0.280428175347966,51.8973913030181],[0.280416802557679,51.8971667081624],[0.280053767015664,51.8971737458523],[0.279690731323687,51.8971807824242],[0.279702100450997,51.8974053774332],[0.279339062777588,51.8974124129638],[0.279350430223382,51.8976370080379],[0.279361797819154,51.8978616031003],[0.279373165564907,51.8980861981511],[0.279736208732936,51.8980791623906],[0.280099251751016,51.8980721255121],[0.280462294619122,51.8980650875156],[0.280450921378686,51.8978404926947],[0.280813962265238,51.8978334536568],[0.280825337337231,51.898058048401],[0.281188379905319,51.8980510081684],[0.281551422323361,51.8980439668177],[0.281562801208585,51.8982685613969],[0.281574180243936,51.8984931559645],[0.281585559429419,51.8987177505204],[0.281948607322077,51.8987107079079],[0.28231165511771,51.8987036642133],[0.282674702762794,51.8986966194014],[0.282663318058604,51.8984720251012],[0.282300272251895,51.8984790698254]]],[[[0.208465462596692,51.8675153350165],[0.20845445931746,51.8672907268424],[0.208443456308396,51.8670661184465],[0.208080646110062,51.867072930513],[0.207717835768175,51.8670797414617],[0.20735502528276,51.8670865512923],[0.207366022925858,51.867311159832],[0.207377020813824,51.8675357682091],[0.207014206600081,51.8675425770384],[0.206651392243317,51.8675493847502],[0.206288577743553,51.8675561913446],[0.206299570383259,51.8677807999136],[0.206310563165992,51.8680054084716],[0.206321556091757,51.8682300170185],[0.205958736057577,51.8682368226982],[0.205969727329182,51.8684614313017],[0.205980718743798,51.8686860398941],[0.205617894972243,51.8686928445916],[0.20562888473263,51.8689174532406],[0.205266059020889,51.8689242568882],[0.205277047127001,51.8691488655938],[0.204914219475068,51.8691556681914],[0.204551391680237,51.8691624696716],[0.204188563742529,51.8691692700342],[0.204199546599723,51.8693938789314],[0.20421052959982,51.8696184878177],[0.204221512742826,51.8698430966928],[0.204232496028741,51.870067705557],[0.204243479457571,51.87029231441],[0.204606316382013,51.8702855137096],[0.204617301751175,51.870510122484],[0.204254463029315,51.8705169232521],[0.204265446743977,51.8707415320831],[0.203902606081807,51.8707483318011],[0.203913588141923,51.8709729406887],[0.203924570344938,51.8711975495652],[0.203561725944961,51.8712043483008],[0.203198881402157,51.8712111459187],[0.203209860153039,51.8714357549193],[0.203572706493362,51.8714289572338],[0.203583687184643,51.8716535661558],[0.203946535179675,51.8716467672851],[0.203957517811403,51.8718713761284],[0.20396850058604,51.8720959849608],[0.203979483503589,51.8723205937821],[0.204342336748517,51.872313793591],[0.204331352033361,51.8720891848373],[0.204694203337798,51.8720823835962],[0.205057054499328,51.8720755812375],[0.205419905517927,51.8720687777611],[0.205782756393572,51.8720619731671],[0.205771764631042,51.8718373646727],[0.206134613566139,51.8718305590286],[0.206145607126241,51.8720551674554],[0.206508457715909,51.8720483606261],[0.206497462358238,51.871823752267],[0.206860311007315,51.8718169443877],[0.207223159513347,51.8718101353908],[0.207586007876311,51.8718033252762],[0.207948856096183,51.8717965140441],[0.207937853691428,51.8715719059445],[0.208300699970653,51.8715650936624],[0.20866354610674,51.8715582802627],[0.208652540250132,51.8713336722873],[0.208641534536732,51.871109064301],[0.208278691995635,51.8711158775653],[0.208267688222902,51.8708912695002],[0.208630528966539,51.8708844563036],[0.208619523539549,51.8706598482951],[0.208982362342599,51.8706530340485],[0.209345201002476,51.8706462186844],[0.209708039519158,51.8706394022026],[0.21007087789262,51.8706325846034],[0.210433716122838,51.8706257658865],[0.21079655420979,51.8706189460521],[0.210785538141571,51.8703943384388],[0.211148374287838,51.8703875175546],[0.211511210290794,51.8703806955528],[0.211874046150415,51.8703738724334],[0.212236881866679,51.8703670481965],[0.212599717439563,51.870360222842],[0.212588692527845,51.8701356155565],[0.212951526159963,51.8701287891523],[0.213314359648658,51.8701219616305],[0.213677192993904,51.8701151329912],[0.214040026195677,51.8701083032343],[0.214051058296824,51.8703329102487],[0.214413893152454,51.8703260793065],[0.214402859253957,51.87010147236],[0.214765692168717,51.8700946403681],[0.215128524973816,51.8700878073119],[0.215139562473373,51.8703124141303],[0.215502397035399,51.8703055800425],[0.215865231453327,51.8702987448369],[0.215854190342465,51.8700741381455],[0.216217022810623,51.8700673018856],[0.216579855134639,51.870060464508],[0.216590899856796,51.8702850710724],[0.216228065727134,51.8702919085136],[0.216239108787843,51.8705165151307],[0.216601944723174,51.870509677626],[0.216964780514336,51.8705028390036],[0.21695373384229,51.8702782325134],[0.216942687314488,51.8700536260125],[0.21730551935015,51.8700467863993],[0.217668351241597,51.8700399456682],[0.218031182988809,51.8700331038193],[0.218394014591761,51.8700262608527],[0.218756846050429,51.8700194167683],[0.219119677364791,51.8700125715661],[0.219482508534823,51.8700057252461],[0.219845339560501,51.8699988778083],[0.220208170441802,51.8699920292528],[0.220571001178702,51.8699851795795],[0.220933831771179,51.8699783287883],[0.220944898160898,51.8702029345901],[0.220582065762805,51.8702097854448],[0.220593130491389,51.8704343912993],[0.220230296143228,51.8704412410999],[0.220241359210626,51.8706658470072],[0.220252422422484,51.8708904529037],[0.219889584318557,51.8708973017137],[0.219878522912389,51.8706726957535],[0.219515686469769,51.870679543382],[0.219152849882787,51.8706863898928],[0.218790013151468,51.8706932352856],[0.218801069140545,51.8709178414365],[0.219163907677564,51.87091099598],[0.219174965616732,51.8711356020565],[0.219537805815131,51.8711287554187],[0.219900645869163,51.871121907663],[0.219911707564212,51.8713465136015],[0.220274549279593,51.8713396646644],[0.22028561292485,51.8715642705285],[0.220648456301575,51.87155742041],[0.221011299533861,51.8715505691736],[0.221022366935151,51.8717751748997],[0.221385211828749,51.8717683224818],[0.221396281180362,51.8719929281335],[0.221033434480962,51.871999780615],[0.221044502171294,51.8722243863195],[0.22140735067652,51.8722175337744],[0.221418420317227,51.8724421394045],[0.221055570006153,51.8724489920132],[0.220692719550604,51.872455843504],[0.220329868950603,51.872462693877],[0.22031880472745,51.8722380880561],[0.219955955788877,51.8722449372475],[0.219593106705902,51.8722517853212],[0.219230257478548,51.8722586322769],[0.21921919881738,51.8720340262544],[0.219582046238895,51.8720271793622],[0.219570985916317,51.8718025733925],[0.219208140300616,51.8718094202211],[0.218845294540565,51.8718162659319],[0.218856351251511,51.8720408720287],[0.218493503541314,51.8720477166851],[0.21813065568681,51.8720545602237],[0.217767807688025,51.8720614026444],[0.21740495954498,51.8720682439472],[0.217042111257702,51.8720750841321],[0.21667926282621,51.8720819231992],[0.216316414250531,51.8720887611484],[0.215953565530687,51.8720955979797],[0.215590716666703,51.8721024336932],[0.215601757269355,51.8723270403509],[0.215238906455386,51.8723338750099],[0.215249945396322,51.8725584817204],[0.21488709272124,51.8725653154261],[0.214898129996786,51.8727899221832],[0.214535275512303,51.872796754989],[0.214546311133842,51.8730213618029],[0.214557346898985,51.8732459686057],[0.214568382807734,51.8734705753975],[0.21457941886009,51.8736951821782],[0.21494228053523,51.873688349101],[0.21495331852892,51.8739129558028],[0.214964356666246,51.8741375624935],[0.215327222019258,51.8741307283912],[0.215338262113476,51.8743553350153],[0.215349302351867,51.8745799416286],[0.215360342734431,51.8748045482311],[0.215723213414469,51.8747977128738],[0.215734255747356,51.875022319402],[0.215745298224446,51.8752469259194],[0.215756340845742,51.875471532426],[0.216119216800137,51.8754646957602],[0.216130260406113,51.8756893013338],[0.216141304082731,51.8759139068285],[0.215778424427716,51.8759207436302],[0.215767382586155,51.875696138053],[0.215404504620286,51.8757029736554],[0.215041626508533,51.8757098081409],[0.21467874856481,51.8757166418034],[0.214667712391082,51.875492035983],[0.214304836150705,51.8754988684596],[0.214293800844551,51.8752742617677],[0.213930926297732,51.8752810930842],[0.213919892835784,51.8750564862453],[0.213557019943307,51.8750633163763],[0.213568051607385,51.8752879232831],[0.213579083231278,51.875512530061],[0.213216206552277,51.8755193591858],[0.213205176773532,51.8752947523642],[0.212842301796197,51.8753015803275],[0.212479426675404,51.8753084071731],[0.212490452755818,51.8755330140836],[0.212127575638408,51.8755398398567],[0.21176469837491,51.8755466645124],[0.211401820965349,51.8755534880509],[0.211412840561401,51.8757780945535],[0.211049961163823,51.8757849170505],[0.210687081620227,51.8757917384302],[0.210698097678377,51.8760163450728],[0.210335216146781,51.8760231654109],[0.210346230508961,51.8762477721177],[0.210357245017175,51.876472378813],[0.209994359655519,51.8764791981853],[0.20998334698936,51.8762545914143],[0.209620463323808,51.8762614095936],[0.209609452645695,51.8760368027353],[0.209246570676253,51.8760436197216],[0.209257579512328,51.8762682266555],[0.208894695554945,51.8762750426002],[0.208905702694922,51.8764996495983],[0.208542816749595,51.8765064645014],[0.208179930658409,51.8765132782871],[0.208190934260146,51.8767378854251],[0.207828046181032,51.8767446981692],[0.207465157956106,51.876751509796],[0.207476158019502,51.8769761170737],[0.207113267806664,51.8769829276588],[0.207124266173764,51.8772075350007],[0.206761373973009,51.8772143445441],[0.206398481626511,51.8772211529702],[0.20603558913429,51.8772279602789],[0.206046582120692,51.8774525678362],[0.205683687640593,51.8774593741032],[0.205694678930551,51.8776839817245],[0.205705670366251,51.8779085893344],[0.205342772056037,51.8779153946352],[0.205353761795224,51.8781400023092],[0.204990861497095,51.8781468065682],[0.205001849539722,51.8783714143062],[0.204638947253673,51.8783782175235],[0.204649933599693,51.8786028253256],[0.20428702932572,51.8786096275011],[0.204298013975084,51.8788342353673],[0.204308998770106,51.8790588432219],[0.204319983710788,51.879283451065],[0.204330968797134,51.8795080588965],[0.204341954029145,51.8797326667166],[0.204352939406824,51.8799572745251],[0.204363924930173,51.8801818823221],[0.204001007613746,51.8801886839093],[0.204011991440265,51.8804132917703],[0.204022975412435,51.8806378996198],[0.204385896413894,51.8806310978815],[0.204374910599197,51.8804064901076],[0.204737829612516,51.8803996873273],[0.204748817269741,51.8806242950257],[0.204759805072666,51.8808489027125],[0.204770793021297,51.8810735103878],[0.204407868480329,51.8810803133948],[0.204418854732069,51.8813049211342],[0.204429841129495,51.881529528862],[0.204792769355683,51.8815227257038],[0.204781781115635,51.8812981180515],[0.205144707353555,51.8812913138514],[0.205155697436221,51.881515921428],[0.205166687664623,51.8817405289931],[0.205177678038763,51.8819651365467],[0.205188668558645,51.8821897440887],[0.204825734950108,51.8821965485913],[0.204836723773019,51.8824211561975],[0.204847712741652,51.8826457637921],[0.205210650035642,51.8826389591382],[0.205199659224271,51.8824143516192],[0.205562594529839,51.8824075459235],[0.205925529689701,51.8824007391101],[0.206288464703831,51.8823939311792],[0.206277468510079,51.8821693238756],[0.20664040153575,51.8821625149028],[0.207003334415644,51.8821557048125],[0.207014334294802,51.8823803119648],[0.207025334319826,51.8826049191056],[0.207036334490717,51.8828295262348],[0.207047334807479,51.8830541333526],[0.207058335270115,51.8832787404587],[0.207069335878625,51.8835033475534],[0.207080336633013,51.8837279546365],[0.207443282266501,51.883721142899],[0.207454284690642,51.8839457503114],[0.207091337216492,51.8839525621319],[0.20710233775038,51.8841771698764],[0.207113338428333,51.8844017776108],[0.207124339250351,51.8846263853351],[0.207135340216439,51.8848509930491],[0.207146341326599,51.8850756007531],[0.207157342580832,51.8853002084469],[0.207168343979142,51.8855248161305],[0.207179345521531,51.885749423804],[0.207190347208001,51.8859740314674],[0.207201349038556,51.8861986391206],[0.207212351013196,51.8864232467636],[0.207223353131926,51.8866478543965],[0.207234355394746,51.8868724620193],[0.207597326438461,51.8868656495114],[0.207608330658584,51.8870902570712],[0.207971303371451,51.8870834433913],[0.208334275940239,51.8870766285923],[0.208697248364924,51.8870698126741],[0.208708258168848,51.887294420065],[0.20907123226263,51.8872876029748],[0.209434206212259,51.8872807847655],[0.209797180017712,51.887273965437],[0.210160153678966,51.8872671449895],[0.210171170880051,51.8874917521585],[0.210534146210317,51.8874849305388],[0.210897121396334,51.8874781078],[0.211260096438078,51.8874712839421],[0.211271119223224,51.8876958909421],[0.211634095933922,51.887689065912],[0.211997072500299,51.8876822397628],[0.21236004892233,51.8876754124945],[0.212349020697438,51.8874508056534],[0.212337992616976,51.8872261988022],[0.212700965268172,51.8872193705207],[0.212689935518942,51.8869947637124],[0.212678905914162,51.8867701568939],[0.212667876453831,51.8865455500652],[0.213030843521126,51.8865387208236],[0.213019812392115,51.8863141140378],[0.213382777501884,51.8863072837302],[0.213393810444016,51.886531890463],[0.213756777222477,51.8865250589832],[0.213745742467227,51.8863004523034],[0.213734707856489,51.8860758456135],[0.213723673390262,51.8858512389134],[0.213360712051086,51.8858580702341],[0.213349679542417,51.8856334634709],[0.213338647178229,51.8854088566975],[0.213327614958521,51.8851842499139],[0.21331658288329,51.8849596431202],[0.213305550952534,51.8847350363163],[0.21329451916625,51.8845104295023],[0.213283487524436,51.8842858226781],[0.213272456027089,51.8840612158437],[0.213261424674208,51.8838366089992],[0.212898479507217,51.8838434387237],[0.212887449254249,51.8836188327233],[0.212524505810923,51.8836256612249],[0.212535534195853,51.8838502673292],[0.212172588740137,51.8838570948156],[0.211809643140095,51.8838639211831],[0.211446697395748,51.8838707464316],[0.211083751507121,51.8838775705612],[0.210720805474238,51.8838843935717],[0.210357859297121,51.8838912154632],[0.209994912975797,51.8838980362357],[0.209631966510286,51.8839048558892],[0.209269019900612,51.8839116744238],[0.208906073146801,51.8839184918393],[0.208895063341787,51.8836938847726],[0.208884053373213,51.8834692780679],[0.208873043550637,51.8832446713517],[0.209235984769035,51.8832378541776],[0.209224973249672,51.8830132475255],[0.209213961876325,51.8827886408619],[0.209202950648992,51.8825640341868],[0.209565886193167,51.8825572161223],[0.209928821591368,51.8825503969401],[0.209939836504163,51.8827750034638],[0.210302773599093,51.8827681830884],[0.210665710547998,51.8827613615954],[0.210676729292351,51.882985967956],[0.211039667937953,51.8829791452697],[0.211402606437479,51.8829723214659],[0.211765544790905,51.8829654965444],[0.21177656920967,51.8831901026662],[0.212139509259736,51.8831832765514],[0.21250244916365,51.8831764493191],[0.21286538892139,51.8831696209692],[0.212876419014689,51.883394226852],[0.213239360469009,51.8833873973087],[0.213602301777104,51.8833805666479],[0.213613335702264,51.8836051723675],[0.213624369696799,51.8838297781558],[0.21398731457497,51.8838229461933],[0.214350259308694,51.8838161131119],[0.214361296100147,51.8840407197973],[0.214724242502255,51.8840338855438],[0.214713203877265,51.8838092789326],[0.214702164277341,51.8835846734519],[0.214691124823799,51.8833600679598],[0.215054065551857,51.8833532328333],[0.215417006214985,51.8833463966638],[0.215779946732165,51.8833395593771],[0.215790991702248,51.8835641646304],[0.215428049349196,51.8835710019995],[0.215439092629417,51.8837956073233],[0.215450134952803,51.884020213751],[0.215087188770298,51.8840270501806],[0.215098229333611,51.8842516567509],[0.21510927004133,51.8844762633107],[0.215120310893456,51.8847008698602],[0.215131351889991,51.8849254763992],[0.215142393030941,51.8851500829277],[0.215153434316305,51.8853746894459],[0.214790477163913,51.8853815251246],[0.214801516780184,51.8856061316859],[0.214812556541031,51.885830738237],[0.214823596446458,51.8860553447779],[0.214834636496466,51.8862799513087],[0.214471671964541,51.8862867860927],[0.214482710346022,51.8865113926664],[0.214493748872067,51.8867359992299],[0.214856717030237,51.8867291643398],[0.214867757514005,51.8869537708401],[0.214878798142364,51.8871783773302],[0.215241769798464,51.8871715412163],[0.215252812383677,51.8873961476408],[0.215263855113331,51.8876207540548],[0.215626830257362,51.8876139167085],[0.215637874941753,51.8878385230548],[0.215648919770613,51.8880631293907],[0.216011898390851,51.888056290811],[0.216022945174523,51.8882808970791],[0.216033992102692,51.8885055033369],[0.216045039175361,51.8887301095843],[0.216056086392532,51.8889547158212],[0.216419072109831,51.8889478758933],[0.216430121281938,51.8891724820625],[0.216793108665202,51.8891656409583],[0.216804159792294,51.8893902470598],[0.217167148841518,51.8893834047794],[0.217530137746226,51.88937656138],[0.217541192638819,51.8896011673564],[0.217904183209456,51.8895943227807],[0.218267173635527,51.8895874770861],[0.218630163917008,51.8895806302725],[0.218641224385679,51.8898052360664],[0.21900421633303,51.8897983880765],[0.219367208135744,51.8897915389676],[0.219730199793795,51.8897846887398],[0.219741265838662,51.8900092943511],[0.220104259162527,51.890002442947],[0.220093191307159,51.8897778373931],[0.220456182675812,51.8897709849274],[0.220445113154742,51.8895463794205],[0.22080810256819,51.8895395258932],[0.221171091836882,51.8895326712471],[0.221534080960797,51.8895258154819],[0.22189706993991,51.8895189585978],[0.222260058774198,51.8895121005948],[0.222623047463635,51.8895052414729],[0.2229860360082,51.889498381232],[0.22334902440787,51.8894915198722],[0.22371201266262,51.8894846573934],[0.224075000772427,51.8894777937957],[0.224063913291775,51.889253188853],[0.224426899446191,51.8892463241939],[0.224789885455619,51.8892394584159],[0.225152871320035,51.8892325915189],[0.225515857039416,51.889225723503],[0.225878842613739,51.8892188543682],[0.225867746226138,51.8889942497027],[0.226230729844991,51.8889873795066],[0.226219631792169,51.8887627748882],[0.226582613455556,51.8887559036307],[0.226571513737561,51.8885312990595],[0.226934493445489,51.8885244267406],[0.22694559497382,51.8887490312543],[0.227308576346936,51.888742157759],[0.227319679830835,51.8889667622046],[0.227682662869133,51.8889598875328],[0.227693768308648,51.8891844919104],[0.228056753012123,51.8891776160621],[0.228419737570376,51.8891707390949],[0.228408628510112,51.8889461348325],[0.228771611112748,51.888939256804],[0.228782721983381,51.8891638610088],[0.229145706251115,51.8891569818037],[0.229508690373555,51.8891501014798],[0.229519805010301,51.8893747055589],[0.22988279079781,51.8893678240583],[0.230245776439974,51.8893609414389],[0.230608761936771,51.8893540577006],[0.230971747288176,51.8893471728434],[0.231334732494167,51.8893402868672],[0.231697717554586,51.8893333997726],[0.231686592055693,51.889108796039],[0.231323608805514,51.8891156830764],[0.23131248526236,51.8888910792752],[0.230949503677098,51.888897965136],[0.230586521946427,51.8889048498779],[0.230575402169429,51.8886802459509],[0.23093838208977,51.8886733612667],[0.230927260647911,51.8884487573869],[0.231290238612539,51.8884418716415],[0.231279115505866,51.888217267809],[0.231642091514786,51.8882103810023],[0.231653216431738,51.8884349847772],[0.232016193949599,51.8884280971226],[0.232027320836654,51.8886527008222],[0.232390300018253,51.8886458120172],[0.232379171299224,51.8884212083957],[0.232742148502019,51.8884143185512],[0.232731018097938,51.8881897149961],[0.233093993321933,51.888182824112],[0.233456968399052,51.8881759321104],[0.23346810246702,51.8884005355092],[0.233831079229178,51.8883936423118],[0.233842215276074,51.8886182456209],[0.234205193723266,51.8886113512277],[0.234216331749137,51.8888359544469],[0.234579311881359,51.888829058858],[0.234942291866601,51.8888221621514],[0.234953433703499,51.8890467652026],[0.235316415373738,51.8890398673002],[0.235327559189728,51.8892644702615],[0.235690542544958,51.8892575711634],[0.235701688340088,51.8894821740348],[0.236064673380306,51.8894752737408],[0.236075821154622,51.8896998765223],[0.236438807879822,51.8896929750324],[0.236449957633374,51.889917577724],[0.236812946043549,51.8899106750383],[0.236824097776383,51.89013527764],[0.236835249656416,51.89035988023],[0.237198241583693,51.8903529762701],[0.237209395443082,51.8905775787702],[0.237572389055346,51.8905706736144],[0.237583544894139,51.8907952760245],[0.237946540191384,51.8907883696729],[0.237957698009629,51.891012971993],[0.23832069499185,51.8910060644454],[0.238331854789594,51.8912306666756],[0.238694853456787,51.891223757932],[0.238706015234076,51.8914483600723],[0.239069015586235,51.8914414501327],[0.239080179343117,51.891666052183],[0.239443181380238,51.8916591410474],[0.239454347116762,51.8918837430077],[0.239465513000672,51.8921083449562],[0.239828518555051,51.8921014325463],[0.239839685867118,51.8923260347374],[0.240202693105873,51.892319121135],[0.240213862230854,51.8925437233411],[0.24057687112804,51.8925368085625],[0.240588042202805,51.892761410701],[0.240951052758418,51.8927544947463],[0.240962225783014,51.8929790968172],[0.241325237997049,51.8929721796863],[0.241336412971524,51.8931967816897],[0.241699426843976,51.8931898633825],[0.241710603768374,51.8934144653184],[0.241721780838575,51.8936390672439],[0.242084798173609,51.8936321477033],[0.242095977193807,51.8938567495612],[0.24245899618727,51.8938498288443],[0.242470177157513,51.8940744306346],[0.242833197809398,51.8940675087415],[0.242844380729733,51.8942921104642],[0.243207403040036,51.8942851873948],[0.24321858791051,51.8945097890499],[0.243581611879226,51.8945028648041],[0.243592798699886,51.8947274663916],[0.243955824327009,51.8947205409695],[0.243967013097901,51.8949451424894],[0.244330040383427,51.8949382158909],[0.2443412311046,51.8951628173432],[0.24435242197176,51.8953874187851],[0.244715452720023,51.895380490953],[0.244726645537534,51.8956050923273],[0.245089677944214,51.8955981633187],[0.245100872712125,51.8958227646253],[0.245463906777211,51.8958158344404],[0.245475103495569,51.8960404356794],[0.24583813921906,51.896033504318],[0.245849337887912,51.8962581054893],[0.246212375269801,51.8962511729514],[0.246223575889193,51.896475774055],[0.246586614929476,51.8964688403407],[0.246597817499457,51.8966934413766],[0.246960858198127,51.8966865064858],[0.246972062718743,51.896911107454],[0.24698326738553,51.8971357084119],[0.247346311547095,51.8971287722873],[0.247357518164589,51.8973533731774],[0.247720563984554,51.8973464358762],[0.247731772552802,51.8975710366986],[0.248094820031161,51.8975640982209],[0.248106030550213,51.8977886989755],[0.248469079688154,51.8977817593411],[0.248480292160975,51.8980063600302],[0.248843342968344,51.8979994192669],[0.249206393628945,51.8979924773842],[0.249217609874902,51.8982170779493],[0.249580662201877,51.8982101348904],[0.249591880407875,51.8984347353882],[0.249228826267717,51.8984416785039],[0.249240042807389,51.8986662790482],[0.249603098760756,51.8986593358757],[0.249614317260522,51.8988839363527],[0.249977374880296,51.8988769920039],[0.249988595340203,51.8991015924137],[0.250351654626381,51.8990946468887],[0.250714713765686,51.8990877002444],[0.251077772758095,51.8990807524808],[0.251066546858446,51.8988561522417],[0.251429603890691,51.8988492034156],[0.251440831603584,51.8990738035978],[0.251803890302128,51.8990668535955],[0.251815119975292,51.8992914537103],[0.25217818034013,51.8992845025318],[0.252541240557975,51.8992775502338],[0.25255247400474,51.8995021502245],[0.252915535888847,51.8994951967502],[0.25327859762591,51.8994882421567],[0.253641659215907,51.8994812864438],[0.254004720658812,51.8994743296115],[0.254015961505859,51.8996989293639],[0.254379024614944,51.8996919713553],[0.254742087576888,51.8996850122274],[0.255105150391667,51.8996780519801],[0.255116396825837,51.8999026515511],[0.255479461306739,51.8998956901274],[0.255490709701496,51.900120289631],[0.255853775848513,51.900113327031],[0.255865026203902,51.9003379264672],[0.256228094017032,51.9003309626907],[0.256239346348615,51.9005555621098],[0.255876276727464,51.9005625259468],[0.255887527432974,51.9007871255068],[0.255898778285139,51.9010117250566],[0.255910029283962,51.9012363245961],[0.255921280429444,51.9014609241254],[0.256284357262056,51.9014539600707],[0.256647433948046,51.9014469948964],[0.256636179196765,51.9012223954759],[0.256999253933211,51.9012154292365],[0.256987997525767,51.9009908298603],[0.256976741265049,51.9007662304738],[0.257339812249114,51.9007592632236],[0.257328554332299,51.9005346638813],[0.257691623366859,51.9005276955661],[0.257680363796649,51.9003030963912],[0.258043430873211,51.9002961270179],[0.258032169637751,51.900071527924],[0.258395234753592,51.9000645574884],[0.258758299722029,51.9000575859335],[0.258769564584157,51.9002821849132],[0.259132631218495,51.9002752121818],[0.259143898037803,51.9004998111097],[0.259506966338597,51.9004928371967],[0.259518235072291,51.9007174362122],[0.259881305029067,51.9007104611252],[0.25989257571248,51.900935060076],[0.26025564732523,51.900928083815],[0.260266919958407,51.901152682701],[0.260629993227129,51.9011457052659],[0.260641267810117,51.9013703040871],[0.260652542540074,51.9015949028982],[0.261015619267652,51.9015879242344],[0.261026895947493,51.9018125229807],[0.261389974331053,51.9018055431428],[0.261401252960826,51.9020301418243],[0.261764333000361,51.9020231608123],[0.262127412892914,51.9020161786808],[0.262116130657279,51.9017915801084],[0.262479208599901,51.9017845969118],[0.262842286395494,51.9017776125956],[0.26283100070112,51.9015530141221],[0.263194076546765,51.9015460287409],[0.263182789196626,51.9013214303117],[0.263545863092327,51.9013144438655],[0.263534574086471,51.9010898454807],[0.263897646032234,51.9010828579696],[0.263886355370707,51.9008582596291],[0.264249425366536,51.900851271053],[0.264238133049386,51.9006266727569],[0.264601201095285,51.9006196831158],[0.264589907048716,51.9003950849415],[0.264952973134251,51.9003880942431],[0.264941677297952,51.9001634962457],[0.265304741174022,51.9001565045714],[0.265667804825624,51.9001495118051],[0.265679104311853,51.9003741096572],[0.265690403809999,51.9005987076252],[0.266053470971575,51.9005917135884],[0.266064772304149,51.9008163115961],[0.266427841124755,51.9008093163793],[0.266790909797854,51.9008023200433],[0.266779604852262,51.9005777221573],[0.267142671571324,51.9005707247631],[0.267131364755127,51.9003461271049],[0.267494429493162,51.9003391286714],[0.267483120847578,51.9001145312009],[0.26784618360459,51.9001075317256],[0.267834873276387,51.8998829343199],[0.268197934052381,51.8998759338028],[0.268186622041605,51.8996513364618],[0.268549680836585,51.8996443349029],[0.268538367143286,51.8994197376267],[0.268901423957256,51.8994127350261],[0.26891273948234,51.899637332226],[0.269275797978846,51.8996303284308],[0.269287115485045,51.8998549255427],[0.269650175664082,51.899847920553],[0.270013235693821,51.8998409144452],[0.270001914524019,51.8996163174862],[0.270364972572637,51.8996093103367],[0.270376295574237,51.8998339072193],[0.270739355305305,51.8998268988753],[0.27075068028813,51.9000514956699],[0.271113741701646,51.9000444861313],[0.271125068665744,51.9002690828378],[0.2714881317617,51.9002620721046],[0.271499460684332,51.9004866687398],[0.271862525483391,51.9004796567968],[0.271873855719829,51.9007042538295],[0.2722369221775,51.9006972407064],[0.272599988487288,51.9006902264642],[0.272611322484635,51.9009148233641],[0.272248254368357,51.9009218376674],[0.272259586707163,51.9011464346177],[0.272622656629955,51.9011394202534],[0.272633990923252,51.9013640171321],[0.272645325364526,51.901588614],[0.272282251828635,51.9015956284864],[0.272293584611306,51.9018202254048],[0.272656659953782,51.9018132108574],[0.272667994691022,51.9020378077041],[0.272679329576249,51.9022624045401],[0.272316250620531,51.9022694192096],[0.272327583847091,51.902494016096],[0.272690664609464,51.9024870013655],[0.272701999790669,51.9027115981803],[0.273065082211791,51.9027045822695],[0.273076419347692,51.9029291790126],[0.273439503427558,51.9029221619216],[0.273450842518198,51.903146758593],[0.273813928256804,51.9031397403217],[0.273825269302232,51.9033643369213],[0.274188356699571,51.9033573174698],[0.274177013847404,51.9031327209312],[0.274540099289974,51.9031257004215],[0.274528754779185,51.9029011039334],[0.274891838266993,51.9028940823656],[0.274880492097632,51.9026694859279],[0.275243573630681,51.9026624633019],[0.275606655015636,51.9026554395568],[0.275969736252473,51.9026484146924],[0.27595838481127,51.9024238184274],[0.275947033518272,51.9021992221517],[0.275935682373474,51.9019746258653],[0.275572606556534,51.9019816505463],[0.275209530591484,51.9019886741082],[0.274846454478348,51.9019956965508],[0.274835108901511,51.9017711000705],[0.274472034446904,51.9017781213329],[0.274460690824762,51.9015535247809],[0.27409761802869,51.901560544863],[0.274086276361196,51.9013359482392],[0.273723205223664,51.9013429671412],[0.273711865510769,51.9011183704457],[0.273700525945921,51.9008937737395],[0.274063593470421,51.9008867549597],[0.274426660846918,51.9008797350607],[0.274789728075388,51.9008727140427],[0.27477838323915,51.9006481175091],[0.274767038330425,51.9004235211193],[0.274755692898371,51.9001989251892],[0.274744347616016,51.8999743292475],[0.274733002483356,51.8997497332941],[0.275096060420403,51.8997427115326],[0.275459118207793,51.8997356886529],[0.2754477695613,51.899511092841],[0.27581082536725,51.8995040689197],[0.275799475038761,51.8992794731728],[0.275788124860031,51.8990548774141],[0.275776774831057,51.8988302816439],[0.275413724520241,51.8988373053355],[0.275050674059754,51.8988443279091],[0.27468762344962,51.8988513493645],[0.274324572689863,51.8988583697019],[0.273961521780507,51.8988653889212],[0.273598470721577,51.8988724070224],[0.273235419513095,51.8988794240055],[0.272872368155085,51.8988864398705],[0.272861032929246,51.8986618434765],[0.273224082455574,51.898654827688],[0.273212745547638,51.8984302313589],[0.273201408789285,51.8982056350182],[0.273190072180512,51.8979810386658],[0.27355311606242,51.8979740219887],[0.273541777771639,51.8977494257012],[0.273530439630457,51.8975248294021],[0.273167399411694,51.8975318459263],[0.272804359043418,51.8975388613324],[0.272441318525655,51.8975458756205],[0.272452651172148,51.8977704721491],[0.272463983968169,51.897995068666],[0.272475316913718,51.8982196651713],[0.272486650008801,51.8984442616649],[0.272123602015158,51.8984512751408],[0.272112270751716,51.8982266785707],[0.271749224440264,51.8982336908521],[0.271737895157949,51.8980090941939],[0.271374850528695,51.8980161052808],[0.27138617797939,51.8982407020154],[0.271023131369115,51.8982477120607],[0.271034457137624,51.8984723088601],[0.271045783055573,51.898696905648],[0.271057109122964,51.8989215024242],[0.270694056868292,51.8989285115807],[0.270682732632599,51.898703914728],[0.270319682060266,51.89871092269],[0.269956631338601,51.8987179295339],[0.26994531091568,51.8984933325167],[0.269933990642128,51.898268735488],[0.27029703770046,51.898261728797],[0.270285715744642,51.898037131833],[0.270648760822017,51.8980301241003],[0.270637437183983,51.8978055272012],[0.270626113695355,51.8975809302905],[0.270989154960199,51.8975739215926],[0.270977829789424,51.8973493247466],[0.271340869073347,51.8973423150071],[0.271329542220469,51.897117718226],[0.27131821551704,51.8968931214333],[0.271681250988547,51.8968861107287],[0.271669922603084,51.8966615140008],[0.271658594367088,51.8964369172613],[0.271647266280556,51.8962123205101],[0.271635938343484,51.8959877237474],[0.271998966339823,51.8959807122305],[0.27198763672083,51.8957561155326],[0.271976307251318,51.8955315188231],[0.271964977931282,51.8953069221019],[0.271953648760722,51.8950823253692],[0.272316669282269,51.8950753130401],[0.272305338429898,51.8948507163722],[0.27229400772702,51.8946261196927],[0.271930990868015,51.8946331318688],[0.271567973859603,51.894640142927],[0.271556646968689,51.894415546083],[0.271545320227217,51.8941909492273],[0.271908333573175,51.894183938322],[0.27189700514995,51.8939593415312],[0.271885676876184,51.8937347447287],[0.271874348751874,51.8935101479147],[0.271863020777018,51.893285551089],[0.271851692951615,51.8930609542517],[0.27148868876137,51.8930679647748],[0.271477362916487,51.8928433678495],[0.271114360407952,51.8928503771783],[0.27075135775008,51.8928573853894],[0.270740035716723,51.8926327882996],[0.270728713832737,51.8924081911981],[0.270365714687638,51.8924151981385],[0.270354394784032,51.892190600949],[0.270343073405724,51.8919660054233],[0.26998007781948,51.8919730110411],[0.269968758001473,51.8917484158547],[0.26960576407639,51.8917554202944],[0.26959444621536,51.8915308250382],[0.269231453951441,51.8915378282996],[0.269220138047343,51.8913132329736],[0.268857147444594,51.8913202350569],[0.268868461539678,51.8915448304422],[0.268505468980093,51.8915518314659],[0.268494156694026,51.8913272360213],[0.268131165795663,51.8913342358669],[0.268119855466439,51.8911096403524],[0.267756866229302,51.8911166390199],[0.267745557856874,51.8908920434356],[0.267734249632239,51.8906674478408],[0.267371263865289,51.8906744452709],[0.267359957597376,51.8904498496063],[0.266996973491642,51.8904568458583],[0.266985669180405,51.8902322501239],[0.266622686735892,51.8902392451979],[0.266611384381282,51.8900146493937],[0.266248403597996,51.8900216432896],[0.266237103199967,51.8897970474157],[0.265874124077912,51.8898040401336],[0.265862825636418,51.8895794441898],[0.265499848175599,51.8895864357297],[0.265488551690592,51.8893618397163],[0.265477255353219,51.8891372436923],[0.265114281362447,51.889144233995],[0.265102986981488,51.8889196379012],[0.264740014153901,51.8889266273233],[0.264728721730143,51.8887020311477],[0.264365750455385,51.8887090194432],[0.264354460014359,51.8884844231672],[0.26399149042415,51.8884914102576],[0.263980201965808,51.888266813881],[0.263617234060155,51.8882737997663],[0.263605947584451,51.8880492032893],[0.263242981363357,51.8880561879695],[0.263231696870243,51.887831591392],[0.262868732333714,51.8878385748672],[0.262857449823142,51.8876139781892],[0.262846167461568,51.8873893814989],[0.262483206443106,51.8873963636809],[0.262471926064,51.8871717668902],[0.262108966730093,51.8871787478672],[0.262097688333408,51.886954150976],[0.261734730684061,51.886961130748],[0.261723454269748,51.8867365337564],[0.261360498304966,51.8867435123235],[0.260997542191344,51.8867504897736],[0.260986269592769,51.8865258925936],[0.260623315163744,51.8865328688388],[0.260612044547425,51.8863082715583],[0.260249091803002,51.8863152465986],[0.259886138909816,51.886322220522],[0.259874872109078,51.8860976230531],[0.259511920900526,51.8861045957716],[0.259500656081928,51.8858799982023],[0.259137706558015,51.8858869697159],[0.25912644372151,51.8856623720463],[0.258763495882242,51.885669342355],[0.258774756885416,51.8858939401127],[0.258411807064154,51.8859009093926],[0.258048857094253,51.8859078775556],[0.258060114579424,51.8861324754769],[0.258423066382686,51.8861255072259],[0.258434325849912,51.8863501050469],[0.258445585465837,51.8865747028556],[0.258808540787244,51.8865677333117],[0.258819802385299,51.88679233102],[0.259182759391462,51.8867853602712],[0.259194022971694,51.8870099578792],[0.259205286700678,51.8872345554748],[0.25884232602759,51.8872415263997],[0.258831064132079,51.887016928716],[0.258468105143789,51.887023898436],[0.258105146006848,51.887030867039],[0.257742186721279,51.8870378345251],[0.257730930474865,51.8868132365651],[0.257367972874152,51.8868202028463],[0.25735671860983,51.886595604786],[0.257345464494137,51.8863710067133],[0.257334210527071,51.8861464086284],[0.256971258278028,51.8861533735288],[0.256608305880439,51.8861603373123],[0.256597055728736,51.8859357390391],[0.256234105015999,51.8859427016178],[0.256222856846218,51.8857181032443],[0.255859907818337,51.8857250646181],[0.255848661630434,51.8855004661444],[0.255485714287415,51.8855074263135],[0.255474470081339,51.8852828277394],[0.255111524423187,51.8852897867037],[0.255100282198893,51.8850651880295],[0.255089040123065,51.8848405893429],[0.255451982114669,51.8848336305544],[0.255463226023758,51.8850582291531],[0.255826169700186,51.8850512691599],[0.25583741559105,51.8852758676583],[0.256200360952299,51.8852689064603],[0.256211608824986,51.8854935048584],[0.256574555871047,51.8854865424556],[0.256585805725607,51.8857111407535],[0.256948754456477,51.8857041771459],[0.257311703038808,51.8856972124214],[0.257674651472574,51.8856902465801],[0.257663396118053,51.8854656485461],[0.258026342569914,51.8854586816759],[0.258015085530741,51.8852340837176],[0.25800382864023,51.885009485747],[0.257992571898377,51.884784887764],[0.257629630946319,51.8847918543703],[0.257618376186343,51.884567256287],[0.257607121574995,51.8843426581914],[0.257244184140782,51.8843496235049],[0.257232931511238,51.884125025309],[0.257221679030294,51.8839004271008],[0.256858745113864,51.8839073911215],[0.256847493980051,51.8836827933908],[0.256484561767645,51.8836897561946],[0.256473312136001,51.8834651588106],[0.256462062651295,51.8832405614164],[0.256099133906462,51.8832475229926],[0.256087886375889,51.8830229255337],[0.255724959291392,51.8830298859366],[0.255713713714907,51.8828052884131],[0.25535078829075,51.8828122476428],[0.255339544668304,51.8825876500547],[0.254976620904494,51.8825946081112],[0.25496537923604,51.8823700104584],[0.25495413771442,51.8821454127954],[0.254591217418073,51.8821523696244],[0.254579977850372,51.8819277718968],[0.254217059214361,51.8819347275526],[0.254205821600532,51.8817101297604],[0.253842904624861,51.8817170842431],[0.253831668964859,51.8814924863864],[0.253468753649533,51.8814994396959],[0.253457519943308,51.8812748417746],[0.253094606288333,51.881281793911],[0.253083374535839,51.8810571959251],[0.25272046254122,51.8810641468885],[0.252709232742411,51.880839548838],[0.252346322408152,51.8808464986283],[0.252335094562981,51.8806219005133],[0.251972185889088,51.8806288491306],[0.251960959997506,51.880404250951],[0.251598052983984,51.8804111983952],[0.251586829045947,51.8801866001512],[0.2512239236928,51.8801935464223],[0.251212701708259,51.8799689481138],[0.250849798015493,51.879975893212],[0.250838577984401,51.8797512948389],[0.25047567595202,51.8797582387641],[0.250464457874331,51.8795336403265],[0.250101557502342,51.8795405830788],[0.250090341378008,51.8793159845768],[0.249727442666415,51.879322926156],[0.249364543808404,51.8793298666166],[0.249353331444197,51.8791052679959],[0.248990434246612,51.8791122072835],[0.248979223835647,51.8788876085984],[0.248616328298495,51.8788945467131],[0.248605119840722,51.8786699479635],[0.248242225944121,51.8786768849462],[0.247879331860743,51.878683820893],[0.247868127173938,51.8784592220122],[0.247505234759918,51.8784661567748],[0.247494032036254,51.8782415578168],[0.247131141291598,51.8782484913953],[0.246768250400114,51.8782554238559],[0.246405359361827,51.8782623551986],[0.246416556636831,51.8784869543553],[0.246053663635538,51.8784938846463],[0.246064859241127,51.8787184838582],[0.245701964276824,51.8787254130974],[0.245690770487487,51.8785008138193],[0.245679576844935,51.8782762145302],[0.245668383349165,51.8780516152302],[0.245657190000174,51.8778270159192],[0.24564599679796,51.8776024165973],[0.245283110767952,51.8776093443877],[0.245271919528647,51.8773847449886],[0.244909035168076,51.877391671595],[0.244897845891635,51.8771670721188],[0.244886656761915,51.8769424726316],[0.244523775886879,51.8769493979878],[0.244512588719949,51.8767247984235],[0.244149709514338,51.8767317225956],[0.244138524310151,51.8765071229542],[0.243775646773971,51.8765140459424],[0.243764463532478,51.8762894462239],[0.243401587665735,51.8762963680281],[0.243038711652422,51.8763032887144],[0.243027532189587,51.8760786888528],[0.242664657845743,51.8760856083551],[0.242653480345487,51.8758610084164],[0.242290607671115,51.8758679267348],[0.242279432133391,51.875643326719],[0.241916561128497,51.8756502438536],[0.241553689977138,51.8756571598703],[0.241542518329618,51.8754325592988],[0.241179648829717,51.8754394741913],[0.240816779184126,51.8754463879656],[0.240805611694137,51.8752217857754],[0.240442743707084,51.8752286983715],[0.240079875574389,51.8752356098494],[0.240068711838483,51.8750110075286],[0.239705845364357,51.8750179178283],[0.239717007296079,51.8752425202091],[0.239354138872174,51.8752494294505],[0.239365299145328,51.8754740318808],[0.239002428771639,51.8754809400641],[0.239013587818563,51.8757055406881],[0.238650715496327,51.8757124477621],[0.238661872874241,51.8759370484384],[0.238298998589758,51.8759439544606],[0.237936124159043,51.875950859365],[0.237924970413123,51.8757262585567],[0.237913816813457,51.8755016577376],[0.23755094586851,51.8755085613921],[0.237539794569567,51.875283958885],[0.237176925272592,51.8752908614173],[0.237165775970246,51.8750662586167],[0.23680290833205,51.8750731599708],[0.236814055830189,51.8752977628314],[0.23645118624238,51.8753046631273],[0.236440040548449,51.8750800602068],[0.236077172619469,51.8750869593245],[0.236066028875159,51.8748623563336],[0.235703162605013,51.8748692542732],[0.235692020810275,51.8746446512117],[0.235329156198969,51.8746515479733],[0.235340296189536,51.8748761510947],[0.234977429628753,51.8748830467979],[0.234988567960484,51.8751076499686],[0.234625699450219,51.8751145446136],[0.234262830794692,51.8751214381404],[0.234273965663315,51.8753460414202],[0.233911095058322,51.8753529338886],[0.233922228383078,51.875577536457],[0.233559355831459,51.8755844278153],[0.233570487639239,51.8758090294256],[0.233207613125694,51.875815919732],[0.233218743263418,51.8760405213972],[0.233229873547093,51.8762651230515],[0.232866995255559,51.8762720123717],[0.232504116818147,51.8762789005741],[0.232492990166586,51.8760542987881],[0.232130113399379,51.8760611858068],[0.232141238234877,51.8762857876586],[0.231778359505776,51.8762926736252],[0.23141548063992,51.8762995586495],[0.231404359452251,51.8760749566592],[0.23104148227718,51.8760818405337],[0.231030363071505,51.8758572384487],[0.230667487584511,51.8758641211236],[0.230656370360783,51.8756395189438],[0.230293496561871,51.8756464004192],[0.230282381342203,51.8754217977052],[0.22991950922207,51.8754286780364],[0.229908396016022,51.8752040740236],[0.229545525556935,51.875210953173],[0.229534414302106,51.8749863490855],[0.229171545504071,51.8749932270531],[0.229160436200416,51.874768622891],[0.229149327041833,51.8745440187181],[0.22878646171091,51.8745508954401],[0.228775354503427,51.8743262911926],[0.228412490833544,51.8743331667328],[0.228401385577115,51.8741085624106],[0.228038523568276,51.8741154367692],[0.228027420262855,51.8738908323724],[0.227664559915066,51.8738977055492],[0.227653458560604,51.8736731010778],[0.227290599873871,51.8736799730729],[0.226927741042249,51.8736868439501],[0.226916643444649,51.8734622393403],[0.226553786274113,51.8734691090359],[0.226542690627359,51.8732445043515],[0.226179835117913,51.8732513728654],[0.226168741421957,51.8730267681065],[0.225805887573608,51.8730336354387],[0.225816979463654,51.8732582402614],[0.225454123664603,51.8732651065394],[0.22544303358047,51.8730405016531],[0.225080179442569,51.8730473667495],[0.224717325159926,51.8730542307281],[0.224354470732565,51.8730610935888],[0.224343386210932,51.8728364885004],[0.223980533444776,51.8728433501795],[0.223617680533953,51.8728502107407],[0.223254827478485,51.872857070184],[0.222891974278395,51.8728639285094],[0.222880897125025,51.8726393231556],[0.222518045586224,51.8726461802994],[0.222155193902851,51.8726530363254],[0.221792342074931,51.8726598912335],[0.221781270483802,51.8724352856779],[0.222144120505856,51.8724284308334],[0.222506970383364,51.8724215748711],[0.222869820116302,51.8724147177909],[0.222858743252226,51.8721901124154],[0.222495895325125,51.8721969694319],[0.222484820411506,51.871972363982],[0.222847666532789,51.8719655070291],[0.222836589957995,51.871740901632],[0.223199434128901,51.8717340436249],[0.223188355892978,51.8715094382807],[0.223551198113513,51.8715025792194],[0.223540118216508,51.871277973928],[0.223902958486676,51.8712711138126],[0.223891876928636,51.8710465085741],[0.224254715248442,51.8710396474046],[0.224243632029415,51.8708150422189],[0.224606468398863,51.8708081799953],[0.22496930462362,51.8708013166538],[0.224980391454015,51.871025921712],[0.225343229339736,51.8710190571891],[0.225706067080714,51.8710121915483],[0.22569497663896,51.8707875866175],[0.225683886342022,51.8705629816759],[0.226046720326907,51.8705561150448],[0.226035628369153,51.8703315101561],[0.226398460403627,51.8703246424709],[0.226387366785105,51.8701000376352],[0.226376273311437,51.8698754327887],[0.226365179982622,51.8696508279313],[0.226728006455562,51.8696439593196],[0.226716911466067,51.8694193545152],[0.226705816621443,51.8691947496999],[0.226694721921688,51.8689701448739],[0.226683627366797,51.868745540037],[0.226320808115834,51.8687524083937],[0.225957988720083,51.8687592756327],[0.225595169179567,51.868766141754],[0.225606258318073,51.8689907467821],[0.225617347601373,51.8692153517993],[0.225628437029472,51.8694399568058],[0.225639526602371,51.8696645618014],[0.226002353364883,51.8696576954252],[0.226013444888144,51.8698823003463],[0.225650616320074,51.8698891667863],[0.22528778760725,51.8698960321084],[0.225298875664173,51.8701206371462],[0.22530996386588,51.8703452421731],[0.224947131397131,51.870352106505],[0.224958217937993,51.8705767115848],[0.224595383518896,51.8705835748625],[0.224584298783671,51.870358969719],[0.224221466025522,51.8703658318153],[0.22385863312271,51.8703726927937],[0.223495800075257,51.8703795526544],[0.223506879393559,51.870604157989],[0.223144044395843,51.8706110167956],[0.223132966883187,51.8703864113973],[0.223121889515176,51.8701618059882],[0.22311081229181,51.8699372005683],[0.222747982566373,51.8699440580661],[0.22238515269637,51.8699509144461],[0.222374079228802,51.8697263088881],[0.222011251019842,51.8697331640866],[0.221648422666364,51.8697400181675],[0.221637352954511,51.8695154124714],[0.221626283387198,51.8692908067645],[0.221615213964426,51.8690662010467],[0.221252390883079,51.8690730538189],[0.220889567657273,51.8690799054734],[0.220526744287028,51.8690867560101],[0.220163920772369,51.869093605429],[0.21980109711332,51.8691004537302],[0.219438273309902,51.8691073009137],[0.219075449362141,51.8691141469794],[0.21871262527006,51.8691209919273],[0.218349801033683,51.8691278357575],[0.217986976653032,51.86913467847],[0.217624152128132,51.8691415200647],[0.217261327459004,51.8691483605417],[0.216898502645675,51.8691551999008],[0.216535677688165,51.8691620381423],[0.216172852586499,51.869168875266],[0.215810027340703,51.8691757112719],[0.215447201950797,51.86918254616],[0.215084376416806,51.8691893799304],[0.214721550821254,51.8691962127425],[0.214358725095652,51.8692030444631],[0.213995899226541,51.8692098750662],[0.213633073213946,51.8692167045518],[0.213270247057888,51.8692235329199],[0.212907420758392,51.8692303601705],[0.212544594315481,51.8692371863036],[0.212181767729178,51.8692440113193],[0.211818940999507,51.8692508352174],[0.211456114126491,51.8692576579979],[0.211093287110154,51.869264479661],[0.210730459950517,51.8692713002066],[0.210367632647607,51.8692781196347],[0.210378646201872,51.8695027273709],[0.210015816958426,51.8695095457492],[0.209652987571749,51.86951636301],[0.209290158041865,51.8695231791532],[0.208927328368797,51.8695299941789],[0.208564498552568,51.869536808087],[0.208553493984749,51.8693122000123],[0.20819066582268,51.8693190127353],[0.208201668593203,51.8695436208777],[0.207838838490724,51.8695504325508],[0.2078278375175,51.8693258243407],[0.207816836687415,51.8691012161196],[0.20817966319532,51.8690944045818],[0.208542489560115,51.8690875919265],[0.208905315781779,51.8690807781537],[0.209268141860288,51.8690739632634],[0.209257133984346,51.8688493553019],[0.209246126251632,51.8686247473293],[0.209235118662145,51.8684001393458],[0.208872297975301,51.868406954033],[0.208509477145309,51.8684137676028],[0.208146656172192,51.8684205800551],[0.208135654117459,51.8681959718574],[0.208498473293396,51.8681891594728],[0.208487469584658,51.8679645513318],[0.208124652205877,51.8679713636487],[0.207761834684,51.8679781748482],[0.2077508347127,51.8677535665608],[0.208113650437442,51.867746755429],[0.20847646601909,51.8677399431797],[0.208465462596692,51.8675153350165]]],[[[0.275776774831057,51.8988302816439],[0.276139824992179,51.8988232568342],[0.276502875003583,51.8988162309065],[0.276514228695923,51.8990408265236],[0.276877280389264,51.8990337994012],[0.276888636063111,51.8992583949301],[0.276899991886789,51.8994829904473],[0.276911347860301,51.899707585953],[0.277274404899045,51.8997005574828],[0.277263047093786,51.8994759620537],[0.277251689438384,51.899251366613],[0.277614742663862,51.8992443371778],[0.277603383326614,51.8990197418021],[0.277592024139243,51.8987951464147],[0.277580665101745,51.8985705510157],[0.277943712682388,51.8985635206922],[0.277932351963135,51.8983389253582],[0.278295397562321,51.8983318939933],[0.278284035161362,51.8981072987243],[0.278647078779096,51.8981002663179],[0.279010122246953,51.8980932327935],[0.278998756332766,51.8978686376661],[0.278635714696478,51.8978756711139],[0.278272672910315,51.8978827034436],[0.277909630974301,51.8978897346553],[0.277898270704715,51.8976651392864],[0.277535230450426,51.8976721693035],[0.277546588888459,51.897896764749],[0.277557947476356,51.8981213601829],[0.277569306214117,51.8983459556051],[0.277206260315289,51.8983529847339],[0.276843214266677,51.8983600127447],[0.276854569491049,51.8985846083085],[0.276491521461044,51.8985916352777],[0.276480168068304,51.8983670396374],[0.276468814825359,51.8981424439854],[0.276105770308859,51.8981494696834],[0.275742725642649,51.8981564942635],[0.275754075222369,51.8983810900686],[0.275765424951837,51.8986056858621],[0.275776774831057,51.8988302816439]]],[[[0.265477255353219,51.8891372436923],[0.265840229196409,51.8891302522708],[0.266203202891995,51.8891232597306],[0.2661919030847,51.8888986638145],[0.266554874823883,51.8888916702147],[0.266543573355515,51.8886670743473],[0.266532272034845,51.8884424784694],[0.266895240008908,51.8884354838693],[0.266883937027232,51.8882108880401],[0.266872634193274,51.8879862922003],[0.266509669836588,51.8879932866819],[0.266146705332263,51.8880002800447],[0.266135406263328,51.887775684076],[0.266124107342056,51.8875510880966],[0.265761146307409,51.8875580802224],[0.265398185125174,51.8875650712294],[0.265409480429174,51.8877896673271],[0.265046517290736,51.8877966572746],[0.265057810933689,51.888021253421],[0.265069104724237,51.8882458495569],[0.265080398662386,51.8884704456822],[0.265091692748134,51.888695041797],[0.265454663121367,51.8886880516127],[0.265465959163479,51.8889126476578],[0.265477255353219,51.8891372436923]]],[[[0.243764463532478,51.8762894462239],[0.244127339252631,51.8762825233019],[0.244116154341774,51.8760579236385],[0.244104969577581,51.8758333239642],[0.243742097489414,51.875840246754],[0.243730914687837,51.8756156470026],[0.243368044269043,51.8756225686085],[0.243356863642952,51.8753979680633],[0.242993994871853,51.8754048885468],[0.243005173703688,51.8756294890965],[0.242642302991796,51.8756364084667],[0.242653480345487,51.8758610084164],[0.243016352873343,51.8758540889801],[0.243027532189587,51.8760786888528],[0.243390406386889,51.8760717682325],[0.243753280437627,51.8760648464944],[0.243764463532478,51.8762894462239]]],[[[0.278159582991131,51.9028308378906],[0.278522664997146,51.9028238051307],[0.278511300761054,51.9025992093043],[0.278148220561701,51.9026062420031],[0.278136858280618,51.9023816461049],[0.277773779739622,51.9023886776233],[0.277410701050371,51.9023957080225],[0.277399342530868,51.9021711119913],[0.277387984159661,51.9019465159495],[0.277024908935397,51.9019535451072],[0.277013552519055,51.9017289489936],[0.277002196250981,51.9015043528693],[0.276639124491645,51.9015113807855],[0.276650478953165,51.901735976971],[0.276661833562929,51.9019605731457],[0.276673188320937,51.9021851693098],[0.276310110993685,51.9021921962903],[0.276321464093313,51.9024167925049],[0.276332817341168,51.9026413887088],[0.276695898281699,51.9026343616061],[0.277058979074041,51.9026273333841],[0.277422059718171,51.902620304043],[0.277433418534271,51.9028449000528],[0.277796500836832,51.9028378695313],[0.277807861607924,51.9030624654693],[0.278170945568911,51.9030554337674],[0.278159582991131,51.9028308378906]]],[[[0.268051996595229,51.8897620670443],[0.26768901821159,51.8897690653562],[0.267700325845074,51.8899936609931],[0.267711633626342,51.8902182566196],[0.267722941555396,51.8904428522355],[0.268085925365678,51.8904358537458],[0.268448909028198,51.8904288541373],[0.268437597481338,51.89020425864],[0.26842628608231,51.8899796631321],[0.268063306037571,51.889986662622],[0.268051996595229,51.8897620670443]]],[[[0.264660970319237,51.8873544538351],[0.265023930443677,51.8873474649517],[0.265386889968789,51.8873404751211],[0.265375594960017,51.8871158790023],[0.265364300098854,51.8868912828729],[0.265001344166097,51.8868982725917],[0.264638387708548,51.8869052612989],[0.264627096626869,51.8866806650122],[0.264264141853673,51.8866876525143],[0.264252852754489,51.8864630561272],[0.263889899665652,51.8864700424242],[0.263878612548916,51.8862454459366],[0.263515661144442,51.8862524310287],[0.26315270959099,51.8862594150039],[0.263163993040985,51.8864840116678],[0.26317527663999,51.8867086083193],[0.26281232127081,51.8867155913539],[0.262823603185404,51.8869401880813],[0.263186560388006,51.8869332049585],[0.263197844285036,51.8871578015854],[0.26356080317212,51.8871508172577],[0.263923761910213,51.8871438318131],[0.263935049623193,51.8873684282513],[0.264298010045735,51.8873614416017],[0.264660970319237,51.8873544538351]]],[[[0.228508825031125,51.8689357860057],[0.228146004699006,51.8689426600148],[0.228134902922305,51.868718055433],[0.227772084250727,51.8687249282606],[0.227409265434267,51.8687317999704],[0.227046446472949,51.8687386705626],[0.227057542833296,51.8689632753357],[0.227068639338532,51.869187880098],[0.227079735988659,51.8694124848495],[0.227090832783682,51.8696370895901],[0.227453658966957,51.8696302187429],[0.227816485005364,51.869623346778],[0.228179310898878,51.8696164736953],[0.22816820868729,51.8693918691459],[0.228531032630374,51.8693849950093],[0.228519928758257,51.8691603905129],[0.228508825031125,51.8689357860057]]],[[[0.227001104793697,51.889872053666],[0.226990002539284,51.8896474492045],[0.226627013779443,51.8896543218113],[0.226264024874467,51.889661193299],[0.22627512350797,51.8898857978756],[0.226286222286651,51.8901104024418],[0.22629732121051,51.8903350069976],[0.226308420279552,51.8905596115429],[0.226319519493777,51.8907842160778],[0.225956521391163,51.8907910867344],[0.22594542398749,51.890566482142],[0.225934326728977,51.8903418775391],[0.22557133210235,51.8903487469616],[0.225208337330651,51.8903556152652],[0.224845342413905,51.8903624824499],[0.224482347352135,51.8903693485155],[0.224493437368506,51.8905939533485],[0.224504527529943,51.8908185581711],[0.224867526212816,51.8908116919904],[0.224878618329908,51.8910362967451],[0.225241618678335,51.8910294293879],[0.22525271275113,51.8912540340745],[0.225263806969046,51.8914786387508],[0.225626810793651,51.8914717701595],[0.225989814473172,51.8914649004492],[0.226352818007586,51.8914580296199],[0.226715821396869,51.8914511576716],[0.227078824640998,51.8914442846042],[0.227067721369965,51.8912196802158],[0.227430722658299,51.8912128060871],[0.227793723801435,51.8912059308393],[0.228156724799348,51.8911990544726],[0.228519725652015,51.8911921769869],[0.228508615283867,51.8909675728184],[0.228497505061049,51.8907429686395],[0.228860502147306,51.89073609015],[0.228849390259281,51.8905114860183],[0.228838278516606,51.8902868818761],[0.229201271836532,51.8902800023829],[0.229190158428719,51.890055398288],[0.229179045166272,51.8898307941826],[0.228816055467294,51.8898376735605],[0.228827166919277,51.8900622777235],[0.228464175264556,51.8900691560401],[0.228453065623036,51.8898445518195],[0.228441956126835,51.8896199475884],[0.228430846775949,51.8893953433469],[0.2280678604073,51.8894022203717],[0.228078967947766,51.8896268246708],[0.22771597962347,51.8896337006343],[0.227352991153968,51.8896405754789],[0.227364095218831,51.8898651798828],[0.227375199428943,51.8900897842763],[0.227738191519365,51.8900829093165],[0.228101183464577,51.8900760332378],[0.228112291440928,51.8903006375056],[0.228123399562577,51.890525241763],[0.227760403996355,51.8905321179569],[0.227397408284918,51.8905389930319],[0.227034412428289,51.8905458669879],[0.227023309738198,51.8903212625577],[0.227012207193334,51.8900966581171],[0.227001104793697,51.889872053666]]]]}}