{"type":"Feature","properties":{"code":"E63005995","name":"Colgate"},"geometry":{"type":"Polygon","coordinates":[[[-0.244628316553077,51.0822293288666],[-0.244619809197332,51.0824540237478],[-0.24426307373097,51.0824486684524],[-0.244254564559728,51.0826733633021],[-0.243897827494891,51.0826680068947],[-0.243906338373114,51.0824433120679],[-0.243549603123785,51.0824379545942],[-0.243192867983005,51.0824325960314],[-0.243184353690827,51.0826572908124],[-0.242827616951644,51.0826519311375],[-0.242470880321055,51.0826465703735],[-0.242462362506279,51.0828712651],[-0.242105624277314,51.0828659032239],[-0.242097104646872,51.0830905979188],[-0.241740364819534,51.0830852349306],[-0.241731843373383,51.0833099295938],[-0.241375101947675,51.0833045654935],[-0.241018360630655,51.083299200304],[-0.241026885490873,51.0830745056867],[-0.24103541024235,51.0828498110606],[-0.241043934885089,51.0826251164258],[-0.241052459419093,51.0824004217823],[-0.241060983844362,51.08217572713],[-0.241069508160898,51.081951032469],[-0.241426239236055,51.0819563975209],[-0.24143476173696,51.0817317028283],[-0.241791491213892,51.0817370667681],[-0.242148220799477,51.0817424296188],[-0.242156739777913,51.0815177348715],[-0.242165258647689,51.0812930401156],[-0.242173777408805,51.0810683453509],[-0.2418170529438,51.081062982569],[-0.241460328587442,51.0810576186979],[-0.241468850653531,51.0808329239704],[-0.241112128112656,51.0808275590332],[-0.241120651776836,51.0806028643198],[-0.240763931051439,51.0805974983164],[-0.240407210434751,51.080592131224],[-0.240415737403743,51.0803674365478],[-0.24005901860255,51.0803620683892],[-0.239702299910109,51.0803566991416],[-0.239710830183819,51.0801320045026],[-0.239354113306889,51.0801266341888],[-0.238997396538753,51.0801212627861],[-0.238640679879433,51.0801158902942],[-0.238632144485517,51.0803405848643],[-0.238275426228302,51.0803352112604],[-0.237918708079947,51.0803298365674],[-0.237561990040477,51.0803244607854],[-0.237570530554582,51.0800997662843],[-0.237579070959752,51.0798750717746],[-0.237587611255988,51.079650377256],[-0.237944324175341,51.079655752969],[-0.237952862655982,51.0794310584188],[-0.237596151443292,51.0794256827288],[-0.237604691521666,51.0792009881928],[-0.237247982124512,51.0791956114369],[-0.237256523800573,51.0789709169152],[-0.237265065367687,51.0787462223848],[-0.237273606825853,51.0785215278456],[-0.236916902657393,51.0785161500697],[-0.236560198597868,51.0785107712048],[-0.236203494647299,51.0785053912509],[-0.235846790805707,51.0785000102081],[-0.23583824252127,51.078724704655],[-0.235481537082114,51.0787193225001],[-0.235490087073116,51.0784946280762],[-0.235133383449545,51.0784892448553],[-0.234776679857683,51.0784838604609],[-0.23441997619363,51.0784784747792],[-0.234428531210072,51.0782537804334],[-0.234071829368768,51.0782483936948],[-0.233715127636899,51.0782430058675],[-0.23372368597052,51.0780183115759],[-0.233366986061416,51.0780129226917],[-0.233010286261789,51.0780075327189],[-0.233018847912496,51.0777828384813],[-0.232662149935651,51.0777774474516],[-0.232305452068324,51.0777720553334],[-0.232314017036024,51.07754736115],[-0.232670713190091,51.0775527532366],[-0.232679276334981,51.0773280590124],[-0.233035970885324,51.0773334499788],[-0.233044532207447,51.0771087557138],[-0.233401225154063,51.07711414556],[-0.233409784653465,51.0768894512543],[-0.233053093420047,51.0768840614397],[-0.233061654523123,51.0766593671564],[-0.233070215516679,51.076434672864],[-0.233426903323767,51.0764400626154],[-0.233783591240319,51.0764454512782],[-0.233775033673072,51.0766701456339],[-0.234131723412223,51.0766755332398],[-0.234488413260794,51.0766809197573],[-0.234479859010431,51.076905614167],[-0.234836550681585,51.0769109996276],[-0.234827998034993,51.0771356940597],[-0.234471304650635,51.0771303085676],[-0.234114611375679,51.077124921987],[-0.234106055193221,51.0773496163468],[-0.233749360314466,51.077344228646],[-0.233740802309302,51.0775689229651],[-0.234097498901302,51.0775743106975],[-0.234454195602731,51.0775796973414],[-0.23444564091462,51.0778043917145],[-0.234802339438727,51.0778097773015],[-0.23515903788778,51.0778151616005],[-0.235150486517442,51.0780398560275],[-0.235507186727956,51.0780452392022],[-0.235863887047487,51.078050621288],[-0.235855338981113,51.0782753157524],[-0.236212041116162,51.0782806967722],[-0.236220587476015,51.0780560022847],[-0.236577288013516,51.0780613821925],[-0.236585832557861,51.0778366876732],[-0.236594376993222,51.0776119931452],[-0.236951074226692,51.077617371918],[-0.236959616846614,51.0773926773582],[-0.237316312482549,51.077398055019],[-0.237324853287074,51.0771733604274],[-0.237681547325472,51.0771787369762],[-0.23803824147275,51.077184112436],[-0.238029704081107,51.0774088070736],[-0.238386400043686,51.0774141814675],[-0.238377864249619,51.0776388761193],[-0.238734562027503,51.0776442494472],[-0.239091259914204,51.0776496216862],[-0.239082727424247,51.0778743163753],[-0.238726027831054,51.0778689441133],[-0.238717493525754,51.0780936387707],[-0.2387089591116,51.0783183334193],[-0.23835225621418,51.0783129600224],[-0.238343719984615,51.0785376546393],[-0.237987015489486,51.0785322801304],[-0.237978477444466,51.0787569747156],[-0.238335183646171,51.0787623492475],[-0.238326647198847,51.078987043847],[-0.238683355216001,51.0789924173129],[-0.238674820366416,51.0792171119266],[-0.239031530199022,51.0792224843265],[-0.239388240140436,51.0792278556374],[-0.239379708595282,51.0794525502883],[-0.239736420352132,51.0794579205331],[-0.239727890404828,51.0796826151983],[-0.240084603977117,51.0796879843771],[-0.240093132217748,51.0794632896889],[-0.240101660349602,51.079238594992],[-0.240458370617309,51.0792439630358],[-0.240466896933757,51.0790192683072],[-0.240823605603553,51.079024635239],[-0.240815080993738,51.0792493299906],[-0.240806556275192,51.0794740247334],[-0.240798031447914,51.0796987194674],[-0.2407895065119,51.0799234141928],[-0.241146222117064,51.0799287801273],[-0.241502937830909,51.0799341449728],[-0.241494416199608,51.0801588397353],[-0.24185113372884,51.0801642035146],[-0.241842613695593,51.0803888982913],[-0.242199333040216,51.0803942610045],[-0.24255605249346,51.0803996226287],[-0.242547535765084,51.0806243174424],[-0.242904257033702,51.0806296780004],[-0.243260978410898,51.0806350374693],[-0.243269491725721,51.0804103426097],[-0.243626211504694,51.0804157009666],[-0.243982931392201,51.0804210582345],[-0.243974421490939,51.0806457531398],[-0.24433114319374,51.0806511093414],[-0.244687865005032,51.0806564644539],[-0.244696371492725,51.0804317695029],[-0.2450530917057,51.0804371235035],[-0.245061596378131,51.080212428521],[-0.245070100942087,51.0799877335297],[-0.245078605397571,51.0797630385296],[-0.244721890304825,51.0797576845975],[-0.244730396358537,51.0795329896116],[-0.244738902303758,51.079308294617],[-0.244747408140491,51.0790835996136],[-0.244390698276231,51.079078244661],[-0.244399205711108,51.0788535496718],[-0.244042497661956,51.0788481936531],[-0.244051006694933,51.0786234986779],[-0.244059515619382,51.0783988036941],[-0.244416220255341,51.0784041596671],[-0.244424727364701,51.0781794646517],[-0.244068024435305,51.0781741087015],[-0.243711321614402,51.0781687516624],[-0.243719832028341,51.0779440566839],[-0.24336313102249,51.0779386985787],[-0.243371643034402,51.0777140036144],[-0.2430149438436,51.077708644443],[-0.243023457453439,51.0774839494929],[-0.243031970954694,51.077259254534],[-0.243040484347366,51.0770345595665],[-0.243397178418759,51.0770399186692],[-0.243405689996424,51.07681522367],[-0.243762382469916,51.0768205816609],[-0.243770892232619,51.0765958866301],[-0.24377940188679,51.0763711915906],[-0.244136091055992,51.0763765484468],[-0.244492780333672,51.0763819042141],[-0.244849469719808,51.0763872588925],[-0.245206159214379,51.076392612482],[-0.245562848817362,51.0763979649825],[-0.245554347695139,51.0766226601363],[-0.245545846464492,51.0768473552813],[-0.24553734512542,51.0770720504176],[-0.245894039956045,51.0770774018977],[-0.246250734895044,51.0770827522889],[-0.246242236860469,51.0773074474621],[-0.246598933614285,51.0773127967871],[-0.246590437177812,51.0775374919744],[-0.246581940632975,51.077762187153],[-0.246573443979771,51.0779868823228],[-0.246564947218199,51.0782115774839],[-0.246208243638306,51.0782062280677],[-0.24619974506179,51.0784309231973],[-0.245843039883686,51.0784255726693],[-0.245486334813967,51.0784202210522],[-0.24547783271587,51.0786449161274],[-0.245469330509334,51.078869611194],[-0.245112622134819,51.0788642584422],[-0.245104118113206,51.0790889534772],[-0.245095613983129,51.0793136485034],[-0.245452325770936,51.0793190013008],[-0.24544382323907,51.0795436963411],[-0.245800536841972,51.0795490480722],[-0.245792035908361,51.0797737431267],[-0.246148751326361,51.0797790937916],[-0.246505466852736,51.0797844433675],[-0.246496969224153,51.0800091384588],[-0.246853686565611,51.0800144869684],[-0.246845190535396,51.0802391820738],[-0.247201909691939,51.0802445295172],[-0.2472104040154,51.080019834389],[-0.247218898230521,51.0797951392521],[-0.247227392337303,51.0795704441065],[-0.247235886335748,51.0793457489521],[-0.247592598773713,51.0793510952152],[-0.247949311319962,51.0793564403894],[-0.247957801796734,51.0791317451808],[-0.248314512744573,51.0791370892431],[-0.248323001406406,51.0789123940029],[-0.248331489959975,51.0786876987541],[-0.24833997840528,51.0784630034965],[-0.248696684341468,51.0784683464016],[-0.249053390385867,51.0784736882176],[-0.249410096538453,51.0784790289446],[-0.249766802799207,51.0784843685826],[-0.249758321180342,51.0787090639312],[-0.250115029255855,51.0787144025029],[-0.250106549235451,51.0789390978654],[-0.250463259125726,51.0789444353709],[-0.250454780703827,51.0791691307474],[-0.250446302173791,51.0793938261152],[-0.250089588870173,51.0793884885643],[-0.250081108525296,51.0796131839007],[-0.249724393623107,51.0796078452381],[-0.249715911463343,51.079832540543],[-0.249359194962585,51.0798272007686],[-0.249002478570003,51.0798218599052],[-0.248993992888568,51.0800465551559],[-0.248637274897445,51.0800412131806],[-0.248280557014544,51.0800358701163],[-0.247923839239889,51.0800305259629],[-0.24791534832994,51.0802552211367],[-0.247906857311693,51.0804799163017],[-0.247898366185146,51.080704611458],[-0.24754164339842,51.0806992661472],[-0.247184920719987,51.0806939197473],[-0.247176426071493,51.0809186148493],[-0.24716793131465,51.0811433099426],[-0.246811205330872,51.0811379624081],[-0.246454479455436,51.0811326137845],[-0.246097753688363,51.0811272640717],[-0.246089253702586,51.0813519590879],[-0.24573252633704,51.0813466082632],[-0.245375799079904,51.0813412563494],[-0.24536729557195,51.0815659513112],[-0.245724024535965,51.0815713032478],[-0.245715522626449,51.0817959982237],[-0.24570702060849,51.0820206931909],[-0.245350288230652,51.0820153412086],[-0.245341784397304,51.0822400361442],[-0.24498505042096,51.08223468305],[-0.244628316553077,51.0822293288666]]]}}