{"type":"Feature","properties":{"code":"E63004950","name":"Kensington and Chelsea"},"geometry":{"type":"MultiPolygon","coordinates":[[[[-0.153202970095685,51.4857266409884],[-0.153193892416135,51.4859513151834],[-0.152834030283261,51.4859456476002],[-0.152843109721465,51.4857209734526],[-0.15248324946449,51.4857153048131],[-0.152123389324783,51.4857096350699],[-0.151763529302367,51.4857039642229],[-0.151403669453226,51.4856982923115],[-0.151043809780775,51.4856926193381],[-0.151052897890207,51.4854679454198],[-0.151412755805195,51.4854736183427],[-0.151772613899161,51.4854792902074],[-0.152132472162952,51.4854849610069],[-0.152141554883786,51.4852602869342],[-0.152501411506262,51.4852659565828],[-0.152861268246002,51.4852716251277],[-0.152852189042378,51.4854962992951],[-0.153212047657967,51.4855019667836],[-0.153571906390777,51.4855076331684],[-0.153931765240784,51.4855132984496],[-0.154291624207966,51.485518962627],[-0.154651483292301,51.4855246257008],[-0.154642412764562,51.4857493000947],[-0.154282551921588,51.4857436369737],[-0.153922691195769,51.485737972749],[-0.153913617033533,51.4859626470385],[-0.153553754666233,51.4859569816628],[-0.153562830587127,51.4857323074205],[-0.153202970095685,51.4857266409884]]],[[[-0.22572869262109,51.5189948973908],[-0.225719955176955,51.5192195805643],[-0.225711217620633,51.5194442637277],[-0.226071358863416,51.5194497094933],[-0.226062622943082,51.5196743926993],[-0.226422766046198,51.5196798374128],[-0.2264140317619,51.5199045206612],[-0.226774176725353,51.5199099643225],[-0.226765444077135,51.5201346476135],[-0.227125590900929,51.5201400902225],[-0.227116859888837,51.520364773556],[-0.227108128764638,51.5205894568793],[-0.227468279197055,51.5205948984888],[-0.227459549709047,51.5208195818547],[-0.227819702001838,51.5208250224119],[-0.227810974150068,51.5210497058202],[-0.22780224618623,51.5212743892184],[-0.227442090396765,51.521268948556],[-0.227433360572487,51.5214936318915],[-0.227424630636116,51.5217183152168],[-0.227064471461967,51.5217128733443],[-0.227055739665084,51.5219375566069],[-0.227047007756081,51.5221622398594],[-0.226686845197187,51.5221567967767],[-0.226678111427603,51.5223814799664],[-0.226669377545873,51.522606163146],[-0.226660643551993,51.5228308463155],[-0.226651909445963,51.5230555294749],[-0.226643175227779,51.5232802126242],[-0.226634440897441,51.5235048957633],[-0.226625706454946,51.5237295788923],[-0.226616971900292,51.5239542620112],[-0.226608237233478,51.5241789451199],[-0.226599502454502,51.5244036282186],[-0.226590767563361,51.5246283113071],[-0.226582032560054,51.5248529943855],[-0.226221849130318,51.5248475495661],[-0.225861665812757,51.5248421036417],[-0.225501482607393,51.5248366566123],[-0.22514129951425,51.5248312084779],[-0.224781116533349,51.5248257592384],[-0.224420933664712,51.524820308894],[-0.224060750908364,51.5248148574445],[-0.223700568264325,51.5248094048899],[-0.22334038573262,51.5248039512304],[-0.222980203313269,51.5247984964659],[-0.222620021006297,51.5247930405963],[-0.222259838811725,51.5247875836217],[-0.221899656729576,51.5247821255421],[-0.221539474759874,51.5247766663575],[-0.221179292902639,51.5247712060679],[-0.220819111157896,51.5247657446732],[-0.220458929525665,51.5247602821736],[-0.220098748005972,51.5247548185689],[-0.220107514485689,51.5245301364395],[-0.219747334827225,51.5245246717826],[-0.21938715528134,51.5245192060208],[-0.219026975848057,51.5245137391539],[-0.219035747461139,51.5242890571728],[-0.218675569889124,51.5242835892538],[-0.218315392429754,51.5242781202298],[-0.217955216376331,51.5242726495839],[-0.217595040782954,51.5242671776942],[-0.217234865302998,51.5242617046991],[-0.216874689936485,51.5242562305986],[-0.216514514683437,51.5242507553928],[-0.216523298453268,51.5240260737505],[-0.216163125076811,51.5240205974845],[-0.215802951813863,51.524015120113],[-0.215794164517831,51.5242398016651],[-0.215785377108246,51.5244644832074],[-0.216145553897416,51.524469960669],[-0.216136768137421,51.5246946422467],[-0.215776589585106,51.5246891647399],[-0.215416411146329,51.5246836861277],[-0.215407621746465,51.5249083676053],[-0.215767801948409,51.5249138462626],[-0.216127982263892,51.5249193238146],[-0.216488162692892,51.5249248002611],[-0.21647937846902,51.5251494818644],[-0.21683956077471,51.5251549572507],[-0.217199743193874,51.5251604315315],[-0.217559925726488,51.525165904707],[-0.21755114667876,51.5253905864358],[-0.217911331088026,51.525396058551],[-0.218271515751023,51.5254015295056],[-0.218631701953824,51.5254069987938],[-0.218622928099908,51.5256316807214],[-0.218983116164149,51.5256371489602],[-0.218991888269281,51.525412466977],[-0.219352074697369,51.5254179340552],[-0.219343304340757,51.525642616094],[-0.219703492629708,51.5256480821228],[-0.220063681030981,51.5256535470466],[-0.220423869544553,51.5256590108654],[-0.220784058170401,51.5256644735792],[-0.221144246908503,51.525669935188],[-0.221504435758837,51.5256753956918],[-0.221864624721379,51.5256808550906],[-0.222224813796109,51.5256863133844],[-0.222585002983001,51.5256917705733],[-0.222576248251763,51.5259164531232],[-0.22293643929412,51.5259219092607],[-0.223296630448597,51.5259273642932],[-0.223656821715172,51.5259328182206],[-0.224017013093824,51.5259382710431],[-0.224377204584529,51.5259437227605],[-0.224737396187264,51.5259491733729],[-0.225097587902008,51.5259546228803],[-0.225457779728737,51.5259600712827],[-0.225817971667429,51.52596551858],[-0.226178163718062,51.5259709647724],[-0.226169426308201,51.5261956478488],[-0.226529620214117,51.5262010929897],[-0.22688981423193,51.5262065370256],[-0.226881080196907,51.526431220199],[-0.226520884435705,51.5264257761095],[-0.226160688786403,51.526420330915],[-0.225800493249022,51.5264148846154],[-0.225440297823586,51.5264094372108],[-0.225080102510117,51.5264039887011],[-0.224719907308638,51.5263985390864],[-0.224711162701282,51.5266232219279],[-0.224350965868415,51.5266177711545],[-0.223990769147584,51.5266123192761],[-0.223982020941353,51.5268370020001],[-0.223621822589163,51.5268315489629],[-0.223261624349055,51.5268260948207],[-0.222901426221053,51.5268206395735],[-0.222892672672427,51.5270453221262],[-0.222532472913118,51.5270398657202],[-0.222523717508885,51.5272645482091],[-0.222163516118272,51.5272590906443],[-0.221803314839837,51.5272536319745],[-0.221794555836475,51.5274783143457],[-0.221434352926764,51.5274728545171],[-0.221074150129277,51.5274673935834],[-0.220713947444037,51.5274619315446],[-0.220705183097967,51.5276866137445],[-0.220344978781504,51.5276811505469],[-0.219984774577334,51.5276756862442],[-0.219624570485481,51.5276702208364],[-0.219264366505967,51.5276647543235],[-0.219273137825994,51.5274400723388],[-0.218912935702325,51.5274346047746],[-0.218921708653436,51.5272099228335],[-0.21856150838561,51.5272044542181],[-0.218570282967759,51.5269797723205],[-0.218210084667543,51.5269743026081],[-0.217849887747185,51.5269688312711],[-0.217858665699562,51.5267441494771],[-0.217498470664261,51.5267386770813],[-0.217138275742784,51.5267332035801],[-0.216778080935155,51.5267277289735],[-0.216417886241398,51.5267222532615],[-0.216057691661534,51.5267167764441],[-0.216048904852913,51.5269414580054],[-0.215688708615723,51.526935980036],[-0.215697497195588,51.5267112985214],[-0.215337302843581,51.5267058194932],[-0.214977108605536,51.5267003393597],[-0.214616914481477,51.5266948581208],[-0.214256720471427,51.5266893757765],[-0.213896526575407,51.5266838923268],[-0.213536332793443,51.5266784077718],[-0.213176139125555,51.5266729221113],[-0.212815945571767,51.5266674353455],[-0.212455752132103,51.5266619474743],[-0.212095558806585,51.5266564584977],[-0.211735365595236,51.5266509684157],[-0.211375172498078,51.5266454772284],[-0.211014979515135,51.5266399849357],[-0.21065478664643,51.5266344915376],[-0.210294593891985,51.5266289970341],[-0.209934401251824,51.5266235014253],[-0.20994321805699,51.5263988206473],[-0.209583027302323,51.5263933239798],[-0.209222836661983,51.526387826207],[-0.208862646135993,51.5263823273288],[-0.208871468140322,51.5261576466812],[-0.208511279499864,51.5261521467444],[-0.2081510909738,51.5261466457022],[-0.207790902562153,51.5261411435547],[-0.207430714264946,51.5261356403018],[-0.207070526082203,51.5261301359436],[-0.206710338013945,51.52612463048],[-0.206719170530666,51.5258999501033],[-0.206358984348041,51.5258944435812],[-0.206367818521337,51.5256697632414],[-0.20600763422434,51.5256642556608],[-0.206016470013658,51.5254395753707],[-0.205656287596439,51.5254340667321],[-0.205665124943659,51.5252093865059],[-0.205673962176677,51.52498470627],[-0.205682799295492,51.5247600260244],[-0.20569163630011,51.5245353457689],[-0.205331461049661,51.5245298362065],[-0.205340299703171,51.5243051559866],[-0.205349138242463,51.5240804757571],[-0.20535797666754,51.5238557955177],[-0.204997806820482,51.5238502849861],[-0.205006646894364,51.5236256047823],[-0.205015486854011,51.5234009245688],[-0.204655320647179,51.5233954130227],[-0.204295154554582,51.5233899003713],[-0.204303997925936,51.5231652202388],[-0.203943833710566,51.5231597065275],[-0.203583669609474,51.5231541917109],[-0.203592516392437,51.5229295116595],[-0.203232354168587,51.5229239957831],[-0.20287219205906,51.5229184788013],[-0.202512030063877,51.5229129607143],[-0.202520882021267,51.5226882807895],[-0.202529733864269,51.5224636008548],[-0.202169575509256,51.5224580817535],[-0.20217842900074,51.5222334018545],[-0.201818272522977,51.5222278816934],[-0.201827127662896,51.5220032018301],[-0.201835982688389,51.5217785219571],[-0.201475829674069,51.5217730008061],[-0.20148468636547,51.5215483209664],[-0.201493542942103,51.521323641117],[-0.201853692396103,51.5213291621818],[-0.201862547078328,51.5211044822794],[-0.202222694742115,51.5211100022133],[-0.202582842520277,51.5211155210419],[-0.202942990412791,51.5211210387653],[-0.202951839692411,51.5208963587168],[-0.203311985936523,51.5209018752895],[-0.203672132294939,51.520907390757],[-0.20368097793479,51.5206827106079],[-0.204041122644775,51.5206882249248],[-0.204401267469017,51.5206937381364],[-0.204410109469184,51.5204690578867],[-0.204049966407634,51.5204635447204],[-0.20368982346034,51.5204580304489],[-0.203698668871592,51.5202333502802],[-0.203707514168546,51.5200086701018],[-0.20334737486084,51.520003154816],[-0.203356221806121,51.5197784746732],[-0.203365068637086,51.5195537945206],[-0.203373915353737,51.5193291143582],[-0.203013781448115,51.5193235981036],[-0.203022629813005,51.5190989179769],[-0.202662497784245,51.5190934006625],[-0.202671347797327,51.5188687205715],[-0.202680197696056,51.5186440404707],[-0.202320069306655,51.5186385221422],[-0.20232892085351,51.5184138420771],[-0.202337772285994,51.5181891620022],[-0.201977647535875,51.5181836426594],[-0.201986500616417,51.5179589626202],[-0.201626377743099,51.5179534422178],[-0.201635232471656,51.5177287622143],[-0.20127511103646,51.5177232408146],[-0.200914989626334,51.5177177183225],[-0.200923847790081,51.5174930383969],[-0.20056372826365,51.5174875148443],[-0.20057258808153,51.5172628349536],[-0.200212470438791,51.5172573103407],[-0.200221331915758,51.5170326304935],[-0.200230193280751,51.5168079506413],[-0.200239054530965,51.5165832707794],[-0.199878942307752,51.5165777451945],[-0.199887805211233,51.5163530653671],[-0.199896667999913,51.51612838553],[-0.199905530673795,51.5159037056833],[-0.199914393232881,51.5156790258267],[-0.199554288196488,51.5156734993135],[-0.199563152408733,51.5154488194915],[-0.199572016506163,51.5152241396598],[-0.199580880488781,51.5149994598183],[-0.199589744356587,51.5147747799672],[-0.199598608109585,51.5145501001063],[-0.199238512027509,51.5145445727091],[-0.199247377433536,51.5143198928828],[-0.198887283234103,51.5143143644248],[-0.198878416060242,51.5145390442069],[-0.198518320207809,51.5145335145997],[-0.198158224470229,51.5145279838875],[-0.197798128847527,51.5145224520703],[-0.197438033339726,51.514516919148],[-0.197429158979607,51.5147415987435],[-0.197069061818882,51.514736064672],[-0.196708964773107,51.5147305294954],[-0.196348867842302,51.5147249932139],[-0.195988771026492,51.5147194558273],[-0.195628674325698,51.5147139173357],[-0.195619791011304,51.5149385967],[-0.19525969265769,51.514933057059],[-0.195268577739945,51.5147083777391],[-0.195277462707116,51.5144836984094],[-0.19491736800426,51.5144781577521],[-0.194926254624163,51.514253478457],[-0.194935141128962,51.5140287991522],[-0.194944027518661,51.5138041198377],[-0.194952913793262,51.5135794405134],[-0.194592826276594,51.5135738989284],[-0.194601714203816,51.5133492196388],[-0.194610602015923,51.5131245403394],[-0.194619489712913,51.5128998610303],[-0.19462837729479,51.5126751817115],[-0.194637264761556,51.512450502383],[-0.19427718619834,51.5124449599148],[-0.194286075317599,51.5122202806209],[-0.194294964321727,51.5119956013172],[-0.194655039349761,51.5120011436968],[-0.194663926471204,51.5117764643391],[-0.194303853210727,51.5117709220039],[-0.1943127419846,51.5115462426808],[-0.193952670606761,51.511540699285],[-0.193592599344048,51.5115351547843],[-0.193232528196484,51.5115296091787],[-0.192872457164092,51.5115240624682],[-0.192881352892865,51.5112993833129],[-0.192890248506423,51.5110747041478],[-0.19289914400477,51.510850024973],[-0.192539078390008,51.5108444772907],[-0.192547975540577,51.5106197981506],[-0.192556872575915,51.5103951190007],[-0.192565769496023,51.5101704398411],[-0.192574666300905,51.5099457606718],[-0.19221460787094,51.5099402120622],[-0.192223506327936,51.5097155329276],[-0.191863449780535,51.5097099832576],[-0.191503393348381,51.5097044324828],[-0.191494491356714,51.5099291115287],[-0.191134433272498,51.5099235596047],[-0.190774375303578,51.5099180065759],[-0.190414317449977,51.5099124524422],[-0.190054259711718,51.5099068972038],[-0.189694202088823,51.5099013408605],[-0.189334144581315,51.5098957834124],[-0.188974087189217,51.5098902248595],[-0.188965172710806,51.5101149035846],[-0.188605113666799,51.5101093438824],[-0.18824505473825,51.5101037830754],[-0.187884995925181,51.5100982211636],[-0.187893915705612,51.5098735425719],[-0.18790283537052,51.5096488639706],[-0.187911754919908,51.5094241853595],[-0.187551701524282,51.5094186224763],[-0.187560622725419,51.5091939439],[-0.187569543811017,51.5089692653139],[-0.187578464782857,51.5087445867155],[-0.187587385641492,51.508519908104],[-0.187947431971584,51.5085254708095],[-0.188307478417044,51.5085310324103],[-0.188667524977848,51.5085365929063],[-0.188658609413413,51.5087612716508],[-0.188649693740815,51.5089859503821],[-0.189009743948341,51.5089915098619],[-0.189000829931734,51.5092161886259],[-0.188991915799679,51.5094408673802],[-0.189351969657157,51.5094464258441],[-0.18934305717695,51.5096711046331],[-0.189703112917136,51.5096766620368],[-0.189712023630042,51.5094519832033],[-0.189720934227544,51.5092273043601],[-0.190080986548533,51.5092328605701],[-0.190089895263377,51.5090081816727],[-0.190449945932465,51.5090137367334],[-0.190458852770507,51.5087890577807],[-0.190467759511237,51.5085643788147],[-0.190476666136739,51.508339699839],[-0.190116620764277,51.5083341449111],[-0.190125529039252,51.50810946597],[-0.19013443719898,51.5078847870191],[-0.190143345243463,51.5076601080585],[-0.189783305280253,51.5076545521587],[-0.189792214974121,51.5074298732327],[-0.189801124552726,51.5072051942969],[-0.189810034016068,51.5069805153515],[-0.189449999461915,51.5069749584799],[-0.189458910574556,51.5067502795689],[-0.189098877900222,51.5067447216369],[-0.18873884534117,51.5067391626002],[-0.188378812897425,51.5067336024588],[-0.188018780569009,51.5067280412127],[-0.187658748355943,51.5067224788619],[-0.187298716258253,51.5067169154064],[-0.187307637842783,51.5064922367517],[-0.187667668175951,51.5064978001629],[-0.188027698624491,51.5065033624693],[-0.188036616564602,51.5062786837163],[-0.188045534389345,51.5060540049535],[-0.187685507469789,51.5060484427357],[-0.187676587880565,51.5062731214542],[-0.187316559311899,51.5062675580873],[-0.186956530858625,51.5062619936159],[-0.186965453976803,51.5060373149861],[-0.18660542740342,51.5060317494543],[-0.186614352170613,51.5058070708592],[-0.186974376979545,51.5058126363466],[-0.187334401903889,51.5058182007294],[-0.187343323026768,51.5055935220359],[-0.187352244034239,51.5053688433326],[-0.186992222638733,51.5053632790385],[-0.187001145295182,51.5051386003699],[-0.187010067836204,51.5049139216915],[-0.187370085702964,51.5049194858969],[-0.187379006364223,51.5046948071644],[-0.187739022582023,51.5047003702208],[-0.18809903891518,51.5047059321726],[-0.1881079559324,51.5044812533417],[-0.187747941363563,51.5044756914343],[-0.187756860029727,51.5042510126381],[-0.188116872834267,51.5042565745012],[-0.188476885754136,51.5042621352597],[-0.188485800776377,51.5040374563651],[-0.188845812047274,51.5040430159747],[-0.188836898789313,51.5042676949136],[-0.188827985416046,51.5044923738428],[-0.188819071927472,51.5047170527623],[-0.188810158323589,51.504941731672],[-0.189170176767027,51.5049472903543],[-0.189161264812206,51.5051719692986],[-0.189152352742093,51.5053966482333],[-0.18914344055669,51.5056213271582],[-0.189134528255992,51.5058460060734],[-0.189125615839998,51.5060706849788],[-0.189485643220801,51.5060762427779],[-0.189494553872329,51.5058515638282],[-0.189854579603919,51.5058571204783],[-0.190214605450738,51.5058626760238],[-0.190574631412764,51.5058682304646],[-0.190583536655681,51.5056435513723],[-0.190223512458103,51.5056379969757],[-0.190232419350243,51.5054133179179],[-0.19024132612716,51.5051886388504],[-0.190250232788855,51.5049639597732],[-0.189890213999684,51.5049584044049],[-0.189899122310514,51.5047337253622],[-0.189908030506104,51.5045090463098],[-0.189916938586456,51.5042843672477],[-0.189556925205495,51.5042788109076],[-0.189565834934895,51.5040541318801],[-0.189574744549037,51.5038294528428],[-0.189214734811857,51.5038238954867],[-0.18922364607498,51.503599216484],[-0.189232557222828,51.5033745374716],[-0.189241468255401,51.5031498584495],[-0.188881463926114,51.5031443001217],[-0.188521459712101,51.5031387406894],[-0.188512545151151,51.5033634196229],[-0.18815253928825,51.5033578590417],[-0.187792533540672,51.5033522973559],[-0.187801451629989,51.5031276185111],[-0.187810369603943,51.5029029396565],[-0.187450367500047,51.5028973769549],[-0.187459287122775,51.5026726981349],[-0.18746820663012,51.5024480193053],[-0.187108208169833,51.5024424555878],[-0.187117129325884,51.5022177767927],[-0.186757132745066,51.5022122120151],[-0.18639713627965,51.5022066461329],[-0.186037139929661,51.5022010791462],[-0.18567714369512,51.502195511055],[-0.185317147576051,51.5021899418593],[-0.185326077436997,51.5019652632764],[-0.184966083197476,51.5019596930206],[-0.184606089159892,51.5019541216692],[-0.184597155769119,51.5021788001632],[-0.184237160094669,51.5021732276643],[-0.184246095254426,51.501948549215],[-0.183886101464766,51.5019429756563],[-0.183526107790934,51.5019374009932],[-0.183535046372778,51.5017127226237],[-0.183175054583754,51.5017071469009],[-0.182815062910602,51.5017015700736],[-0.182455071353346,51.5016959921418],[-0.182464015126107,51.501471313897],[-0.182472958782932,51.5012466356424],[-0.182112970879423,51.5012410566958],[-0.181752983091851,51.5012354766447],[-0.181392995420241,51.5012298954892],[-0.181033007864613,51.5012243132292],[-0.180673020424992,51.5012187298648],[-0.180313033101399,51.5012131453959],[-0.180321987255538,51.5009884674007],[-0.180330941293604,51.5007637893956],[-0.180339895215602,51.5005391113809],[-0.180348848613147,51.5003144334397],[-0.180357801838127,51.5000897555004],[-0.18036675494758,51.4998650775513],[-0.180006778309989,51.4998594922523],[-0.180015733061856,51.4996348143392],[-0.180024687698179,51.4994101364164],[-0.18003364221896,51.4991854584837],[-0.1800425966242,51.4989607805412],[-0.180051550913902,51.498736102589],[-0.180060505088067,51.4985114246269],[-0.179700539113268,51.4985058384985],[-0.179709494929697,51.4982811605725],[-0.179718450630571,51.4980564826366],[-0.179727406215893,51.497831804691],[-0.179736361685663,51.4976071267356],[-0.179376402857446,51.4976015396861],[-0.179016444144778,51.4975959515324],[-0.178656485547682,51.4975903622745],[-0.178647524804734,51.4978150400924],[-0.17828756456551,51.4978094496844],[-0.177927604441904,51.497803858172],[-0.177567644433941,51.4977982655555],[-0.177207684541641,51.4977926718346],[-0.176847724765028,51.4977870770095],[-0.176487765104125,51.4977814810802],[-0.176478793699116,51.4980061586131],[-0.176118832396212,51.4980005615335],[-0.175758871209066,51.4979949633497],[-0.175398910137699,51.4979893640617],[-0.175038949182134,51.4979837636694],[-0.174678988342395,51.4979781621728],[-0.174319027618503,51.4979725595719],[-0.173959067010483,51.4979669558668],[-0.173950083185465,51.4981916330684],[-0.173590120935596,51.498186028213],[-0.173230158801644,51.4981804222534],[-0.172870196783635,51.4981748151895],[-0.172510234881587,51.4981692070214],[-0.172150273095526,51.498163597749],[-0.172141280365784,51.4983882747108],[-0.171781316937978,51.4983826642881],[-0.171421353626204,51.4983770527611],[-0.171412357264873,51.4986017296211],[-0.171052392311382,51.4985961169438],[-0.171061390430487,51.4983714401299],[-0.171070388433488,51.4981467633061],[-0.171079386320388,51.4979220864725],[-0.170719426756225,51.4979164728291],[-0.170710427111599,51.4981411496166],[-0.17035046590581,51.4981355348229],[-0.169990504816144,51.4981299189249],[-0.169981501539901,51.4983545956105],[-0.169972498147487,51.4985792722863],[-0.169963494638899,51.4988039489524],[-0.16960352839208,51.4987983318119],[-0.169243562261435,51.4987927135671],[-0.168883596246987,51.4987870942181],[-0.168523630348757,51.4987814737648],[-0.168163664546839,51.4987758521927],[-0.168172676848178,51.4985511757586],[-0.16818168903283,51.4983264993147],[-0.167821726809278,51.4983208766788],[-0.167830740642992,51.4980962002706],[-0.167470780301876,51.4980905765758],[-0.167461764702413,51.4983152529385],[-0.167101802712256,51.4983096280939],[-0.166741840838831,51.4983040021451],[-0.166732821591095,51.498528678407],[-0.166372858068657,51.4985230513084],[-0.166363836938352,51.498747727515],[-0.166003871766906,51.4987420992666],[-0.165994848753985,51.4989667754179],[-0.165634881933535,51.4989611460196],[-0.165643906712264,51.4987364699138],[-0.165652931374142,51.4985117937982],[-0.165292968202109,51.4985061633866],[-0.165283941774449,51.4987308394567],[-0.164923976953483,51.4987252078953],[-0.164914948643143,51.49894988391],[-0.164554982173248,51.4989442511988],[-0.16419501582025,51.4989386173832],[-0.164185983861363,51.499163293297],[-0.163826015859464,51.4991576583315],[-0.163816982017787,51.49938233419],[-0.163457012366991,51.4993766980746],[-0.163447976642477,51.4996013738778],[-0.163088005342788,51.4995957366125],[-0.163078967735393,51.4998204123602],[-0.162718994786815,51.499814773945],[-0.162709955296492,51.5000394496373],[-0.162349980699029,51.5000338100722],[-0.162340939325732,51.5002584857091],[-0.161980963079389,51.500252844994],[-0.161971919823072,51.5004775205755],[-0.161962875760429,51.5007021962644],[-0.161602896120394,51.5006965543507],[-0.161593850051008,51.5009212300059],[-0.161584803864542,51.5011459056515],[-0.161224820811259,51.5011402625434],[-0.161215772742524,51.5013649381342],[-0.160855788041139,51.5013592938766],[-0.160846738090089,51.5015839694127],[-0.160486751740607,51.5015783240057],[-0.16012676550826,51.5015726774943],[-0.160117711909622,51.5017973529306],[-0.159757724029206,51.5017917052697],[-0.159397736265971,51.5017860565044],[-0.159388679019661,51.5020107318409],[-0.159028689608387,51.5020050819261],[-0.158668700314342,51.5019994309068],[-0.158677761091138,51.5017747556604],[-0.158686821750662,51.5015500804043],[-0.158695882292917,51.5013254051384],[-0.158704942717905,51.5011007298627],[-0.159064924951122,51.5011063807018],[-0.159073983493694,51.5008817053713],[-0.158714003025628,51.5008760545773],[-0.158723063216088,51.5006513792821],[-0.158732122983381,51.5004267040319],[-0.158741182133138,51.5002020288613],[-0.158750241165594,51.4999773536809],[-0.158759300080753,51.4997526784907],[-0.158399328537913,51.4997470268234],[-0.158408389101635,51.4995223516691],[-0.158048419441947,51.4995166989431],[-0.158057481654187,51.4992920238248],[-0.15806654374909,51.4990673486966],[-0.158075605726657,51.4988426735587],[-0.157715641481711,51.4988370198656],[-0.157724705107708,51.4986123447636],[-0.157364742745855,51.4986066900119],[-0.157373808020238,51.4983820149458],[-0.157013847541474,51.4983763591356],[-0.157022914464195,51.4981516841055],[-0.156662955868515,51.4981460272367],[-0.15667202443953,51.4979213522425],[-0.156312067726931,51.4979156943152],[-0.156321137946193,51.497691019357],[-0.156330208048019,51.497466344389],[-0.156339278032408,51.4972416694113],[-0.155979326734142,51.497236010517],[-0.155988398366691,51.4970113355752],[-0.155997469881787,51.4967866606236],[-0.156006541279429,51.4965619856622],[-0.156015612559622,51.496337310691],[-0.156024683722365,51.49611263571],[-0.156033754767663,51.4958879607192],[-0.156042825695516,51.4956632857186],[-0.155682886873345,51.4956576260405],[-0.155691959449188,51.4954329510759],[-0.155701031907567,51.4952082761015],[-0.155710104248485,51.4949836011173],[-0.156070037774429,51.4949892606581],[-0.156079108232524,51.4947645856183],[-0.156088178573185,51.4945399105688],[-0.156097248796414,51.4943152355095],[-0.155737320566493,51.4943095761059],[-0.155746392437587,51.4940849010826],[-0.155386466090386,51.4940792406207],[-0.155395539609298,51.4938545656333],[-0.155404613010738,51.4936298906361],[-0.155764535827421,51.4936355510064],[-0.155773607346167,51.4934108759537],[-0.156133528515045,51.4934165351741],[-0.156142598151142,51.4931918600658],[-0.156151667669818,51.4929671849477],[-0.155791750031325,51.4929615258188],[-0.155800821197742,51.4927368507367],[-0.155809892246719,51.4925121756447],[-0.15544997825593,51.4925065155033],[-0.15545905095258,51.4922818404473],[-0.155099138844335,51.4922761792476],[-0.155108210946605,51.4920515046934],[-0.155117281237486,51.4918268304814],[-0.1554771899238,51.4918324915667],[-0.155486258338237,51.4916078172975],[-0.155846165382407,51.4916134772316],[-0.155855231920445,51.4913888029053],[-0.155864298341347,51.4911641285692],[-0.155873364645116,51.4909394542232],[-0.155882430831753,51.4907147798674],[-0.15589149690126,51.4904901055016],[-0.155531598653056,51.4904844458037],[-0.15554066636456,51.4902597714753],[-0.155549733958917,51.4900350971371],[-0.155558801436128,51.4898104227889],[-0.155918694407026,51.4898160823452],[-0.155927760008035,51.48959140794],[-0.155936825491925,51.4893667335249],[-0.155576936039118,51.4893610740631],[-0.155586003164901,51.4891363996854],[-0.155226115588198,51.489130739167],[-0.15523518435583,51.4889060648267],[-0.154875298655227,51.4889004032517],[-0.154884369064661,51.4886757289487],[-0.154524485240155,51.4886700663171],[-0.154533557291346,51.4884453920515],[-0.154173675342932,51.4884397283634],[-0.154182749035834,51.4882150541352],[-0.154542629225336,51.4882207177761],[-0.154551701042128,51.4879960434908],[-0.154911579589892,51.4880017059806],[-0.154920649530618,51.4877770316381],[-0.155280526436641,51.4877826929769],[-0.155289594501348,51.4875580185774],[-0.154929719354173,51.4875523572858],[-0.154569844324123,51.4875466948905],[-0.15420996941122,51.4875410313914],[-0.154219042635249,51.4873163571238],[-0.154578915789331,51.4873220205756],[-0.154938789060558,51.4873276829236],[-0.154947858649775,51.4871030085516],[-0.154587987137348,51.4870973462508],[-0.154597058368177,51.4868726719161],[-0.154956928121827,51.4868783341697],[-0.155316797992596,51.4868839953195],[-0.155325865588727,51.4866593208804],[-0.155685733817834,51.4866649808793],[-0.15569479953809,51.4864403063831],[-0.156054666125529,51.486445965231],[-0.156063729969956,51.4862212906778],[-0.155703865141232,51.4862156318772],[-0.155712930627261,51.4859909573613],[-0.156072793697294,51.4859966161147],[-0.15643265688437,51.4860022737644],[-0.156792520188465,51.4860079303104],[-0.15680158028137,51.485783255643],[-0.156810640257235,51.4855585809658],[-0.156450780470464,51.4855529245142],[-0.156459842087919,51.4853282498743],[-0.156099984176789,51.4853225923662],[-0.156109047435788,51.4850979177637],[-0.155749191400297,51.4850922591991],[-0.155758256300796,51.4848675846339],[-0.155767321084194,51.4846429100588],[-0.156127173602551,51.4846485685289],[-0.156487026237939,51.4846542258954],[-0.156846878990335,51.4846598821582],[-0.157206731859716,51.4846655373173],[-0.157215789491873,51.4844408625435],[-0.157575640719675,51.4844465165518],[-0.157935492064416,51.4844521694564],[-0.158295343526072,51.4844578212574],[-0.15865519510462,51.4844634719546],[-0.158664245585687,51.4842387969823],[-0.159024095522578,51.4842444465288],[-0.159383945576315,51.4842500949717],[-0.159743795746874,51.4842557423109],[-0.160103646034231,51.4842613885464],[-0.16011268936436,51.4840367133757],[-0.160472538009983,51.4840423584605],[-0.160832386772359,51.4840480024416],[-0.161192235651463,51.4840536453191],[-0.161183197596875,51.4842783206311],[-0.161543048351203,51.484283962452],[-0.161534011938401,51.4845086378013],[-0.161174159425533,51.4845029959333],[-0.161165121137436,51.4847276712256],[-0.161524975408867,51.4847333131407],[-0.161515938762599,51.4849579884702],[-0.161875794909308,51.4849636293287],[-0.162235651172686,51.4849692690835],[-0.162244684301777,51.4847445936598],[-0.16260453892321,51.4847502322639],[-0.162613570177043,51.4845255567833],[-0.162973423156526,51.4845311942366],[-0.162982452535148,51.4843065186991],[-0.162622601314212,51.4843008812928],[-0.16263163233472,51.4840762057925],[-0.162271782988926,51.4840705673296],[-0.16191193375977,51.4840649277631],[-0.161920967969785,51.4838402523898],[-0.162280815620926,51.4838458918727],[-0.162640663238569,51.4838515302824],[-0.163000510942477,51.4838571675945],[-0.163360358762975,51.4838628038031],[-0.163369379335846,51.4836381295358],[-0.163729225689474,51.4836437645559],[-0.164089072159944,51.4836493984725],[-0.164448918747232,51.4836550312856],[-0.16443990292379,51.4838797058069],[-0.164799751210425,51.4838853376008],[-0.165159599613538,51.4838909682911],[-0.165519448133105,51.4838965978778],[-0.165528459209776,51.4836719231034],[-0.165888306264109,51.4836775515022],[-0.166248153435146,51.4836831787974],[-0.166608000722864,51.4836888049891],[-0.166617004780017,51.483464130379],[-0.166257159257405,51.4834585042358],[-0.165897313851473,51.4834528769889],[-0.165906321322055,51.4832282024658],[-0.166266164962906,51.4832338296642],[-0.166275170551649,51.4830091550827],[-0.165915328675857,51.4830035279327],[-0.165924335912881,51.4827788533897],[-0.166284176023638,51.4827844804913],[-0.166644016251068,51.4827901064893],[-0.166635012544116,51.4830147811292],[-0.166626008720434,51.4832394557591],[-0.166985852594616,51.4832450807504],[-0.166994854653237,51.4830204060721],[-0.167354696878987,51.4830260299115],[-0.167345696585431,51.4832507046382],[-0.167705540692854,51.4832563274224],[-0.168065384916864,51.4832619491031],[-0.168074381680284,51.4830372742797],[-0.168434224302089,51.4830428947681],[-0.168794067081413,51.4830485141171],[-0.169153909977354,51.4830541323624],[-0.169162901326045,51.4828294573916],[-0.169522742571521,51.4828350744885],[-0.169882583933566,51.4828406904818],[-0.170242425412156,51.4828463053713],[-0.170251411343064,51.4826216302569],[-0.170611251171135,51.4826272439981],[-0.170971091115705,51.4826328566356],[-0.170980073395975,51.4824081814224],[-0.171339911689997,51.4824137929116],[-0.171699750100469,51.4824194032971],[-0.172059588627368,51.4824250125788],[-0.172068565490081,51.4822003372222],[-0.172428402366379,51.4822059453557],[-0.172788239359057,51.4822115523855],[-0.17279721257132,51.48198687693],[-0.173157047913369,51.4819924828116],[-0.173516883371749,51.4819980875896],[-0.173876718946438,51.4820036912638],[-0.174236554637413,51.4820092938343],[-0.174245520665375,51.481784618191],[-0.174254486576997,51.481559942538],[-0.174614318850315,51.4815655439159],[-0.174974151239869,51.4815711441901],[-0.174965188862148,51.481795819932],[-0.175325023134869,51.481801419147],[-0.175684857523783,51.4818070172583],[-0.175693816367597,51.4815823414274],[-0.176053649105724,51.4815879383905],[-0.176062606066357,51.4813632625054],[-0.176422437153693,51.4813688583204],[-0.17643139223119,51.4811441823812],[-0.176791221667731,51.481149777048],[-0.176800174862138,51.4809251010546],[-0.176809127940372,51.4807004250515],[-0.177168953959244,51.4807060185258],[-0.177177905154458,51.4804813424686],[-0.177537729522547,51.4804869347949],[-0.177546678834787,51.4802622586834],[-0.177555628030906,51.4800375825623],[-0.177564577110904,51.4798129064313],[-0.177924396294617,51.4798184975208],[-0.177933343491738,51.4795938213358],[-0.177942290572765,51.479369145141],[-0.178302106338991,51.479374735038],[-0.17831105153721,51.4791500587892],[-0.178319996619364,51.4789253825306],[-0.178679808968161,51.4789309712352],[-0.178688752167577,51.4787062949225],[-0.178697695250953,51.4784816186001],[-0.179057504182384,51.4784872061124],[-0.179066445383094,51.4782625297359],[-0.179075386467791,51.4780378533496],[-0.179435191981915,51.4780434396696],[-0.179794997611946,51.4780490248861],[-0.180154803357862,51.478054608999],[-0.180514609219641,51.4780601920084],[-0.180523543121971,51.477835515435],[-0.180883347332994,51.4778410972965],[-0.181243151659832,51.4778466780544],[-0.1812520819131,51.4776220013827],[-0.181611884589154,51.4776275809928],[-0.181971687380975,51.4776331594993],[-0.181980613985267,51.4774084827292],[-0.182340415126276,51.4774140600879],[-0.182700216383003,51.4774196363431],[-0.183060017755427,51.4774252114948],[-0.183419819243524,51.4774307855429],[-0.183779620847271,51.4774363584875],[-0.183770703075781,51.477661035479],[-0.184130506561723,51.4776666073643],[-0.184121590441113,51.4778912843904],[-0.184112674204814,51.4781159614067],[-0.184472481339568,51.4781215322769],[-0.184463566754215,51.4783462093278],[-0.184823375771196,51.4783517791387],[-0.184814462836836,51.4785764562241],[-0.185174273896798,51.4785820248433],[-0.185165362598488,51.4788067019775],[-0.185525175583097,51.4788122695052],[-0.185516265923128,51.479036946687],[-0.185507356148217,51.4792616238583],[-0.185867172754319,51.4792671903991],[-0.185858264617815,51.479491867618],[-0.185849356366388,51.4797165448265],[-0.186209176594059,51.4797221103802],[-0.186200269981105,51.4799467876363],[-0.186560092076998,51.4799523521451],[-0.186919914287693,51.4799579155509],[-0.186911011066682,51.4801825929124],[-0.186902107730811,51.4804072702636],[-0.18726193356316,51.4804128326823],[-0.187253031865899,51.480637510081],[-0.187612859566483,51.4806430714547],[-0.187603959507875,51.4808677489009],[-0.187963789076697,51.4808733092295],[-0.18795489065679,51.4810979867232],[-0.188314722093854,51.4811035460068],[-0.188305825312693,51.481328223548],[-0.188296928416752,51.4815529010789],[-0.188656763475632,51.4815584593752],[-0.188647868218504,51.4817831369535],[-0.189007705145659,51.4817886942048],[-0.188998811527387,51.4820133718306],[-0.189358650322821,51.4820189280367],[-0.189349758343452,51.48224360571],[-0.188989917794376,51.4822380494461],[-0.188630077359963,51.4822324920791],[-0.188621181758546,51.4824571696262],[-0.188261339685157,51.4824516110983],[-0.18825244221529,51.4826762885771],[-0.187892598502929,51.4826707288882],[-0.187883699164566,51.4828954062988],[-0.187523853813237,51.4828898454489],[-0.187532754905302,51.4826651680963],[-0.187172911422433,51.4826596062012],[-0.187164008576666,51.4828842834959],[-0.187155105616039,51.4831089607802],[-0.186795258740529,51.4831033976662],[-0.186786353911293,51.4833280748822],[-0.187146202540547,51.4833336380541],[-0.187137299350191,51.4835583153176],[-0.187128396044967,51.4837829925707],[-0.187488248296569,51.4837885547554],[-0.187479341005364,51.4840132331287],[-0.187839194944349,51.4840187942934],[-0.187830287349876,51.484243473073],[-0.188190143166383,51.4842490331781],[-0.188549999098073,51.4842545921794],[-0.188541094913036,51.4844792710375],[-0.18890095272223,51.4844848289791],[-0.188892050184356,51.4847095078717],[-0.18925190987106,51.4847150647536],[-0.189243008980395,51.4849397436806],[-0.189602870544611,51.4849452995028],[-0.189593971301201,51.4851699784642],[-0.189585071942649,51.4853946574159],[-0.189944937146825,51.4854002122225],[-0.189936039435593,51.4856248912086],[-0.190295906517314,51.4856304449554],[-0.190287010453449,51.4858551239759],[-0.190278114274482,51.4860798029867],[-0.190637984996267,51.4860853557179],[-0.190629090464734,51.4863100347631],[-0.190988963064096,51.4863155864344],[-0.190980070180041,51.486540265514],[-0.190971177180924,51.4867649445838],[-0.191331053420455,51.4867704952394],[-0.191322162068883,51.4869951743437],[-0.191682040186025,51.4870007239394],[-0.191673150482045,51.487225403078],[-0.192033030476801,51.4872309516139],[-0.192024142420457,51.4874556307869],[-0.19201525424911,51.4876803099501],[-0.192375137884169,51.4876858574702],[-0.192366251360526,51.4879105366678],[-0.1923573647219,51.4881352158557],[-0.192717251997337,51.4881407623599],[-0.19270836700648,51.4883654415821],[-0.193068256159594,51.4883709870264],[-0.193428145427607,51.4883765313668],[-0.19343702689295,51.4881518520565],[-0.193796914513081,51.4881573952488],[-0.193805794100771,51.4879327158848],[-0.193814673573569,51.487708036511],[-0.194174557783096,51.4877135785113],[-0.194165680073014,51.4879382579291],[-0.194525566160085,51.4879437988694],[-0.194534442107449,51.4877191194077],[-0.194894326546604,51.4877246592001],[-0.195254211100539,51.4877301978885],[-0.195263083407663,51.487505518329],[-0.195271955599991,51.4872808387599],[-0.195631836743303,51.4872863762564],[-0.195622966313653,51.4875110558695],[-0.195982849334376,51.487516592306],[-0.196342732469808,51.4875221276386],[-0.196351599374096,51.4872974479375],[-0.19671148086153,51.4873029821222],[-0.196702615719927,51.4875276618672],[-0.19706249908471,51.4875331949918],[-0.197053635591112,51.4877578747711],[-0.197044771982828,51.4879825545406],[-0.197404658987697,51.4879880866492],[-0.197764546107188,51.4879936176538],[-0.197755685909734,51.4882182975015],[-0.198115574906584,51.488223827446],[-0.198106716357271,51.4884485073279],[-0.198466607231486,51.4884540362124],[-0.198457750330359,51.4886787161285],[-0.198817643081941,51.4886842439529],[-0.198808787829046,51.4889089239032],[-0.198799932461572,51.4891336038438],[-0.199159828853383,51.489139130652],[-0.199150975134207,51.4893638106268],[-0.19951087340342,51.4893693363748],[-0.199502021332587,51.4895940163838],[-0.199861921479204,51.4895995410716],[-0.199853071056762,51.4898242211148],[-0.199844220519801,51.4900489011483],[-0.199835369868318,51.4902735811721],[-0.200195275418275,51.4902791048875],[-0.200555181082691,51.4902846274988],[-0.200546333842688,51.4905093076007],[-0.200906241384545,51.4905148291518],[-0.200897395793089,51.4907395092877],[-0.200888550087175,51.490964189414],[-0.201248461269529,51.4909697099487],[-0.201239617212229,51.4911943901092],[-0.201599530246941,51.4911999095754],[-0.201590687846226,51.4914245897733],[-0.201950602420447,51.4914301080859],[-0.201941761655316,51.4916547883299],[-0.201581845331772,51.491649269961],[-0.201573002702876,51.4918739501382],[-0.201564159950973,51.4920986303037],[-0.201924079783896,51.4921041487868],[-0.201915236021221,51.4923288294842],[-0.201906390825938,51.4925535104122],[-0.202266314182681,51.4925590279027],[-0.202257470634178,51.4927837088667],[-0.202617395866258,51.4927892252988],[-0.20260855396458,51.4930139062988],[-0.202599711948644,51.4932385872889],[-0.202959640817193,51.4932441027085],[-0.202950800448148,51.4934687837346],[-0.202941959964865,51.4936934647509],[-0.203301892469959,51.4936989791579],[-0.203293053633634,51.4939236602101],[-0.203652988014125,51.4939291735587],[-0.203644150824804,51.4941538546469],[-0.204004087080697,51.4941593669371],[-0.203995251538424,51.4943840480612],[-0.204355189669723,51.494389559293],[-0.204346355774546,51.4946142404531],[-0.204706295781254,51.4946197506264],[-0.204697463533217,51.4948444318224],[-0.205057405415339,51.4948499409372],[-0.205048574814487,51.4950746221691],[-0.204688631171043,51.4950691130086],[-0.204679798694731,51.495293794185],[-0.204670966104279,51.4955184753516],[-0.204311019052242,51.4955129649955],[-0.204302184586258,51.4957376461066],[-0.204293350006107,51.4959623272079],[-0.204653300580945,51.4959678376555],[-0.205013251269907,51.4959733469989],[-0.205022082327233,51.4957486658061],[-0.205382031368882,51.4957541739996],[-0.205390860550693,51.4955294927513],[-0.205750807945026,51.4955349997949],[-0.205759635251368,51.4953103184912],[-0.206119580998379,51.4953158243849],[-0.206110755453412,51.4955405057343],[-0.206470703075828,51.4955460105695],[-0.206461879178207,51.4957706919547],[-0.206821828676032,51.4957761957314],[-0.206813006425804,51.4960008771525],[-0.207172957799041,51.4960063798706],[-0.207164137196252,51.4962310613276],[-0.207524090444905,51.4962365629871],[-0.207884043807503,51.4962420635424],[-0.207875226613674,51.4964667450809],[-0.208235181851671,51.4964722445775],[-0.208226366305397,51.4966969261519],[-0.208586323418798,51.4967024245899],[-0.208577509520124,51.4969271062001],[-0.208937468508932,51.4969326035795],[-0.208928656257903,51.4971572852255],[-0.209288617122122,51.4971627815462],[-0.209279806518786,51.497387463228],[-0.209270995801588,51.4976121449001],[-0.209630960302821,51.4976176402077],[-0.209622151233381,51.4978423219156],[-0.209982117610057,51.4978478161645],[-0.20997331018842,51.4980724979082],[-0.209964502652963,51.498297179642],[-0.210324472666758,51.4983026728778],[-0.21031566677917,51.4985273546475],[-0.210675638668441,51.4985328468246],[-0.210666834428769,51.49875752863],[-0.211026808193521,51.4987630197483],[-0.21101800560181,51.4989877015895],[-0.211377981242046,51.498993191649],[-0.211369180298342,51.499217873526],[-0.211729157814066,51.4992233625268],[-0.211720358518415,51.4994480444395],[-0.212080337909631,51.4994535323814],[-0.212440317414523,51.499459019219],[-0.21243152152879,51.499683701213],[-0.212791502909157,51.4996891869917],[-0.212782708671592,51.4999138690215],[-0.212773914320373,51.5001385510414],[-0.213133899338088,51.5001440358068],[-0.213125106635104,51.5003687178625],[-0.213485093528327,51.5003742015689],[-0.213476302444885,51.5005988836789],[-0.213836291213909,51.5006043663273],[-0.213827501738885,51.5008290485009],[-0.213818712150023,51.5010537306649],[-0.214178704566796,51.5010592122982],[-0.214169916631093,51.501283894497],[-0.214161128581571,51.5015085766862],[-0.214521124646171,51.5015140573043],[-0.214512338249875,51.5017387395284],[-0.214503551739777,51.5019634217427],[-0.214863551452281,51.5019689013457],[-0.214854766595477,51.5021935835949],[-0.214845981624889,51.5024182658344],[-0.214837196540519,51.5026429480642],[-0.215197201668146,51.5026484266966],[-0.215188418237156,51.5028731089613],[-0.215179634692401,51.5030977912163],[-0.215539643468132,51.5031032688334],[-0.215530861576824,51.5033279511233],[-0.215890872233496,51.5033334276806],[-0.215882091995681,51.5035581100053],[-0.215873311644141,51.5037827923204],[-0.215864531178873,51.5040074746256],[-0.216224547251041,51.5040129502122],[-0.216584563436896,51.5040184246942],[-0.216575786392521,51.504243107079],[-0.216567009234461,51.5044677894541],[-0.216927029068629,51.5044732629207],[-0.216918253564241,51.5046979453306],[-0.216909477946186,51.5049226277308],[-0.217269501428745,51.504928100182],[-0.217260727464429,51.5051527826171],[-0.217251953386466,51.5053774650424],[-0.217243179194852,51.505602147458],[-0.217603208093333,51.5056076189384],[-0.217594435555547,51.5058323013889],[-0.21758566290413,51.5060569838296],[-0.21722563047067,51.5060515122601],[-0.217216855938098,51.5062761946464],[-0.216856821850753,51.5062707219276],[-0.216496787877068,51.5062652481041],[-0.216136754017067,51.5062597731759],[-0.215776720270772,51.506254297143],[-0.215767938554376,51.5064789793411],[-0.21575915672423,51.5067036615296],[-0.215750374780331,51.5069283437083],[-0.21611041382931,51.5069338198751],[-0.216101633539264,51.5071585020887],[-0.216092853135484,51.5073831842926],[-0.215732810551269,51.5073777080365],[-0.215372768080791,51.5073722306758],[-0.215363984027972,51.5075969127806],[-0.215003939903607,51.5075914342705],[-0.214995153969333,51.507816116321],[-0.214986367921251,51.5080407983617],[-0.215346415580983,51.5080462769611],[-0.215337631186808,51.5082709590368],[-0.215328846678845,51.5084956411027],[-0.215320062057091,51.5087203231589],[-0.215311277263001,51.5089450052083],[-0.215671332101487,51.5089504828818],[-0.215662548884517,51.50917516497],[-0.216022605598259,51.5091806415835],[-0.216382662425439,51.5091861170923],[-0.216373882618633,51.5094107992603],[-0.216365102698389,51.5096354814186],[-0.216725163162657,51.5096409559122],[-0.216716384890844,51.5098656381055],[-0.216707606505615,51.510090320289],[-0.216698828006966,51.5103150024629],[-0.217058893870314,51.510320475986],[-0.217050117020184,51.5105451581949],[-0.217410184758854,51.510550630658],[-0.217770252610884,51.5105561020162],[-0.217779025937128,51.5103314197178],[-0.218139092140547,51.5103368899265],[-0.218147863591514,51.5101122075735],[-0.218156634929153,51.5098875252109],[-0.218516699172048,51.5098929934784],[-0.218525468674949,51.509668311036],[-0.218885531692912,51.5096737779305],[-0.219245594824463,51.5096792437203],[-0.219236828858764,51.5099039262563],[-0.219228062779479,51.5101286087825],[-0.219219296586607,51.5103532912988],[-0.219579365137603,51.5103587561243],[-0.219570600599815,51.5105834386776],[-0.219561835948458,51.5108081212211],[-0.219553071183531,51.5110328037548],[-0.219544306305032,51.5112574862785],[-0.219904382044413,51.5112629501865],[-0.219895618821106,51.5114876327472],[-0.219886855484245,51.5117123152981],[-0.21987809203383,51.5119369978392],[-0.220238173193117,51.5119424607827],[-0.220229411397981,51.5121671433607],[-0.22022064948931,51.5123918259289],[-0.2202118874671,51.5126165084872],[-0.22020312533135,51.5128411910357],[-0.220563213679644,51.5128466530616],[-0.220554453199284,51.513071335647],[-0.220914543430012,51.5130767966148],[-0.220905784605085,51.5133014792371],[-0.220897025666657,51.5135261618497],[-0.221257119548802,51.5135316218061],[-0.221248362265875,51.5137563044556],[-0.221239604869468,51.5139809870952],[-0.221230847359577,51.514205669725],[-0.221590946662267,51.5142111287168],[-0.221582190807965,51.5144358113835],[-0.221573434840199,51.5146604940404],[-0.221933537794505,51.5146659520209],[-0.221924783482395,51.5148906347146],[-0.221916029056839,51.5151153173986],[-0.22227613566284,51.5151207743676],[-0.222267382893007,51.5153454570885],[-0.222258630009748,51.5155701397994],[-0.22224987701306,51.5157948225006],[-0.222609989040048,51.5158002785049],[-0.22260123769917,51.516024961243],[-0.222961351608788,51.5160304161891],[-0.222952601923766,51.516255098964],[-0.222943852125356,51.5164797817292],[-0.223303969686897,51.5164852356637],[-0.22329522154441,51.5167099184657],[-0.223286473288553,51.5169346012579],[-0.223646594502094,51.5169400541809],[-0.223637847902227,51.5171647370099],[-0.223997970998458,51.5171701888746],[-0.223989225720793,51.5173948718626],[-0.223980480322074,51.5176195548436],[-0.224340607019216,51.5176250057118],[-0.224331863256198,51.5178496887354],[-0.224323119380911,51.5180743717489],[-0.224683249686306,51.5180798216176],[-0.224674507446787,51.5183045046737],[-0.22503463961245,51.5183099534903],[-0.225025899008743,51.5185346365889],[-0.225017158292806,51.5187593196774],[-0.225377294066827,51.5187647674946],[-0.225368554986769,51.5189894506256],[-0.22572869262109,51.5189948973908]]],[[[-0.195271955599991,51.4872808387599],[-0.194912074571431,51.4872753001594],[-0.194552193657648,51.4872697604551],[-0.194561069260487,51.4870450809642],[-0.194201190224152,51.4870395401999],[-0.194210067474779,51.4868148607433],[-0.193850190315888,51.486809318919],[-0.19385906921426,51.4865846394968],[-0.19386794799775,51.4863599600648],[-0.19422782163146,51.486365501801],[-0.194218944610548,51.486590181277],[-0.194578820121652,51.4865957219533],[-0.194569944748488,51.4868204014636],[-0.194929822136991,51.48682594108],[-0.194920948411619,51.4870506206246],[-0.195280827677524,51.487056159181],[-0.195271955599991,51.4872808387599]]],[[[-0.19036707043909,51.4838330125211],[-0.190007217269987,51.4838274591613],[-0.190016106544821,51.4836027814449],[-0.189656255244131,51.4835972270399],[-0.189296404058071,51.4835916715317],[-0.189287511275627,51.4838163491323],[-0.189278611852101,51.4840410279144],[-0.189269711306911,51.4842657068705],[-0.188909855144923,51.4842601500768],[-0.188918757452437,51.4840354711648],[-0.188927658450417,51.4838107924631],[-0.188936552986662,51.4835861149205],[-0.188576702029929,51.4835805572061],[-0.188585598205197,51.4833558797109],[-0.188594494265691,51.4831312022053],[-0.188954341714893,51.4831367598039],[-0.188963235906883,51.48291208223],[-0.189323081717024,51.4829176386676],[-0.189314189278767,51.4831423162994],[-0.189674036957288,51.4831478716918],[-0.189665146158063,51.483372549371],[-0.19002499570497,51.4833781037182],[-0.190384845366481,51.4833836569623],[-0.190375957960117,51.4836083347469],[-0.19036707043909,51.4838330125211]]],[[[-0.19036707043909,51.4838330125211],[-0.190726923722779,51.4838385647778],[-0.19071803060166,51.4840632438743],[-0.190709137105784,51.4842879230069],[-0.190700243494843,51.4845126021298],[-0.191060101994534,51.4845181534484],[-0.191051210030906,51.4847428326056],[-0.190691349768836,51.4847372812429],[-0.190682455927758,51.4849619603464],[-0.190322594018316,51.4849564078357],[-0.189962732223926,51.4849508542212],[-0.189971629589802,51.4847261752059],[-0.189980526840561,51.484501496181],[-0.189620668686016,51.4844959415509],[-0.189260810646565,51.4844903858169],[-0.189269711306911,51.4842657068705],[-0.189629567584014,51.4842712625603],[-0.189989423976209,51.4842768171463],[-0.189998320996746,51.484052138102],[-0.19035817574168,51.4840576915401],[-0.19036707043909,51.4838330125211]]]]}}