{"type":"Feature","properties":{"code":"E63003709","name":"Haverhill"},"geometry":{"type":"MultiPolygon","coordinates":[[[[0.465052226492361,52.0766740117337],[0.46578111172899,52.0766587637706],[0.465805863313189,52.0771078829568],[0.466170309406527,52.0771002571624],[0.466182687306429,52.0773248166775],[0.466547135096148,52.0773171896951],[0.466571895111702,52.0777663085693],[0.466936346458767,52.0777586803369],[0.466886819642458,52.0768604427934],[0.466522375739129,52.076868070778],[0.466509996307563,52.0766435113034],[0.467238880227888,52.0766282543321],[0.467263646699183,52.0770773730227],[0.467628092134201,52.0770697427241],[0.467652862986071,52.077518861248],[0.468017311978298,52.0775112296994],[0.468004924609073,52.0772866705048],[0.468369371575694,52.0772790378921],[0.468356982510288,52.0770544787488],[0.468721427451309,52.077046845072],[0.468709036689773,52.07682228598],[0.468344593609635,52.0768299195947],[0.468307427896158,52.0761562420683],[0.468671865393791,52.0761486086395],[0.468659475291331,52.0759240495046],[0.466472859000606,52.0759698328153],[0.466485237938305,52.076194392322],[0.465391921988718,52.0762172689622],[0.465404295508545,52.076441828644],[0.465039854668846,52.0764494520007],[0.465052226492361,52.0766740117337]]],[[[0.403831453887255,52.0916525005903],[0.401644018443527,52.0916971026995],[0.401656085749551,52.0919216744835],[0.400926935718643,52.0919365329911],[0.400562360467588,52.091943960556],[0.400550298600427,52.0917193885535],[0.399456577344022,52.0917416642739],[0.399480690436964,52.0921908087175],[0.399116112743123,52.0921982318502],[0.399128167929668,52.0924228041621],[0.399492747474361,52.0924153809653],[0.399504804671262,52.0926399532024],[0.399869385907351,52.0926325288149],[0.399881445114657,52.0928571009769],[0.400610610810078,52.092842248694],[0.400622673878752,52.093066820717],[0.400987258338053,52.0930593928215],[0.400975193418465,52.0928348208626],[0.401339775867271,52.0928273919047],[0.401351842637769,52.0930519637994],[0.402810178240308,52.0930222364451],[0.40282225257415,52.0932468080723],[0.405738930919113,52.0931872987736],[0.405726841777981,52.0929627276602],[0.407914332716155,52.092918048755],[0.407902232629739,52.0926934780164],[0.408995970385989,52.092671123548],[0.408959655185853,52.0919974120087],[0.409324228631459,52.0919899584737],[0.409336334818696,52.0922145288102],[0.409700909888824,52.0922070740697],[0.409676694571519,52.0917579336446],[0.410041265888973,52.0917504779307],[0.410004939352486,52.0910767675768],[0.409640373473628,52.0910842230716],[0.409628266756298,52.0908596528577],[0.411086522074519,52.0908298244152],[0.411122864453512,52.0915035341461],[0.410758295421963,52.0915109931647],[0.410746182950745,52.0912864231928],[0.410381615574361,52.0912938810125],[0.410417948022539,52.091967591113],[0.410053375049826,52.0919750480258],[0.410065484798795,52.0921996182027],[0.410430059548585,52.0921921612092],[0.410442172270483,52.0924167315192],[0.415181655364536,52.0923196873657],[0.415169518786803,52.0920951179542],[0.416263247754801,52.0920726970535],[0.416238967630212,52.0916235594621],[0.416968112395634,52.0916086069331],[0.416992399622333,52.0920577441625],[0.417721550867412,52.0920427867723],[0.417733699443129,52.0922673555492],[0.419556583394435,52.09222994189],[0.419568741773284,52.0924545105504],[0.419933319874458,52.0924470243722],[0.419945480188201,52.0926715929542],[0.421039218892006,52.0926491274595],[0.421014887747502,52.0921999906886],[0.421744038987534,52.0921850083299],[0.421756208039377,52.0924095765861],[0.422120785204009,52.0924020836499],[0.422132956190873,52.0926266518276],[0.422497534978178,52.0926191576976],[0.422509707900106,52.0928437257969],[0.422874288310079,52.0928362304732],[0.42289863818041,52.0932853665036],[0.422534054212638,52.0932928619622],[0.422546227603249,52.0935174300282],[0.421087883054577,52.0935474008685],[0.421075716779732,52.0933228325329],[0.420711132031167,52.0933303223596],[0.420698967691384,52.0931057539455],[0.420334384565656,52.0931132425785],[0.420322222160886,52.0928886740859],[0.41959305899908,52.0929036478381],[0.419580900308165,52.0926790791998],[0.41885174008008,52.0926940483118],[0.418876050502342,52.0931431858467],[0.418511466596528,52.0931506688479],[0.418523620262707,52.093375237666],[0.418159034422001,52.0933827196081],[0.418171186465186,52.0936072884826],[0.417077422670681,52.0936297277524],[0.41708956953283,52.0938542968176],[0.416724979510575,52.0938617743887],[0.416749270144457,52.0943109126206],[0.416384676408285,52.0943183891999],[0.416396820179951,52.0945429583665],[0.416032224508879,52.0945504338866],[0.416044366657291,52.0947750031094],[0.415679769051314,52.0947824775703],[0.41570405025734,52.0952316161174],[0.415339448937301,52.0952390895863],[0.415375866577306,52.0959127975256],[0.416105079736784,52.0958978490578],[0.416117222820187,52.0961224182143],[0.41648183094545,52.0961149422233],[0.41649397596396,52.0963395113015],[0.41685858571264,52.0963320341168],[0.416822145786992,52.0956583270509],[0.417186750042097,52.0956508489416],[0.417162453979397,52.095201710977],[0.41752705452027,52.0951942318757],[0.417514904943634,52.0949696629441],[0.417879503549468,52.0949621827837],[0.417867352349641,52.0947376139083],[0.418231949020442,52.0947301326888],[0.41821979619747,52.0945055638697],[0.418584390933244,52.094498081591],[0.418572236487175,52.0942735128281],[0.418936829287927,52.0942660294904],[0.418924673218807,52.0940414607838],[0.420383035745628,52.0940115164379],[0.420370872716495,52.0937869479897],[0.421464637635928,52.0937644781052],[0.421476806002045,52.0939890463513],[0.421841395775261,52.0939815540697],[0.421865736534051,52.0944306903939],[0.422230329709143,52.094423196851],[0.422242502101888,52.0946477649291],[0.42260709689984,52.0946402701924],[0.422619271227886,52.094864838192],[0.423348463913248,52.0948498452044],[0.423360641955737,52.0950744130581],[0.423725239843117,52.0950669148072],[0.423737419821021,52.0952914825823],[0.424831217882625,52.0952689808687],[0.424819032567389,52.0950444132959],[0.425183629829446,52.0950369105393],[0.425086138705439,52.0932403700984],[0.423992389146264,52.0932628733696],[0.423968028602568,52.0928137377438],[0.424697188016139,52.0927987369592],[0.424685004421065,52.0925741692646],[0.425414159651588,52.0925591641096],[0.42540197265523,52.0923345965389],[0.425766548257109,52.0923270923394],[0.425778737032288,52.0925516598426],[0.426143314256583,52.0925441544492],[0.426131123702588,52.0923195870135],[0.426495698991641,52.0923120805614],[0.426556662220503,52.0934349172915],[0.426921246247397,52.0934274093754],[0.42697002676314,52.09432567829],[0.427334617749392,52.0943181689774],[0.427359012504458,52.0947673032332],[0.427723606892246,52.0947597926591],[0.427760205536258,52.095433493757],[0.428124805104749,52.0954259818538],[0.428137006745049,52.0956505487967],[0.428501607936089,52.0956430356996],[0.428489404516662,52.0954184688242],[0.429218602870657,52.0954034393856],[0.429206396049659,52.0951788726344],[0.4295709932126,52.0951713562931],[0.429583201812692,52.0953959229767],[0.429947800598057,52.0953884054414],[0.429960011133969,52.0956129720463],[0.430324611541753,52.0956054533169],[0.430336824013529,52.0958300198432],[0.431795231794241,52.095799934182],[0.431770792672722,52.0953508014978],[0.431406194172336,52.0953583240356],[0.43135732513108,52.0944600585868],[0.430992734088824,52.0944675803573],[0.430943874672303,52.0935693144605],[0.431308458598742,52.0935617929605],[0.431320674996625,52.0937863593837],[0.432414435146661,52.0937637922543],[0.432402213395819,52.0935392259292],[0.432766798663446,52.0935317020213],[0.432754575313209,52.0933071357371],[0.433848324920737,52.0932845574012],[0.43383609646194,52.0930599912596],[0.434565258581325,52.0930449335],[0.434553026768702,52.0928203674503],[0.435282184757596,52.0928053052827],[0.435269949591247,52.0925807393248],[0.43563452659809,52.0925732066007],[0.435622289832636,52.0923486406838],[0.436351439871064,52.0923335719552],[0.436339199938888,52.0921090062717],[0.436703773034108,52.0921014703163],[0.436716014657126,52.0923260358998],[0.437080589287719,52.092318498717],[0.437105077010266,52.0927676301334],[0.437469654994408,52.0927600917212],[0.43748190084353,52.0929846573635],[0.437846480426705,52.0929771177729],[0.437870976100791,52.0934262489256],[0.438235559037589,52.0934187081056],[0.438247808862626,52.093643273616],[0.438612393398468,52.0936357316175],[0.438624645133753,52.093860297067],[0.438989231268633,52.09385275389],[0.439013738715458,52.094301884657],[0.43937832820405,52.0942943402506],[0.43939058391566,52.0945189055681],[0.439755175003301,52.0945113599831],[0.439767432625326,52.0947359252397],[0.44013202531201,52.0947283784762],[0.440144284844494,52.0949529436717],[0.440508879130219,52.0949453957296],[0.440533402171967,52.0953945259887],[0.440897999811509,52.095386976817],[0.440910263320846,52.0956115418806],[0.441274862559438,52.0956039915302],[0.441287127979399,52.0958285565327],[0.442380930024868,52.0958058985632],[0.442368659340441,52.0955813337139],[0.443462454718813,52.0955586657497],[0.443425627807957,52.094884971602],[0.44306103476868,52.0948925285643],[0.443048761198352,52.0946679637773],[0.443413352482911,52.0946604068661],[0.443401077313813,52.0944358421203],[0.444130255905809,52.0944207250177],[0.44411797738332,52.0941961603641],[0.444482564690743,52.0941886001727],[0.444494844967894,52.0944131647751],[0.44485943387401,52.0944056034051],[0.44489628090569,52.0950792969991],[0.446354656026392,52.0950490396299],[0.44634236650756,52.0948244753132],[0.447071549622011,52.094809339966],[0.44705925674993,52.0945847757417],[0.447423846318273,52.094577206428],[0.447411551847706,52.094352642245],[0.447776139505231,52.0943450718551],[0.447763843436224,52.0941205077133],[0.448493014931604,52.0941053642707],[0.44848071547201,52.0938808001742],[0.448845299446109,52.0938732279104],[0.448808396578704,52.0931995357159],[0.448443818056211,52.0932071078245],[0.448468416172915,52.0936562360677],[0.447739251766869,52.0936713793999],[0.447726956166517,52.0934468152282],[0.446633213780798,52.0934695224011],[0.446620923600308,52.0932449580658],[0.446256344247399,52.0932525248173],[0.446244055977583,52.0930279604208],[0.446973211018244,52.0930128258927],[0.446985502797123,52.0932373901868],[0.447714660722377,52.0932222510465],[0.447702365434448,52.0929976868548],[0.44806694240832,52.0929901156447],[0.448054645522101,52.0927655514943],[0.449148370197425,52.0927428344034],[0.449136068066572,52.0925182703502],[0.448771495155928,52.0925258434312],[0.448746895409327,52.0920767155278],[0.449111464750929,52.0920691425918],[0.449099164785896,52.0918445798813],[0.44837002951105,52.0918597245611],[0.448357733270728,52.0916351617784],[0.447993166962128,52.0916427336711],[0.447980872636789,52.0914181708768],[0.447251743045537,52.0914333113662],[0.44720258142461,52.0905350596927],[0.447567139242722,52.0905274902105],[0.447554847465598,52.0903029273172],[0.447919403363019,52.0902953567573],[0.44790710997883,52.0900707939038],[0.450823534854714,52.090010197705],[0.450860458173286,52.0906838855417],[0.450495900321952,52.0906914639304],[0.450532819716142,52.0913651517846],[0.450168256357087,52.09137272914],[0.450180561355264,52.0915972917725],[0.449815996054761,52.0916048680311],[0.449840602959558,52.0920539933337],[0.450205171826538,52.0920464170116],[0.450217478413968,52.0922709804352],[0.450582048865473,52.0922634028965],[0.450606667503331,52.092712530599],[0.450242093417664,52.0927201082412],[0.450254401160416,52.0929446721291],[0.449889825097075,52.0929522486957],[0.44990213118329,52.0931768126254],[0.449537553142267,52.0931843881163],[0.449549857571899,52.0934089520877],[0.44918527755319,52.0934165265029],[0.449209883259733,52.0938656545192],[0.449574466912859,52.0938580800005],[0.449599076896099,52.0943072078733],[0.449963664023209,52.0942996321237],[0.449988278283353,52.0947487598529],[0.450352868884506,52.0947411828724],[0.450365178072818,52.0949657466702],[0.451823546140691,52.0949354272664],[0.451835862759035,52.0951599908472],[0.452929642574922,52.0951372393005],[0.452941964806087,52.0953618027158],[0.453306559573936,52.0953542165601],[0.453318883783287,52.0955787799136],[0.45404807647138,52.0955636041161],[0.454023420944039,52.0951144776065],[0.454388013412129,52.0951068881202],[0.454400342912712,52.0953314513281],[0.454764937037303,52.0953238606625],[0.454777268516155,52.0955484238086],[0.455141864297241,52.0955408319637],[0.455154197754411,52.0957653950479],[0.45697718333278,52.0957274186512],[0.456952498405671,52.0952782929917],[0.456587905246677,52.0952858904222],[0.456575564842051,52.0950613275255],[0.4562109733394,52.0950689237766],[0.456223311926692,52.0952934867253],[0.45512953100102,52.0953162688694],[0.455117197865744,52.0950917057652],[0.455481789851223,52.0950841128965],[0.455469455059573,52.0948595498341],[0.455104864891413,52.0948671426509],[0.455092532078022,52.0946425795266],[0.454727943566268,52.0946501711641],[0.454715612731087,52.0944256079779],[0.455080199425569,52.0944180163923],[0.455067866934051,52.0941934532479],[0.455432451650399,52.0941858605867],[0.455420117502591,52.0939612974842],[0.455784700240811,52.0939537037475],[0.455772364436759,52.0937291406868],[0.45650152579601,52.0937139499348],[0.456489186518595,52.0934893869679],[0.456853765139609,52.0934817899527],[0.456730372586078,52.0912361640559],[0.456365811920741,52.0912437605987],[0.456316472258875,52.0903455121492],[0.455951918567291,52.0903531074355],[0.455902588576475,52.0894548587195],[0.4537153058894,52.0895004059705],[0.453702984486073,52.0892758435783],[0.453338438599797,52.0892834308049],[0.453326119137923,52.0890588683722],[0.452961574876161,52.0890664544383],[0.452973892555091,52.0892910169028],[0.452609346351979,52.0892986018722],[0.452621662406403,52.0895231643599],[0.451528017497933,52.0895459125921],[0.451515706792437,52.0893213500088],[0.451880253470629,52.0893137684252],[0.451855628968861,52.0888646432963],[0.452220171922835,52.0888570606478],[0.45220785812663,52.0886324981022],[0.452936939993687,52.0886173294831],[0.452924622790137,52.0883927669926],[0.453289161703206,52.0883851810221],[0.45327684287526,52.0881606185547],[0.454005916660427,52.0881454432919],[0.453993594425309,52.0879208808796],[0.454358129297391,52.0879132915872],[0.454345805437997,52.0876887291982],[0.454710338368804,52.0876811388092],[0.454698012885179,52.0874565764434],[0.455427074705732,52.0874413923437],[0.455414745815184,52.0872168300331],[0.455779274704913,52.0872092363224],[0.455766944190255,52.086984674035],[0.45649599792857,52.086969483292],[0.456483664007162,52.0867449210599],[0.457212713545672,52.0867297258669],[0.457200376217618,52.0865051636899],[0.458293943987464,52.0864823625328],[0.458281601470239,52.0862578004432],[0.459739682477357,52.0862273832299],[0.459727332988535,52.0860028212596],[0.461185404324338,52.0859723861192],[0.461160691562917,52.085523262409],[0.460796177532349,52.0855308728227],[0.460783823172588,52.0853063109225],[0.46041931076566,52.0853139201757],[0.460406958347321,52.0850893582348],[0.460042447564037,52.0850969663275],[0.460030097087073,52.0848724043458],[0.459665587927439,52.0848800112781],[0.459653239391804,52.0846554492557],[0.458924224161078,52.084670659671],[0.458911879349155,52.0844460975759],[0.458547373278094,52.084453701059],[0.458559716307586,52.084678263186],[0.458195208295371,52.0846858655727],[0.458207549701189,52.084910427723],[0.457478529635759,52.0849256291751],[0.457453854112687,52.0844765047377],[0.457089347406887,52.0844841037072],[0.457077011665839,52.0842595414436],[0.457806021353952,52.0842443424402],[0.4577936822068,52.0840197802318],[0.458522687695453,52.0840045767788],[0.458510345103198,52.083780014771],[0.459239346360235,52.0837648069928],[0.459226999930407,52.0835402466776],[0.459591498537691,52.0835326411498],[0.459579150483717,52.0833080808764],[0.459943647149163,52.0833004742734],[0.45993129747109,52.0830759140418],[0.460660286759451,52.0830606975586],[0.460672640003487,52.0832852576866],[0.461037136192318,52.0832776477027],[0.461401632222231,52.0832700365918],[0.461389275412244,52.0830454765675],[0.462118263429282,52.0830302510686],[0.462081183255771,52.0823565712468],[0.461716694675499,52.0823641844042],[0.461704336718619,52.0821396243917],[0.462068823516016,52.0821320112862],[0.46204410451361,52.0816828913349],[0.462408587586359,52.0816752772063],[0.462383865654495,52.0812261573186],[0.462748345002676,52.0812185421669],[0.462698895916638,52.0803203024788],[0.46306336797495,52.0803126864078],[0.463038640821018,52.0798635666074],[0.463403109155025,52.0798559495133],[0.463415474435081,52.0800805093666],[0.463779944392677,52.0800728910937],[0.463792311614488,52.080297450885],[0.464885725880726,52.0802745891495],[0.464860980900431,52.0798254698684],[0.465225449298373,52.0798178468719],[0.465213075171198,52.0795932872887],[0.465577542065146,52.0795856630653],[0.465528039757519,52.0786874248733],[0.465163580308124,52.0786950488491],[0.46512646088865,52.078021369907],[0.464762007346859,52.0780289923428],[0.46471252439033,52.0771307533394],[0.464348078082223,52.0771383743176],[0.46432334112355,52.0766892546519],[0.464687783867052,52.0766816337775],[0.46467541384415,52.0764570739816],[0.46358209048327,52.0764799330687],[0.463569725966265,52.076255373107],[0.460289763339356,52.0763238890597],[0.460277415021597,52.0760993286211],[0.461006293153118,52.0760841108444],[0.460993941429773,52.0758595504994],[0.460629504225653,52.0758671598993],[0.460617154443422,52.0756425994925],[0.460252718862679,52.0756502077138],[0.460240370386467,52.0754256473218],[0.459147068416627,52.0754484650238],[0.45911003219671,52.0747747842275],[0.458745603494288,52.0747823876778],[0.458757946863601,52.0750069480206],[0.458029085219427,52.0750221516769],[0.458090776816401,52.0761449549106],[0.456633014839267,52.076175349903],[0.45664534533436,52.0763999108594],[0.455552016839534,52.0764226954285],[0.455564342146341,52.0766472565301],[0.454106561471624,52.0766776203883],[0.454118879807637,52.0769021816867],[0.453754432460505,52.0769097698861],[0.453766749172626,52.0771343312261],[0.453402299884723,52.0771419183504],[0.453426930219522,52.0775910411037],[0.453791383072243,52.0775834538761],[0.453816017605714,52.078032576486],[0.454180473864936,52.0780249880282],[0.454192793151861,52.0782495492665],[0.454557251035131,52.0782419596303],[0.454581893649511,52.0786910819734],[0.454946354939357,52.078683491107],[0.454958678266884,52.0789080522119],[0.45532314118079,52.078900460167],[0.455335466449441,52.0791250212101],[0.454242071884541,52.0791477941195],[0.454254391963969,52.0793723553077],[0.453889925009469,52.0793799440755],[0.453902243464777,52.0796045053054],[0.453537774569218,52.0796120929981],[0.45356240838997,52.0800612155312],[0.453197935770664,52.0800688022003],[0.453210251136039,52.0802933635035],[0.452845776575637,52.0803009490974],[0.452833462992968,52.0800763877425],[0.452104516962499,52.0800915554464],[0.45209220710363,52.0798669939783],[0.451727735633594,52.0798745760883],[0.451703119956286,52.0794254530188],[0.450609715292478,52.0794481922781],[0.450597413039224,52.0792236305735],[0.450232946284116,52.0792312080213],[0.450245246754739,52.0794557697775],[0.449880778058802,52.07946334615],[0.449905375909462,52.0799124697355],[0.449176430912395,52.0799276193063],[0.449114955298842,52.078804809752],[0.449479418963249,52.0787972357878],[0.44945482625994,52.0783481119992],[0.449819286201093,52.0783405370113],[0.449782392985061,52.077666851408],[0.45014684742057,52.077659275448],[0.450208345817616,52.078782084479],[0.451301734912696,52.0787593490646],[0.451289429569133,52.0785347874332],[0.451653890501787,52.0785272067597],[0.451641583534005,52.0783026451699],[0.452006042525853,52.0782950634213],[0.451993733933897,52.0780705018731],[0.452358190984945,52.0780629190492],[0.452333570711153,52.0776137960261],[0.452698024038954,52.0776062121787],[0.452685712357185,52.0773816507038],[0.453050163744223,52.0773740657813],[0.453025537291071,52.0769249429047],[0.453389984954976,52.0769173569587],[0.45337767018366,52.0766927955571],[0.45374211590684,52.0766852085361],[0.453729799511627,52.076460647176],[0.45445868691813,52.0764454698572],[0.454397088179522,52.0753226635453],[0.453668218838259,52.0753378403179],[0.453655901518455,52.0751132790584],[0.454020334398874,52.0751056913011],[0.453983377809455,52.0744320076552],[0.454347804908077,52.0744244189709],[0.454335484501693,52.0741998577998],[0.455064334460547,52.0741846771868],[0.455052010474054,52.0739601161372],[0.455416433334269,52.0739525242084],[0.455428759193104,52.0741770851918],[0.45579318376105,52.0741694920712],[0.455780856029875,52.073944931154],[0.456145278560848,52.073937336974],[0.456132949122041,52.0737127761122],[0.456497369616045,52.0737051808728],[0.456472707487982,52.0732560592486],[0.456837124072767,52.0732484630162],[0.456849456926695,52.0734730237675],[0.457213875219036,52.0734654263432],[0.457226210109991,52.0736899870172],[0.45686178994537,52.0736975845078],[0.456874123128794,52.0739221452372],[0.456509700927162,52.0739297416684],[0.456546695848896,52.0746034239892],[0.456911123667594,52.0745958273591],[0.456923457510046,52.0748203880445],[0.45728788703643,52.0748127902225],[0.457275551321577,52.0745882296034],[0.457639978810819,52.074580630722],[0.457627641388378,52.0743560701583],[0.457992066840483,52.0743484702176],[0.457979727710502,52.0741239097091],[0.458344151125478,52.0741163087091],[0.458331810288005,52.0738917482559],[0.457967388745349,52.0738993491897],[0.457955049945021,52.0736747886592],[0.457590630109882,52.073682388401],[0.457578293346651,52.0734578277933],[0.458671546740895,52.07343502539],[0.458659204525718,52.0732104649701],[0.459752450819831,52.0731876526354],[0.459715408313775,52.072513971907],[0.459350998663827,52.0725215769451],[0.459363344128749,52.0727461372653],[0.458998932441773,52.0727537412442],[0.458974245421139,52.0723046204601],[0.458609837313635,52.0723122231808],[0.458560472739214,52.0714139812154],[0.457831671006502,52.0714291827496],[0.457819334019063,52.0712046220981],[0.45709053537142,52.0712198189976],[0.457078202292788,52.0709952582026],[0.456349406730385,52.0710104504675],[0.456337077560473,52.0707858895289],[0.455972681404284,52.0707934839068],[0.455985008702202,52.0710180449117],[0.455256212152001,52.0710332304235],[0.45524388859808,52.0708086692862],[0.454879491948112,52.0708162602876],[0.454867170430783,52.070591699073],[0.454502775488252,52.0705992888827],[0.454490456007469,52.0703747275909],[0.454126062772381,52.0703823162089],[0.454138380381205,52.0706068775669],[0.453773985109665,52.0706144651256],[0.453786301011041,52.0708390265389],[0.453421903703044,52.0708466130383],[0.453434217896924,52.0710711745067],[0.453069818552463,52.0710787599468],[0.453082131038798,52.0713033214704],[0.452717729657869,52.0713109058512],[0.452730040436611,52.07153546743],[0.452365637019207,52.0715430507514],[0.452377946090307,52.0717676123854],[0.452013540636424,52.0717751946474],[0.452025847999833,52.0719997563366],[0.452390255325839,52.0719921740084],[0.452402564725807,52.0722167356204],[0.452038155527654,52.0722243180147],[0.452050463219888,52.0724488796819],[0.451686051985195,52.0724564610168],[0.451698357969648,52.0726810227392],[0.45133394469841,52.0726886030147],[0.451358553416028,52.0731377265587],[0.450994136235987,52.0731453058409],[0.450981833667245,52.0729207440082],[0.450617418195155,52.0729283220987],[0.450629718891643,52.0731528839974],[0.45026530138302,52.0731604610284],[0.450289899524391,52.0736095849252],[0.449925478106918,52.0736171609628],[0.449962370934227,52.074290846924],[0.449597943735435,52.0742984220342],[0.44965942570457,52.0754212320802],[0.44929498897925,52.0754288063953],[0.449221222343804,52.0740814339106],[0.449585647834428,52.0740738599921],[0.449561056525211,52.0736247358748],[0.448832212869186,52.0736398823218],[0.448807629706234,52.0731907578962],[0.448443211376585,52.0731983292991],[0.448430921913693,52.0729737670037],[0.448066505660748,52.0729813374334],[0.448054218230629,52.0727567750689],[0.447325389195763,52.0727719125726],[0.447313105618799,52.0725473500592],[0.446948692703405,52.0725549170541],[0.446936411134117,52.0723303544606],[0.446207588507496,52.0723454849366],[0.446219866386,52.0725700476677],[0.4447622118054,52.07260029539],[0.444749941308498,52.0723757323836],[0.442563465648504,52.0724210697921],[0.442551206386064,52.0721965063621],[0.442915617555609,52.0721889530096],[0.442878835204051,52.0715152628587],[0.441785617817858,52.0715379189214],[0.441797872903735,52.0717624825224],[0.441433464939246,52.0717700323613],[0.441408958620051,52.0713209050107],[0.441773362893895,52.0713133553093],[0.441748853531703,52.0708642280515],[0.442477654212711,52.0708491255473],[0.442489912503368,52.0710736890444],[0.444311920598429,52.0710359127467],[0.444287385726711,52.070586786429],[0.443922988122112,52.0705943438017],[0.443898457589043,52.0701452173017],[0.444262851503277,52.0701376600666],[0.444250584634661,52.0699130968686],[0.443886192565573,52.069920654035],[0.443873927704141,52.0696960907571],[0.443509537318191,52.0697036467295],[0.443521800334498,52.0699282100761],[0.442428622669595,52.0699508714475],[0.442440880312453,52.0701754349892],[0.439161321971733,52.0702433589547],[0.439173563169777,52.0704679231034],[0.437351571427963,52.0705056195964],[0.437363803561542,52.070730184077],[0.436270601041812,52.0707527886744],[0.436282827801183,52.0709773533497],[0.434825214799679,52.0710074773321],[0.434874093927137,52.0719057370186],[0.43523850480106,52.0718982074369],[0.435226282931627,52.0716736426005],[0.436319509048582,52.0716510473086],[0.436343964021281,52.0721001765588],[0.435250726831979,52.0721227722621],[0.435275171378282,52.072571901879],[0.43491075496806,52.0725794316664],[0.434922975637969,52.0728039965267],[0.434558557220849,52.0728115252571],[0.434570776206722,52.0730360901748],[0.434206355782698,52.0730436178484],[0.434218573084488,52.0732681828235],[0.433854150653556,52.0732757094401],[0.433866366271214,52.0735002744725],[0.433501941833367,52.0735078000322],[0.433514155766845,52.073732365122],[0.433149729322078,52.0737398896247],[0.433161941571328,52.0739644547718],[0.432797513119635,52.0739719782175],[0.43280972368461,52.0741965434221],[0.432445293225986,52.0742040658107],[0.432457502106636,52.0744286310726],[0.43172863701427,52.0744436726104],[0.431740842364851,52.0746682379981],[0.431376408734243,52.0746757567747],[0.431388612361967,52.074900322229],[0.431024176975991,52.0749078398484],[0.431048581031831,52.0753569708461],[0.430684141802507,52.0753644874602],[0.430708543400251,52.0758136181247],[0.430344100415073,52.0758211337676],[0.430331901246212,52.0755965684135],[0.42996745989734,52.0756040828446],[0.429955262861319,52.0753795173101],[0.429226383276904,52.0753945426556],[0.429250770513653,52.0758436739507],[0.428521883124702,52.0758586951179],[0.428509692925718,52.0756341293261],[0.426687480666632,52.0756716621314],[0.426675299668824,52.0754470958926],[0.425946417192273,52.0754621009682],[0.425982950100361,52.0761358001794],[0.42634739676998,52.0761282979406],[0.42635957651994,52.0763528642325],[0.425995128056273,52.0763603665587],[0.42563067943522,52.0763678677606],[0.425618503273357,52.0761433012938],[0.424889609147285,52.0761583001497],[0.424877436730897,52.0759337334956],[0.424148545563634,52.0759487276794],[0.424136376892635,52.0757241608381],[0.423407488684344,52.0757391503498],[0.423395323758648,52.0755145833212],[0.42193755263166,52.0755445485034],[0.421949710381347,52.0757691158814],[0.421585265412731,52.0757766044535],[0.421597421525557,52.0760011719064],[0.421232974605806,52.0760086594415],[0.421257283714778,52.0764577944848],[0.421621734222671,52.076450306775],[0.421633890806963,52.0766748741908],[0.421998342951851,52.0766673852693],[0.422010501487431,52.0768919525853],[0.422739408894028,52.0768769711945],[0.422775896208919,52.0775506725438],[0.422046978037304,52.0775656544587],[0.422022660180199,52.0771165198888],[0.420929292509378,52.0771389838043],[0.42091713919907,52.0769144162387],[0.420552684788783,52.0769219018744],[0.420540533429727,52.0766973342091],[0.420176080656536,52.0767048186331],[0.420163931248684,52.0764802508681],[0.418706125762464,52.0765101769714],[0.418730410382173,52.0769593131874],[0.418365955029977,52.0769667920769],[0.418378095781118,52.0771913602535],[0.418013638477841,52.0771988381059],[0.418037916862564,52.0776479745966],[0.417673455813974,52.077655451499],[0.417722007289534,52.0785537246806],[0.418086475515269,52.0785462474292],[0.418098615570806,52.0787708156063],[0.417369675373769,52.0787857691593],[0.417357538906924,52.0785612008077],[0.416993070367462,52.0785686758103],[0.417005205039956,52.0787932442492],[0.416640734549311,52.0788007182145],[0.41665286758431,52.0790252867283],[0.416288395142477,52.0790327596564],[0.41633692167333,52.0799310339364],[0.416701401292914,52.0799235606593],[0.416713535112233,52.0801481291111],[0.415984572127269,52.0801630747151],[0.415972441896947,52.0799385060889],[0.415243481873879,52.0799534470204],[0.415255608515194,52.080178015821],[0.414526650321917,52.0801929536021],[0.414538773429914,52.0804175225336],[0.41417429394347,52.0804249901331],[0.414186415452168,52.0806495591384],[0.413821934058527,52.0806570256994],[0.413846174031178,52.0811061638455],[0.413481688977004,52.0811136294542],[0.413493807440889,52.0813381985949],[0.412764833364221,52.0813531266106],[0.412825410458267,52.0824759729907],[0.413189906340677,52.0824685091145],[0.413226259704337,52.0831422165364],[0.412861758561361,52.083149680671],[0.41287387490352,52.0833742498731],[0.413967383131493,52.0833518538366],[0.413979504888318,52.0835764227679],[0.41434400907674,52.0835689550868],[0.414356132741146,52.0837935239197],[0.41289810840903,52.0838233883173],[0.412885991399579,52.0835988190629],[0.410698960268523,52.083643581285],[0.410711067273828,52.0838681511656],[0.410346559866129,52.0838756077006],[0.410358667133972,52.0841001780502],[0.409994157756593,52.0841076335326],[0.410006263369968,52.0843322039437],[0.409641752022903,52.0843396583735],[0.409617544577948,52.0838905173938],[0.408888528659545,52.0839054225846],[0.408900628679059,52.0841299932261],[0.408536118671493,52.084137444206],[0.408548217036436,52.0843620149091],[0.408183705059268,52.0843694648364],[0.40819580176959,52.084594035601],[0.407831287822814,52.0846014844756],[0.407843382878467,52.0848260553018],[0.407478866962078,52.0848335031237],[0.407503053921411,52.0852826448877],[0.407138534223183,52.0852900917298],[0.407150626126794,52.0855146626676],[0.406786104458915,52.085522108457],[0.406798194707696,52.0857466794563],[0.40643367107016,52.0857541241929],[0.406469937324054,52.0864278373411],[0.406105408092189,52.0864352811708],[0.406129582757024,52.0868844233582],[0.406494115613648,52.0868769793827],[0.406506204994554,52.0871015503863],[0.407235273860467,52.087086658912],[0.407247367023653,52.0873112297583],[0.406518294532868,52.0873261213785],[0.406530384228595,52.0875506923593],[0.406165845934651,52.0875581365537],[0.406153758051388,52.0873335655],[0.40542468461637,52.0873484503655],[0.405436768874698,52.0875730215651],[0.405072230108736,52.0875804623821],[0.405084312711913,52.0878050336431],[0.40471977197616,52.0878124734073],[0.404731852924137,52.0880370447298],[0.404367310218589,52.088044483441],[0.404391468961328,52.0884936261975],[0.404026922473405,52.0885010639287],[0.4040390002681,52.0887256353627],[0.403674451810342,52.088733072041],[0.403710680700066,52.089406786493],[0.403346126647143,52.089414222264],[0.403334052006001,52.0891896507186],[0.402969499608561,52.0891970852908],[0.402981572437026,52.0894216569092],[0.402617018069736,52.0894290904284],[0.402641160572834,52.0898782337765],[0.4033702764011,52.0898633653207],[0.403418577795776,52.0907616512968],[0.403783142725244,52.0907542150886],[0.403795220279846,52.0909787864811],[0.404159786864919,52.0909713490741],[0.404171866389647,52.0911959203824],[0.404536434630317,52.0911884817765],[0.404548516125221,52.0914130530004],[0.403819375860849,52.091427929232],[0.403831453887255,52.0916525005903]]],[[[0.453421903703044,52.0708466130383],[0.453409589673657,52.0706220515589],[0.453045194073206,52.0706296368666],[0.453032882080279,52.07040507531],[0.452668488187381,52.070412659426],[0.452656178230865,52.0701880977922],[0.451198608503419,52.0702184227368],[0.45118630619906,52.0699938608275],[0.449728741330733,52.0700241674998],[0.449716446678379,52.0697996053149],[0.448623276918841,52.0698223233033],[0.448610988046431,52.0695977609093],[0.446424655868891,52.0696431674425],[0.446436933646118,52.0698677302389],[0.444614976541738,52.0699055385769],[0.44465178316929,52.070579227931],[0.445016180449825,52.0705716683076],[0.445028451495076,52.0707962313345],[0.445757249260338,52.0707811085742],[0.445769524158174,52.0710056714523],[0.44540512351136,52.0710132334639],[0.445429670103022,52.0714623593243],[0.44579407444037,52.071454797175],[0.445806349824736,52.0716793600196],[0.446170755845257,52.0716717966762],[0.446183033237127,52.0718963594408],[0.447276255861627,52.0718736624519],[0.447263972933801,52.0716490998938],[0.447992783515071,52.0716339630786],[0.44800507013352,52.071858525499],[0.448369477061865,52.0718509553622],[0.448381765703889,52.0720755177125],[0.448746174672415,52.0720679466399],[0.448758465350782,52.0722925089131],[0.449122876027339,52.0722849366489],[0.449135168742099,52.0725094988451],[0.449499581126682,52.0725019253892],[0.449511875877884,52.0727264875083],[0.450605117662994,52.0727037601889],[0.450592817295154,52.0724791982682],[0.451321640586159,52.0724640412262],[0.451297032854759,52.0720149176163],[0.451661440509465,52.0720073375392],[0.45164913501818,52.0717827757839],[0.452013540636424,52.0717751946474],[0.452001233437422,52.0715506329473],[0.452365637019207,52.0715430507514],[0.452353328112536,52.0713184891064],[0.452717729657869,52.0713109058512],[0.452705419043577,52.0710863442614],[0.453069818552463,52.0710787599468],[0.453057506230599,52.0708541984122],[0.453421903703044,52.0708466130383]]],[[[0.434874093927137,52.0719057370186],[0.434509682891808,52.0719132654749],[0.434460811145755,52.0710150055142],[0.433003194916594,52.0710451069891],[0.433015405229672,52.0712696722701],[0.43192218582834,52.0712922367652],[0.431909981051259,52.0710676712788],[0.431181172577979,52.0710827080625],[0.431193373630837,52.0713072736866],[0.429735748947287,52.0713373335417],[0.429760136808885,52.0717864652412],[0.428666905563006,52.0718089986723],[0.428679094212327,52.0720335646873],[0.428314681634716,52.0720410736394],[0.428302494826302,52.0718165075642],[0.42684485027307,52.0718465318718],[0.426857029717829,52.0720710981884],[0.426128202795856,52.072086103707],[0.42614037871935,52.0723106701336],[0.425775963176616,52.0723181712642],[0.42578813741972,52.0725427377405],[0.425059302170809,52.0725577367444],[0.42507147289247,52.0727823033306],[0.42470705318631,52.0727898012038],[0.424694884305655,52.0725652345573],[0.423966048094072,52.0725802268051],[0.423978213292704,52.0728047935721],[0.423613793105308,52.0728122880673],[0.42363812030181,52.07326142169],[0.424002544171308,52.0732539270744],[0.424014709851286,52.0734784938096],[0.425107986020569,52.0734560030258],[0.425120157384317,52.0736805695697],[0.425484584294272,52.0736730703294],[0.425508931185626,52.0741222032648],[0.425144500593399,52.0741297026256],[0.425132328908592,52.073905136103],[0.424767899997039,52.0739126342775],[0.424755730313889,52.0736880676839],[0.424026875691718,52.0737030605343],[0.424039041692604,52.0739276272483],[0.423310182746563,52.073942615715],[0.423322345225589,52.0741671825389],[0.424051207853952,52.0741521939518],[0.424063374175761,52.0743767606446],[0.424427807090527,52.0743692646017],[0.424439975414004,52.0745938312238],[0.425168844444618,52.0745788356392],[0.425181016611036,52.0748034021301],[0.425909888682156,52.0747884019207],[0.425922064691601,52.0750129682805],[0.42665093980306,52.0749979634461],[0.426663119655621,52.0752225296746],[0.427391997807253,52.0752075202153],[0.427379814272183,52.0749829541073],[0.428108688098776,52.0749679402643],[0.428096501041943,52.0747433742664],[0.428825370543373,52.0747283560397],[0.428813179964883,52.0745037901519],[0.429542045141028,52.0744887675416],[0.429529851040984,52.074264201764],[0.429894281546749,52.0742566888302],[0.429882085766393,52.0740321231023],[0.43024651427023,52.0740246091028],[0.430234316809607,52.0738000434248],[0.430598743311522,52.0737925283596],[0.430610942613253,52.0740170939772],[0.43133979881676,52.0740020603479],[0.431327595832821,52.0737774948511],[0.432056449020024,52.0737624563798],[0.432044242468927,52.073537891016],[0.432408667551946,52.0735303699583],[0.432396459316562,52.0733058046518],[0.432760882392752,52.0732982825371],[0.432748672473128,52.073073717288],[0.43347751445056,52.0730586698191],[0.433453087713269,52.0726095395614],[0.434181921663397,52.0725944878648],[0.434194138642336,52.0728190528622],[0.434558557220849,52.0728115252571],[0.434546338396424,52.0725869603283],[0.43491075496806,52.0725794316664],[0.434874093927137,52.0719057370186]]],[[[0.423310182746563,52.073942615715],[0.423298020427949,52.0737180488804],[0.42366244814002,52.0737105552704],[0.423650284140701,52.0734859884855],[0.423285858269743,52.0734934820353],[0.423273696271942,52.0732689151796],[0.422544847731192,52.0732838987807],[0.422557006046805,52.0735084657569],[0.422192579694875,52.0735159559286],[0.422204736329722,52.0737405229543],[0.422569164522775,52.0737330327224],[0.422581323159106,52.0739575996773],[0.423310182746563,52.073942615715]]],[[[0.459893951883821,52.095666597787],[0.459906309128094,52.0958911601861],[0.459541711805825,52.0958987667923],[0.459529356378931,52.0956742043412],[0.458070972747733,52.0957046192833],[0.458083320905081,52.0959291819422],[0.458447918871969,52.095921579846],[0.458460269007876,52.096146142443],[0.458824868631057,52.0961385391673],[0.45883722074557,52.0963631017022],[0.459931024100433,52.0963402849542],[0.459943381828505,52.0965648473232],[0.460307984441833,52.0965572394335],[0.460320344148648,52.0967818017404],[0.4606849484182,52.0967741926712],[0.460697310103807,52.0969987549162],[0.461426521794044,52.0969835332911],[0.461438887276,52.0972080954219],[0.461803494696655,52.0972004828661],[0.461815862157518,52.0974250449349],[0.46290968890387,52.0974022003458],[0.462884943238456,52.0969530765104],[0.463249548196074,52.0969454594965],[0.463224799541609,52.0964963357251],[0.463589400702869,52.0964887176877],[0.46355227348011,52.0958150321117],[0.462823081900556,52.0958302667465],[0.462810710117348,52.0956057047636],[0.462446115902811,52.0956133203377],[0.462433746098387,52.0953887582927],[0.462069153539809,52.0953963726873],[0.462056785714121,52.0951718105803],[0.461327603747571,52.095187035883],[0.461315239717867,52.0949624736618],[0.460221471010246,52.0949853030038],[0.4602585472275,52.0956589901053],[0.459893951883821,52.095666597787]]],[[[0.443448224666781,52.0685808298287],[0.442355080213147,52.0686034899629],[0.44236733688439,52.0688280535716],[0.442002953231051,52.0688356047678],[0.442039718681173,52.069509295733],[0.442404107869704,52.0695017443306],[0.442416365188679,52.0697263078947],[0.442780756060436,52.0697187552982],[0.442768496896351,52.0694941918029],[0.443861663004745,52.0694715274681],[0.443824869878746,52.0687978375339],[0.443460486873056,52.0688053932312],[0.443448224666781,52.0685808298287]]],[[[0.427018809783268,52.0952239470274],[0.426982222283379,52.094550245491],[0.42661762936161,52.0945577537447],[0.426629823259331,52.0947823210021],[0.426265228402038,52.094789828197],[0.426289613108835,52.0952389628136],[0.427018809783268,52.0952239470274]]],[[[0.402933282066335,52.0885233703673],[0.402568734949624,52.0885308035951],[0.402556664562515,52.0883062318582],[0.402192119101255,52.0883136638874],[0.402180050683872,52.0880890920663],[0.401815506878068,52.0880965228968],[0.401839640244814,52.0885456666734],[0.401475092656761,52.0885530965237],[0.401499223026718,52.0890022404002],[0.402957426937293,52.0889725136611],[0.402933282066335,52.0885233703673]]]]}}