{"type":"Feature","properties":{"code":"E63005314","name":"Kit's Coty"},"geometry":{"type":"MultiPolygon","coordinates":[[[[0.508797224007044,51.3173899534587],[0.508784963632913,51.3171653721651],[0.508426593795904,51.3171730488414],[0.508438852379021,51.3173976302183],[0.508080480591053,51.3174053058819],[0.50809273744707,51.3176298874256],[0.507734363727603,51.3176375620528],[0.507746618971967,51.3178621436454],[0.507388243320996,51.317869817236],[0.507029867510143,51.3178774897307],[0.507042119371184,51.3181020714318],[0.507054371392111,51.3183266531222],[0.507412750746243,51.3183189805086],[0.507771129940489,51.3183113067988],[0.508129508974824,51.3183036319931],[0.508117251638953,51.3180790504812],[0.508475628741713,51.318071374639],[0.508463369794176,51.317846793176],[0.508451111006613,51.3176222117025],[0.508809484406207,51.3176145348834],[0.508797224007044,51.3173899534587]]],[[[0.502664503393814,51.3233671088741],[0.502676736054371,51.3235916910936],[0.502688968874586,51.3238162733026],[0.503047392832464,51.3238086135115],[0.503059627584591,51.3240331956504],[0.503418053155065,51.3240255347036],[0.503430289839153,51.3242501167725],[0.503788717022217,51.32424245467],[0.503800955638308,51.3244670366689],[0.504159384433957,51.3244593734107],[0.504171624982098,51.3246839553395],[0.503813194414135,51.3246916186572],[0.503454763686458,51.3246992808785],[0.503442526682949,51.3244746988308],[0.503084097567903,51.3244823598965],[0.503071862496404,51.3242577777788],[0.502713434993996,51.3242654376887],[0.502725668293194,51.3244900198659],[0.50273790175206,51.3247146020325],[0.502379470545385,51.324722260965],[0.502391702391572,51.3249468431804],[0.502750135370596,51.3249391841884],[0.502762369148805,51.3251637663338],[0.503120803740551,51.3251561061861],[0.503479238172624,51.3251484449422],[0.503491475655288,51.3253730269581],[0.503133039450826,51.3253806882614],[0.502774603086689,51.3253883484685],[0.502786836496653,51.3256129307899],[0.502428398115507,51.325620589969],[0.502069959572469,51.3256282480494],[0.502082188078034,51.3258528308297],[0.501723747567472,51.3258604878369],[0.501735974429266,51.3260850706344],[0.501377531951176,51.3260927265684],[0.501389757169153,51.3263173093831],[0.501401982548998,51.3265418921894],[0.501414208090713,51.3267664749874],[0.501772655985986,51.326758818977],[0.501784883495347,51.3269834017414],[0.502143333034532,51.3269757446068],[0.502501782411832,51.3269680863736],[0.502514013694678,51.3271926690787],[0.502872464715857,51.3271850097212],[0.502884697966462,51.3274095923926],[0.503243150631517,51.327401931911],[0.503230915575104,51.3271773492651],[0.503218680680684,51.326952766611],[0.50357712957219,51.3269451050816],[0.503589366272393,51.3271696877103],[0.5039478168077,51.3271620250567],[0.504306267181005,51.3271543613045],[0.504318507654827,51.3273789438738],[0.504676959671901,51.3273712789973],[0.505035411526921,51.3273636130222],[0.505393863219864,51.3273559459483],[0.505381617328658,51.3271313634555],[0.505740067053712,51.3271236953084],[0.505752314750708,51.3273482777757],[0.505764562609861,51.3275728602346],[0.506123015784391,51.3275651909377],[0.50648146879677,51.3275575205421],[0.506469217326,51.3273329381343],[0.506456966017435,51.3271083557182],[0.506815415256057,51.3271006842751],[0.506827668370403,51.3273252666656],[0.507186119252611,51.3273175940981],[0.507173864332488,51.3270930117332],[0.507161609574611,51.32686842936],[0.506803162303935,51.3268761018763],[0.506790909514035,51.3266515194692],[0.506778656886354,51.3264269370538],[0.506420213064937,51.3264346084202],[0.50640796240516,51.326210025971],[0.506395711907574,51.3259854435135],[0.506383461572176,51.3257608610477],[0.506025023005603,51.3257685312388],[0.505666584276904,51.3257762003312],[0.5053081453861,51.325783868325],[0.505320390304555,51.3260084508674],[0.504961949446017,51.3260161177881],[0.504949706333216,51.3257915352201],[0.504591267118274,51.3257992010166],[0.504579025973199,51.3255746184148],[0.504937463382508,51.3255669526438],[0.505295900629762,51.3255592857742],[0.505654337714938,51.325551617806],[0.505642089527613,51.3253270361152],[0.505629841410679,51.3251024544561],[0.50598827472441,51.325094785538],[0.505976024994986,51.3248702039278],[0.505963775425438,51.3246456223069],[0.505605345656378,51.324653291106],[0.505593098019005,51.3244287094151],[0.505234669862422,51.3244363770584],[0.50522242415718,51.3242117952973],[0.504863997613079,51.3242194617849],[0.504851753839922,51.3239948799538],[0.504839510226562,51.3237702981121],[0.505197933226164,51.3237626317434],[0.505556356065973,51.3237549642786],[0.505544109067981,51.3235303825452],[0.505902529975764,51.3235227140436],[0.506260950723713,51.3235150444457],[0.506273201266122,51.3237396260601],[0.506631623626417,51.3237319553065],[0.506619371311802,51.3235073737517],[0.506607119157094,51.3232827921862],[0.50659486716229,51.3230582106101],[0.50623645011854,51.3230658811851],[0.505878032914938,51.323073550664],[0.505519615551507,51.3230812190466],[0.505161198028268,51.3230888863331],[0.504802780345244,51.3230965525233],[0.504444362502459,51.3231042176173],[0.504085944499935,51.323111881615],[0.503727526337695,51.3231195445166],[0.503715288679958,51.3228949624541],[0.503703051181938,51.322670380381],[0.50406146579989,51.3226627175983],[0.50441988025813,51.3226550537195],[0.504407639375607,51.3224304717547],[0.504395398652839,51.3222058897792],[0.504383158089824,51.3219813077932],[0.504741567072087,51.3219736429965],[0.505099975894602,51.3219659771036],[0.505458384557345,51.3219583101146],[0.505470630436528,51.3221828919222],[0.505829040711529,51.3221752237775],[0.506187450826711,51.3221675545366],[0.506199700409861,51.3223921362147],[0.50655811213727,51.3223844658181],[0.506545860782052,51.3221598841996],[0.506533609586724,51.3219353025705],[0.506521358551283,51.3217107209307],[0.506509107675726,51.3214861392803],[0.506150703036455,51.3214938094389],[0.506138454092757,51.3212692277184],[0.506496856960051,51.3212615576194],[0.506484606404256,51.3210369759478],[0.506843007339744,51.3210293048121],[0.506830755171895,51.3208047231894],[0.506818503163943,51.3205801415562],[0.506806251315883,51.3203555599123],[0.507164646775787,51.320347887859],[0.50715239331576,51.320123306264],[0.507140140015646,51.3198987246584],[0.507498531771972,51.3198910516281],[0.507486276859954,51.3196664700714],[0.507474022107865,51.3194418885041],[0.507832410160693,51.3194342144968],[0.507820153796767,51.3192096329784],[0.507807897592786,51.3189850514494],[0.508166281942195,51.3189773764651],[0.508154024126443,51.318752794985],[0.507795641548748,51.3187604699098],[0.50778338566465,51.3185358883596],[0.507425004698734,51.3185435621289],[0.507066623572927,51.3185512348021],[0.507078875913635,51.3187758164713],[0.507091128414237,51.31900039813],[0.506732743585142,51.3190080698262],[0.506720492856262,51.318783488108],[0.506708242287254,51.3185589063793],[0.506349860841736,51.3185665768604],[0.506362109639042,51.3187911586487],[0.506003726261999,51.3187988280933],[0.506015973447427,51.3190234099304],[0.506028220792684,51.3192479917569],[0.505669833712357,51.3192556602244],[0.505682079445671,51.3194802420999],[0.505694325338796,51.3197048239647],[0.505335934555105,51.3197124914551],[0.505348178836221,51.3199370733688],[0.505360423277132,51.3201616552718],[0.505372667877841,51.3203862371643],[0.505014271618835,51.320393903737],[0.50465587520008,51.3204015692136],[0.504643634143118,51.3201769872022],[0.50428523933651,51.3201846515233],[0.5039268443702,51.3201923147482],[0.503939081883404,51.3204168968785],[0.503951319556317,51.3206414789982],[0.503963557388941,51.3208660611073],[0.503605156947234,51.3208737234145],[0.503617393167622,51.3210983055724],[0.503258990794294,51.3211059668428],[0.503271225402401,51.3213305490496],[0.503283460170182,51.3215551312457],[0.503641866087486,51.3215474698564],[0.503654102786965,51.3217720519826],[0.503295695097641,51.3217797134313],[0.503307930184779,51.3220042956062],[0.502949520563752,51.3220119560182],[0.502591110783093,51.322019615334],[0.502578879240052,51.3217950330402],[0.502566647856646,51.3215704507359],[0.502208241460458,51.3215781088367],[0.502220471071835,51.3218026912005],[0.501862062744032,51.3218103482645],[0.501874290742965,51.3220349306771],[0.501515880483541,51.3220425867044],[0.501503654256667,51.3218180042324],[0.501145245609761,51.3218256591041],[0.501157470064575,51.3220502416354],[0.501169694678935,51.3222748241562],[0.500811282328364,51.3222824780504],[0.500823505330164,51.32250706062],[0.500465091047981,51.3225147134774],[0.500477312437175,51.3227392960957],[0.500489533985878,51.3229638787034],[0.500501755694093,51.3231884613005],[0.500860175292747,51.3231808082649],[0.501218594731892,51.3231731541332],[0.50120636947932,51.3229485716548],[0.501564786986756,51.3229409164862],[0.501923204334639,51.3229332602214],[0.501935433131558,51.323157842581],[0.502293852092035,51.3231501851606],[0.50230608282075,51.3233747674501],[0.502664503393814,51.3233671088741]]],[[[0.504367471170801,51.3282772740684],[0.504355230048699,51.3280526915322],[0.504342989088671,51.3278281089877],[0.504330748290715,51.3276035264349],[0.503972294305787,51.3276111902382],[0.50361384015885,51.3276188529427],[0.503626077345111,51.3278434355465],[0.503638314693397,51.3280680181421],[0.503650552203712,51.3282926007293],[0.504009011768265,51.3282849379482],[0.504367471170801,51.3282772740684]]],[[[0.500884622732151,51.3236299733086],[0.50052619958907,51.3236376264628],[0.500538421775835,51.3238622090281],[0.500179996701009,51.3238698611455],[0.500192217275025,51.3240944437595],[0.500204438008544,51.324319026363],[0.500216658901566,51.3245436089559],[0.500575089293281,51.3245359566604],[0.500933519525493,51.3245283032687],[0.500921295087834,51.3243037207946],[0.501279723388206,51.324296066366],[0.501267497337806,51.3240714839406],[0.501255271446979,51.3238469015046],[0.501243045715719,51.3236223190581],[0.500884622732151,51.3236299733086]]]]}}