{"type":"Feature","properties":{"code":"E63005809","name":"Sevington"},"geometry":{"type":"MultiPolygon","coordinates":[[[[0.91175459702196,51.1304212809454],[0.911397799885146,51.1304301620267],[0.911411914607125,51.1306546763894],[0.91142602950529,51.1308791907405],[0.91144014457964,51.1311037050801],[0.911454259830181,51.1313282194081],[0.911468375256914,51.1315527337246],[0.911482490859844,51.1317772480296],[0.911839297930379,51.1317683665164],[0.911853415365203,51.1319928807379],[0.911867532976251,51.1322173949478],[0.912224343182075,51.1322085122032],[0.912238462625083,51.1324330263296],[0.912595274310497,51.1324241424254],[0.91260939558551,51.1326486564682],[0.912966208750507,51.1326397714044],[0.913323021739313,51.1326308852531],[0.913679834551906,51.1326219980141],[0.913693960970502,51.1328465118294],[0.91370808756544,51.1330710256332],[0.914064903513348,51.1330621371625],[0.914421719284995,51.1330532476043],[0.914778534880361,51.1330443569585],[0.915135356205661,51.1330354635522],[0.915121222396359,51.1328109501986],[0.914764403318078,51.1328198433708],[0.914750271932202,51.1325953297716],[0.914736140722729,51.1323708161609],[0.915092955319188,51.1323619234568],[0.915107088767535,51.1325864368335],[0.915463915022687,51.1325775400691],[0.915820741097448,51.1325686422171],[0.915806604235726,51.132344128984],[0.915449779867652,51.1323530267642],[0.915435644893112,51.1321285134478],[0.915792467554522,51.1321196157393],[0.916149290035527,51.1321107169432],[0.916506112336103,51.1321018170595],[0.916862934456229,51.1320929160883],[0.916877076257406,51.1323174291177],[0.917233899903711,51.1323085269871],[0.917219756395882,51.1320840140294],[0.917205613068656,51.1318595010603],[0.917562433121189,51.1318505979857],[0.91791925299321,51.1318416938234],[0.918276072684696,51.1318327885737],[0.918632892195626,51.1318238822363],[0.918989711525976,51.1318149748114],[0.918975559846355,51.1315904621897],[0.919332377289517,51.131581553749],[0.919689194552062,51.1315726442208],[0.919703349644858,51.1317971566988],[0.919717504918407,51.1320216691653],[0.920074325413498,51.1320127584058],[0.920431145727921,51.1320038465587],[0.920416987041164,51.131779334236],[0.920060168433344,51.1317882460112],[0.920046011633964,51.131563733605],[0.920402828535204,51.1315548219017],[0.92075964525576,51.1315459091108],[0.920773805468297,51.1317704213732],[0.920787965861653,51.1319949336241],[0.921144785814673,51.1319860196019],[0.921501605586959,51.1319771044921],[0.92185842517849,51.1319681882948],[0.921872590872512,51.1321927003185],[0.922229411989874,51.1321837829617],[0.922215244589243,51.1319592710099],[0.922201077369521,51.1317347590465],[0.92255789489289,51.1317258407459],[0.922572063819197,51.1319503526374],[0.922928882868328,51.1319414331773],[0.923285701736618,51.1319325126297],[0.923271529397153,51.1317080008821],[0.922914712235442,51.1317169213578],[0.922900541783504,51.1314924095268],[0.92325735723866,51.131483489123],[0.923243185261135,51.1312589773523],[0.923229013464575,51.1310344655701],[0.922872201422466,51.13104338583],[0.92285803151336,51.1308188739644],[0.922843861785191,51.1305943620872],[0.922487052975215,51.1306032811157],[0.922472885134429,51.1303787691551],[0.922116077850103,51.1303876870242],[0.921759270384999,51.1303966038059],[0.921402462739139,51.1304055195],[0.921416625460559,51.1306300316763],[0.921059815927502,51.1306389463548],[0.921073977123284,51.1308634585915],[0.920717165703025,51.1308723722543],[0.92036035410207,51.1308812848296],[0.92037451206566,51.1311057971985],[0.920388670210037,51.1313303095559],[0.920031855015356,51.1313392211874],[0.920017698577514,51.1311147087582],[0.920003542320439,51.1308901963174],[0.919646730358155,51.1308991067177],[0.919632575988338,51.1306745941936],[0.919618421799257,51.130450081658],[0.91960426779091,51.1302255691108],[0.919247460767426,51.130234478208],[0.919233308646244,51.1300099655775],[0.918876503148594,51.1300188735154],[0.918862352914532,51.1297943608015],[0.91884820286115,51.1295698480761],[0.918491400595737,51.1295787547829],[0.918477252429409,51.1293542419742],[0.918463104443731,51.1291297291539],[0.918106305410502,51.1291386346296],[0.918092159311808,51.128914121726],[0.917735361804394,51.1289230260424],[0.917721217592638,51.1286985130555],[0.917707073561483,51.128474000057],[0.917350279286187,51.1284829031424],[0.917336137141902,51.1282583900607],[0.917321995178188,51.1280338769674],[0.916965204134955,51.1280427788218],[0.916951064058042,51.1278182656452],[0.916594274540604,51.1278271663404],[0.916580136350449,51.1276026530806],[0.916565998340814,51.1273781398092],[0.916209212055373,51.1273870392734],[0.916195075932426,51.1271625259188],[0.91618093998997,51.1269380125526],[0.915824156936471,51.126946910786],[0.915810022880636,51.1267223973365],[0.915453241352914,51.1267312944108],[0.915439109183653,51.1265067808781],[0.91542497719483,51.1262822673338],[0.915068198898984,51.1262911631772],[0.91505406879667,51.1260666495498],[0.915039938874765,51.1258421359108],[0.914683174815194,51.1258510269998],[0.914669047241364,51.1256265131148],[0.914312286451587,51.1256354024708],[0.914298160778205,51.1254108885852],[0.914284035299899,51.1251863747225],[0.913927277430526,51.125195262884],[0.913913153648677,51.1249707489644],[0.913899030033185,51.1247462350352],[0.913542275057695,51.1247551220128],[0.913185519915977,51.1247640079012],[0.912828764608048,51.1247728927003],[0.912472009133929,51.1247817764102],[0.912486126629171,51.1250062905287],[0.912129369458811,51.1250151731966],[0.91214348559024,51.1252396873528],[0.911786726723633,51.1252485689787],[0.911800841491207,51.1254730831726],[0.911814955990581,51.1256975975183],[0.91217171801335,51.1256887157735],[0.912185834001487,51.1259132301626],[0.91219995016581,51.1261377445401],[0.912556715322739,51.126128861564],[0.912570833318402,51.126353375858],[0.912584951490278,51.1265778901404],[0.912941719781419,51.126569005933],[0.912955839784702,51.1267935201319],[0.912969959964226,51.1270180343193],[0.913326731389631,51.1270091488805],[0.913340853400629,51.1272336629844],[0.912984080319994,51.1272425484951],[0.912627307063218,51.1272514329185],[0.912270533630321,51.1272603162545],[0.912256416585023,51.1270358019347],[0.911899644631266,51.1270446841114],[0.911542872501435,51.1270535652006],[0.911528758942776,51.1268290507253],[0.911171988292114,51.1268379306553],[0.910815217465423,51.1268468094978],[0.910458446462721,51.126855687253],[0.9104725550557,51.1270802019441],[0.910115782221778,51.1270890786838],[0.910129889335596,51.1273135934354],[0.909773114670448,51.1273224691596],[0.909787220305064,51.1275469839715],[0.909801326115735,51.1277714987719],[0.909815432102468,51.1279960135608],[0.909829538265264,51.1282205283381],[0.90947275680291,51.1282294032626],[0.909486861486404,51.1284539181003],[0.909130078192738,51.1284627920093],[0.908773294723147,51.1284716648309],[0.908787396271903,51.1286961798008],[0.908801497996666,51.1289206947593],[0.909158284777067,51.1289118217939],[0.909172388333277,51.1291363366689],[0.909529176593183,51.1291274625442],[0.909543281980885,51.1293519773357],[0.909900071720288,51.1293431020516],[0.909914178939524,51.1295676167597],[0.909928286334843,51.1297921314563],[0.910285079209232,51.1297832549408],[0.910299188436152,51.1300077695539],[0.910655982790047,51.1299988918791],[0.910641871907616,51.1297743773379],[0.910998664429973,51.1297654986475],[0.911355456776285,51.1297566188695],[0.911712248946527,51.1297477380041],[0.911726364795472,51.1299722523294],[0.912083158445125,51.1299633703046],[0.91209727612579,51.1301878845464],[0.911740480820617,51.1301967666432],[0.91175459702196,51.1304212809454]]],[[[0.910801107393328,51.1266222948671],[0.911157876564813,51.1266134160965],[0.911143765013644,51.1263889015262],[0.9111296536386,51.1261643869443],[0.91077288777746,51.126173265571],[0.910758778233684,51.1259487509057],[0.910402013851688,51.1259576283731],[0.91041612174032,51.1261821431104],[0.910059355527201,51.1261910195624],[0.910073461936747,51.12641553436],[0.910087568522357,51.1266400491462],[0.910444338045834,51.1266311725503],[0.910801107393328,51.1266222948671]]],[[[0.907674750621749,51.1280492463651],[0.907688846852427,51.1282737615737],[0.907332064334734,51.1282826299737],[0.907346159085965,51.1285071452427],[0.907360254013113,51.1287316605002],[0.907374349116184,51.1289561757461],[0.907388444395179,51.1291806909805],[0.907745233534539,51.1291718222932],[0.90810202249805,51.1291629525183],[0.908087923908159,51.1289384374276],[0.908444711040356,51.1289295666372],[0.908430610971013,51.1287050516068],[0.908416511077653,51.128480536565],[0.908402411360278,51.1282560215116],[0.908388311818882,51.1280315064467],[0.908031531308243,51.1280403769496],[0.907674750621749,51.1280492463651]]],[[[0.907674750621749,51.1280492463651],[0.907660654567006,51.1278247311449],[0.908017433598162,51.1278158618012],[0.908003336064033,51.1275913466414],[0.907989238705854,51.12736683147],[0.907975141523623,51.1271423162871],[0.907618367458355,51.1271511854151],[0.907261593217265,51.1271600534557],[0.907275687088945,51.1273845687823],[0.906918911016774,51.1273934358074],[0.906933003409056,51.1276179511944],[0.906947095977223,51.1278424665698],[0.906961188721279,51.1280669819337],[0.907317969759421,51.1280581146931],[0.907674750621749,51.1280492463651]]]]}}