{"type":"Feature","properties":{"code":"E63005522","name":"Limpsfield"},"geometry":{"type":"MultiPolygon","coordinates":[[[[0.0257852271468916,51.2583953709697],[0.0257951056084172,51.2586200289534],[0.0261531474596842,51.2586138317748],[0.0265111891836435,51.2586076335017],[0.0265013072417275,51.2583829756162],[0.0268593470981644,51.2583767762976],[0.0268494635434433,51.2581521184514],[0.0268395801161053,51.2579274605952],[0.0264815437399853,51.2579336598154],[0.0261235072365409,51.2579398579411],[0.0261333871835827,51.2581645158957],[0.0261432672579624,51.2583891738402],[0.0257852271468916,51.2583953709697]]],[[[0.0268593470981644,51.2583767762976],[0.0268692307802718,51.2586014341339],[0.0268791145897674,51.2588260919601],[0.0272371577992556,51.2588198914485],[0.0272470435554778,51.2590445492126],[0.0272569294639443,51.2592692069657],[0.0272668155001409,51.2594938647088],[0.0276248638156749,51.2594876629543],[0.0279829120034884,51.2594814601051],[0.027992801659362,51.2597061177391],[0.0283508514654015,51.2596999137458],[0.0287089011436733,51.2596937086578],[0.0287187944193074,51.2599183661827],[0.0290768457157768,51.2599121599506],[0.0294348968844298,51.2599059526238],[0.0294447937799085,51.2601306100396],[0.0298028465667305,51.2601244015686],[0.0301608992256898,51.260118192003],[0.0305189517567651,51.2601119813427],[0.0308770041599337,51.2601057695878],[0.030886908167384,51.2603304267952],[0.0312449621886415,51.2603242138961],[0.0316030160819451,51.2603179999023],[0.0319610698625279,51.2603117848745],[0.0319511606158408,51.2600871278133],[0.0319412514972327,51.259862470742],[0.0319313425067005,51.2596378136608],[0.0322893909288168,51.2596315977278],[0.0322794803195698,51.2594069406863],[0.0322695698384175,51.2591822836348],[0.031911524909856,51.2591884994681],[0.031553479864586,51.2591947142613],[0.0311954347011406,51.259200928007],[0.0311855295875837,51.2589762707991],[0.0308274860421021,51.2589824834006],[0.0304694423687015,51.2589886949075],[0.0301113985674056,51.2589949053198],[0.0301014988876968,51.2587702479501],[0.029743456697854,51.2587764572185],[0.0293854143804774,51.2587826653923],[0.029375518389542,51.2585580079106],[0.0290174776848528,51.2585642149406],[0.0286594368526766,51.258570420876],[0.0286495444696425,51.2583457632857],[0.0282915052501826,51.2583519680773],[0.0282816147348047,51.2581273104279],[0.0279235771280651,51.2581335140756],[0.027913688480299,51.257908856367],[0.0275556524862848,51.257915058871],[0.02719761636488,51.2579212602804],[0.0272075015323622,51.2581459180874],[0.0272173868272508,51.2583705758844],[0.0268593470981644,51.2583767762976]]],[[[0.0246518692767322,51.2570660067934],[0.0246617417541792,51.2572906649846],[0.0250197735463559,51.2572844713846],[0.0250296478911337,51.2575091295166],[0.0253876812961718,51.257502934773],[0.0253975575083255,51.2577275928458],[0.0257555925262192,51.2577213969585],[0.0261136274168366,51.2577151999765],[0.0261037477244668,51.257490542002],[0.0264617807476797,51.2574843439747],[0.0268198136435726,51.2574781448528],[0.0268099305983735,51.2572534869666],[0.0271679616268476,51.2572472867993],[0.0271580769689681,51.2570226289523],[0.027516106130027,51.2570164277397],[0.0275062198595118,51.2567917699319],[0.0274963337164135,51.2565671121141],[0.0271383080353932,51.2565733132283],[0.0271284237596931,51.2563486553513],[0.0271185396113832,51.2561239974643],[0.0274765618124535,51.2561177964485],[0.0278345838861488,51.2561115943382],[0.0278246963853451,51.2558869365396],[0.0278148090119709,51.255662278731],[0.0274567904181295,51.255668480743],[0.0274469049120765,51.2554438228752],[0.0274370195334252,51.2552191649974],[0.0277950346475003,51.2552129630839],[0.0277851476564008,51.2549883052453],[0.0277752607927218,51.2547636473968],[0.0277653740564619,51.2545389895383],[0.0281233838236749,51.2545327866778],[0.028113495475051,51.2543081288585],[0.0281036072538638,51.2540834710292],[0.0284616134141404,51.2540772671728],[0.0284517235806551,51.2538526093827],[0.0284418338746236,51.2536279515826],[0.0287998364280396,51.2536217467302],[0.0287899451097751,51.2533970889693],[0.0287800539189833,51.2531724311985],[0.0291380528656147,51.2531662253502],[0.0291281600626547,51.2529415676185],[0.0291182673871849,51.2527169098769],[0.02876027191981,51.2527231156268],[0.0284022763250036,51.2527293202823],[0.0280442806027888,51.2527355238434],[0.0280343932735969,51.2525108659441],[0.0276763991635974,51.2525170683617],[0.0273184049262358,51.2525232696849],[0.0273085212036223,51.2522986116772],[0.0269505285785049,51.2523048118568],[0.026592535826072,51.2523110109421],[0.0265826557099538,51.2520863528261],[0.026224664569794,51.2520925507678],[0.0262345429463477,51.252317208933],[0.0262444214502055,51.2525418670882],[0.0258864267036222,51.252548064034],[0.0258963035951763,51.2527727222283],[0.0255383069817292,51.2527789181288],[0.0255481822609348,51.2530035763624],[0.0251901837806199,51.2530097712176],[0.0252000574474313,51.2532344294903],[0.0248420571002443,51.2532406233003],[0.0248519291546174,51.2534652816121],[0.0244939269405543,51.2534714743769],[0.0245037973824435,51.2536961327278],[0.0245136679515391,51.2539207910688],[0.0241556621308606,51.2539269828374],[0.0241655310874081,51.2541516412175],[0.0238075233998204,51.2541578319407],[0.023817390743774,51.2543824903599],[0.0238272582148958,51.2546071487692],[0.023469246920588,51.2546133384962],[0.0234791127790516,51.2548379969446],[0.023121099617801,51.2548441856262],[0.0231309638635611,51.2550688441137],[0.0227729488353636,51.2550750317499],[0.0227828114683762,51.2552996902765],[0.022792674228498,51.2555243487931],[0.0224346555934469,51.255530535433],[0.0224445167407556,51.2557551939887],[0.0220864962387238,51.2557613795832],[0.0220963557731746,51.255986038178],[0.021738333404159,51.2559922227271],[0.0213803109081298,51.2559984061817],[0.0213901670897017,51.2562230648645],[0.0214000233983036,51.2564477235374],[0.0214098798339345,51.2566723822003],[0.0217679075499586,51.2566661985985],[0.0217580493743058,51.2564415399847],[0.0221160752232916,51.2564353553374],[0.0221259351389619,51.2566600139022],[0.0224839626009233,51.2566538281114],[0.0228419899358196,51.256647641226],[0.0232000171436297,51.2566414532461],[0.0232098824064868,51.2568661116537],[0.0232197477964901,51.2570907700512],[0.0235777783572775,51.2570845808786],[0.0235679112272198,51.2568599225301],[0.0239259399208182,51.2568537323121],[0.0239358087909282,51.2570783906114],[0.0242938390974209,51.2570721992497],[0.0246518692767322,51.2570660067934]]],[[[0.0152251263986317,51.2545307405617],[0.0148671138210067,51.2545369039473],[0.0145091011311416,51.2545430662213],[0.014151088314608,51.2545492274008],[0.0141412679521809,51.2543245676569],[0.013783256750989,51.2543307276928],[0.013773438257206,51.2541060678897],[0.013415428671361,51.254112226782],[0.0134056120461772,51.2538875669198],[0.0130476040756833,51.2538937246684],[0.0130377893190546,51.253669064747],[0.0126797829639139,51.2536752213521],[0.0126699700757954,51.2534505613715],[0.0123119653360143,51.253456716833],[0.0123021543163605,51.2532320567933],[0.0119441511919434,51.2532382111112],[0.0119343420407088,51.2530135510123],[0.01157634053166,51.2530197041868],[0.0112183388961369,51.2530258562668],[0.0112085333551246,51.2528011960596],[0.010850533334998,51.2528073469961],[0.0108407296622952,51.2525826867299],[0.0104827312575695,51.2525888365229],[0.0104729294531333,51.2523641761976],[0.010114932663812,51.2523703248471],[0.00975693574811388,51.2523764724023],[0.00976673406893308,51.2526011328258],[0.00977653251614493,51.2528257932393],[0.0097863310897518,51.2530504536428],[0.0097961297897553,51.2532751140364],[0.0101541336728278,51.2532689662849],[0.0101639342411297,51.2534936266194],[0.0101737349358551,51.2537182869438],[0.0101835357570063,51.2539429472583],[0.0105415447394516,51.2539367982651],[0.0105513474289952,51.2541614585205],[0.010193336704585,51.2541676075628],[0.00983532585377999,51.2541737555107],[0.00984512518579996,51.2543984158543],[0.00985492464422887,51.2546230761879],[0.00949691018304607,51.2546292231396],[0.00948711246663015,51.2544045627569],[0.0094773148766021,51.2541799023642],[0.00946751741295875,51.2539552419615],[0.00910950805140187,51.2539613876714],[0.00875149856351938,51.2539675322869],[0.00874170471015834,51.2537428717761],[0.00838369683792585,51.2537490152481],[0.00802568883941344,51.2537551576256],[0.00801589859625167,51.2535304970067],[0.00800610847937922,51.2533058363778],[0.00799631848879331,51.253081175739],[0.00835432126157513,51.2530750335085],[0.00834452965540822,51.2528503729087],[0.00833473817554693,51.2526257122989],[0.0086927373383519,51.2526195690722],[0.00905073637486581,51.2526134247511],[0.00904094153767242,51.2523887642295],[0.00903114682682437,51.2521641036978],[0.00938914225341985,51.2521579583805],[0.00937934592714659,51.2519332978879],[0.0090213522423201,51.2519394431561],[0.00901155778415721,51.2517147826045],[0.00865356571477329,51.2517209267294],[0.00829557351910865,51.2517270697598],[0.00828578267073967,51.2515024091001],[0.00792779209054581,51.2515085509872],[0.00791800311017792,51.2512838902684],[0.0075600141454596,51.2512900310122],[0.00720202505453128,51.2512961706615],[0.00684403583741561,51.2513023092166],[0.00648604649413325,51.2513084466773],[0.00612805702470844,51.2513145830436],[0.00613783729650163,51.2515392440075],[0.00577984595923414,51.2515453793285],[0.0054218544958675,51.2515515135552],[0.00543163141032859,51.251776174607],[0.00544140845090535,51.2520008356489],[0.00508341337794134,51.2520069688792],[0.00472541817891792,51.252013101015],[0.00471564462188509,51.2517884398752],[0.00435765103859866,51.2517945708678],[0.00434787934938769,51.2515699096691],[0.00398988738184261,51.2515760395183],[0.00398011756041018,51.2513513782606],[0.00397034786499843,51.251126716993],[0.00361235925491004,51.25113284565],[0.00362212720861122,51.2513575069666],[0.00326413673084822,51.2513636345782],[0.00327390306881104,51.2515882959338],[0.00291591072336905,51.2515944225],[0.00292567544554941,51.2518190838945],[0.00256768123242246,51.2518252094153],[0.00257744433877544,51.2520498708487],[0.00258720757106604,51.2522745322721],[0.00222920974844105,51.2522806567963],[0.00223897136483792,51.2525053182587],[0.00224873310715612,51.2527299797111],[0.00225849497539487,51.2529546411536],[0.00226825696955812,51.253179302586],[0.00227801908964669,51.2534039640085],[0.00192001243174143,51.2534100876828],[0.00192977293581227,51.2536347491442],[0.00193953356579014,51.2538594105956],[0.00158152329809475,51.2538655332733],[0.00159128231198932,51.2540901947636],[0.00123327017644524,51.2540963163958],[0.00124302757421121,51.254320977925],[0.000885013570814075,51.2543270985115],[0.000894769352407335,51.2545517600797],[0.000904525259848013,51.2547764216378],[0.000546507646527209,51.2547825412276],[0.000556261937730005,51.2550072028247],[0.000198242456522753,51.2550133213689],[0.000207995131442362,51.2552379830048],[-0.000150026217654519,51.2552441005034],[-0.000140275159063797,51.2554687621782],[-0.000130523974682084,51.255693423843],[-0.000120772664506998,51.2559180854979],[-0.000111021228538539,51.2561427471428],[-0.000469049672088145,51.2561488637422],[-0.000459299852553087,51.256373525426],[-0.000449549907241744,51.2565981870998],[-0.000439799836151333,51.2568228487636],[-0.00043004963927987,51.2570475104174],[-0.000420299316626955,51.2572721720613],[-6.22621616998757e-05,51.2572660552177],[-5.25099709175298e-05,51.2574907168027],[-4.27576543267111e-05,51.2577153783778],[-3.30052119230473e-05,51.2579400399429],[-2.32526437069368e-05,51.258164701498],[0.00033479135494603,51.2581585833643],[0.000344545791408803,51.2583832448606],[-1.34999496732115e-05,51.2583893630432],[-3.74712982266902e-06,51.2586140245783],[6.00581584866674e-06,51.2588386861035],[1.57587539941393e-05,51.2590633475275],[-0.000342292345997396,51.2590694647567],[-0.000332541049808002,51.2592941262007],[-0.000322789627727063,51.2595187876349],[-0.000313038079751398,51.2597434490593],[-0.000303286405879019,51.2599681104739],[-0.000661344608398223,51.2599742267927],[-0.00065159455285202,51.2601988882436],[-0.000641844371427792,51.2604235496846],[-0.000632094064123154,51.2606482111159],[-0.000622343630936117,51.2608728725373],[-0.000612593071864295,51.2610975339488],[-0.000602842386905699,51.2613221953506],[-0.000960911180961053,51.2613283108512],[-0.000951162114475373,51.2615529722893],[-0.000941412922120814,51.2617776337175],[-0.00129948533075712,51.2617837482155],[-0.00165755786098674,51.2617898616273],[-0.00201563050054931,51.2617959739783],[-0.0023737032658177,51.2618020852346],[-0.00273177615676886,51.2618081953962],[-0.00272203555751407,51.2620328570571],[-0.00308011031739361,51.2620389661742],[-0.00307037133573171,51.2622636278753],[-0.00306063222839244,51.2624882895663],[-0.00305089299537223,51.2627129512473],[-0.00304115363667187,51.2629376129183],[-0.00268307190349231,51.2629315036002],[-0.00267333067572589,51.2631561652108],[-0.0023152473248392,51.2631500547478],[-0.00230550422796298,51.2633747162982],[-0.00229576100535336,51.2635993778385],[-0.00193767429334222,51.2635932661802],[-0.00157958770664964,51.2635871534283],[-0.00122150121628803,51.2635810396564],[-0.000863414851756961,51.2635749247895],[-0.000505328613078325,51.2635688088276],[-0.00049557654322444,51.2637934701213],[-0.000137488685836532,51.2637873530183],[-0.000127734745463777,51.264012014256],[0.000230354730629421,51.264005896012],[0.000588444080797402,51.2639997766729],[0.000598201636357706,51.2642244378085],[0.000956292605202338,51.2642183173283],[0.000966052031391268,51.2644429784079],[0.00132414461890777,51.2644368567865],[0.00133390591576947,51.2646615178101],[0.00169200012195268,51.2646553950475],[0.00205009420211561,51.2646492711899],[0.0024081881562356,51.2646431462374],[0.00276628198429115,51.2646370201897],[0.00275651370879013,51.2644123593509],[0.00311460566610303,51.2644062322545],[0.00310483577209171,51.264181571452],[0.00346292585866712,51.2641754433068],[0.00382101581911447,51.2641693140666],[0.00417910565341108,51.2641631837314],[0.00418888078130557,51.2643878443952],[0.00454697223405172,51.2643817129188],[0.00455674923280269,51.2646063735265],[0.00491484230399559,51.2646002409089],[0.0049246211736468,51.2648249014605],[0.00528271586328049,51.2648187677015],[0.00564081042666838,51.2648126328476],[0.00565059291195054,51.2650372932969],[0.00600868909375057,51.2650311573016],[0.00601847345004353,51.2652558176948],[0.00637657125025172,51.2652496805582],[0.00638635747760119,51.2654743408952],[0.00674445689621396,51.2654682026174],[0.0071025561884823,51.2654620632444],[0.00711234603167667,51.265686723479],[0.00747044694232015,51.2656805829647],[0.0074802386566812,51.2659052431432],[0.00783834118569544,51.2658991014875],[0.00819644358829485,51.2658929587368],[0.00855454586445714,51.2658868148911],[0.00891264801415966,51.2658806699503],[0.00890284932076637,51.2656560099572],[0.00926094959923424,51.2656498639677],[0.00927075003737853,51.2658745239144],[0.00928055060206375,51.2660991838513],[0.00929035129329151,51.2663238437783],[0.00964845667957446,51.2663176965547],[0.010006561939326,51.266311548236],[0.00999675775851078,51.2660868884017],[0.0099869537042818,51.2658622285575],[0.0103450553479205,51.2658560792365],[0.0103352496755307,51.265631419429],[0.0106933494478524,51.2656252690593],[0.0106835421573473,51.2654006092883],[0.0110416400583579,51.26539445787],[0.0113997378327561,51.2653883053567],[0.0113899271794844,51.2651636456686],[0.0117480230825536,51.2651574921067],[0.0121061188589681,51.2651513374498],[0.012096304843028,51.2649266778448],[0.0120864909537983,51.2647020182299],[0.0120766771912781,51.2644773586052],[0.0117185866488004,51.2644835131228],[0.0117087747575877,51.2642588534418],[0.0116989629930571,51.264034193751],[0.0116891513552066,51.2638095340503],[0.0116793398440346,51.2635848743398],[0.0113212561531837,51.2635910275768],[0.010963172335715,51.2635971797188],[0.0109533644402464,51.2633725199056],[0.0109435566714074,51.2631478600826],[0.0109337490291941,51.2629232002498],[0.010923941513606,51.2626985404071],[0.0105658645474754,51.2627046912685],[0.0105560589029362,51.2624800313696],[0.0109141341246395,51.2624738805545],[0.0112722092197581,51.2624677286446],[0.0116302841882698,51.2624615756397],[0.0119883590301506,51.2624554215399],[0.0119981716523858,51.2626800812532],[0.0123562481120337,51.262673926012],[0.0123660626053994,51.262898585669],[0.0123758772254802,51.2631232453162],[0.0127339570473515,51.2631170888872],[0.0127437735386327,51.2633417484781],[0.0127535901566546,51.2635664080592],[0.0131116733408093,51.2635602504424],[0.0131214918301008,51.2637849099671],[0.0134795766320499,51.2637787512089],[0.0134697563982325,51.2635540917306],[0.0134599362912049,51.2633294322425],[0.0134501163109621,51.2631047727445],[0.0134402964575035,51.2628801132367],[0.0134304767308269,51.2626554537191],[0.013788552683633,51.2626492940983],[0.0137787313393253,51.2624246346172],[0.0134206571309295,51.2624307941916],[0.01341083765781,51.2622061346542],[0.0134010183114645,51.261981475107],[0.0133911990918929,51.26175681555],[0.0137492680671938,51.2617506561151],[0.0141073369157357,51.2617444955852],[0.0144654056374973,51.2617383339605],[0.014455581311742,51.2615136745331],[0.0148136481623865,51.26150751186],[0.0148038222191763,51.2612828524692],[0.0147939964028224,51.2610581930685],[0.0151520596406683,51.2610520293811],[0.0151422322062383,51.2608273700193],[0.0155002935813557,51.2608212052361],[0.015490464527769,51.2605965459135],[0.0154806356011838,51.260371886581],[0.015838693357087,51.2603657208016],[0.0158288628114092,51.2601410615082],[0.01581903239275,51.2599164022049],[0.0161770865295158,51.2599102354293],[0.01618691869424,51.2601348946834],[0.0165449744500648,51.2601287267639],[0.0169030300788621,51.2601225577497],[0.0172610855806093,51.2601163876409],[0.017270923110623,51.2603410467372],[0.0169128658627957,51.2603472168953],[0.0169227017738167,51.2605718760308],[0.0169325378119279,51.2607965351564],[0.0169423739771313,51.2610211942719],[0.0173004364633365,51.261015023966],[0.0173102745018045,51.2612396830223],[0.0176683386070969,51.2612335115724],[0.0176781785188761,51.2614581705694],[0.0176880185577989,51.2616828295564],[0.0173299509601027,51.2616890011049],[0.0169718832353166,51.2616951715586],[0.0169817199089115,51.2619198306342],[0.0166236503108208,51.2619260000425],[0.0166334853652551,51.2621506591573],[0.0162754138938539,51.2621568275201],[0.0159173422954276,51.2621629947882],[0.0155592705699986,51.2621691609615],[0.0155691005126477,51.2623938202141],[0.0155789305823137,51.2626184794567],[0.0155887607789991,51.2628431386893],[0.0155985911027059,51.2630677979119],[0.0159566698134368,51.2630616315416],[0.0159665020105499,51.263286290705],[0.0159763343347114,51.2635109498584],[0.0163344164112121,51.2635047822948],[0.0166924983606751,51.2634986136364],[0.0170505801830779,51.2634924438832],[0.017040742619717,51.2632677848776],[0.0173988225686413,51.2632616140789],[0.0173889833860226,51.2630369551126],[0.0177470614614729,51.2630307832684],[0.017737220659643,51.2628061243414],[0.0180952968616227,51.2627999514518],[0.0180854544406255,51.2625752925641],[0.0184435287691406,51.2625691186289],[0.0184336847290214,51.2623444597805],[0.0187917571840747,51.2623382848],[0.0187819115248789,51.2621136259909],[0.0187720659928994,51.2618889671718],[0.018762220588136,51.2616643083427],[0.0187523753105854,51.2614396495036],[0.018742530160246,51.2612149906545],[0.018732685137115,51.2609903317954],[0.0190907469876879,51.260984156016],[0.0190809003456263,51.2607594971962],[0.0190710538307923,51.2605348383665],[0.0194291120619228,51.2605286615911],[0.0194192639282227,51.2603040028006],[0.0197773202860525,51.2602978249798],[0.0197674705335321,51.2600731662287],[0.0197576209082773,51.2598485074676],[0.019747771410286,51.2596238486965],[0.0193897202905873,51.2596300263693],[0.0193798726658554,51.2594053675388],[0.0193700251683606,51.2591807086984],[0.0193601777980996,51.2589560498479],[0.0190021317891312,51.2589622262781],[0.0189922862756138,51.2587375673705],[0.0186342418828904,51.2587437426568],[0.0186243982257424,51.2585190836916],[0.0182663554464225,51.2585252578343],[0.0182761973633296,51.2587499168485],[0.0179181527169527,51.2587560899455],[0.017927992999268,51.2589807490008],[0.0179378333856931,51.2592054080485],[0.0175797851221966,51.2592115801495],[0.0172217367316141,51.2592177511559],[0.0172118998371192,51.2589930920096],[0.0172020630438433,51.2587684328558],[0.0171922263476743,51.2585437736947],[0.0168341830612363,51.258549943459],[0.0164761396480751,51.2585561121286],[0.0164663065591447,51.2583314528597],[0.0164564735969481,51.2581067935809],[0.0164466407614836,51.257882134292],[0.016436808052749,51.2576574749932],[0.016426975470742,51.2574328156844],[0.0160689406318152,51.2574389830148],[0.0160591099166529,51.2572143236471],[0.0157010766911807,51.2572204898339],[0.015691247842819,51.2569958304073],[0.016049279328192,51.2569896642694],[0.0160394488664293,51.2567650048817],[0.0160296185313632,51.2565403454841],[0.0160197883229922,51.2563156860765],[0.0160099582413126,51.2560910266589],[0.0163679826398552,51.256084859622],[0.0167260069117206,51.2560786914906],[0.0170840310568855,51.2560725222648],[0.0170938663585832,51.2562971815356],[0.0167358404734136,51.2563033508104],[0.0167456741618442,51.2565280101201],[0.016387646409945,51.2565341783494],[0.0163974784850635,51.2567588376981],[0.0167555079770135,51.2567526694199],[0.0167653419189246,51.2569773287098],[0.0171233730242387,51.2569711592881],[0.0174814040028221,51.2569649887719],[0.0178394348546525,51.2569588171611],[0.0181974655797069,51.2569526444558],[0.0181876246775259,51.2567279853618],[0.0185456535357202,51.2567218116109],[0.0185358110203295,51.2564971525559],[0.0188938380116681,51.2564909777595],[0.0189036822670962,51.2567156367655],[0.0192617108716315,51.2567094608255],[0.0196197393493036,51.256703283791],[0.0199777677000906,51.2566971056619],[0.0199679182245621,51.2564724468029],[0.0203259447084121,51.2564662676283],[0.0203160936198181,51.2562416088083],[0.0206741182367357,51.2562354285883],[0.020664265535121,51.2560107698073],[0.0203062426581859,51.2560169499784],[0.0199482196543264,51.2560231290549],[0.0195901965235667,51.256029307037],[0.0195803491688185,51.255804648099],[0.0195705019409826,51.2555799891511],[0.0192124821632533,51.2555861659406],[0.0192223276511448,51.2558108249375],[0.0188643060066178,51.2558170006815],[0.0185062842352585,51.255823175331],[0.0181482623370887,51.2558293488861],[0.0177902403121326,51.2558355213465],[0.0174322181604109,51.2558416927125],[0.0170741958819462,51.255847862984],[0.0167161734767623,51.2558540321609],[0.0163581509448806,51.2558602002434],[0.0163483193766161,51.2556355408547],[0.0167063401685368,51.2556293728212],[0.0166965069870416,51.2554047134715],[0.0163384879350594,51.2554108814561],[0.0163286566202089,51.2551862220475],[0.0163188254320629,51.2549615626289],[0.015960809733224,51.2549677294212],[0.015950980411652,51.2547430699437],[0.0155929663260442,51.2547492355926],[0.0155831388710032,51.2545245760562],[0.0152251263986317,51.2545307405617]]],[[[0.0171922263476743,51.2585437736947],[0.017550269507366,51.2585376028359],[0.0179083125402898,51.2585314308824],[0.0178984724904534,51.2583067718093],[0.0178886325674398,51.2580821127262],[0.0175305930149408,51.2580882845818],[0.017172553335677,51.2580944553427],[0.0171823897782865,51.2583191145237],[0.0171922263476743,51.2585437736947]]]]}}