{"type":"Feature","properties":{"code":"E63002483","name":"Cropston"},"geometry":{"type":"MultiPolygon","coordinates":[[[[-1.1776970252494,52.6918256767225],[-1.17770124972776,52.6916009586091],[-1.17807109168661,52.6916035214974],[-1.17807531409569,52.6913788033103],[-1.17844515410249,52.6913813649819],[-1.17844937444233,52.691156646721],[-1.17881921249707,52.6911592071759],[-1.17882343076772,52.6909344888413],[-1.1791932668704,52.6909370480794],[-1.17956310303159,52.6909396061648],[-1.17993293925125,52.6909421630974],[-1.18030277552937,52.6909447188772],[-1.18067261186592,52.6909472735043],[-1.18104244826086,52.6909498269785],[-1.18141228471418,52.6909523793001],[-1.1814080805177,52.691177098082],[-1.18140387626285,52.6914018168541],[-1.18177371679574,52.6914043681506],[-1.18214355738695,52.6914069182943],[-1.18251339803645,52.6914094672851],[-1.18250919975518,52.6916341862391],[-1.18287904247361,52.691636734141],[-1.18324888525028,52.6916392808901],[-1.18361872808516,52.6916418264864],[-1.18362292033446,52.6914171073409],[-1.18399276121687,52.6914196517206],[-1.18436260215743,52.6914221949474],[-1.18435841392946,52.6916469142205],[-1.18472825693882,52.6916494563584],[-1.18472407066337,52.6918741756855],[-1.18509391082,52.6918767151376],[-1.18546374819011,52.6918792525146],[-1.18545956619848,52.6921039716653],[-1.18508972694972,52.6921014342473],[-1.18471988476049,52.6920988947239],[-1.18471570006568,52.6923236129317],[-1.18508554429907,52.6923261525351],[-1.1850813615937,52.6925508708133],[-1.1854512045633,52.6925534083459],[-1.18582104758754,52.6925559447255],[-1.18581686854838,52.6927806631086],[-1.18581268945454,52.6930053814822],[-1.18544284270936,52.6930028449881],[-1.18507299601882,52.693000307341],[-1.18470314562,52.6929977674996],[-1.18433329014146,52.6929952250831],[-1.1839634347231,52.6929926815132],[-1.18359357936497,52.69299013679],[-1.18358938812424,52.6932148548341],[-1.18358519682322,52.693439572869],[-1.18395505638476,52.6934421176767],[-1.18395086712519,52.6936668357445],[-1.1835810054619,52.6936642908946],[-1.18357681404028,52.693889008911],[-1.18357262255836,52.6941137269181],[-1.18320275675176,52.6941111808303],[-1.18283289100544,52.6941086335892],[-1.18246302531943,52.6941060851947],[-1.18209315969375,52.6941035356468],[-1.18208895974424,52.6943282534757],[-1.18171909207711,52.6943257027321],[-1.18134922447038,52.6943231508351],[-1.18097935692408,52.6943205977847],[-1.18097515060861,52.6945453154775],[-1.18060528102092,52.6945427612314],[-1.18060948943823,52.6943180435809],[-1.18023962201287,52.6943154882237],[-1.17986975464801,52.6943129317131],[-1.17986554202701,52.694537649279],[-1.17949567262085,52.6945350915727],[-1.17949145783739,52.6947598090869],[-1.17912158638993,52.6947572501849],[-1.17911736944398,52.6949819676475],[-1.17948724299334,52.6949845265919],[-1.17948302808868,52.6952092440876],[-1.17947881312342,52.6954339615741],[-1.17910893537019,52.695431402545],[-1.17910471824234,52.6956561199799],[-1.17873483844773,52.695653559755],[-1.17873061915724,52.6958782771382],[-1.17836073732127,52.6958757157176],[-1.17835651586809,52.6961004330492],[-1.17835229435421,52.6963251503715],[-1.17798240837481,52.6963225877127],[-1.17797818469816,52.6965473049834],[-1.17760829667736,52.6965447411287],[-1.17760407083789,52.6967694583477],[-1.1772341807757,52.6967668932972],[-1.17722995277334,52.6969916104646],[-1.17686006066977,52.6969890442181],[-1.17685583050446,52.6972137613338],[-1.17648593635951,52.6972111938915],[-1.17648170403121,52.6974359109555],[-1.17647747164208,52.6976606280103],[-1.17610757335353,52.6976580593296],[-1.17610333880133,52.6978827763327],[-1.17573343847138,52.697880206456],[-1.17572920175604,52.6981049234074],[-1.17535929938469,52.6981023523348],[-1.17535506050617,52.6983270692345],[-1.17498515609342,52.6983244969659],[-1.17498091505165,52.6985492138138],[-1.17461100859751,52.6985466403492],[-1.17460676539246,52.6987713571455],[-1.17460252212642,52.6989960739324],[-1.17459827879941,52.6992207907102],[-1.17422836609911,52.6992182159646],[-1.17422412060869,52.6994429326905],[-1.17385420586696,52.6994403567489],[-1.17384995821308,52.6996650734231],[-1.1734800414299,52.6996624962853],[-1.17311012470777,52.699659917994],[-1.17274020804672,52.699657338549],[-1.17273595402437,52.6998820550865],[-1.17236603532194,52.6998794744454],[-1.17236177913598,52.7001041909311],[-1.17199185839218,52.7001016090938],[-1.17162193770954,52.7000990261029],[-1.17161767725737,52.7003237424943],[-1.1712477545334,52.7003211583073],[-1.17124349620489,52.7005458751391],[-1.17087357155693,52.7005432897702],[-1.17086931264562,52.7007680067329],[-1.17049938619315,52.7007654201961],[-1.17049512536603,52.7009901371366],[-1.17012519710906,52.7009875494318],[-1.16975526890776,52.7009849605727],[-1.16975100430459,52.7012096774773],[-1.16938107429882,52.7012070874503],[-1.16937680777971,52.7014318043327],[-1.16900687596947,52.7014292131376],[-1.16863694421498,52.7014266207883],[-1.16863267391965,52.7016513376348],[-1.16826274036072,52.7016487441174],[-1.16826701251627,52.7014240272845],[-1.16789708742815,52.7014214334573],[-1.16789281350796,52.7016461502856],[-1.1675228882082,52.7016435554886],[-1.16715296296425,52.7016409595374],[-1.16678303777614,52.7016383624318],[-1.1667873172721,52.7014136456551],[-1.16679159671216,52.7011889288697],[-1.16679587609632,52.7009642120756],[-1.16680015542457,52.7007394952728],[-1.16643023772654,52.7007368970819],[-1.16643451885738,52.7005121802876],[-1.16643880257866,52.7002874637905],[-1.16606888866612,52.7002848644809],[-1.1660731782079,52.7000601484562],[-1.16644309042865,52.7000627477685],[-1.16644737822659,52.6998380317383],[-1.16681728880762,52.6998406298987],[-1.16718719944068,52.6998432269045],[-1.16719148380308,52.6996185108716],[-1.1675613927964,52.6996211067255],[-1.1679313018417,52.6996237014247],[-1.16793558276864,52.6993989853891],[-1.16830549207874,52.6994015791917],[-1.16830977120784,52.6991768631464],[-1.16867968292895,52.6991794563494],[-1.16904959471146,52.6991820483989],[-1.16905386957436,52.6989573322591],[-1.16942377931587,52.6989599231124],[-1.16942805201502,52.6987352069207],[-1.16979795971553,52.6987377965778],[-1.16980223025099,52.6985130803343],[-1.1701721359105,52.6985156687952],[-1.17017640428232,52.6982909524999],[-1.17018067259285,52.6980662361952],[-1.17018494084207,52.6978415198812],[-1.17055484025604,52.697844107061],[-1.17055910634174,52.6976193906952],[-1.17056337236617,52.6973946743201],[-1.17019347715662,52.6973920872255],[-1.16982358200837,52.6973894989773],[-1.16982785217587,52.6971647826781],[-1.16983212228204,52.6969400663696],[-1.17020201322599,52.6969426545326],[-1.17020628116873,52.6967179381722],[-1.17057617007184,52.6967205251392],[-1.1705804358512,52.696495808727],[-1.17058470156929,52.6962710923055],[-1.17095458632952,52.6962736780338],[-1.17095884988431,52.6960489615605],[-1.17132873260372,52.6960515460929],[-1.17133299399527,52.6958268295677],[-1.17133725532561,52.6956021130333],[-1.17170713390224,52.6956046963272],[-1.17171139306942,52.6953799797409],[-1.17208126960525,52.6953825618388],[-1.17208552660932,52.6951578452008],[-1.17208978355225,52.6949331285535],[-1.17245965594539,52.6949357094129],[-1.17246391072528,52.6947109927138],[-1.17283378107766,52.6947135723773],[-1.17283803369458,52.6944888556265],[-1.17320790200618,52.694491434094],[-1.1732121524602,52.6942667172914],[-1.17321640285315,52.6940420004795],[-1.17358626702218,52.6940445777088],[-1.17359051525229,52.6938198608451],[-1.17396037738057,52.6938224368785],[-1.17396462344791,52.6935977199631],[-1.17433448353543,52.6936002948006],[-1.17470434368391,52.6936028684848],[-1.17470858548681,52.6933781514753],[-1.1750784435945,52.6933807239636],[-1.17508268323476,52.6931560069023],[-1.17471282722875,52.6931534344564],[-1.17471706890975,52.6929287174282],[-1.17434721506635,52.6929261438714],[-1.17435145878803,52.6927014268764],[-1.17435570244874,52.6924767098722],[-1.1747255520889,52.6924792833441],[-1.17472979358706,52.6922545662882],[-1.1747340349832,52.6920298491948],[-1.17510388049371,52.6920324214336],[-1.17547372606303,52.6920349925195],[-1.17546948884696,52.6922597096872],[-1.17583933656823,52.6922622796568],[-1.17583510137483,52.6924869968401],[-1.17620495125852,52.6924895656987],[-1.17657480120303,52.6924921334041],[-1.17657903219326,52.692267416136],[-1.17694888009696,52.6922699826456],[-1.17731872806142,52.692272548002],[-1.17732295478772,52.6920478306398],[-1.17769280071134,52.6920503948005],[-1.1776970252494,52.6918256767225]]],[[[-1.18580851030604,52.6932300998461],[-1.18580433110288,52.6934548182005],[-1.18617418162372,52.6934573536561],[-1.18617000422644,52.6936820720581],[-1.18580015184504,52.6936795365452],[-1.18543029951826,52.6936769998794],[-1.18542611834517,52.6939017181572],[-1.18505626421245,52.6938991802811],[-1.18468640551611,52.6938966401271],[-1.1846905906324,52.6936719219841],[-1.18469477568848,52.6934472038319],[-1.18506463022507,52.6934497438302],[-1.18506881314931,52.6932250255904],[-1.18543866170035,52.6932275632948],[-1.18580851030604,52.6932300998461]]]]}}