{"type":"Feature","properties":{"code":"E63001084","name":"Newhey"},"geometry":{"type":"MultiPolygon","coordinates":[[[[-2.10686434355522,53.5984629233684],[-2.10686491676373,53.5986876295174],[-2.10724267116438,53.5986872882729],[-2.1072432463666,53.5989119944394],[-2.10724382157635,53.5991367005977],[-2.10724439679363,53.5993614067475],[-2.10724497201843,53.599586112889],[-2.10686720967274,53.5995864540298],[-2.10648944731947,53.5995867939779],[-2.10649001857914,53.5998115000591],[-2.10686778291874,53.5998111601369],[-2.10686835617224,53.6000358662356],[-2.10724612249062,53.6000355251467],[-2.10724669772782,53.6002602312423],[-2.10762446602577,53.600259888988],[-2.10762504298883,53.600484594549],[-2.10762561995947,53.6007093001018],[-2.1076261969377,53.6009340056462],[-2.10724842264886,53.6009343477779],[-2.10724899763766,53.601159053273],[-2.10724957263402,53.6013837587599],[-2.10725014763794,53.6016084642384],[-2.10725072264941,53.6018331697086],[-2.10725129766845,53.6020578751704],[-2.10687351338663,53.6020582159049],[-2.10687408641607,53.6022829213175],[-2.10687465945305,53.6025076267218],[-2.10649687116929,53.6025079661816],[-2.10649744221659,53.6027326715366],[-2.10611965192806,53.6027330097627],[-2.10612022098563,53.6029577150685],[-2.10574242869231,53.6029580520608],[-2.10574186163197,53.6027333467959],[-2.10536407132835,53.6027336826363],[-2.10536350627267,53.602508977404],[-2.10498571795876,53.6025093120924],[-2.10498628101724,53.6027340172837],[-2.10498684408312,53.6029587224668],[-2.10536463639146,53.6029583878602],[-2.10536520146199,53.6031830930759],[-2.10536576653995,53.6034077982831],[-2.10498797023706,53.6034081328078],[-2.10498853332513,53.6036328379658],[-2.10461073501745,53.6036331712566],[-2.10423293670233,53.6036335033545],[-2.10385513837979,53.6036338342595],[-2.10347734004986,53.6036341639716],[-2.10347789515596,53.6038588689574],[-2.10310009482132,53.6038591974356],[-2.10309954171257,53.6036344924908],[-2.10272174336794,53.6036348198171],[-2.10272229447935,53.6038595247209],[-2.10234449413007,53.6038598508133],[-2.102343945016,53.6036351459504],[-2.10234339590913,53.6034104410793],[-2.10234284680948,53.6031857361998],[-2.10234229771703,53.6029610313119],[-2.10234174863179,53.6027363264157],[-2.10234119955377,53.6025116215112],[-2.10196341118085,53.6025119466567],[-2.10196286410721,53.6022872417849],[-2.10196231704075,53.6020625369047],[-2.10234010141933,53.6020622116771],[-2.10271788579063,53.6020618852567],[-2.1027173347371,53.6018371802862],[-2.10233955236293,53.6018375067476],[-2.10196176998148,53.6018378320162],[-2.10196122292938,53.6016131271193],[-2.10158344253777,53.6016134512361],[-2.10120566630899,53.6016137719602],[-2.10082789211543,53.6016140904141],[-2.10082735117402,53.6013893856594],[-2.1004495790321,53.6013897029806],[-2.10007180688286,53.601390019109],[-2.09969403472633,53.6013903340445],[-2.09931626256254,53.6013906477871],[-2.09893849039152,53.6013909603369],[-2.09893795975218,53.6011662558754],[-2.09856018963291,53.6011665672926],[-2.09818241950646,53.601166877517],[-2.09780464937286,53.6011671865485],[-2.09742687923214,53.6011674943872],[-2.09704910908433,53.6011678010331],[-2.09667133892945,53.6011681064862],[-2.09629356876754,53.6011684107464],[-2.09591579859861,53.6011687138137],[-2.09591631276627,53.6013934177926],[-2.09629408499416,53.6013931147856],[-2.09667185721504,53.6013928105858],[-2.09704962942887,53.6013925051931],[-2.09705014978041,53.6016172093448],[-2.09742792404617,53.6016169028196],[-2.09780569830484,53.6016165951015],[-2.09818347255638,53.6016162861906],[-2.09856124680078,53.6016159760868],[-2.09893902103799,53.6016156647902],[-2.0989395516916,53.6018403692352],[-2.09894008235235,53.6020650736719],[-2.09856230399708,53.6020653848479],[-2.09818452563463,53.6020656948311],[-2.09818505218437,53.6022903991389],[-2.09780727175569,53.6022907078688],[-2.09780779625342,53.602515412108],[-2.09818557874119,53.6025151034383],[-2.09856336122181,53.6025147935758],[-2.09856283260589,53.602290089216],[-2.09894061302023,53.6022897781003],[-2.09894114369525,53.6025144825204],[-2.09931892616148,53.602514170272],[-2.09931945890276,53.6027388747441],[-2.0993199916512,53.602963579208],[-2.0993205244068,53.6031882836635],[-2.09932105716957,53.6034129881107],[-2.09894326646666,53.6034133001179],[-2.09856547575656,53.6034136109321],[-2.09856494711221,53.6031889066055],[-2.09818715845413,53.6031892162871],[-2.09818663187607,53.6029645120124],[-2.09780884527002,53.6029648205615],[-2.09780832075819,53.6027401163389],[-2.09743053620417,53.6027404237553],[-2.09743001375852,53.6025157195847],[-2.09705223125654,53.6025160258686],[-2.09705275164306,53.6027407299788],[-2.09667496707488,53.6027410350094],[-2.09667548540924,53.602965739051],[-2.09629769877487,53.6029660428283],[-2.09591991213349,53.6029663454127],[-2.09591939791743,53.6027416414919],[-2.09591888370829,53.6025169375627],[-2.0955411011782,53.602517239075],[-2.09554058903507,53.602292535198],[-2.09516280855712,53.6022928355777],[-2.09516229847995,53.6020681317528],[-2.09516178840963,53.6018434279195],[-2.09478401204288,53.6018437272272],[-2.09440623566923,53.601844025342],[-2.09440674162146,53.6020687290545],[-2.09402896318189,53.602069025916],[-2.09365118473548,53.6020693215847],[-2.09365168657636,53.602294025168],[-2.09327390606407,53.6022943195833],[-2.09289612554498,53.6022946128058],[-2.09289662327442,53.60251931626],[-2.09251884068947,53.6025196082291],[-2.09251933636648,53.6027443116145],[-2.09214155171567,53.6027446023303],[-2.09214204534018,53.6029693056469],[-2.09176425862352,53.6029695951093],[-2.09138647190019,53.6029698833789],[-2.09138696141297,53.6031945865662],[-2.0910091726238,53.6031948735823],[-2.09063138382801,53.6031951594056],[-2.09063186922896,53.6034198624636],[-2.09025407836736,53.6034201470334],[-2.0902545617156,53.6036448500226],[-2.0898767687882,53.6036451333389],[-2.08949897585427,53.6036454154623],[-2.08949945509047,53.6038701183222],[-2.08912166009076,53.6038703991921],[-2.08912213727411,53.6040951019831],[-2.08874434020863,53.6040953815995],[-2.08874481533907,53.6043200843216],[-2.08836701620782,53.6043203626846],[-2.08798921707013,53.6043206398546],[-2.08798968808827,53.6045453424472],[-2.08761188688484,53.6045456183637],[-2.08761235584993,53.6047703208874],[-2.08723455258075,53.6047705955503],[-2.08685674930523,53.6047708690202],[-2.0868562844589,53.6045461666177],[-2.08685581961882,53.6043214642069],[-2.08647802045572,53.6043217366051],[-2.08647848323645,53.6045464389553],[-2.08610068200771,53.6045467100999],[-2.08610022128633,53.6043220078103],[-2.08609976057114,53.6040973055124],[-2.08572196345482,53.6040975755854],[-2.08534416633227,53.6040978444654],[-2.08496636920352,53.6040981121525],[-2.08458857091748,53.6040983775125],[-2.08458811846277,53.6038736754294],[-2.08458766601423,53.603648973338],[-2.08420987095646,53.603649236623],[-2.08420942060905,53.6034245345527],[-2.08458721357186,53.6034242712382],[-2.08458676113565,53.60319956913],[-2.08458630870561,53.6029748670133],[-2.08458585628174,53.6027501648883],[-2.08496364210859,53.602749899282],[-2.08534142688199,53.602749631231],[-2.08534188344168,53.6029743334575],[-2.08571967026803,53.6029740642743],[-2.08609745708815,53.6029737938982],[-2.08609791777236,53.6031984962377],[-2.08647570664541,53.6031982247293],[-2.08685349551217,53.603197952028],[-2.086853960321,53.6034226544804],[-2.08723175124066,53.6034223806468],[-2.08760954215399,53.6034221056203],[-2.08760907322674,53.6031974030467],[-2.08798686207448,53.6031971267668],[-2.08798639109435,53.6029724241243],[-2.08836417787651,53.6029721465908],[-2.08836370484356,53.6027474438794],[-2.08836323181697,53.6025227411597],[-2.08798544915309,53.6025230188143],[-2.08798497819196,53.6022983161469],[-2.08760719758079,53.6022985926692],[-2.08760672868507,53.6020738900541],[-2.08760625979565,53.6018491874306],[-2.08722848329623,53.6018494628812],[-2.08722801647213,53.6016247603101],[-2.08685024202539,53.6016250346285],[-2.08647246757234,53.601625307754],[-2.0864729302784,53.601850010204],[-2.08609515376004,53.6018502820761],[-2.08571737723543,53.6018505527554],[-2.08571691864741,53.6016258504267],[-2.08533914417559,53.6016261199738],[-2.08533868765273,53.6014014176974],[-2.0849609152337,53.6014016861123],[-2.08496046077595,53.6011769838882],[-2.08458268948735,53.6011772497785],[-2.08458223711282,53.6009525475864],[-2.08458178474446,53.6007278453859],[-2.08495955187877,53.6007275794151],[-2.08533731812099,53.6007273108183],[-2.08533777462543,53.6009520131196],[-2.08571554292036,53.6009517433906],[-2.08609331120906,53.6009514724688],[-2.0864710794915,53.6009512003542],[-2.08647061681034,53.600726497871],[-2.08684838302759,53.600726224503],[-2.08722614923853,53.6007259499422],[-2.08760391544314,53.6007256741886],[-2.08798168164137,53.6007253972422],[-2.0879812107309,53.6005006945083],[-2.08798073982677,53.6002759917661],[-2.08835850190088,53.6002757135058],[-2.08835802579206,53.6000510094497],[-2.08873578587598,53.6000507299492],[-2.08873530744118,53.5998260256978],[-2.08873482901255,53.5996013214382],[-2.08873435059009,53.5993766171701],[-2.08835659641746,53.599376896803],[-2.08835611997155,53.5991521925707],[-2.08835564353178,53.59892748833],[-2.08873339376369,53.598927208609],[-2.08873291535974,53.598702504316],[-2.08911066361507,53.5987022233582],[-2.089110183247,53.5984775190127],[-2.08948792952576,53.5984772368182],[-2.08986567579821,53.598476953431],[-2.08986616010688,53.5987016578647],[-2.08986664442179,53.5989263622899],[-2.08948889420872,53.598926645589],[-2.08911114398934,53.5989269276954],[-2.08911162436981,53.5991516320242],[-2.08911210475647,53.5993763363446],[-2.08911258514933,53.5996010406567],[-2.08949034127984,53.5996007586825],[-2.08949082364932,53.5998254630304],[-2.08986858174395,53.5998251799075],[-2.08986906609012,53.6000498842911],[-2.0898695501328,53.6002745885367],[-2.09024731217452,53.6002743043125],[-2.09062507420967,53.6002740188955],[-2.09062458620126,53.6000493145553],[-2.09100234624727,53.6000490278984],[-2.09138010628687,53.6000487400487],[-2.09175786632003,53.6000484510062],[-2.09213562634672,53.600048160771],[-2.09213513017782,53.5998234561233],[-2.09175737212158,53.5998237464025],[-2.09175687792953,53.5995990417905],[-2.09213463401534,53.5995987514673],[-2.09213413785926,53.5993740468029],[-2.09251189196818,53.599373755243],[-2.09288964607058,53.5993734624904],[-2.09288914598017,53.5991487577297],[-2.09288864589622,53.5989240529607],[-2.09251089573454,53.5989243458013],[-2.09251039762737,53.5986996410678],[-2.0921326494295,53.5986999327597],[-2.09175490122513,53.5987002232589],[-2.09175440706499,53.5984755186051],[-2.09137666082446,53.5984758079557],[-2.09137616864097,53.5982511033376],[-2.09137567646384,53.5980263987111],[-2.09099793415738,53.598026686957],[-2.09099744395682,53.5978019823662],[-2.09099695376259,53.5975772777671],[-2.09061921539012,53.5975775649084],[-2.09061872717238,53.5973528603449],[-2.09061823896094,53.5971281557731],[-2.09099597339311,53.5971278685438],[-2.09099548321787,53.5969031639196],[-2.09137321567353,53.5969028754537],[-2.09175094812275,53.5969025857951],[-2.09175045401367,53.5966778810746],[-2.09212818448635,53.5966775901794],[-2.09250591495254,53.5966772980917],[-2.09250541690974,53.5964525932748],[-2.09288314539936,53.5964522999505],[-2.09326087388243,53.5964520054335],[-2.09326137586534,53.5966767103384],[-2.0936391063119,53.5966764146728],[-2.09363961027138,53.5969011196132],[-2.09364011423737,53.5971258245453],[-2.09401784861752,53.597125527775],[-2.09401835456017,53.5973502327427],[-2.09401886050936,53.597574937702],[-2.09439659882318,53.597574639827],[-2.0943971067491,53.597799344822],[-2.09477484702646,53.5977990457983],[-2.09515258729714,53.5977987455819],[-2.09553032756113,53.5977984441729],[-2.09552981372465,53.5975737390462],[-2.09590755201172,53.5975734364007],[-2.09590806781839,53.5977981415713],[-2.09628580806889,53.597797837777],[-2.09628632585244,53.5980225429831],[-2.09666406806637,53.59802223804],[-2.0970418102735,53.5980219319043],[-2.09704233200423,53.5982466371898],[-2.09704285374173,53.598471342467],[-2.0966651075941,53.598471648515],[-2.09666562736806,53.59869635374],[-2.09628787924333,53.5986966585514],[-2.0962883970537,53.5989213637242],[-2.09628891487077,53.5991460688886],[-2.09666666693617,53.5991457641649],[-2.09666718673032,53.5993704693649],[-2.09704494075928,53.5993701634924],[-2.09704441899476,53.5991454582486],[-2.09742217104651,53.5991451511395],[-2.0977999230914,53.5991448428377],[-2.09779939739294,53.5989201374978],[-2.0974216473184,53.5989204458434],[-2.09742112359707,53.5986957405391],[-2.09779887170129,53.5986954321496],[-2.09817661979863,53.5986951225674],[-2.09855436788905,53.5986948117925],[-2.09893211597253,53.5986944998249],[-2.09930986404905,53.5986941866646],[-2.09930933048304,53.5984694811328],[-2.09930879692395,53.5982447755925],[-2.09930826337178,53.598020070044],[-2.09930772982652,53.5977953644871],[-2.09968547001503,53.5977950499589],[-2.10006321019652,53.5977947342381],[-2.10044095037097,53.5977944173246],[-2.10044041092208,53.5975697116279],[-2.10081814911926,53.597569393478],[-2.10119588730935,53.5975690741354],[-2.10119534392713,53.597344368343],[-2.10157308206781,53.5973440468782],[-2.10195082465527,53.5973437221743],[-2.10232856723552,53.5973433962778],[-2.10270630980851,53.5973430691887],[-2.10308405237422,53.597342740907],[-2.10308349907105,53.5971180349676],[-2.10270575849137,53.5971183632753],[-2.10270520718143,53.5968936573536],[-2.10232746858048,53.5968939844948],[-2.10232691926372,53.5966692785908],[-2.1019491826415,53.5966696045655],[-2.10194863531787,53.5964448986791],[-2.10232636995414,53.5964445726784],[-2.10232582065173,53.5962198667575],[-2.10270355329482,53.5962195395382],[-2.10270410458315,53.596444245485],[-2.10308183920489,53.5964439170992],[-2.10308239248638,53.5966686230637],[-2.10346012908677,53.5966682935113],[-2.10346068436146,53.5968929994935],[-2.1038384229405,53.5968926687746],[-2.10383898020846,53.5971173747744],[-2.10346123964342,53.5971177054673],[-2.10346179493263,53.5973424114327],[-2.10383953748371,53.5973420807659],[-2.10384009476624,53.5975667867489],[-2.10421783929602,53.5975664549155],[-2.10459558381841,53.5975661218894],[-2.1049733283334,53.5975657876708],[-2.10535107284094,53.5975654522595],[-2.10572881734102,53.5975651156557],[-2.10572938456127,53.5977898217604],[-2.10610713103994,53.5977894839899],[-2.10610770025372,53.5980141901121],[-2.10648544871099,53.598013851175],[-2.10648601991835,53.5982385573148],[-2.10686377035422,53.598238217211],[-2.10686434355522,53.5984629233684]]],[[[-2.08458585628174,53.6027501648883],[-2.08420806960366,53.6027504282918],[-2.08420761928081,53.602525726188],[-2.08382983469137,53.6025259884283],[-2.08383028291937,53.6027506905024],[-2.08345249622891,53.6027509515203],[-2.08345294236814,53.6029756535564],[-2.08307515357666,53.6029759133518],[-2.08269736477907,53.6029761719543],[-2.08269692282959,53.6027514699775],[-2.08269648088615,53.6025267679923],[-2.08307426549401,53.6025265093304],[-2.08307382146177,53.6023018073072],[-2.0834516039687,53.6023015474229],[-2.08382938646948,53.6023012863458],[-2.08420716896409,53.6023010240759],[-2.08458495145251,53.6023007606132],[-2.08458449904714,53.602076058463],[-2.08496227864365,53.6020757927346],[-2.08534005723973,53.6020755245016],[-2.08534051378101,53.6023002267531],[-2.08534097032843,53.6025249289962],[-2.08496318761417,53.6025251971079],[-2.08458540386404,53.602525462755],[-2.08458585628174,53.6027501648883]]],[[[-2.08610068200771,53.6045467100999],[-2.08610114273528,53.6047714123812],[-2.08610160346906,53.6049961146542],[-2.08610206420903,53.6052208169188],[-2.08572425679581,53.6052210866886],[-2.08572471548252,53.6054457888843],[-2.08534690600361,53.6054460574004],[-2.08534644937637,53.6052213552653],[-2.08496864195072,53.6052216226491],[-2.08496818738906,53.6049969205664],[-2.0849677328335,53.6047722184754],[-2.08458992831863,53.6047724837113],[-2.08458947584541,53.6045477816534],[-2.08496727828406,53.6045475163761],[-2.08496682374073,53.6043228142684],[-2.08534462292881,53.604322546642],[-2.08572242211068,53.6043222778226],[-2.08572288077271,53.6045469800516],[-2.08610068200771,53.6045467100999]]],[[[-2.09554161332822,53.6027419429438],[-2.09554212548512,53.6029666468042],[-2.09554263764891,53.6031913506564],[-2.09554314981959,53.6034160545002],[-2.09592094058635,53.6034157532295],[-2.09592145482315,53.6036404571254],[-2.09592196906687,53.6038651610131],[-2.0959224833175,53.6040898648924],[-2.09554468637294,53.604090165982],[-2.09554519857117,53.6043148697927],[-2.09516739956034,53.6043151696289],[-2.09516688942144,53.6040904658786],[-2.09516637928939,53.6038657621201],[-2.09478858439025,53.6038660608842],[-2.09478807632432,53.6036413571777],[-2.09441028347755,53.6036416548092],[-2.09440977747769,53.6034169511549],[-2.09440927148464,53.6031922474922],[-2.09478706021298,53.6031919497399],[-2.09478655216755,53.6029672460085],[-2.09478604412895,53.6027425422688],[-2.09516382873205,53.6027422432028],[-2.09554161332822,53.6027419429438]]],[[[-2.10875602132494,53.5995847363987],[-2.10875660450258,53.5998094426355],[-2.10875718768786,53.6000341488639],[-2.10875777087355,53.6002588550684],[-2.10838000259866,53.600259200901],[-2.10800223431605,53.6002595455409],[-2.10800165510455,53.6000348393907],[-2.10800107589198,53.5998101332142],[-2.10762331157519,53.5998104767144],[-2.10762273435653,53.5995857705554],[-2.10762215714542,53.5993610643881],[-2.10799991748959,53.5993607208359],[-2.10799933829976,53.5991360146342],[-2.10837709665,53.5991356698635],[-2.10875485499256,53.5991353239001],[-2.10913261332741,53.599134976744],[-2.10913319847606,53.5993596830234],[-2.10875543815493,53.5993600301536],[-2.10875602132494,53.5995847363987]]]]}}