{"type":"Feature","properties":{"code":"E63005086","name":"Higham (Gravesham)"},"geometry":{"type":"MultiPolygon","coordinates":[[[[0.467812519457416,51.416066058628],[0.467453362000709,51.4160736254154],[0.467465460556388,51.4162982073228],[0.467477559270703,51.4165227892228],[0.467836720303801,51.4165152224101],[0.468195881178275,51.4165076544944],[0.468555041894099,51.4165000854756],[0.468567146131737,51.4167246673303],[0.468926308477112,51.4167170971958],[0.468938414661707,51.4169416790305],[0.469297578636627,51.4169341077803],[0.469656742452823,51.4169265354271],[0.469644632691747,51.4167019536178],[0.469632523089451,51.416477371801],[0.46999168317045,51.4164697983701],[0.470350843092686,51.4164622238361],[0.470338730072788,51.4162376420372],[0.470326617211712,51.4160130602309],[0.470314504509453,51.4157884784172],[0.470673658908414,51.4157809028182],[0.471032813148572,51.4157733261161],[0.471020697028898,51.4155487443203],[0.471008581068084,51.4153241625171],[0.470996465266124,51.4150995807064],[0.470637316390239,51.4151071573704],[0.47064943040413,51.4153317391938],[0.470290279581379,51.4153393147674],[0.47030239196601,51.415563896596],[0.46994323919639,51.4155714710794],[0.469584086268016,51.4155790444597],[0.469596195235219,51.4158036263062],[0.469237040359989,51.4158111985961],[0.468877885326051,51.4158187697831],[0.468889990875724,51.4160433516474],[0.468530833894946,51.416050921744],[0.468171676755503,51.4160584907375],[0.467812519457416,51.416066058628]]],[[[0.4581008183243,51.40930041055],[0.45808877034543,51.4090758281945],[0.458076722803873,51.408851246014],[0.457717621947376,51.4088587849829],[0.457358520973415,51.4088663228782],[0.456999419955789,51.408873859747],[0.45664031877769,51.4088813955129],[0.456652359290157,51.4091059779135],[0.456293256125148,51.4091135125858],[0.45593415279971,51.4091210461552],[0.455575049313867,51.4091285786217],[0.455587084507378,51.4093531610434],[0.455227979034663,51.4093606924163],[0.45524001256209,51.4095852748401],[0.45525204624993,51.4098098572568],[0.455611155375697,51.409802325865],[0.455970264341075,51.4097947933703],[0.455982301842449,51.4100193757608],[0.455994339504286,51.4102439581441],[0.456006377326589,51.4104685405202],[0.456018415309362,51.410693122889],[0.456377531420687,51.4106855892535],[0.456389571390581,51.4109101716057],[0.456030453452607,51.4109177052506],[0.456042491756326,51.4111422876049],[0.455683371831249,51.4111498201562],[0.455695408468749,51.4113744025127],[0.456054530220523,51.411366869952],[0.4560665688452,51.4115914522919],[0.45607860763036,51.4118160346245],[0.456437732875162,51.4118085009419],[0.456449773647573,51.4120330832578],[0.456808900558677,51.4120255484627],[0.456820943318385,51.4122501307619],[0.456461814580497,51.4122576655665],[0.456473855673934,51.412482247868],[0.456114724948765,51.4124897815789],[0.45610268568214,51.412265199268],[0.45574355662334,51.4122727318665],[0.455755594063151,51.4124973141868],[0.455767631663431,51.4127218964999],[0.455408498790553,51.4127294280141],[0.455049365757271,51.4127369584252],[0.454690232563613,51.4127444877332],[0.454702264843767,51.4129690700673],[0.45434312966288,51.4129765982816],[0.454355160276544,51.4132011806178],[0.453996023108426,51.4132087077384],[0.453636885779995,51.4132162337558],[0.453648912900197,51.4134408161036],[0.453289773584551,51.4134483410273],[0.453301799038144,51.4136729233772],[0.452942657735275,51.4136804472071],[0.452954681522213,51.4139050295591],[0.452595538232117,51.4139125522953],[0.452607560352353,51.4141371346494],[0.452248415075024,51.4141446562917],[0.452260435528511,51.4143692386479],[0.451901288263946,51.4143767591965],[0.451913307050637,51.4146013415548],[0.451554157798829,51.4146088610095],[0.451542140839196,51.4143842786418],[0.451182993254285,51.414391796984],[0.451170978281902,51.4141672145998],[0.450811832363893,51.4141747318295],[0.450452686285774,51.4141822479561],[0.450464697604076,51.4144068303589],[0.450105549538824,51.4144143453916],[0.450117559190198,51.4146389277964],[0.450129569001695,51.414863510194],[0.450488720721107,51.4148559951428],[0.450500732519844,51.4150805775239],[0.450859885906274,51.4150730613601],[0.450871899692298,51.4152976437247],[0.450512744478732,51.4153051598977],[0.450524756597774,51.4155297422643],[0.450165599396945,51.4155372573435],[0.449806442036036,51.4155447713194],[0.44981845066086,51.4157693536973],[0.449459291312704,51.4157768665793],[0.449100131804514,51.4157843783581],[0.448740972136311,51.4157918890336],[0.448752975439596,51.4160164714321],[0.448393813784183,51.4160239810137],[0.448034652205361,51.4160314897529],[0.448046652040929,51.4162560721973],[0.447687488542079,51.4162635799229],[0.447328324886018,51.4162710865486],[0.447340321305335,51.4164956691021],[0.446981155705312,51.4165031746878],[0.44696916107277,51.4162785920745],[0.446957166597448,51.4160540094507],[0.447316328623945,51.4160465039846],[0.447304332519113,51.41582192141],[0.447663492601699,51.4158144149038],[0.447651494867402,51.4155898323784],[0.447639497290362,51.4153652498423],[0.447280340781158,51.4153727562288],[0.447268345148031,51.4151481736223],[0.446909190268309,51.4151556788492],[0.446550035231436,51.4151631829762],[0.446562027291243,51.4153877657024],[0.446202870310576,51.4153952687894],[0.44621486074088,51.4156198515647],[0.445855701816416,51.4156273536117],[0.445496542734865,51.4156348545589],[0.445508529748906,51.4158594374431],[0.445149368723571,51.4158669373502],[0.445161354107993,51.4160915202835],[0.445520516920069,51.4160840203166],[0.445532504248358,51.4163086031796],[0.445544491733777,51.4165331860319],[0.445556479376326,51.4167577688736],[0.445568467176009,51.4169823517047],[0.445209297216736,51.4169898519106],[0.444850127100405,51.4169973510166],[0.444862111985996,51.4172219342955],[0.444874101006539,51.4174465202476],[0.444886090185998,51.4176711061922],[0.445245265569921,51.4176636069008],[0.445257256722433,51.4178881928236],[0.445616433761582,51.4178806924151],[0.445975610641799,51.4178731909036],[0.445963615861022,51.4176486050091],[0.445951621239233,51.417424019107],[0.445939626776429,51.4171994331974],[0.445927636978201,51.416974850399],[0.445915647391688,51.4167502676276],[0.446274815249948,51.4167427652817],[0.446633982951087,51.416735261836],[0.446993150495076,51.4167277572903],[0.447352317881896,51.4167202516448],[0.447711485111523,51.4167127448995],[0.447723483632151,51.4169373273718],[0.447735482310053,51.4171619098335],[0.447747485114379,51.4173864951467],[0.447759488806663,51.4176110809777],[0.447771492658052,51.4178356668012],[0.448130668584173,51.4178281586718],[0.448489844503049,51.4178206496204],[0.448849020533638,51.4178131397885],[0.449208196406266,51.4178056288548],[0.44956737212091,51.4177981168193],[0.449926547677546,51.4177906036819],[0.450285723076152,51.4177830894427],[0.450644898316704,51.4177755741017],[0.45100407339918,51.4177680576588],[0.451363248323554,51.4177605401141],[0.451722423089805,51.4177530214676],[0.452081597697909,51.4177455017192],[0.452093623308263,51.4179700872031],[0.452452799554627,51.4179625663215],[0.452811975642794,51.4179550443381],[0.453171151572743,51.4179475212528],[0.453183182730646,51.4181721066337],[0.453542360298796,51.4181645824151],[0.453530327344448,51.4179399970656],[0.453889502957888,51.4179324717767],[0.453901537708677,51.4181570570947],[0.453913572617786,51.418381642404],[0.453925607685217,51.4186062277045],[0.453937642910974,51.4188308129964],[0.453578460111631,51.4188383384111],[0.453590493699183,51.4190629237257],[0.453949678295059,51.4190553982795],[0.454308862732633,51.4190478717314],[0.454296825552018,51.4188232864797],[0.454656008034737,51.4188157588612],[0.455015190359111,51.4188082301408],[0.455374372525116,51.4188007003186],[0.455362330113346,51.4185761151526],[0.45500314974384,51.4185836449434],[0.454991109286964,51.4183590597372],[0.455350287859992,51.418351529978],[0.455338245765054,51.4181269447946],[0.455326203828528,51.4179023596025],[0.455685378650291,51.4178948288043],[0.455673335075771,51.4176702436349],[0.456032507942727,51.4176627117665],[0.456391680651257,51.4176551787962],[0.45640372781858,51.4178797639025],[0.456415775144381,51.4181043490001],[0.456056598843028,51.4181118820334],[0.456068644530864,51.4183364671538],[0.456427822628663,51.418328934089],[0.456439870271428,51.4185535191692],[0.456451918072681,51.4187781042406],[0.456463966032423,51.4190026893034],[0.456476014150657,51.4192272743574],[0.456835199275997,51.4192197400646],[0.456847249349284,51.4194443250784],[0.457206436112688,51.4194367896522],[0.457565622717576,51.4194292531241],[0.457924809163924,51.4194217154942],[0.458283995451707,51.4194141767623],[0.458643181580905,51.4194066369286],[0.458655240795574,51.4196312217759],[0.459014428562726,51.4196236808087],[0.459002367551492,51.4193990959929],[0.458990306698918,51.4191745111685],[0.458978246004998,51.4189499263353],[0.459337428223899,51.4189423843609],[0.459696610284147,51.4189348412847],[0.460055792185723,51.4189272971066],[0.460414973928601,51.4189197518266],[0.460774155512758,51.4189122054448],[0.461133336938171,51.4189046579611],[0.461492518204817,51.4188971093755],[0.461851699312673,51.4188895596881],[0.46186377437864,51.4191141442684],[0.461875849603448,51.4193387288399],[0.461887924987099,51.4195633134027],[0.461900000529596,51.4197878979568],[0.461540812235616,51.4197954477709],[0.461552886140373,51.4200200323479],[0.461564960203957,51.4202446169162],[0.461577034426372,51.4204692014757],[0.461217840583748,51.4204767502828],[0.461229913168336,51.4207013348652],[0.461241985911739,51.420925919439],[0.461254058813957,51.421150504004],[0.461613258046632,51.4211429551021],[0.461625332904398,51.4213675396267],[0.461984533774983,51.4213599895912],[0.462343734486725,51.4213524384537],[0.462702935039599,51.4213448862142],[0.462715015446452,51.4215694706352],[0.463074217637178,51.4215619172621],[0.463062135433583,51.4213373328728],[0.463050053388926,51.4211127484748],[0.463037971503202,51.420888164068],[0.46302588977641,51.4206635796526],[0.463013808208546,51.4204389952284],[0.463001726799607,51.4202144107954],[0.462642535388986,51.4202219639785],[0.462630455935574,51.4199973795052],[0.46261837664106,51.4197727950231],[0.462259188664751,51.4197803470409],[0.462247111325692,51.4195557625185],[0.46260629750544,51.4195482105323],[0.462965483526319,51.4195406574443],[0.462977564458497,51.4197652419034],[0.46333675211704,51.4197576876818],[0.463695939616665,51.4197501323583],[0.463683855091381,51.4195255479625],[0.463671770725058,51.419300963558],[0.464030954472668,51.419293407196],[0.464018868468799,51.4190688228145],[0.463659686517693,51.4190763791448],[0.463300504407655,51.4190839343733],[0.463288422155728,51.4188593499197],[0.463276340062732,51.4186347654573],[0.463264258128662,51.4184101809863],[0.463252176353516,51.4181855965065],[0.463240094737293,51.4179610120179],[0.463599267865147,51.4179534569479],[0.463587184611475,51.4177288724824],[0.463575101516742,51.4175042880081],[0.463563018580944,51.417279703525],[0.463550937971063,51.4170551206307],[0.463538858787973,51.4168305386623],[0.463898022839272,51.4168229826974],[0.464257186729571,51.4168154256292],[0.464245104053053,51.4165908436727],[0.464233021537594,51.4163662617091],[0.464220939183193,51.4161416797382],[0.464208856989846,51.41591709776],[0.46456801341039,51.4159095396271],[0.4649271696699,51.4159019803909],[0.465286326262722,51.4158944209861],[0.465645482882486,51.4158868608294],[0.465633393584807,51.4156622788443],[0.465992548257941,51.4156547175971],[0.465980457330647,51.415430135617],[0.465968366561886,51.4152055536295],[0.466327517500291,51.4151979913045],[0.466315425101983,51.4149734093222],[0.466674574093794,51.4149658459067],[0.466662480065983,51.4147412639295],[0.466303332862228,51.4147488273324],[0.466291240781021,51.4145242453351],[0.46627914885836,51.4142996633305],[0.466267057094245,51.4140750813184],[0.465907915096013,51.4140826435805],[0.46592000507214,51.4143072256052],[0.465560861127436,51.414314786777],[0.46557294947407,51.4145393688068],[0.46521380358289,51.4145469288882],[0.465225890299985,51.4147715109231],[0.464866742848111,51.414779070488],[0.464507595723976,51.414786629676],[0.464495512669888,51.414562047664],[0.464136367211739,51.4145696057392],[0.464124286145692,51.4143450237103],[0.464112205240676,51.4141204416743],[0.464100124496692,51.4138958596309],[0.464088043913732,51.4136712775804],[0.464075963491796,51.4134466955226],[0.463716827007355,51.4134542524465],[0.463704748573312,51.4132296703718],[0.463345613754787,51.4132372261829],[0.463333537308588,51.4130126440914],[0.463321461023357,51.4127880619927],[0.462962329697583,51.4127956166815],[0.462950255400125,51.4125710345659],[0.462591125740258,51.412578588142],[0.462231995919516,51.412586140615],[0.461872865937922,51.4125936919849],[0.461860797281768,51.4123691098333],[0.461848728786483,51.4121445276744],[0.461836660452061,51.4119199455083],[0.46147753578995,51.4119274957464],[0.461465469443114,51.4117029135635],[0.461453403257114,51.4114783313734],[0.461441337231947,51.411253749176],[0.461800456413955,51.4112461989666],[0.462159575435152,51.4112386476542],[0.462147505917509,51.4110140654687],[0.462135436560741,51.410789483276],[0.461776321192823,51.4107970345693],[0.461417205664098,51.4108045847596],[0.461405140121413,51.4105800025405],[0.46176425382353,51.4105724523598],[0.461752186615082,51.410347870143],[0.461393074739549,51.4103554203141],[0.461381009518505,51.4101308380805],[0.461021899308758,51.4101383871391],[0.46103396270324,51.4103629693822],[0.460674850506176,51.4103705173473],[0.460686912234864,51.4105950995928],[0.460698974124327,51.410819681831],[0.460339858113326,51.4108272287122],[0.459980741941614,51.4108347744904],[0.459968683705386,51.4106101922331],[0.459609569199608,51.4106177368987],[0.459250454533168,51.4106252804613],[0.458891339706091,51.4106328229209],[0.4585322247184,51.4106403642774],[0.458520173949308,51.4104157819749],[0.458508123340848,51.4101911996651],[0.458496072893017,51.409966617348],[0.458484022605814,51.4097420350237],[0.458471972479235,51.4095174526922],[0.458112866463765,51.4095249928983],[0.4581008183243,51.40930041055]]],[[[0.466327517500291,51.4151979913045],[0.466339610057155,51.4154225732794],[0.466351702772574,51.4156471552469],[0.466363795646555,51.415871737207],[0.466722951790814,51.4158641737412],[0.467082107776526,51.4158566091724],[0.467441263603665,51.4158490435006],[0.467429165365253,51.4156244615783],[0.46741706728547,51.4153998796486],[0.467776219377761,51.415392312899],[0.467764119668513,51.4151677309744],[0.468123269814104,51.4151601631344],[0.468111168475433,51.414935581215],[0.468099067295432,51.4147109992882],[0.467739920725952,51.414718567103],[0.467727821492635,51.4144939851562],[0.467715722417956,51.4142694032019],[0.467356579265896,51.4142769698885],[0.467368676552575,51.4145015518554],[0.467380773997868,51.4147261338148],[0.467021627111204,51.4147336994237],[0.467033722927068,51.4149582813883],[0.466674574093794,51.4149658459067],[0.466686668280179,51.4151904278765],[0.466327517500291,51.4151979913045]]],[[[0.461021899308758,51.4101383871391],[0.46100983607507,51.4099138048887],[0.461368944458276,51.4099062558397],[0.461728052680711,51.4098987056877],[0.462087160742352,51.4098911544328],[0.462075092189911,51.4096665722039],[0.462063023798328,51.4094419899677],[0.462422128046156,51.4094344376289],[0.462434198264224,51.4096590198555],[0.462793304177697,51.4096514664042],[0.462805376383151,51.4098760486139],[0.463164483962264,51.40986849405],[0.463523591380487,51.4098609383831],[0.463882698637797,51.4098533816132],[0.463894776483729,51.4100779637868],[0.464253885406619,51.4100704059043],[0.464612994168547,51.4100628469188],[0.464600912669582,51.4098382647645],[0.464588831331641,51.4096136826028],[0.46422972622272,51.409621241569],[0.463870620952843,51.4096287994323],[0.463858543428862,51.4094042172441],[0.463499439824523,51.4094117739948],[0.463511515522031,51.4096363561926],[0.463152409930307,51.4096439118498],[0.463140336059277,51.4094193296425],[0.462781232133147,51.4094268841872],[0.462769160249499,51.409202301963],[0.462757088526748,51.4089777197315],[0.462745019874161,51.4087531395371],[0.462732954335957,51.40852856141],[0.462373857225463,51.4085361145587],[0.462014759960241,51.4085436666099],[0.462002698049324,51.4083190882925],[0.461643602365634,51.4083266391573],[0.461631542345704,51.4081020607385],[0.461272448243552,51.4081096104169],[0.461284506527265,51.4083341889245],[0.461296564965704,51.4085587674195],[0.461308623558875,51.408783345902],[0.460949524093339,51.4087908947492],[0.460590424473164,51.4087984424989],[0.460231324698369,51.408805989151],[0.460219271314003,51.4085814104021],[0.459860173120886,51.4085889558678],[0.459872224768979,51.4088135347055],[0.459513124685016,51.4088210791624],[0.459525178831946,51.4090456608282],[0.459166076951221,51.4090532043242],[0.459178130409489,51.4092777866513],[0.459190184028422,51.409502368971],[0.459202237808024,51.4097269512836],[0.459561345168202,51.409719407759],[0.459573400935005,51.4099439900548],[0.459585456862506,51.4101685723433],[0.459944567715111,51.4101610276968],[0.459956625629886,51.4103856099685],[0.460315738148384,51.4103780642094],[0.460303678407038,51.4101534819472],[0.460662788938262,51.4101459350946],[0.461021899308758,51.4101383871391]]]]}}