{"type":"Feature","properties":{"code":"E63001227","name":"Clifton (Salford)"},"geometry":{"type":"MultiPolygon","coordinates":[[[[-2.35977943975575,53.5328038081343],[-2.35977753668557,53.5325791057687],[-2.36015469763723,53.5325779598555],[-2.36015660274726,53.5328026622765],[-2.36015850788334,53.5330273646896],[-2.36016041304547,53.5332520670949],[-2.35978324597416,53.5332532128418],[-2.35978134285195,53.533028510492],[-2.35940417779449,53.533029655104],[-2.35940227673818,53.5328049528017],[-2.35977943975575,53.5328038081343]]],[[[-2.35940227673818,53.5328049528017],[-2.35902511369458,53.5328060962789],[-2.35902321470412,53.5325813940243],[-2.35864605367438,53.5325825363667],[-2.35864415674971,53.5323578341597],[-2.35826699773384,53.5323589753673],[-2.35826510287491,53.5321342732079],[-2.35788794587289,53.5321354132807],[-2.35788605307965,53.5319107111691],[-2.3575088980915,53.5319118501071],[-2.35751078884497,53.5321365521633],[-2.35713363179116,53.5321376898555],[-2.35713552053068,53.5323623918483],[-2.35713740929603,53.5325870938332],[-2.35676024813673,53.5325882302241],[-2.35676213488805,53.5328129321456],[-2.35676402166517,53.5330376340592],[-2.35638685640029,53.5330387691488],[-2.3560096911096,53.533039903048],[-2.35601157383269,53.5332646048426],[-2.35563440647632,53.533265737496],[-2.35563628718522,53.5334904392272],[-2.35525911776315,53.5334915706347],[-2.35526099528248,53.5337162686154],[-2.35488382373252,53.5337173986519],[-2.35450665215597,53.5337185274965],[-2.35412948055285,53.5337196551492],[-2.35413135078438,53.5339443495817],[-2.35375417702322,53.5339454758235],[-2.35337700323555,53.5339466008735],[-2.3529998294214,53.5339477247316],[-2.35262265558081,53.5339488473977],[-2.35262079387535,53.5337241538409],[-2.35224362213986,53.533725275534],[-2.35186645037797,53.5337263960353],[-2.35148927858973,53.5337275153447],[-2.35148742213225,53.5335028192416],[-2.35111025217751,53.5335039331817],[-2.35110839601811,53.5332792321079],[-2.35073122811338,53.533280344082],[-2.35035406018243,53.5332814548656],[-2.34997689222527,53.5332825644587],[-2.34997504246701,53.5330578635993],[-2.34959787660866,53.533058972076],[-2.34959602900148,53.5328342712829],[-2.34921886524194,53.5328353786432],[-2.34884170145629,53.532836484813],[-2.34883985812504,53.5326117841604],[-2.34846269643823,53.5326128892138],[-2.34808553472537,53.5326139930768],[-2.34808369566995,53.5323892925646],[-2.34808185664053,53.5321645920448],[-2.3477046991514,53.5321656948655],[-2.34770286227281,53.531940994412],[-2.34770102542019,53.5317162939508],[-2.34732387215469,53.5317173957294],[-2.34694671886324,53.5317184963175],[-2.34694488628613,53.5314937959969],[-2.34656773509352,53.5314948954687],[-2.34619058387501,53.5314959937502],[-2.34581343263063,53.5314970908413],[-2.34581160645368,53.5312723907353],[-2.34580978030256,53.5310476906217],[-2.34580795417726,53.5308229905002],[-2.34618509904748,53.5308218931867],[-2.34618327082335,53.5305971929835],[-2.34580612807779,53.5305982903711],[-2.34542898530638,53.5305993865684],[-2.34543080928119,53.5308240866234],[-2.3454326332818,53.5310487866707],[-2.3454344573082,53.5312734867102],[-2.34505730813691,53.5312745814947],[-2.34468015893983,53.5312756750888],[-2.34467833916286,53.5310509751976],[-2.34430119206475,53.5310520676755],[-2.34392404494091,53.531053158963],[-2.34354689779137,53.5310542490602],[-2.34354508441423,53.5308295493839],[-2.34354327106275,53.5306048496998],[-2.3431661281369,53.5306059387551],[-2.34316431693571,53.5303812391375],[-2.34316250576014,53.5301565395122],[-2.3427853670579,53.5301576275256],[-2.34278717610886,53.5303823270766],[-2.3424100352564,53.5303834138254],[-2.34203289437837,53.5303844993838],[-2.34203108957663,53.5301597999813],[-2.34165395079765,53.5301608844236],[-2.34165214814604,53.5299361850876],[-2.34127501146613,53.5299372684139],[-2.34127321096459,53.5297125691444],[-2.34089607638373,53.5297136513546],[-2.34089787476072,53.5299383505499],[-2.34089967316316,53.5301630497374],[-2.34052253430771,53.5301641306088],[-2.34014539542681,53.53016521029],[-2.33976825652052,53.5301662887807],[-2.33976646449183,53.5299415898161],[-2.33938932768474,53.5299426671908],[-2.33938753780598,53.5297179682928],[-2.33938574795257,53.5294932693869],[-2.33938395812449,53.5292685704734],[-2.33938216832176,53.5290438715521],[-2.33938037854437,53.5288191726232],[-2.33937858879232,53.5285944736864],[-2.33937679906561,53.528369774742],[-2.33899967710448,53.5283708514467],[-2.33862255511804,53.5283719269611],[-2.33824543310632,53.5283730012853],[-2.33824364977803,53.5281483025561],[-2.33824186647499,53.5279236038192],[-2.33824008319721,53.5276989050745],[-2.33786296753323,53.5276999784315],[-2.33786118640498,53.5274752797535],[-2.33748407284004,53.5274763519946],[-2.33748229386126,53.5272516533832],[-2.33748051490768,53.5270269547641],[-2.33785762422415,53.5270258823743],[-2.33785584317157,53.5268011836731],[-2.3374787359793,53.5268022561372],[-2.33710162876183,53.5268033274112],[-2.3370998519828,53.526578628851],[-2.33672274686433,53.5265796990091],[-2.33634564172072,53.5265807679772],[-2.33634386921514,53.5263560695579],[-2.33634209673466,53.526131371131],[-2.33634032427929,53.5259066726963],[-2.3359632254829,53.5259077406973],[-2.33558612666143,53.5259088075082],[-2.33558435847928,53.5256841092146],[-2.33520726175681,53.5256851749098],[-2.33520902781491,53.525909873129],[-2.33483192894337,53.5259109375597],[-2.33445482964886,53.5259119933181],[-2.33445306773237,53.5256872951205],[-2.33445130583966,53.5254625969143],[-2.33407421042278,53.5254636497039],[-2.33407597031893,53.5256883479385],[-2.33369887288175,53.5256893995674],[-2.33370063080505,53.5259140978218],[-2.33332353134756,53.5259151482899],[-2.33332528729796,53.526139846564],[-2.33294818582016,53.5261408958713],[-2.33294993979761,53.5263655941651],[-2.3325728362995,53.5263666423117],[-2.33219573277774,53.526367689269],[-2.33219748278551,53.5265923876109],[-2.33182037724347,53.5265934334074],[-2.33182212527816,53.5268181317689],[-2.33144501771583,53.5268191764046],[-2.33144676377738,53.5270438747857],[-2.33106965419476,53.5270449182606],[-2.33069254458861,53.5270459605463],[-2.33031543495895,53.5270470016427],[-2.32993832530582,53.52704804155],[-2.32956121562924,53.527049080268],[-2.32955947955134,53.5268243817453],[-2.32918237184807,53.5268254192459],[-2.3291806377903,53.5266007206862],[-2.32917890375594,53.5263760221178],[-2.32917716974498,53.5261513235408],[-2.32880006800834,53.5261523597673],[-2.3287983360174,53.5259276611533],[-2.32879660404984,53.5257029625306],[-2.32841950628305,53.5257039975114],[-2.32841777633543,53.5254792988518],[-2.32804068054188,53.5254803326152],[-2.32803895255617,53.5252556338456],[-2.32803722047617,53.5250309298801],[-2.32803548841987,53.5248062259066],[-2.32803375638728,53.5245815219252],[-2.32803202437839,53.5243568179359],[-2.3280302923932,53.5241321139388],[-2.32802856043171,53.5239074099336],[-2.32765147886325,53.5239084428437],[-2.32765320878608,53.5241331467923],[-2.32727612515527,53.5241341784559],[-2.32689904150079,53.5241352089296],[-2.32652195782268,53.5241362382134],[-2.32614487412095,53.5241372663074],[-2.32576779039565,53.5241382932115],[-2.32539070664678,53.5241393189256],[-2.32539242436119,53.5243640225271],[-2.32501533855012,53.5243650469948],[-2.32501705424933,53.5245897505317],[-2.32463996637604,53.524590773753],[-2.32426287847928,53.5245917957843],[-2.32388579055908,53.5245928166258],[-2.323884080976,53.5243681132587],[-2.32350699507109,53.5243691329669],[-2.32350528755011,53.5241444296484],[-2.3235035800525,53.5239197263221],[-2.32312649820154,53.5239207449536],[-2.32312479276593,53.523696041676],[-2.32274771293025,53.5236970591743],[-2.32274600955659,53.5234723559454],[-2.32236893173618,53.5234733723105],[-2.32199185389246,53.5234743874858],[-2.32199015461928,53.5232496843622],[-2.32161307879086,53.5232506984043],[-2.32161138157949,53.5230259953295],[-2.32160968439135,53.5228012922468],[-2.32198675614269,53.5228002780914],[-2.3219850569393,53.5225755749441],[-2.32198335775916,53.5223508717889],[-2.32160629008478,53.5223518860576],[-2.32122922238716,53.5223528991365],[-2.32085215466631,53.5223539110257],[-2.32085384773104,53.5225786140109],[-2.32047677794853,53.5225796246536],[-2.32047846899794,53.5228043275742],[-2.32010139715377,53.5228053369703],[-2.31972432528646,53.5228063451767],[-2.31972601228197,53.5230310479759],[-2.32010308618781,53.5230300398263],[-2.32010477524497,53.5232547426743],[-2.32010646432525,53.5234794455145],[-2.31972938634228,53.5234804535507],[-2.3193523083362,53.5234814603971],[-2.31897523030703,53.5234824660536],[-2.3185981522548,53.5234834705203],[-2.31822107417955,53.5234844737972],[-2.31784399561653,53.5234854746805],[-2.31784231873689,53.5232607721326],[-2.31746524192008,53.5232617712318],[-2.31746356706046,53.5230370686728],[-2.3170864922185,53.5230380665799],[-2.31708481937884,53.5228133640097],[-2.31670774651171,53.5228143607249],[-2.31633067362205,53.5228153562508],[-2.31632900479967,53.5225906536667],[-2.31632733599978,53.5223659510743],[-2.31632566722237,53.5221412484734],[-2.31670273412001,53.5221402529556],[-2.3167010633678,53.5219155503489],[-2.3166993926381,53.5216908477337],[-2.31669772193092,53.5214661451101],[-2.31632066102507,53.5214671406199],[-2.31632232973502,53.5216918432462],[-2.31594526680943,53.5216928375694],[-2.31594693354461,53.5219175401899],[-2.31594860030224,53.5221422428019],[-2.31595026708233,53.5223669454055],[-2.31595193388488,53.5225916480007],[-2.31557486294762,53.5225926411453],[-2.31557652777526,53.5228173437347],[-2.31519945481819,53.5228183356927],[-2.31520111767087,53.5230430382763],[-2.31557819262534,53.5230420463156],[-2.31595526755737,53.5230410531656],[-2.3159569344273,53.5232657557354],[-2.31633401133427,53.5232647613934],[-2.31633568022412,53.523489463952],[-2.31671275910604,53.5234884684181],[-2.31708983796543,53.5234874716949],[-2.31709151087272,53.5237121742397],[-2.31746859170703,53.5237111763244],[-2.31747026663436,53.523935878858],[-2.31784734944359,53.5239348797508],[-2.31822443202327,53.5239338788864],[-2.31822611097962,53.5241585814191],[-2.31860319517079,53.5241575783124],[-2.31860487618882,53.5243822808939],[-2.31822778995896,53.5243832839438],[-2.31785070336104,53.5243842847872],[-2.31747361655672,53.5243852838999],[-2.31709652972982,53.5243862818233],[-2.31671944288037,53.5243872785573],[-2.31671777190301,53.5241625760352],[-2.31634068702858,53.5241635715772],[-2.31633901807127,53.523938869044],[-2.31596193517187,53.5239398633939],[-2.31596360213165,53.5241645659299],[-2.31596526911389,53.5243892684574],[-2.3159669361186,53.5246139709764],[-2.31634402501067,53.5246129766184],[-2.31672111388024,53.524611981071],[-2.31709820272728,53.5246109843343],[-2.31747529155176,53.5246099864082],[-2.31785238035366,53.5246089872928],[-2.31822946896129,53.5246079864607],[-2.31860655722986,53.5246069834675],[-2.31898364547541,53.5246059792846],[-2.31898532857822,53.524830681907],[-2.31936241883946,53.5248296765908],[-2.3197395090776,53.5248286700848],[-2.32011659929263,53.5248276623888],[-2.32049368948452,53.524826653503],[-2.32087077965324,53.5248256434273],[-2.32087247297296,53.5250503463253],[-2.32124956515725,53.5250493351164],[-2.32125126030753,53.5252740378101],[-2.32162835452006,53.5252730254794],[-2.32200544870973,53.5252720119595],[-2.32200714469269,53.5254967111068],[-2.32238424085603,53.5254956963697],[-2.32276133699646,53.5254946804434],[-2.32276303699547,53.5257193795258],[-2.32314013510954,53.5257183623823],[-2.32314183712809,53.5259430614279],[-2.3235189372158,53.5259420430671],[-2.32352064125395,53.5261667420759],[-2.32352234531509,53.5263914410761],[-2.32352404939923,53.5266161400676],[-2.32314694332155,53.5266171585128],[-2.32314864543197,53.5268418575237],[-2.32277153733461,53.5268428748079],[-2.32239442921431,53.5268438909028],[-2.3220173210711,53.5268449058085],[-2.321640212905,53.5268459195251],[-2.32126310471604,53.5268469320524],[-2.32088599650425,53.5268479433905],[-2.32050888826966,53.5268489535394],[-2.32013178001229,53.5268499624991],[-2.31975467173217,53.5268509702696],[-2.31937756342932,53.5268519768509],[-2.31900045510378,53.526852982243],[-2.31862334675557,53.5268539864459],[-2.31862502492807,53.5270786857849],[-2.31824791456047,53.5270796888266],[-2.31787080417869,53.5270806900012],[-2.31749369378029,53.5270816895334],[-2.31749202152238,53.5268569900668],[-2.31711491305138,53.5268579883579],[-2.31673780455826,53.5268589854601],[-2.31673947291708,53.5270836850308],[-2.31636236245233,53.5270846809959],[-2.31636069604305,53.5268599813732],[-2.31598358750577,53.5268609760974],[-2.31598525196551,53.5270856757721],[-2.31560814145665,53.5270866693592],[-2.31523103092578,53.5270876617574],[-2.31485392037292,53.5270886529665],[-2.3144768097981,53.5270896429866],[-2.31447515313653,53.5268649431039],[-2.31409804448932,53.5268659318831],[-2.3137209358202,53.5268669194732],[-2.31372258858269,53.5270916194598],[-2.31334547794214,53.5270926059129],[-2.3133438271292,53.5268679058743],[-2.31296671841634,53.5268688910865],[-2.31258960968165,53.5268698751096],[-2.31221250092516,53.5268708579437],[-2.3118353921469,53.5268718395888],[-2.31145828334688,53.5268728200448],[-2.31108117452514,53.5268737993119],[-2.31108281364081,53.5270984996618],[-2.31070570284782,53.5270994777918],[-2.3107040656817,53.5268747773899],[-2.31070242853724,53.5266500769793],[-2.31032532162165,53.5266510538164],[-2.31032368644836,53.526426353345],[-2.31032205129672,53.5262016528647],[-2.31032041616671,53.5259769523754],[-2.31031878105836,53.5257522518774],[-2.31031714597164,53.5255275513704],[-2.31069424314003,53.5255265747925],[-2.31069260612559,53.5253018743285],[-2.31069096742505,53.5250771721921],[-2.3103138742034,53.5250781487149],[-2.30993678095967,53.5250791240482],[-2.3095596876939,53.5250800981922],[-2.30918259440611,53.5250810711469],[-2.30918096331402,53.5248563685982],[-2.30880387200188,53.524857340361],[-2.30880550109633,53.5250820429121],[-2.30842840776458,53.525083013488],[-2.30842678066778,53.5248583109344],[-2.30842515359291,53.5246336083722],[-2.30880224292939,53.5246326378013],[-2.30880061387885,53.5244079352332],[-2.30842352653996,53.5244089058017],[-2.30804643917913,53.5244098751808],[-2.30804481414567,53.5241851725993],[-2.30804318913411,53.5239604700093],[-2.30766610574648,53.5239614381941],[-2.30766448275432,53.5237367355933],[-2.30766285978404,53.5235120329839],[-2.30766123683563,53.5232873303661],[-2.30765961390909,53.5230626277399],[-2.30765799100441,53.5228379251052],[-2.30803506440476,53.5228369569327],[-2.30803343952457,53.522612254292],[-2.3076563681216,53.5226132224621],[-2.30765474526066,53.5223885198105],[-2.30727767583316,53.5223894867888],[-2.30727605499141,53.5221647841262],[-2.30727443417151,53.5219400814553],[-2.30727281337344,53.5217153787759],[-2.3072711925972,53.521490676088],[-2.30726957184281,53.5212659733916],[-2.30726795111026,53.5210412706869],[-2.30726633039954,53.5208165679736],[-2.30726470971067,53.5205918652519],[-2.30726308904362,53.5203671625218],[-2.30764014049618,53.5203661955656],[-2.30763851785389,53.5201414928294],[-2.30763689523347,53.5199167900848],[-2.30763527263491,53.5196920873317],[-2.30763365005821,53.5194673845702],[-2.30801069350073,53.5194664164347],[-2.30800906894892,53.5192417136672],[-2.308007444419,53.5190170108912],[-2.3083844838457,53.5190160415715],[-2.30876152325047,53.5190150710627],[-2.30876315177428,53.5192397738337],[-2.30914019315404,53.5192388021333],[-2.30914182369676,53.5194635048933],[-2.30914345426146,53.5196882076449],[-2.30952049961321,53.5196872347504],[-2.3095221321969,53.519911937491],[-2.30952376480259,53.5201366402232],[-2.3099008141264,53.5201356661345],[-2.30990244875117,53.5203603688557],[-2.31027950005002,53.5203593935753],[-2.31028113669392,53.5205840962856],[-2.31065818996781,53.5205831198135],[-2.31103524321962,53.5205821421522],[-2.31103688387983,53.5208068448489],[-2.31141393910664,53.5208058659959],[-2.31141558178612,53.5210305686816],[-2.31141722448773,53.5212552713588],[-2.31179428368674,53.5212542913115],[-2.3117959284077,53.5214789939777],[-2.31217298958175,53.5214780127386],[-2.31217463632211,53.5217027153938],[-2.31179757315082,53.5217036966355],[-2.31142050995736,53.521704676688],[-2.31142215272537,53.5219293793399],[-2.3110450875125,53.5219303582057],[-2.31104672830536,53.5221550608516],[-2.31104836912033,53.5223797634892],[-2.3110500099574,53.5226044661182],[-2.31067293873045,53.5226054438024],[-2.31029586748139,53.5226064202973],[-2.31029750434583,53.522831122923],[-2.31067457759226,53.5228301464256],[-2.31105165081659,53.5228291687389],[-2.31105329169789,53.523053871351],[-2.3114303668975,53.5230528924725],[-2.31143200979833,53.5232775950736],[-2.31180908697322,53.5232766150032],[-2.31218616412593,53.5232756337435],[-2.31256324125643,53.5232746512946],[-2.3129403183647,53.5232736676563],[-2.31294196927749,53.5234983702387],[-2.31294362021252,53.5237230728126],[-2.3129452711698,53.5239477753781],[-2.31294692214933,53.5241724779351],[-2.31332400722531,53.5241714930971],[-2.31332566022465,53.5243961956431],[-2.31332731324626,53.5246208981806],[-2.31332896629014,53.5248456007097],[-2.3137060573366,53.5248446146745],[-2.3137077124004,53.5250693171925],[-2.31408480542218,53.5250683299654],[-2.31408314836074,53.52484362745],[-2.31408149132163,53.5246189249262],[-2.31407983430484,53.5243942223939],[-2.31407817731039,53.5241695198532],[-2.31445526231943,53.5241685314472],[-2.31445360334978,53.5239438289006],[-2.31407652033827,53.523944817304],[-2.31407486338847,53.5237201147463],[-2.31445194440247,53.5237191263456],[-2.31445028547752,53.5234944237821],[-2.31444862657493,53.5232697212102],[-2.31444696769469,53.5230450186298],[-2.31406989267304,53.5230460070226],[-2.31369281762905,53.5230469942262],[-2.31369116276596,53.5228222916321],[-2.31406823581255,53.5228213044312],[-2.31406657897438,53.5225966018312],[-2.31406492215855,53.5223718992229],[-2.31368785310667,53.5223728864185],[-2.31368619831047,53.5221481837991],[-2.3133091312336,53.5221491698029],[-2.31330747845699,53.5219244671724],[-2.31368454353657,53.5219234811712],[-2.31406160859384,53.5219224939807],[-2.31406326536503,53.522147196606],[-2.31444033239725,53.5221462082237],[-2.31444199118809,53.5223709108379],[-2.31481906019526,53.5223699212637],[-2.31481739940711,53.5221452186521],[-2.31481573864135,53.5219205160321],[-2.31481407789796,53.5216958134036],[-2.31519114089087,53.5216948226481],[-2.31518947817263,53.5214701200138],[-2.31481241717694,53.5214711107667],[-2.31481075647831,53.5212464081213],[-2.31443369745744,53.5212473976823],[-2.31443203877837,53.5210226950258],[-2.31405498173232,53.521023683395],[-2.31405663841422,53.5212483860541],[-2.31367957934865,53.5212493732367],[-2.31330252026078,53.5212503592301],[-2.31292546115063,53.5212513440342],[-2.31254840201822,53.5212523276492],[-2.31254675332505,53.5210276249797],[-2.3121696961676,53.5210286074028],[-2.31216804949381,53.5208039047223],[-2.31179099431131,53.5208048859537],[-2.31178934965684,53.5205801832621],[-2.31178770502453,53.520355480562],[-2.31141065381409,53.5203564605991],[-2.31140901120101,53.520131757888],[-2.31178606041437,53.5201307778535],[-2.31178441582638,53.5199060751365],[-2.31216146302051,53.5199050939154],[-2.31215981645765,53.5196803911925],[-2.31215816991698,53.5194556884612],[-2.31178112671686,53.5194566696772],[-2.31177948219534,53.5192319669349],[-2.31177783769598,53.5190072641841],[-2.31215487690219,53.5190062829732],[-2.3125319160862,53.5190053005733],[-2.31253026761517,53.5187805978192],[-2.31290730478004,53.5187796142327],[-2.31290895524798,53.5190043169842],[-2.31291060573817,53.5192290197273],[-2.3129122562506,53.5194537224619],[-2.31291390678526,53.519678425188],[-2.31253686163257,53.5196794087848],[-2.31253851019245,53.5199041115051],[-2.31254015877454,53.5201288142169],[-2.3129172079213,53.5201278306149],[-2.31291885852269,53.5203525333157],[-2.31254180737885,53.5203535169203],[-2.31254345600537,53.5205782196152],[-2.31292050914631,53.520577236008],[-2.31292215979217,53.5208019386919],[-2.31329921490799,53.5208009538929],[-2.313297562265,53.5205762512116],[-2.31329590964427,53.5203515485219],[-2.31367296074357,53.520350562539],[-2.3136746153614,53.5205752652261],[-2.3140516684355,53.5205742780514],[-2.31442872148726,53.5205732896874],[-2.31442706287523,53.5203485870056],[-2.31480411390753,53.5203475974551],[-2.31518116491744,53.5203466067155],[-2.31555821590494,53.5203456147867],[-2.31555988050827,53.5205703174606],[-2.31556154513403,53.5207950201261],[-2.31593860009331,53.5207940270028],[-2.31593693347043,53.52056932434],[-2.31631398641011,53.5205683300302],[-2.31631565503013,53.5207930326903],[-2.31669270994444,53.5207920371886],[-2.31706976483623,53.5207910404977],[-2.31744681970547,53.5207900426176],[-2.31782387455214,53.5207890435484],[-2.31782219794363,53.5205643408991],[-2.3178205213577,53.5203396382413],[-2.31781884479437,53.5201149355751],[-2.317441795939,53.5201159346362],[-2.31706474706105,53.5201169325082],[-2.3170630745144,53.5198922298281],[-2.31706140199028,53.5196675271395],[-2.31668435708385,53.5196685238169],[-2.31630731215489,53.5196695193051],[-2.31630564364729,53.5194448166027],[-2.31630397516217,53.5192201138919],[-2.31668101609717,53.519219118409],[-2.3166793456376,53.5189944156924],[-2.31667767520053,53.5187697129673],[-2.31667600478597,53.5185450102338],[-2.31667433439392,53.5183203074918],[-2.31705136731881,53.5183193108306],[-2.31704969495243,53.5180946080829],[-2.31742672585796,53.5180936102353],[-2.31780375674091,53.5180926111986],[-2.31780208040346,53.5178679084479],[-2.3178004040886,53.5176432056886],[-2.31817743057789,53.5176422047526],[-2.31817575228808,53.51741750199],[-2.31855277533121,53.5174164971811],[-2.31855109502653,53.5171917943538],[-2.31892811600881,53.5171907882986],[-2.31892643368932,53.5169660854067],[-2.31930345261073,53.5169650781052],[-2.31930513696803,53.5171897810538],[-2.31968215790419,53.5171887726195],[-2.31968047150907,53.5169640696141],[-2.32005749038431,53.5169630599335],[-2.3200558014898,53.5167383559249],[-2.32043281829575,53.5167373449718],[-2.32080983507848,53.5167363328288],[-2.32081152806537,53.5169610370036],[-2.32118854687114,53.5169600237543],[-2.32156556565371,53.5169590093154],[-2.3215672622379,53.5171837126041],[-2.32194428303503,53.5171826970323],[-2.3223213038089,53.517181680271],[-2.322323004492,53.5174063836651],[-2.32270002728041,53.5174053657708],[-2.32270173002465,53.5176300692135],[-2.32307875482761,53.5176290501863],[-2.32345577960722,53.5176280299694],[-2.32345748645055,53.5178527335175],[-2.32383451324468,53.5178517121677],[-2.3242115400154,53.5178506896282],[-2.32421325095793,53.5180753932816],[-2.32459027974314,53.5180743696091],[-2.32496730850489,53.518073344747],[-2.32496902354673,53.5182980485056],[-2.32534605432293,53.5182970225104],[-2.32534777142621,53.5185217263177],[-2.32572480421687,53.5185206991894],[-2.32610183698399,53.5185196708716],[-2.32610355818677,53.518744374784],[-2.32648059296832,53.518743345333],[-2.32685762772626,53.5187423146924],[-2.32685935302865,53.51896701871],[-2.32723638980099,53.5189659869362],[-2.32723811716504,53.5191906910024],[-2.32761515595178,53.5191896580955],[-2.32799219471483,53.5191886239989],[-2.32799392617868,53.5194133281702],[-2.32837096695611,53.5194122929404],[-2.32874800770979,53.5194112565209],[-2.32874974327354,53.5196359607973],[-2.32912678604156,53.5196349232446],[-2.3291285236672,53.5198596275695],[-2.32913026131661,53.5200843318864],[-2.32950730813713,53.520083293257],[-2.32988435493382,53.5200822534378],[-2.33026140170667,53.520081212429],[-2.33025965794278,53.5198565079427],[-2.33063670265359,53.5198554656876],[-2.33101374734049,53.5198544222429],[-2.3310119995242,53.5196297176359],[-2.33138904214904,53.519628672945],[-2.33176608474991,53.5196276270645],[-2.33176433288133,53.5194029223367],[-2.33214137342012,53.5194018752101],[-2.3321431273268,53.5196265799942],[-2.33252016987968,53.5196255317343],[-2.33289721240851,53.5196244822846],[-2.33289545442562,53.5193997773877],[-2.33251841393489,53.5194008268937],[-2.33251665801412,53.5191761220453],[-2.33251490211738,53.5189514171889],[-2.33251314624465,53.5187267123246],[-2.33213611184402,53.5187277608101],[-2.33213786567872,53.518952465618],[-2.33176082921606,53.5189535128574],[-2.33176258103671,53.519178217601],[-2.33138554251201,53.5191792635943],[-2.3313837927294,53.5189545589071],[-2.33100675621879,53.5189556037672],[-2.33100500849814,53.5187308991285],[-2.33100326080141,53.5185061944819],[-2.33062622834288,53.5185072382652],[-2.33024919586045,53.5185082808587],[-2.33024745226355,53.5182835763171],[-2.32987042179521,53.5182846177775],[-2.32949339130303,53.5182856580482],[-2.32911636078702,53.5182866971293],[-2.3291146233278,53.5180619927491],[-2.32873759482594,53.518063030697],[-2.32873585942841,53.5178383263653],[-2.3283588329407,53.5178393631801],[-2.32836056630032,53.5180640674553],[-2.32798353775096,53.518065103024],[-2.32798180642926,53.5178403988052],[-2.32760477989411,53.5178414332408],[-2.32760305063398,53.5176167290707],[-2.32760132139752,53.5173920248926],[-2.32759959218472,53.5171673207066],[-2.32722257173947,53.5171683541221],[-2.32722429891444,53.5173930582515],[-2.3268472764077,53.5173940904209],[-2.32684555127056,53.5171693863479],[-2.32646853077804,53.5171704173842],[-2.32646680770232,53.5169457133599],[-2.326089789224,53.5169467432631],[-2.32608806758316,53.5167220379003],[-2.32571105112841,53.5167230667002],[-2.32570933149373,53.5164983612741],[-2.32533231706,53.5164993889661],[-2.3253305994935,53.516274683614],[-2.32495358708078,53.516275710198],[-2.32495187158241,53.51605100492],[-2.32495015610757,53.5158262996343],[-2.32457314776041,53.5158273251922],[-2.32457486119071,53.516052030396],[-2.32419785077549,53.5160530546823],[-2.32419613938973,53.5158283495603],[-2.32381913099555,53.5158293727386],[-2.32344212257791,53.5158303947272],[-2.32344041530465,53.5156056897611],[-2.32306340890808,53.5156067106418],[-2.32306170370274,53.5153820057499],[-2.32268469932725,53.5153830255226],[-2.32268299618975,53.5151583207049],[-2.32268129307562,53.5149336158795],[-2.32230429276564,53.5149346346263],[-2.32230259171928,53.514709929875],[-2.32230089069626,53.514485225116],[-2.32267788691745,53.5144842062056],[-2.32267618387341,53.514259501357],[-2.32267448085273,53.5140347965008],[-2.32305147296186,53.5140337762369],[-2.32304976792025,53.5138090712912],[-2.32267277785541,53.5138100916369],[-2.32229578776719,53.513811110793],[-2.3222940868375,53.5135864060033],[-2.3219170987702,53.5135874240516],[-2.32191539990809,53.513362719336],[-2.3215384138617,53.5133637362765],[-2.32153671706711,53.5131390316352],[-2.3215350202958,53.5129143269861],[-2.32115803831452,53.5129153429007],[-2.32115634361065,53.5126906383258],[-2.32077936365027,53.5126916531328],[-2.32077767101377,53.5124669486321],[-2.32040069307429,53.5124679623313],[-2.32039900250512,53.5122432579048],[-2.3207759784005,53.5122422441237],[-2.32115295427264,53.512241229153],[-2.32152993012151,53.5122402129927],[-2.32190690594709,53.5122391956428],[-2.32190520722481,53.5120144908811],[-2.32152823344331,53.5120155083128],[-2.32152653678837,53.5117908036253],[-2.32114956502763,53.5117918199493],[-2.32114787044,53.5115671153359],[-2.32077090070001,53.5115681305523],[-2.32077259324362,53.5117928350838],[-2.32039562143638,53.5117938490287],[-2.32001864960592,53.5117948617841],[-2.32001696115036,53.5115701574164],[-2.31963999134075,53.5115711690641],[-2.31926302150798,53.5115721795222],[-2.31926133716359,53.5113474753107],[-2.31888436935169,53.5113484846612],[-2.3185074015167,53.5113494928222],[-2.31813043365863,53.5113504997937],[-2.31775346336755,53.5113515009527],[-2.31737649281624,53.5113525004672],[-2.31737481864491,53.5111277965158],[-2.31699785008448,53.5111287948609],[-2.31662088150137,53.5111297920171],[-2.31661921137989,53.5109050880968],[-2.31624224478769,53.5109060840837],[-2.31624057670242,53.5106813801748],[-2.31586361210114,53.5106823749924],[-2.31586194605202,53.510457671095],[-2.31548498344165,53.5104586647434],[-2.31548664747725,53.5106833686211],[-2.31510968283078,53.5106843610608],[-2.31510802080871,53.5104596572028],[-2.31473105815321,53.5104606484732],[-2.31435409547518,53.5104616385547],[-2.31435243750265,53.5102369347279],[-2.31397547681563,53.5102379236402],[-2.31359851610613,53.5102389113636],[-2.31322155537419,53.510239897898],[-2.31321990346457,53.5100151941222],[-2.31284294472369,53.5100161794875],[-2.31284459461983,53.5102408832435],[-2.31284624453834,53.5104655869913],[-2.31284789447924,53.5106902907309],[-2.31284954444251,53.5109149944622],[-2.31247257762516,53.5109159785594],[-2.31209561078546,53.5109169614677],[-2.31171864392341,53.510917943187],[-2.3117202878683,53.5111426468506],[-2.31134331897036,53.5111436273611],[-2.31096635005014,53.5111446066827],[-2.31096471013242,53.5109199030587],[-2.31058774320352,53.5109208812111],[-2.3105861053216,53.5106961775987],[-2.31020914038404,53.510697154582],[-2.30983217542428,53.5106981303763],[-2.30983380927908,53.5109228339491],[-2.30945684228358,53.5109238085346],[-2.30945521044234,53.5106991049817],[-2.30907824543825,53.5107000783982],[-2.30907661563268,53.5104753748569],[-2.30907498584922,53.5102506713073],[-2.30907335608786,53.5100259677494],[-2.30869639710217,53.5100269400366],[-2.30869476937637,53.5098022364903],[-2.30831781238205,53.5098032076084],[-2.3083194380944,53.5100279111348],[-2.30794247906456,53.510028881044],[-2.30756552001269,53.5100298497644],[-2.3071885609388,53.5100308172958],[-2.30719018063276,53.5102555207542],[-2.30756714172013,53.5102545532427],[-2.30756876344956,53.5104792567127],[-2.30757038520099,53.5107039601744],[-2.30794735029339,53.5107029915138],[-2.30794897408038,53.5109276949872],[-2.3079505978894,53.5111523984523],[-2.30795222172044,53.5113771019092],[-2.30795384557351,53.5116018053578],[-2.30833081869829,53.5116008355878],[-2.30833244458706,53.511825539048],[-2.30833407049788,53.5120502425],[-2.30833569643075,53.5122749459437],[-2.30795871726488,53.512275915654],[-2.30796034120606,53.5125006190695],[-2.30796196516927,53.5127253224768],[-2.30758498195383,53.5127262909583],[-2.30758660392526,53.5129509943374],[-2.307209618674,53.5129519616099],[-2.3072112386536,53.5131766649609],[-2.30683425136651,53.5131776310244],[-2.30645726405747,53.5131785958989],[-2.30645888003132,53.5134032992017],[-2.30608189068648,53.5134042628672],[-2.30570490131973,53.5134052253437],[-2.30532791193111,53.5134061866311],[-2.30532630199885,53.5131814833881],[-2.30494931460223,53.5131824435064],[-2.30457232718379,53.5131834024357],[-2.30457072130105,53.5129586992244],[-2.30419373587465,53.5129596569846],[-2.30381675042648,53.5129606135557],[-2.30381514859313,53.5127359103763],[-2.30343816513703,53.5127368657784],[-2.30343656533921,53.5125121626106],[-2.30343496556308,53.5122874594346],[-2.30305798611281,53.5122884136877],[-2.30305638837211,53.5120637105234],[-2.3030547906531,53.5118390073509],[-2.30267781520857,53.5118399604551],[-2.3026762195249,53.5116152572943],[-2.30267462386288,53.5113905541253],[-2.30229765242402,53.5113915060805],[-2.30229605879727,53.5111668029233],[-2.30229446519214,53.5109420997578],[-2.30191749775887,53.5109430505641],[-2.30191590618892,53.5107183474104],[-2.30191431464057,53.5104936442484],[-2.30229127804674,53.5104926934019],[-2.30228968450647,53.5102679902116],[-2.30228809098781,53.510043287013],[-2.30228649749077,53.5098185838061],[-2.30228490401535,53.509593880591],[-2.30228331056155,53.5093691773676],[-2.30228171712936,53.5091444741359],[-2.30228012371879,53.508919770896],[-2.30227853032983,53.5086950676478],[-2.30190158303102,53.5086960186547],[-2.30189999165918,53.5084713153906],[-2.30189840029445,53.5082466120959],[-2.30227534351702,53.5082456609577],[-2.30227693692693,53.5084703643311],[-2.30265388217278,53.5084694120823],[-2.30303082739671,53.508468458644],[-2.30302922989643,53.5082437551133],[-2.30340617305322,53.5082428004071],[-2.30340777259868,53.5084675040165],[-2.30378471777868,53.5084665481996],[-2.30378631930852,53.5086912517317],[-2.30378792075078,53.50891595506],[-2.30378952221475,53.50914065838],[-2.30379112370045,53.5093653616918],[-2.30379272520788,53.5095900649953],[-2.30379432673703,53.5098147682905],[-2.303417369458,53.5098157239528],[-2.30341896899542,53.5100404272197],[-2.30342056855453,53.5102651304784],[-2.30304360722685,53.5102660849117],[-2.30304520479415,53.5104907881421],[-2.30342216813535,53.5104898337288],[-2.30379913145483,53.5104888781266],[-2.30417609475258,53.5104879213354],[-2.30417449114474,53.510263218045],[-2.30417288755865,53.5100385147463],[-2.30417128399432,53.5098138114393],[-2.30416968045173,53.5095891081241],[-2.30416807693091,53.5093644048006],[-2.30416647343183,53.5091397014688],[-2.30454342462714,53.5091387433688],[-2.30454181913647,53.5089140400088],[-2.30491876829664,53.5089130806998],[-2.30491716081442,53.5086883773116],[-2.30529410793945,53.5086874167938],[-2.30567105504264,53.5086864550872],[-2.30566944334801,53.5084617512748],[-2.30604638839555,53.5084607883218],[-2.30642333342092,53.5084598241794],[-2.30680027842409,53.5084588588477],[-2.30679866047199,53.508234154531],[-2.30717560340775,53.5082331879314],[-2.30717398343271,53.5080084835285],[-2.30755092430106,53.508007515661],[-2.30754930230313,53.5077828111717],[-2.30717236347991,53.5077837791178],[-2.30717074354935,53.5075590746993],[-2.30716912364103,53.507334370273],[-2.30754605837409,53.50733340217],[-2.30792299308486,53.5073324328776],[-2.30792461708333,53.5075571374609],[-2.30830155381686,53.5075561670577],[-2.30830317988271,53.5077808717117],[-2.30868011863901,53.5077799001976],[-2.30868174677231,53.5080046049224],[-2.30868337492795,53.5082293096394],[-2.30906031775216,53.508228337093],[-2.30906194797533,53.5084530418808],[-2.30943889282232,53.5084520682235],[-2.30944052486714,53.5086767726336],[-2.30981747172825,53.5086757978495],[-2.30981910538362,53.5089005014967],[-2.31019605423588,53.5088995255436],[-2.31019768992675,53.5091242292023],[-2.31057464077015,53.5091232520801],[-2.31057627849658,53.5093479557504],[-2.31095323133112,53.5093469774592],[-2.31095159159133,53.5091222737691],[-2.31094995187377,53.5088975700707],[-2.31132690065935,53.508896590551],[-2.31132525895072,53.5086718868245],[-2.31170220570071,53.5086709060961],[-2.31207915242839,53.5086699241788],[-2.31207750612186,53.5084452193204],[-2.31170056143241,53.5084462013032],[-2.31169891689301,53.5082214959663],[-2.31169727237617,53.5079967906216],[-2.3120742129753,53.507995808482],[-2.31207256643591,53.5077711030511],[-2.31207091991912,53.5075463976126],[-2.3116939834102,53.5075473799091],[-2.31169233896107,53.5073226745412],[-2.31169069453451,53.5070979691655],[-2.31168905013051,53.5068732637821],[-2.31168740574908,53.5066485583909],[-2.31168576139022,53.506423852992],[-2.31130883508377,53.5064248344912],[-2.3113071927924,53.506200129163],[-2.31130555052357,53.505975423827],[-2.31130390827727,53.5057507184832],[-2.31092698808297,53.5057516990284],[-2.31092862828439,53.5059764042938],[-2.31055170602268,53.5059773835713],[-2.31055006786613,53.5057526783844],[-2.3101731476268,53.5057536565512],[-2.30979622736499,53.5057546335287],[-2.30941930708074,53.5057556093169],[-2.30941767508122,53.5055309043576],[-2.3094160431041,53.5053061993905],[-2.3090391268871,53.5053071741464],[-2.30866221064771,53.5053081477131],[-2.30866383853519,53.5055328525233],[-2.30828692022862,53.5055338248222],[-2.30791000189971,53.505534795932],[-2.3075330835485,53.5055357658525],[-2.30715616517501,53.5055367345838],[-2.30677924677927,53.5055377021258],[-2.30677762911591,53.5053129977082],[-2.30640071274277,53.5053139641396],[-2.30639909714641,53.5050892597928],[-2.30602218279587,53.5050902251134],[-2.30602056926646,53.5048655208374],[-2.3060189557592,53.5046408165536],[-2.30564204547601,53.5046417808422],[-2.30564043403562,53.5044170766292],[-2.305263525775,53.5044180398072],[-2.30526191640142,53.504193335665],[-2.30488501016338,53.5041942977323],[-2.30488340285656,53.503969593661],[-2.3045064986411,53.5039705546177],[-2.30450489340098,53.5037458506172],[-2.3041279912081,53.5037468104634],[-2.3037510889932,53.5037477691204],[-2.30374948786433,53.5035230652692],[-2.30337258767204,53.5035240228158],[-2.30299568745777,53.5035249791731],[-2.30299409044005,53.5033002754714],[-2.30261719224842,53.5033012307183],[-2.30261559729719,53.5030765270875],[-2.3022387011282,53.5030774812239],[-2.30186180493733,53.5030784341711],[-2.30186021409705,53.5028537306898],[-2.30148331992884,53.5028546825267],[-2.30148173115491,53.5026299791162],[-2.30185862327861,53.5026290272007],[-2.30223551538046,53.5026280740962],[-2.30261240746042,53.5026271198025],[-2.30298929951846,53.5026261643198],[-2.30336619155457,53.5026252076479],[-2.30374308356871,53.502624249787],[-2.30374148254976,53.502399545897],[-2.30411837249743,53.5023985867684],[-2.30449526242308,53.5023976264506],[-2.30487215232667,53.5023966649438],[-2.30487054519638,53.5021719608103],[-2.30524743303346,53.5021709980359],[-2.30562432084842,53.5021700340723],[-2.30600120864126,53.5021690689197],[-2.30599959539979,53.5019443645427],[-2.30637648112605,53.5019433981225],[-2.30675336683012,53.5019424305132],[-2.30713025251198,53.5019414617148],[-2.3071286331595,53.5017167570945],[-2.30750551677473,53.5017157870285],[-2.30788240036768,53.5017148157734],[-2.30825928393833,53.5017138433293],[-2.30825765847502,53.5014891384658],[-2.30863453997899,53.5014881647541],[-2.30901142146061,53.5014871898533],[-2.30901305101264,53.5017118948738],[-2.30938993451623,53.5017109188625],[-2.30938830291984,53.5014862137635],[-2.30938667134585,53.5012615086569],[-2.30976355073835,53.5012605312995],[-2.31014043010841,53.5012595527532],[-2.31051730945601,53.5012585730177],[-2.31089418878112,53.5012575920932],[-2.31127106808371,53.5012566099797],[-2.31164794736375,53.5012556266771],[-2.31164959120369,53.5014803322543],[-2.31202647250548,53.501479347841],[-2.31240335378467,53.5014783622387],[-2.31278023504122,53.5014773754473],[-2.31278188503678,53.5017020812519],[-2.31315876831503,53.5017010933497],[-2.31353565157059,53.5017001042585],[-2.31391253480344,53.5016991139781],[-2.31391419095477,53.5019238200101],[-2.31429107620926,53.501922828619],[-2.31466796144097,53.5019218360388],[-2.31504484664988,53.5019208422695],[-2.31504650895715,53.5021455485286],[-2.31542339618764,53.5021445536485],[-2.31542506056215,53.5023692599782],[-2.31542672495948,53.5025939663002],[-2.31580361625601,53.5025929703876],[-2.31580528272067,53.5028176767801],[-2.31618217603879,53.5028166797566],[-2.31618384457082,53.5030413862196],[-2.31580694920818,53.5030423831648],[-2.31543005382266,53.5030433789208],[-2.31505315841428,53.5030443734877],[-2.31467626298308,53.5030453668654],[-2.31429936752907,53.503046359054],[-2.31392247205229,53.5030473500534],[-2.31392081578734,53.5028226440602],[-2.31354392233233,53.5028236339489],[-2.31316702885461,53.5028246226483],[-2.31316868103053,53.5030493284848],[-2.31354557655277,53.5030483398637],[-2.3135472307959,53.5032730457708],[-2.31392412833997,53.5032720560389],[-2.31430102586129,53.5032710651178],[-2.31430268421625,53.5034957711738],[-2.31467958375937,53.5034947791419],[-2.31505648327968,53.5034937859208],[-2.3150581457466,53.5037184921257],[-2.31543504728868,53.5037174977938],[-2.3158119488079,53.5037165022726],[-2.31581361538687,53.5039412086264],[-2.31619051892783,53.5039402119944],[-2.31619218757431,53.5041649184187],[-2.31656909313701,53.5041639206758],[-2.31694599867676,53.5041629217436],[-2.31694432594099,53.5039382151628],[-2.31732122941313,53.5039372149631],[-2.31731955465568,53.5037125082963],[-2.31731787992121,53.5034878016216],[-2.31769477928114,53.5034868000763],[-2.31769310252507,53.5032620933157],[-2.317691425792,53.5030373865473],[-2.31731453052117,53.5030383882492],[-2.31731285585561,53.5028136815513],[-2.31768974908193,53.5028126797713],[-2.31806664228523,53.502811676802],[-2.31844353337799,53.5028106682717],[-2.3188204242685,53.5028096581767],[-2.31919731513618,53.502808646893],[-2.31957420598098,53.5028076344205],[-2.31995109680289,53.5028066207593],[-2.31995278562585,53.503031327774],[-2.32032967844008,53.5030303129596],[-2.32032798760187,53.5028056059092],[-2.32032629678659,53.5025808988508],[-2.3207031855474,53.5025798827764],[-2.32108007428523,53.5025788655132],[-2.32145696300005,53.5025778470612],[-2.321458659861,53.5028025542265],[-2.32183555056801,53.5028015346213],[-2.32221244125196,53.5028005138274],[-2.32221414216642,53.5030252210558],[-2.32221584310394,53.503249928276],[-2.32183894838946,53.5032509489988],[-2.32184064733475,53.5034756561753],[-2.32184234630307,53.5037003633438],[-2.32146544753489,53.5037013828065],[-2.32146714451089,53.5039260899313],[-2.3214688415099,53.5041507970479],[-2.32184574430882,53.5041497776563],[-2.32184744334625,53.5043744848004],[-2.32147053853193,53.5043755041564],[-2.32147223557696,53.5046002112568],[-2.32147393264501,53.5048249183491],[-2.32147562973607,53.5050496254332],[-2.32109871885231,53.5050506434936],[-2.32110041395086,53.505275350534],[-2.32072350102857,53.5052763673699],[-2.32072519413456,53.5055010743666],[-2.32034827917373,53.5055020899779],[-2.32034997028711,53.5057267969309],[-2.31997305328775,53.5057278113177],[-2.31959613626546,53.5057288245156],[-2.31921921922027,53.5057298365246],[-2.31922090430977,53.5059545433625],[-2.31922258942212,53.5061792501923],[-2.31922427455732,53.506403957014],[-2.31922595971538,53.5066286638276],[-2.31922764489629,53.506853370633],[-2.31922933010005,53.5070780774304],[-2.31923101532667,53.5073027842196],[-2.31923270057614,53.5075274910007],[-2.31923438584847,53.5077521977737],[-2.31961132103508,53.5077511860856],[-2.31961300834611,53.5079758928862],[-2.31961469568003,53.5082005996786],[-2.31999163487545,53.5081995868729],[-2.32036857404793,53.5081985728781],[-2.32037026543654,53.5084232797337],[-2.31999332424815,53.5084242936928],[-2.31999501333595,53.5086489999359],[-2.3199967014904,53.5088737044037],[-2.31999838966801,53.5090984088637],[-2.32037533697197,53.5090973951255],[-2.32037702721646,53.5093220996598],[-2.32075397654094,53.5093210848141],[-2.32075228425272,53.5090963801979],[-2.32075059198772,53.508871675574],[-2.32037364675066,53.5088726905836],[-2.32037195655255,53.5086479860339],[-2.32074889974594,53.5086469709425],[-2.3211258429161,53.5086459546616],[-2.321502786063,53.5086449371913],[-2.32150448239212,53.5088696419866],[-2.3218814275594,53.5088686234088],[-2.32188312595548,53.5090933282782],[-2.32150617874451,53.5090943467742],[-2.32150787512017,53.5093190515541],[-2.3215095715191,53.5095437563264],[-2.32113262019736,53.5095447734692],[-2.32113431457579,53.5097694781518],[-2.32113600897746,53.5099941828268],[-2.32113770340237,53.510218887494],[-2.32113939785053,53.5104435921536],[-2.32151635734754,53.5104425753383],[-2.32189331682125,53.5104415573335],[-2.32227027627165,53.5104405381391],[-2.32226857569192,53.510215833234],[-2.32264553307511,53.5102148127683],[-2.32302249043494,53.510213791113],[-2.32302078579087,53.5099890860365],[-2.32339774108346,53.50998806311],[-2.32377469635262,53.5099870389939],[-2.32415165159833,53.5099860136884],[-2.32414994084623,53.5097613083587],[-2.32452689402466,53.5097602817819],[-2.32490384717957,53.5097592540155],[-2.32490556201927,53.5099839595088],[-2.32528251719444,53.5099829306347],[-2.32528423410148,53.510207636202],[-2.32566119129692,53.5102066062203],[-2.32566291027137,53.5104313118617],[-2.32566462926938,53.5106560174954],[-2.32566634829098,53.5108807231214],[-2.32566806733615,53.5111054287398],[-2.32529110196513,53.5111064583945],[-2.32529281898991,53.5113311639234],[-2.32529453603823,53.5115558694446],[-2.32491756655569,53.5115568977462],[-2.32491928158354,53.5117816031779],[-2.32492099663492,53.512006308602],[-2.32492271170982,53.5122310140183],[-2.32454573607159,53.512232040885],[-2.32454744912591,53.5124567462118],[-2.32454916220372,53.512681451531],[-2.32455087530504,53.5129061568425],[-2.32492785707566,53.5129051302212],[-2.32530483882273,53.5129041024104],[-2.32530655603591,53.5131288078777],[-2.3256835398036,53.513127778959],[-2.32606052354768,53.5131267488506],[-2.32643750726814,53.5131257175526],[-2.3264392306375,53.5133504232576],[-2.32681621637852,53.5133493908516],[-2.32719320209585,53.513348357256],[-2.32757018778947,53.5133473224708],[-2.32794717345935,53.5133462864959],[-2.32832415910546,53.5133452493313],[-2.32832589271964,53.5135699554373],[-2.32870288038619,53.5135689171648],[-2.32907986802893,53.5135678777026],[-2.32945685564781,53.5135668370507],[-2.32945859541854,53.5137915433941],[-2.32983558505781,53.5137905016342],[-2.33021257467317,53.5137894586846],[-2.33058956426459,53.5137884145454],[-2.33096655383206,53.5137873692164],[-2.33134354337553,53.5137863226978],[-2.33134529339157,53.5140110294418],[-2.33172228495531,53.5140099818151],[-2.33209927649501,53.5140089329987],[-2.33247626801064,53.5140078829926],[-2.33285325950217,53.5140068317968],[-2.33285501771944,53.5142315388595],[-2.33323201123116,53.5142304865556],[-2.33360900471871,53.514229433062],[-2.33398599818208,53.5142283783786],[-2.33398776255648,53.5144530856784],[-2.33436475803998,53.5144520298869],[-2.33474175349924,53.5144509729057],[-2.33511874823221,53.5144499085828],[-2.33512051873062,53.5146746159893],[-2.33549751541461,53.5146735501208],[-2.33549574290312,53.5144488427378],[-2.33587273755,53.5144477757039],[-2.33587451207458,53.5146724830635],[-2.33625150871049,53.5146714148175],[-2.33662850532231,53.5146703453828],[-2.33700550191003,53.5146692747592],[-2.33700728249797,53.5148939820399],[-2.33738428107466,53.5148929102042],[-2.33776127962719,53.5148918371797],[-2.33776306426553,53.5151165444048],[-2.338140064807,53.5151154701681],[-2.33851706532425,53.5151143947426],[-2.33889406581725,53.5151133181283],[-2.33889585651925,53.5153380252743],[-2.33927285900114,53.5153369474477],[-2.33964986145873,53.5153358684324],[-2.33965165621136,53.5155605755228],[-2.33965345098829,53.5157852826045],[-2.33927644450429,53.5157863616669],[-2.33927823729228,53.5160110687635],[-2.33890122877073,53.5160121466605],[-2.33890301956971,53.516236853772],[-2.33890481039295,53.5164615608747],[-2.33928182294107,53.5164604829307],[-2.33928361580189,53.5166851900013],[-2.33928540868698,53.5169098970633],[-2.3392872011504,53.5171346024925],[-2.33891018253154,53.5171356804713],[-2.33890839211217,53.5169109750544],[-2.33853137551309,53.5169120518566],[-2.33853316388811,53.5171367572609],[-2.33853495225345,53.5173614625427],[-2.33853674064331,53.5175861678161],[-2.33815971788757,53.5175872434046],[-2.33816150425801,53.5178119486636],[-2.33816329065293,53.5180366539143],[-2.33778626378479,53.5180377283016],[-2.33778804816021,53.5182624335378],[-2.33741101922359,53.5182635067299],[-2.33741280157947,53.5184882119518],[-2.33741458395977,53.5187129171653],[-2.33779161698444,53.5187118439853],[-2.33816864998463,53.5187107696161],[-2.33854568296031,53.5187096940577],[-2.33854747149725,53.5189343992809],[-2.33892450649245,53.5189333225393],[-2.33930154146309,53.5189322446085],[-2.33967857640913,53.5189311654885],[-2.33968037110287,53.5191558707213],[-2.34005740806838,53.5191547904181],[-2.34043444500924,53.5191537089256],[-2.34043624381581,53.519378414162],[-2.34081328277611,53.5193773314863],[-2.3411903217117,53.5193762476214],[-2.34119212463123,53.5196009528613],[-2.34119392757546,53.5198256580929],[-2.34119573054441,53.5200503633161],[-2.34119753353806,53.5202750685309],[-2.34082048642572,53.520276152372],[-2.34082228739982,53.5205008575725],[-2.34082408839861,53.5207255627646],[-2.34044703717301,53.5207266454046],[-2.34044883615217,53.5209513505824],[-2.34045063515599,53.5211760557518],[-2.34045243418446,53.5214007609129],[-2.34045423323759,53.5216254660656],[-2.34045603231537,53.5218501712099],[-2.34045783141782,53.5220748763459],[-2.34045963054492,53.5222995814735],[-2.34046142969668,53.5225242865927],[-2.34008436209113,53.5225253679956],[-2.33970729446093,53.5225264482092],[-2.33970549939818,53.5223017431019],[-2.33932843378785,53.5223028221321],[-2.33895136815292,53.522303899973],[-2.33894957720373,53.5220791948693],[-2.3385725135887,53.5220802715268],[-2.33857072470851,53.5218555664208],[-2.33819366311338,53.5218566418949],[-2.33781660149374,53.5218577161798],[-2.33781838628503,53.5220824212738],[-2.33782017110078,53.5223071263594],[-2.33819723680935,53.5223060520866],[-2.33857430249341,53.5223049766244],[-2.33857609142264,53.5225296817137],[-2.3385778803764,53.5227543867946],[-2.33857966935468,53.5229790918671],[-2.33895674114779,53.5229780152337],[-2.33895853219518,53.5232027203039],[-2.33896032326712,53.5234274253657],[-2.33858324738481,53.5234285019871],[-2.33858503643666,53.5236532070345],[-2.33858682551303,53.5238779120736],[-2.33858861461393,53.5241026171043],[-2.33896569663025,53.5241015405008],[-2.3389674878004,53.5243262455291],[-2.3389692789951,53.5245509505491],[-2.33897107021436,53.5247756555607],[-2.33897286145817,53.5250003605639],[-2.33859577126278,53.5250014371433],[-2.33859756048631,53.5252261421321],[-2.33822046822153,53.525227217516],[-2.33784337593222,53.5252282917104],[-2.33784515738577,53.5254529913036],[-2.33822225180826,53.5254519172033],[-2.33822403483352,53.5256766160252],[-2.33822581788404,53.5259013148394],[-2.33860291652935,53.5259002396976],[-2.33898001514938,53.5258991633658],[-2.33897822785076,53.525674464403],[-2.33935532432143,53.5256733868067],[-2.33973242076675,53.5256723080202],[-2.34010951718671,53.5256712280437],[-2.34048661358128,53.5256701468771],[-2.34048840937609,53.525894846137],[-2.34049020519632,53.5261195453892],[-2.34086730581358,53.5261184631809],[-2.34086910378333,53.5263431624997],[-2.34087090177854,53.5265678618107],[-2.34049379691304,53.5265689438704],[-2.34049559280953,53.5267936430995],[-2.34087269979919,53.526792561114],[-2.34087449784529,53.5270172604096],[-2.34125160693368,53.5270161773082],[-2.34125340712945,53.5272408766703],[-2.34087629591684,53.5272419596975],[-2.34087809401384,53.5274666589776],[-2.34125520735069,53.5274655760247],[-2.34125700759742,53.5276902753714],[-2.34163412303305,53.5276891913026],[-2.34163592542956,53.5279138907158],[-2.34201304296398,53.527912805531],[-2.34239016047285,53.527911719156],[-2.34239196714352,53.52813641871],[-2.34276908675114,53.528135331219],[-2.34314620633316,53.5281342425377],[-2.34314801727811,53.5283589422324],[-2.34352513895885,53.5283578524351],[-2.34390226061393,53.5283567614476],[-2.34390044542027,53.5281320616045],[-2.3442775649253,53.5281309693525],[-2.344275747633,53.5279062694276],[-2.3442739303664,53.5276815694949],[-2.34465104559708,53.5276804759043],[-2.34464922623192,53.5274557758898],[-2.34502633931259,53.5274546810348],[-2.34502451784892,53.5272299809384],[-2.34502269641101,53.5270052808343],[-2.34539980521746,53.5270041846408],[-2.34577691399809,53.5270030872572],[-2.3461540227529,53.5270019886834],[-2.34615585056344,53.5272266890099],[-2.34653296141659,53.52722558932],[-2.34653479137721,53.527450289713],[-2.34691190432871,53.527449188907],[-2.34728901725428,53.5274480869108],[-2.34766613015391,53.5274469837244],[-2.3476679665132,53.5276716843319],[-2.34766980289846,53.5278963849318],[-2.34729268575028,53.52789748797],[-2.34691556857615,53.5278985898181],[-2.34653845137609,53.5278996904758],[-2.34653662136371,53.5276749900983],[-2.34615950626206,53.5276760896399],[-2.34578239113454,53.5276771879914],[-2.34578421689833,53.5279018882207],[-2.34578604268793,53.5281265884423],[-2.34616316206407,53.5281254902391],[-2.34616499000384,53.5283501905271],[-2.34654211147847,53.5283490912078],[-2.3469192329272,53.5283479906983],[-2.34729635435,53.5283468889985],[-2.34729818868877,53.5285715895011],[-2.34692106514158,53.5285726911268],[-2.34692289738187,53.5287973915477],[-2.34730002305346,53.5287962899961],[-2.34730185744409,53.5290209904833],[-2.34692472964807,53.5290220919608],[-2.34692656194017,53.5292467923663],[-2.34654943199375,53.5292478925794],[-2.34655126218727,53.529472592903],[-2.34617413009046,53.5294736918516],[-2.34617595818534,53.5296983920934],[-2.34655309240666,53.5296972932189],[-2.34655492265194,53.5299219935271],[-2.34693205897191,53.5299208935364],[-2.34730919526596,53.5299197923553],[-2.34730736077159,53.5296950918989],[-2.34768449491514,53.5296939894534],[-2.34768265832218,53.5294692889152],[-2.34768082175519,53.5292445883692],[-2.34767898521416,53.5290198878156],[-2.34805611295825,53.5290187839575],[-2.34843324067633,53.5290176789092],[-2.34881036836837,53.5290165726705],[-2.34918749603433,53.5290154652416],[-2.34918934107321,53.5292401660915],[-2.34956647083754,53.5292390575463],[-2.34994360057574,53.5292379478109],[-2.34994544988966,53.5294626488012],[-2.35032258172619,53.5294615379494],[-2.35069971353654,53.5294604259074],[-2.35070156712563,53.529685127038],[-2.35107870103428,53.5296840138797],[-2.35145583500737,53.5296828991423],[-2.35183297001004,53.5296817786916],[-2.35221010498724,53.5296806570507],[-2.35258723993895,53.5296795342197],[-2.35258910392033,53.529904235632],[-2.35296624088603,53.5299031116665],[-2.35296810693244,53.5301278131266],[-2.35334524591213,53.5301266880265],[-2.35334337782618,53.5299019865108],[-2.35334150976578,53.5296772849873],[-2.35333964173093,53.5294525834558],[-2.35371677456652,53.5294514569988],[-2.35371864464085,53.5296761585858],[-2.35372051474075,53.529900860165],[-2.35409765162972,53.529899732629],[-2.35447478849305,53.5298986039029],[-2.35485192533072,53.5298974739865],[-2.3548538015748,53.5301221757246],[-2.35523094042632,53.5301210446737],[-2.35560807925213,53.5301199124326],[-2.35560995960099,53.530344614274],[-2.3559871004406,53.5303434808983],[-2.35636424125445,53.5303423463324],[-2.3567413820425,53.5303412105764],[-2.35674326853583,53.5305659125765],[-2.35674515505496,53.5307906145689],[-2.35636801018771,53.5307917502139],[-2.356369894693,53.5310164521428],[-2.35637177922405,53.5312411540638],[-2.35637366378088,53.5314658559769],[-2.35675081476713,53.5314647204986],[-2.35675270138945,53.5316894224594],[-2.35712985438959,53.5316882858464],[-2.35750700736388,53.531687148043],[-2.35788416031228,53.5316860090495],[-2.3578822675708,53.5314613069221],[-2.35788037485519,53.5312366047868],[-2.35825752369827,53.531235464492],[-2.35863467251541,53.5312343230069],[-2.35901182130658,53.5312331803316],[-2.35938897007175,53.5312320364661],[-2.35938706922337,53.531007334101],[-2.35976421592286,53.5310061889898],[-2.35976611881091,53.5312308914104],[-2.36014326752402,53.5312297451644],[-2.36052041621104,53.5312285977282],[-2.36052232320449,53.5314533002518],[-2.36052423022401,53.5316780027675],[-2.36014707745757,53.5316791500929],[-2.36014898246342,53.5319038525453],[-2.35977182763116,53.5319049986249],[-2.35977373062327,53.5321297010141],[-2.35939657372519,53.5321308458479],[-2.35939847470353,53.5323555481737],[-2.35940037570786,53.5325802504917],[-2.35940227673818,53.5328049528017]]],[[[-2.31731453052117,53.5030383882492],[-2.3173162052097,53.5032630949393],[-2.31693930787134,53.5032640953737],[-2.31694098053828,53.5034888019778],[-2.31656408113238,53.5034898011447],[-2.31656575177767,53.5037145076628],[-2.31618885030424,53.5037155055623],[-2.31618718170355,53.5034907991225],[-2.3158102822518,53.5034917959111],[-2.31543338277717,53.5034927915105],[-2.3154317182885,53.5032680852196],[-2.31580861571856,53.5032670895418],[-2.31618551312574,53.5032660926749],[-2.31618384457082,53.5030413862196],[-2.31656073991055,53.5030403880853],[-2.31693763522734,53.5030393887618],[-2.31731453052117,53.5030383882492]]],[[[-2.31134824489791,53.5118177382431],[-2.31097126993676,53.5118187175052],[-2.31097290994346,53.5120434210962],[-2.31059593294636,53.5120443991495],[-2.31059757096157,53.5122691027123],[-2.31022059192852,53.5122700795568],[-2.30984361287327,53.5122710552122],[-2.30946663379584,53.5122720296786],[-2.30946500182179,53.5120473261752],[-2.30908802473593,53.5120482994725],[-2.30908639479772,53.5118235959808],[-2.30908476488161,53.5115988924808],[-2.30908313498761,53.5113741889725],[-2.30908150511572,53.511149485456],[-2.30945847414695,53.5111485120793],[-2.30983544315604,53.5111475375136],[-2.31021241214295,53.5111465617589],[-2.31021404805569,53.511371265335],[-2.31059101903401,53.5113702884112],[-2.3109679899901,53.5113693102985],[-2.31134496092394,53.5113683309967],[-2.31134660289979,53.511593034624],[-2.31134824489791,53.5118177382431]]],[[[-2.34954800037882,53.52699204796],[-2.34954984730723,53.5272167489533],[-2.34955169426175,53.5274414499389],[-2.34955354124236,53.5276661509167],[-2.34955538824908,53.5278908518869],[-2.34917827123109,53.5278919608764],[-2.34880115418701,53.5278930686756],[-2.34879931142887,53.5276683678535],[-2.34879746869678,53.5274436670237],[-2.34842035587519,53.5274447737808],[-2.34804324302755,53.5274458793477],[-2.34804140456998,53.5272211786583],[-2.34841851529338,53.5272200730174],[-2.34879562599074,53.5272189661862],[-2.34879378331074,53.5269942653411],[-2.34917089185783,53.5269931572456],[-2.34954800037882,53.52699204796]]]]}}