{"type":"Feature","properties":{"code":"E63004589","name":"Waltham Cross"},"geometry":{"type":"MultiPolygon","coordinates":[[[[-0.048450889411103,51.687037708649],[-0.0488123116628492,51.6870437102059],[-0.0488026530483613,51.6872683613181],[-0.0484412289782695,51.6872623599216],[-0.0480798050355124,51.6872563574023],[-0.0480701426569247,51.6874810088366],[-0.0480604801509245,51.6877056602722],[-0.0476990526987713,51.6876996569511],[-0.0477087170231611,51.6874750053551],[-0.0473472915167814,51.6874690007508],[-0.0469858661378096,51.6874629950238],[-0.0466244408862699,51.687456988174],[-0.0466341105383059,51.687232336098],[-0.0466437800628372,51.6870076840232],[-0.0470052016776831,51.6870136911938],[-0.0470148692564006,51.6867890392808],[-0.0470245367076424,51.686564387369],[-0.0473859548133118,51.6865703937377],[-0.0477473730463797,51.6865763989837],[-0.0481087914068239,51.686582403107],[-0.04809912941046,51.6868070545375],[-0.0484605497165527,51.6868130573776],[-0.048450889411103,51.687037708649]]],[[[-0.0470245367076424,51.686564387369],[-0.0466631187293963,51.6865583798776],[-0.0466534494598669,51.6867830319498],[-0.0462920297907812,51.686777023496],[-0.0462823585754425,51.6870016757299],[-0.0462726872325784,51.6872263279651],[-0.0462630157621855,51.6874509802015],[-0.0459015907655804,51.6874449711063],[-0.0458919173492807,51.6876696235044],[-0.045882243805425,51.6878942759038],[-0.0458725701340119,51.6881189283045],[-0.0455111398097127,51.6881129185676],[-0.0455014641922936,51.68833757113],[-0.0454917884472888,51.6885622236936],[-0.0454821125746959,51.6887868762586],[-0.0454724365745132,51.6890115288248],[-0.0454627604467391,51.6892361813923],[-0.0454530841913688,51.689460833961],[-0.0454434078084034,51.6896854865311],[-0.0454337312978382,51.6899101391025],[-0.045424054659672,51.6901347916751],[-0.0454143778939034,51.690359444249],[-0.0450529295116406,51.6903534349933],[-0.0450626080960649,51.690128782259],[-0.0447011616600343,51.69012277172],[-0.0447108419354621,51.6898981188266],[-0.0447205220832418,51.6896734659344],[-0.0447302021033741,51.6894488130436],[-0.0447398819958642,51.689224160154],[-0.0447495617607126,51.6889995072658],[-0.0443881245451837,51.688993494802],[-0.0440266874572678,51.6889874812155],[-0.0436652504969876,51.6889814665061],[-0.0436749355897196,51.688756813138],[-0.0433135005756033,51.6887507971455],[-0.0433231873591077,51.6885261436183],[-0.0433328740148829,51.6883014900925],[-0.0436943053920635,51.6883075064058],[-0.0437039901016798,51.6880828530415],[-0.0437136746835948,51.6878581996786],[-0.0437233591378112,51.687633546317],[-0.0437330434643312,51.6874088929567],[-0.0437427276631563,51.6871842395977],[-0.0433813053779045,51.6871782224827],[-0.0430198832203188,51.687172204245],[-0.0426584611904233,51.6871661848846],[-0.0422970392882409,51.6871601644013],[-0.0419356175137944,51.6871541427953],[-0.0419453106764828,51.686929488636],[-0.0415838908481023,51.686923465747],[-0.0415935857012629,51.6866988114287],[-0.0416032804265958,51.6864741571117],[-0.0412418643625301,51.6864681327793],[-0.0412321678189423,51.6866927872566],[-0.041222471147503,51.6869174417352],[-0.0408610515747098,51.6869114166006],[-0.0408513529571157,51.6871360712407],[-0.0408416542116418,51.6873607258822],[-0.0404802311300589,51.6873546999453],[-0.0404705304383577,51.6875793547484],[-0.0404608296187494,51.6878040095527],[-0.0400994030283156,51.6877979828136],[-0.0400897002624063,51.6880226377795],[-0.0400799973685616,51.6882472927466],[-0.039718567269216,51.6882412652052],[-0.0397088624289986,51.688465920334],[-0.0393474306391336,51.68845989183],[-0.0393377238524975,51.6886845471203],[-0.0393280169378717,51.6889092024118],[-0.0389665816390163,51.6889031731055],[-0.0389568727778982,51.6891278285586],[-0.0389471637887629,51.6893524840131],[-0.0385857249808552,51.6893464539043],[-0.0385760140451554,51.6895711095203],[-0.0385663029814095,51.6897957651376],[-0.0382048606643881,51.6897897342264],[-0.0381951476540053,51.6900143900053],[-0.0378337036464204,51.6900083581314],[-0.0378239886893527,51.6902330140718],[-0.0378142736041869,51.6904576700135],[-0.0374528260874089,51.6904516373371],[-0.0374431090554857,51.6906762934403],[-0.0370816598481322,51.6906702598012],[-0.0370719408694049,51.690894916066],[-0.0370622217625246,51.6911195723321],[-0.036700769045901,51.6911135378904],[-0.0366910479921442,51.691338194318],[-0.0363295935849317,51.6913321589135],[-0.0363198705842515,51.6915568155027],[-0.0359584144864551,51.6915507791354],[-0.0355969585168429,51.6915447416451],[-0.0355872317504284,51.691769398556],[-0.0352257740902636,51.6917633601029],[-0.0352160453768098,51.6919880171752],[-0.0348545845811282,51.6919819778424],[-0.0348448533628539,51.6922066359355],[-0.0344833855570661,51.692200595689],[-0.0341219178787504,51.6921945543323],[-0.0341121815391048,51.6924192156225],[-0.0337507121846794,51.6924131730776],[-0.0337409739138667,51.6926378342784],[-0.0333795028833345,51.6926317905453],[-0.0333697626813099,51.6928564516565],[-0.033008289974677,51.6928504067352],[-0.0326468173956171,51.6928443607036],[-0.0326370734586618,51.6930690216473],[-0.0322755992035302,51.6930629744275],[-0.0322658533352481,51.6932876352816],[-0.0319043774040501,51.6932815868735],[-0.0315429016004996,51.6932755373552],[-0.0315331519971325,51.6935001980417],[-0.0311716745175461,51.6934941473351],[-0.031161922982737,51.6937188079321],[-0.0308004438271169,51.6937127560372],[-0.0307906903608193,51.6939374165445],[-0.0304292095291721,51.6939313634613],[-0.0304194541313392,51.6941560238791],[-0.0300579716236687,51.6941499696075],[-0.0300482142942534,51.6943746299356],[-0.0296867301105631,51.6943685744757],[-0.0296769708495199,51.6945932347142],[-0.0296672114606378,51.6948178949413],[-0.0293057237970958,51.6948118382148],[-0.0292959624765135,51.6950364983522],[-0.0289344731369406,51.6950304404374],[-0.0289247098846101,51.6952551004851],[-0.0285632188690104,51.6952490413819],[-0.0285534536848852,51.6954737013399],[-0.028191960993264,51.6954676410482],[-0.0278304684295462,51.6954615796462],[-0.027820699509658,51.6956862394365],[-0.0278109304618043,51.6959108992153],[-0.0274494344181516,51.6959048365467],[-0.0274396634383632,51.6961294962357],[-0.0274298923305808,51.6963541559133],[-0.0270683928069317,51.696348091978],[-0.0270586197671426,51.6965727515659],[-0.0266971185674679,51.6965666864421],[-0.0266873435956256,51.6967913459402],[-0.0266775684957362,51.6970160054268],[-0.0263160638159876,51.6970099390363],[-0.0263062867839721,51.6972345984332],[-0.0259447804281858,51.6972285308542],[-0.0259350014639978,51.6974531901613],[-0.0259252223717095,51.697677849457],[-0.0255637125357718,51.6976717806111],[-0.0255539315112381,51.697896439817],[-0.0255441503585773,51.6981210990114],[-0.0251826370424251,51.6981150288988],[-0.0251728539574473,51.6983396880034],[-0.0248113389652288,51.6983336167021],[-0.0248211238543919,51.6981089576757],[-0.0244596107944993,51.6981028853422],[-0.0244693973596453,51.6978782263824],[-0.024107886232076,51.6978721530168],[-0.0237463752326932,51.6978660785407],[-0.0237561652779056,51.697641419726],[-0.0241176744731564,51.6976474941238],[-0.024479183796592,51.6976535674112],[-0.0244889701053438,51.6974289084284],[-0.0248504777528281,51.6974349805272],[-0.0248602621292962,51.6972103214547],[-0.0248700463775966,51.6969856623706],[-0.0248798304977319,51.696761003275],[-0.0248896144897031,51.6965363441679],[-0.0248993983535122,51.6963116850492],[-0.0249091820891629,51.696087025919],[-0.0249189656966565,51.6958623667773],[-0.0249287491759951,51.695637707624],[-0.0249385325271806,51.6954130484592],[-0.0249483157502161,51.6951883892829],[-0.0249580988451035,51.6949637300951],[-0.0249678818118449,51.6947390708957],[-0.0249776646504428,51.6945144116848],[-0.0253391489746962,51.6945204816563],[-0.0253489298813645,51.6942958223557],[-0.0253587106599169,51.6940711630435],[-0.0253684913103553,51.6938465037198],[-0.0253782718326825,51.6936218443845],[-0.0253880522269002,51.6933971850377],[-0.0253978324930102,51.6931725256794],[-0.0254076126310152,51.6929478663096],[-0.0254173926409181,51.6927232069282],[-0.0254271725227203,51.6924985475353],[-0.0254369522764241,51.6922738881309],[-0.0254467319272323,51.6920492293824],[-0.0254565114728645,51.6918245713081],[-0.025466290886659,51.6915999132282],[-0.0254760701686182,51.6913752551428],[-0.02583752912893,51.6913813232584],[-0.0258473064064784,51.6911566652006],[-0.0258570835522199,51.6909320071372],[-0.0254956283370423,51.6909259389556],[-0.0255054072235106,51.6907012808537],[-0.0258668605661583,51.6907073490683],[-0.0258766374482949,51.6904826909938],[-0.0258864141986324,51.6902580329139],[-0.0258961908171723,51.6900333748285],[-0.025905967303917,51.6898087167376],[-0.0259157436588693,51.6895840586412],[-0.0259255198820305,51.6893594005393],[-0.0259352959734051,51.6891347424318],[-0.0259450719329932,51.6889100843189],[-0.0255836335697248,51.6889040158404],[-0.0252221953382281,51.6888979462459],[-0.0252124156339658,51.6891226044248],[-0.0248509756619322,51.6891165337473],[-0.024860757238529,51.6888918755354],[-0.0244993192706508,51.6888858037088],[-0.0241378814346184,51.6888797307661],[-0.0237764437304578,51.6888736567074],[-0.0237862307921132,51.6886489983912],[-0.0237960177218432,51.6884243400695],[-0.0234345838941535,51.6884182648288],[-0.0234443725642133,51.6881936064687],[-0.0234541611023279,51.687968948103],[-0.0234639495085004,51.6877442897319],[-0.0231025214294038,51.6877382132764],[-0.0231123115758137,51.6875135548668],[-0.0231221015902621,51.6872888964517],[-0.0234835259250266,51.687294972973],[-0.0234933139353845,51.6870703145854],[-0.0231318914727502,51.6870642380312],[-0.0231416812232809,51.6868395796051],[-0.0235031018138094,51.6868456561922],[-0.0238645225362363,51.6868517316633],[-0.0238547365299199,51.6870763900236],[-0.0242161592563318,51.6870824643458],[-0.0242259433905374,51.6868578060185],[-0.0242357273928598,51.6866331476857],[-0.0238743084106453,51.6866270732976],[-0.0235128895603028,51.6866209977935],[-0.0231514708418563,51.6866149211735],[-0.0227900522553309,51.6866088434375],[-0.0227802607646756,51.686833501902],[-0.0224188404380186,51.6868274230829],[-0.022057420243333,51.6868213431478],[-0.0220476248764971,51.6870460016726],[-0.021686202941711,51.6870399206545],[-0.0213247811389485,51.6870338385203],[-0.0213149818958441,51.6872584971054],[-0.0213051825206599,51.6874831556849],[-0.0209437571056879,51.6874770725005],[-0.0209535583530124,51.6872524138881],[-0.020963359468233,51.6870277552702],[-0.0206019379295894,51.6870216709041],[-0.0202405165230429,51.687015585422],[-0.0198790952486166,51.6870094988239],[-0.0195176741063361,51.6870034111098],[-0.0195274825778016,51.686778752355],[-0.0191660634397721,51.6867726634921],[-0.0191758736510988,51.686548004699],[-0.0191856837302078,51.6863233459004],[-0.0188242684684554,51.6863172558559],[-0.0184628533389149,51.6863111646954],[-0.0181014365802817,51.6863050727019],[-0.0181112521977379,51.6860804138277],[-0.0177498352305858,51.6860743211305],[-0.0177596524775435,51.6858496623173],[-0.0173982373917815,51.6858435685821],[-0.0173884183893779,51.686068227323],[-0.0170270016741367,51.6860621324052],[-0.0166655850848839,51.6860560363773],[-0.0163041686216443,51.686049939239],[-0.0162943442268524,51.686274597752],[-0.0159329261341868,51.6862684994313],[-0.015571508167579,51.6862624000003],[-0.0152100903270543,51.6862562994591],[-0.0148486726126344,51.6862501978077],[-0.0148388410698583,51.6864748560203],[-0.0144774217260913,51.6864687531864],[-0.0141160025084768,51.6864626492421],[-0.0137545834170374,51.6864565441876],[-0.0133931644517961,51.6864504380229],[-0.013031745612776,51.6864443307479],[-0.013021905166375,51.6866689885878],[-0.0126604846981105,51.6866628801302],[-0.0122990643561151,51.6866567705624],[-0.0119376441404096,51.6866506598843],[-0.011927798301213,51.686875317496],[-0.0115663764563181,51.6868692056353],[-0.0112049547377623,51.6868630926643],[-0.0112148040879637,51.6866384351974],[-0.0115762240510185,51.686644548096],[-0.0115860715193531,51.6864198905455],[-0.011224653311777,51.6864137777193],[-0.0112345024092035,51.6861891202299],[-0.0112443513802458,51.6859644627293],[-0.0112542002249055,51.6857398052175],[-0.0112640489431866,51.6855151476945],[-0.0116254601290788,51.6855212602312],[-0.0116353069656179,51.6852966026246],[-0.011273897535089,51.6852904901602],[-0.0112837460006159,51.6850658326147],[-0.01129359433977,51.684841175058],[-0.0113034425525525,51.6846165174901],[-0.0116648467171271,51.6846226297374],[-0.0116746930482676,51.6843979720858],[-0.0116845392530651,51.6841733144231],[-0.0120459400334295,51.6841794254155],[-0.0120557843566568,51.6839547676692],[-0.012065627583172,51.6837301109559],[-0.0120754694267998,51.6835054555833],[-0.0120853111429965,51.6832808002],[-0.0120951527317644,51.683056144806],[-0.0121049941931044,51.6828314894013],[-0.0121148355270207,51.682606833986],[-0.0121246767335145,51.68238217856],[-0.0117632900662031,51.6823760681467],[-0.0117731329208284,51.6821514127723],[-0.0114117481564696,51.6821453013108],[-0.0114215926591799,51.681920645988],[-0.0117829756480125,51.6819267573873],[-0.0117928182477572,51.6817021019915],[-0.0118026607200661,51.6814774465851],[-0.0118125030649398,51.6812527911681],[-0.0121738808547231,51.6812589012699],[-0.0121837212967282,51.6810342457798],[-0.0121935616113262,51.6808095902791],[-0.0118321873723917,51.6808034803019],[-0.0118420293349751,51.6805788248528],[-0.0122034017985193,51.6805849347677],[-0.0125647743894263,51.6805910435721],[-0.0129261471076726,51.680597151266],[-0.0132875199532353,51.6806032578493],[-0.0136488929260913,51.680609363322],[-0.0140102660262187,51.6806154676842],[-0.0143716392535933,51.6806215709358],[-0.0147330126081923,51.6806276730769],[-0.0150943860899931,51.6806337741074],[-0.0154557596989717,51.6806398740274],[-0.0158171334351067,51.6806459728368],[-0.0161785072983733,51.6806520705357],[-0.0165398812887498,51.6806581671239],[-0.0169012554062128,51.6806642626017],[-0.0172626296507391,51.6806703569688],[-0.0176240040223062,51.6806764502254],[-0.0176141904662276,51.68090110667],[-0.0172528143192378,51.6808950133513],[-0.0172429988606547,51.6811196697231],[-0.0176043767830907,51.681125763104],[-0.017594562972893,51.6813504195273],[-0.0175847490356309,51.6815750759399],[-0.0175749349713041,51.6817997323419],[-0.017565120779909,51.6820243887332],[-0.0175553064614448,51.6822490451138],[-0.017916693388489,51.6822551376949],[-0.0182780802637898,51.6822612292727],[-0.0182682695218423,51.6824858856745],[-0.0182584585267931,51.6827105421432],[-0.0182486473783732,51.6829351986161],[-0.0186100347551877,51.6829412917042],[-0.0189714219948011,51.6829473838022],[-0.0193328093649386,51.6829534747772],[-0.0196941968655767,51.6829595646292],[-0.0197040005028746,51.6827349088842],[-0.0197138040096567,51.682510253141],[-0.0197236073859273,51.6822855973994],[-0.0197334106316886,51.6820609416595],[-0.0193720304967884,51.6820548511472],[-0.019381835453416,51.681830195244],[-0.0190204572903807,51.6818241034436],[-0.0186590792578585,51.6818180105204],[-0.0182977013558736,51.6818119164741],[-0.0179363183472447,51.6818058247987],[-0.0179461306360549,51.6815811683345],[-0.0179559427978214,51.6813565118598],[-0.0179657548325485,51.6811318553743],[-0.0183271320145002,51.681137947289],[-0.0186885043925224,51.6811440418303],[-0.0190498769010746,51.6811501352487],[-0.0194112495401333,51.6811562275442],[-0.0197726223096743,51.6811623187168],[-0.0197824249029181,51.6809376629853],[-0.0201437959616348,51.6809437532],[-0.0205051671507836,51.6809498422918],[-0.0208665384703409,51.6809559302607],[-0.0212279099202818,51.6809620171066],[-0.0215892815005838,51.6809681028297],[-0.0219506532112212,51.6809741874298],[-0.0223120250521713,51.6809802709071],[-0.0223022353479538,51.6812049254828],[-0.0226636091604901,51.681211007672],[-0.0230249831032925,51.6812170887383],[-0.0233863571763385,51.6812231686817],[-0.0237477313796025,51.6812292475021],[-0.0241091057130611,51.6812353251997],[-0.024099325085144,51.6814599789513],[-0.0240895443270108,51.6816846327046],[-0.02445092247333,51.6816907089489],[-0.0248123007498007,51.6816967840703],[-0.0251736791563984,51.6817028580688],[-0.0255350576930993,51.6817089309443],[-0.0255252841702846,51.6819335840385],[-0.0258866646784542,51.6819396556259],[-0.0262480453166817,51.6819457260904],[-0.0266094260849421,51.6819517954319],[-0.0269708069832114,51.6819578636506],[-0.0273321880114666,51.6819639307463],[-0.0273224235656164,51.6821885830159],[-0.0276838065652581,51.6821946488235],[-0.0280451896948392,51.6822007135082],[-0.0284065729543362,51.6822067770699],[-0.0287679563437241,51.6822128395087],[-0.0291293398629801,51.6822189008247],[-0.0291195844943848,51.6824435522694],[-0.0294809699849439,51.6824496122971],[-0.0298423556053259,51.6824556712019],[-0.0302037413555057,51.6824617289838],[-0.0305651272354586,51.6824677856428],[-0.0309265132451616,51.6824738411788],[-0.0312878993845909,51.682479895592],[-0.0316492856537221,51.6824859488822],[-0.032010672052531,51.6824920010496],[-0.032372058580994,51.6824980520941],[-0.0327334452390866,51.6825041020156],[-0.0330948320267861,51.6825101508143],[-0.0334562189440669,51.6825161984901],[-0.0338176059909053,51.682522245043],[-0.0341789931672781,51.682528290473],[-0.0345403804731606,51.6825343347801],[-0.0349017679085307,51.6825403779643],[-0.0352631513140113,51.6825464238001],[-0.0356245344759581,51.6825524688572],[-0.0359859177646321,51.6825585127998],[-0.0363473011800095,51.6825645556279],[-0.0367086847220671,51.6825705973416],[-0.0370700683907818,51.6825766379407],[-0.0370603532337203,51.6828012865551],[-0.0374217388207424,51.6828073260301],[-0.0377831245343765,51.6828133643906],[-0.0381445103745999,51.6828194016366],[-0.0385058963413895,51.6828254377681],[-0.0388672824347216,51.6828314727851],[-0.0392286686545737,51.6828375066876],[-0.0395900550009216,51.6828435394756],[-0.039951441473742,51.6828495711492],[-0.0403128280730129,51.6828556017082],[-0.0406742147987103,51.6828616311528],[-0.0410356016508108,51.6828676594829],[-0.0413969886292911,51.6828736866985],[-0.0417583757341281,51.6828797127996],[-0.0421197629652988,51.6828857377863],[-0.0421100727655055,51.6831103862569],[-0.042471461914714,51.6831164101192],[-0.0424811503227796,51.6828917616584],[-0.0428425378065477,51.682897784416],[-0.0432039254165789,51.6829038060592],[-0.0435653131528503,51.6829098265879],[-0.0439267010153397,51.6829158460021],[-0.0442880890040224,51.6829218643018],[-0.0442784095546267,51.6831465127132],[-0.0439170197742052,51.6831404944234],[-0.0439073384068217,51.683365142838],[-0.0442687299790048,51.6833711611179],[-0.0446301216773627,51.6833771782833],[-0.044991513501872,51.6833831943342],[-0.0453529054525095,51.6833892092706],[-0.0457142975292528,51.6833952230925],[-0.0460756897320785,51.6834012357999],[-0.0460853603488596,51.6831765874448],[-0.0457239699378066,51.6831705747275],[-0.0457336422202277,51.6829459263557],[-0.0460950308395315,51.682951939083],[-0.0464564195848901,51.6829579506958],[-0.0468178084562792,51.6829639611941],[-0.047179197453676,51.6829699705779],[-0.047540586577058,51.6829759788472],[-0.047901975826401,51.682981986002],[-0.048263365201682,51.6829879920423],[-0.0482730248158462,51.6827633437335],[-0.0482826843040451,51.6825386954179],[-0.0486440702217819,51.6825447003638],[-0.049005456265406,51.6825507041952],[-0.0489958003606454,51.6827753524908],[-0.0486344125253011,51.6827693486694],[-0.0486247547028774,51.6829939969682],[-0.0489861443299657,51.6830000007795],[-0.0493475340829218,51.6830060034764],[-0.0493378797180893,51.6832306517484],[-0.0489764881733645,51.6832246490615],[-0.0489668318908405,51.6834492973367],[-0.0486054386801964,51.6834432935454],[-0.0486150967545106,51.6832186452602],[-0.0482537054615504,51.6832126403443],[-0.0482440455954483,51.6834372886396],[-0.0482343856033754,51.683661936928],[-0.0485957804799336,51.6836679418238],[-0.0485861220963991,51.6838925909658],[-0.0489475188937672,51.683898594769],[-0.0489378620621337,51.6841232458634],[-0.0489282051031691,51.6843478969591],[-0.0489185480168681,51.6845725480561],[-0.0485571457653789,51.6845665447341],[-0.0485474867336546,51.6847911959928],[-0.0481860827913889,51.6847851917087],[-0.048176421814192,51.685009843129],[-0.0481667607096079,51.6852344945506],[-0.0485281682881154,51.6852404985139],[-0.0485185088742963,51.6854651497763],[-0.0488799183982772,51.6854711524565],[-0.0488702606752712,51.6856958035597],[-0.0485088493331081,51.68568980104],[-0.0484991896645485,51.685914452305],[-0.0484895298686159,51.6861391035713],[-0.0484798699453063,51.6863637548388],[-0.0481184532757842,51.6863577516777],[-0.0477570367336115,51.686351747394],[-0.0473956203188123,51.6863457419876],[-0.0474052856968637,51.6861210902388],[-0.0474149509474704,51.6858964384912],[-0.047053538296531,51.6858904316412],[-0.0470438712277056,51.6861150835492],[-0.0470342040314101,51.6863397354585],[-0.0470245367076424,51.686564387369]]],[[[-0.0144380872712613,51.6873673856358],[-0.0140766610315269,51.6873612814023],[-0.0137152349179775,51.6873551760586],[-0.0133538089306343,51.6873490696045],[-0.0133636480003062,51.687124411726],[-0.0133734869437222,51.6868997538361],[-0.0137349094199693,51.6869058601455],[-0.0140963320224177,51.6869119653446],[-0.0144577547510458,51.6869180694335],[-0.0144479210742468,51.6871427275402],[-0.0144380872712613,51.6873673856358]]]]}}