{"type":"Feature","properties":{"code":"E63005135","name":"Swanley"},"geometry":{"type":"MultiPolygon","coordinates":[[[[0.192914994189361,51.3970271239746],[0.193274089682738,51.3970204005152],[0.193633185036913,51.397013675947],[0.193992280251865,51.39700695027],[0.194003029994366,51.3972315843263],[0.194013779876162,51.3974562183815],[0.194372878471666,51.3974494917934],[0.194383630252693,51.3976741259465],[0.194742730468855,51.3976673983484],[0.194731976927897,51.3974427640965],[0.194721223526281,51.3972181298435],[0.194710470264006,51.3969934955893],[0.19506956506115,51.3969867665858],[0.195080320083309,51.3972114009388],[0.19543941650102,51.3972046709252],[0.195450173422445,51.397429305376],[0.195809271460718,51.3974225743525],[0.196168369359626,51.3974158422201],[0.196179129940286,51.3976404768675],[0.196538229459726,51.3976337437251],[0.196548991939764,51.3978583784703],[0.196908093079732,51.3978516443179],[0.196918857459193,51.3980762791609],[0.197277960219683,51.3980695439984],[0.19763706284071,51.398062807727],[0.197996165322252,51.3980560703467],[0.198355267664285,51.3980493318575],[0.198714367507838,51.3980425911332],[0.199073466972269,51.3980358491974],[0.199432566293787,51.3980291061635],[0.199443343217772,51.3982537411324],[0.199454120284741,51.3984783760895],[0.199813223094257,51.3984716317962],[0.199824002119713,51.3986962666607],[0.200183106601763,51.3986895211886],[0.200542210940822,51.3986827746184],[0.200531428284371,51.3984581399152],[0.200172325760808,51.3984648864048],[0.200161545062885,51.398240251609],[0.200150764507993,51.3980156168014],[0.200139984096128,51.397790981982],[0.199780886875933,51.3977977271314],[0.199770108422499,51.3975730922195],[0.199759330112065,51.3973484572956],[0.199748551944626,51.3971238223599],[0.199737773920183,51.3968991874124],[0.199378683818526,51.3969059311411],[0.19936790775239,51.3966812961011],[0.199357131829219,51.3964566610492],[0.199346356049013,51.3962320259854],[0.199335580411768,51.3960073909097],[0.199694663252303,51.3960006475036],[0.199683885942795,51.3957760124967],[0.199673108776266,51.395551377478],[0.199314029566153,51.3955581207229],[0.199303254357778,51.3953334856117],[0.198944176819935,51.3953402276779],[0.198954950213132,51.3955648628698],[0.198595870717225,51.3955716039186],[0.198585099139209,51.3953469686461],[0.19822601984422,51.3953537089273],[0.198215250099668,51.3951290736761],[0.197856170635254,51.3951358134498],[0.197845402789906,51.3949111782963],[0.197486324945675,51.39491791706],[0.197475558999486,51.3946932820042],[0.197116482775442,51.3947000197579],[0.196757406411973,51.3947067564029],[0.196398329909098,51.3947134919391],[0.196039253266841,51.3947202263665],[0.195680176485227,51.3947269596851],[0.195321099564276,51.394733691895],[0.19496202250401,51.3947404229962],[0.194602945304455,51.3947471529886],[0.194243867965631,51.3947538818722],[0.193884790487562,51.3947606096471],[0.193895538837243,51.3949852437142],[0.193536459460287,51.3949919702815],[0.193177379944129,51.3949986957399],[0.19281830028879,51.3950054200896],[0.192459220494296,51.3950121433305],[0.192100140560667,51.3950188654627],[0.191741060487926,51.3950255864862],[0.191381980276097,51.3950323064008],[0.191392716447193,51.3952569397744],[0.191403452757404,51.3954815731469],[0.191414189206733,51.3957062065183],[0.19142492579518,51.3959308398886],[0.19178401304595,51.3959241203697],[0.191794751533311,51.3961487538379],[0.192153840404771,51.3961420333092],[0.192164580791092,51.3963666668752],[0.192175321316584,51.3965913004402],[0.192534413568563,51.3965845790006],[0.192545155993084,51.3968092126634],[0.192555898556806,51.3970338463251],[0.192914994189361,51.3970271239746]]],[[[0.198768235402575,51.3991657666655],[0.198779009410353,51.3993904017363],[0.19878978356108,51.3996150367954],[0.199148895734216,51.3996082942952],[0.199508007764423,51.3996015506968],[0.199867119651677,51.3995948060002],[0.199877899392215,51.3998194408054],[0.200237012952107,51.39981269493],[0.200226231395954,51.3995880602055],[0.200215449982845,51.3993634254691],[0.200574559768533,51.3993566786568],[0.200563776682901,51.3991320439892],[0.20020466871278,51.3991387907208],[0.200193887585752,51.3989141559606],[0.199834781288181,51.3989209015134],[0.199475674847639,51.398927645968],[0.199116568264152,51.3989343893244],[0.199127343944536,51.3991590243265],[0.198768235402575,51.3991657666655]]],[[[0.163098368572808,51.3897126951973],[0.162739338505879,51.3897193246663],[0.162380308308379,51.3897259530294],[0.162390894072953,51.3899505776961],[0.162401479968155,51.3901752023589],[0.162412065993987,51.390399827018],[0.162053030723471,51.3904064541088],[0.162063615232403,51.3906310787086],[0.16242265215045,51.3906244516733],[0.162433238437549,51.3908490763248],[0.162792276872588,51.3908424482392],[0.162781688937939,51.3906178235321],[0.163140725594848,51.3906111942851],[0.163151315177045,51.3908358190477],[0.1635103533509,51.3908291887503],[0.163520944711347,51.3910538135645],[0.163531536202496,51.3912784383749],[0.16389057754088,51.3912718070827],[0.164249618748615,51.3912651746846],[0.164260213665687,51.3914897996021],[0.163901170810345,51.3914964319448],[0.16391176421054,51.3917210568031],[0.163552719576916,51.3917276879844],[0.16356331146019,51.3919523127835],[0.163204265048278,51.3919589428034],[0.163214855414588,51.3921835675432],[0.162855807224382,51.3921901964017],[0.162866402076722,51.3924148136548],[0.162507352196725,51.3924214412948],[0.162148302180701,51.3924280678387],[0.161789252028672,51.3924346932865],[0.161778662266118,51.3922100758628],[0.16141961371752,51.3922167001047],[0.161060565032964,51.3922233232504],[0.160701516212473,51.3922299453001],[0.16034246725607,51.3922365662537],[0.159983418163776,51.3922431861111],[0.159624368935615,51.3922498048725],[0.159265319571609,51.3922564225377],[0.15890627007178,51.3922630391069],[0.158547220436151,51.3922696545799],[0.158188170664744,51.3922762689568],[0.15782912075758,51.3922828822377],[0.157470070714684,51.3922894944223],[0.157111020536077,51.3922961055109],[0.156751970221782,51.3923027155034],[0.156762535632363,51.3925273344642],[0.156403483442958,51.3925339434703],[0.156044431117908,51.3925405513802],[0.155685378657233,51.392547158194],[0.155695938985121,51.3927717774704],[0.155706499448655,51.3929963967333],[0.156065555388294,51.3929897897001],[0.156076117726995,51.3932144088397],[0.156086680201371,51.3934390279658],[0.155727620782678,51.3934456352185],[0.155738181653169,51.3936702544408],[0.155748742659317,51.3938948736495],[0.155389679625864,51.3939014800254],[0.155400239028064,51.3941260993303],[0.155759303801124,51.3941194928447],[0.155769865078593,51.3943441120263],[0.155410798565901,51.3943507186216],[0.155051731917613,51.3943573241207],[0.155062289851436,51.3945819435083],[0.15542135823938,51.3945753378995],[0.155780426491726,51.3945687311944],[0.156139494608449,51.3945621233932],[0.156150057896921,51.3947867424381],[0.156509127617671,51.3947801334309],[0.156868197202752,51.3947735233275],[0.157227266652142,51.3947669121279],[0.157237835295377,51.39499153083],[0.15759690634874,51.3949849184244],[0.157955977266365,51.3949783049226],[0.158315048048228,51.3949716903246],[0.158325622046346,51.3951963086839],[0.158684694432129,51.3951896928799],[0.159043766682103,51.3951830759796],[0.159054344295498,51.3954076941058],[0.159413418149363,51.3954010759995],[0.159423997638378,51.3956256940023],[0.159434577263296,51.3958503119915],[0.159793654460808,51.3958436925694],[0.159804235961416,51.3960683104353],[0.159814817597954,51.3962929282876],[0.159825399370424,51.3965175461263],[0.159466316953488,51.3965241658779],[0.159476897122039,51.3967487838129],[0.159487477426505,51.3969734017344],[0.159498057866886,51.3971980196423],[0.159508638443187,51.3974226375367],[0.159519219155408,51.3976472554175],[0.159160127903105,51.3976538746219],[0.159170707011283,51.3978784925989],[0.159181286255362,51.3981031105624],[0.159191865635349,51.3983277285124],[0.159202445151242,51.3985523464489],[0.15884334680307,51.3985589649961],[0.158853924714813,51.3987835830288],[0.158864502762447,51.3990082010479],[0.158875080945972,51.3992328190535],[0.158515977241703,51.3992394368338],[0.158526553820993,51.3994640549356],[0.158537130536158,51.3996886730239],[0.1585477073872,51.3999132910987],[0.15818859832664,51.3999199081119],[0.158178023215775,51.3996952899274],[0.157818915759583,51.3997019057345],[0.157829489130268,51.3999265240288],[0.157840062636787,51.4001511423096],[0.15819917357336,51.4001445262829],[0.158558284374121,51.4001379091598],[0.158568861496923,51.4003625272075],[0.158579437923295,51.400587149632],[0.158590012227561,51.4008117839811],[0.158600586674538,51.4010364183239],[0.158611161264229,51.4012610526605],[0.158621735996637,51.4014856869909],[0.158632310871765,51.401710321315],[0.158273187185046,51.4017169390326],[0.158283760346877,51.4019415733366],[0.158294333651409,51.4021662076343],[0.158304907098644,51.4023908419258],[0.158315480688584,51.4026154762111],[0.157956349435006,51.4026220927693],[0.157597218038803,51.4026287082237],[0.15760778805922,51.4028533424749],[0.157966921311539,51.4028467270344],[0.157977493330759,51.4030713612933],[0.158336628296591,51.4030647447628],[0.158695763119771,51.4030581271283],[0.158706338994,51.4032827614087],[0.15871691501097,51.4035073956827],[0.158727491170681,51.4037320299506],[0.158738067473135,51.4039566642122],[0.158748643918335,51.4041812984675],[0.158759220506285,51.4044059327166],[0.158769797236984,51.4046305669594],[0.158410649420192,51.4046371844968],[0.158421224437319,51.4048618187195],[0.15843179959718,51.405086452936],[0.158072647925039,51.4050930693416],[0.158062074621529,51.404868435139],[0.157702924663092,51.4048750504546],[0.157343774562031,51.4048816646662],[0.157333205113892,51.4046570304851],[0.156974056726566,51.4046636436067],[0.156614908196667,51.4046702556242],[0.156255759524219,51.4046768665378],[0.155896610709246,51.4046834763474],[0.155886048829026,51.4044588422157],[0.155875487091367,51.4042342080778],[0.155516341846513,51.4042408168113],[0.155157196459186,51.4042474244408],[0.155167754484248,51.4044720585509],[0.155178312651823,51.4046966926546],[0.155537461751773,51.404690085053],[0.155548021918213,51.4049147191645],[0.155188870961916,51.4049213267522],[0.155199429414528,51.4051459608435],[0.154840276459404,51.4051525673132],[0.154829719863165,51.4049279332359],[0.154470568621982,51.4049345386156],[0.154481123361846,51.405159172679],[0.154491678244184,51.4053838067361],[0.154850833198141,51.4053772013843],[0.154861390079379,51.4056018354491],[0.154871947103122,51.4058264695077],[0.154882504269369,51.40605110356],[0.155241664650223,51.4060444971461],[0.15560082488861,51.4060378896281],[0.155959984984506,51.4060312810061],[0.156319144937886,51.40602467128],[0.156308580345782,51.405800037172],[0.156667738300166,51.405793426328],[0.157026896111987,51.40578681438],[0.157386053781224,51.405780201328],[0.157396623942694,51.4060048354778],[0.157407194246838,51.4062294696213],[0.157048032864671,51.4062360826455],[0.157058601454991,51.4064607167689],[0.157417764693658,51.4064541037586],[0.157428335283155,51.4066787378897],[0.157438906015335,51.4069033720145],[0.157449476890198,51.407128006133],[0.157460047907746,51.4073526402453],[0.157819218430024,51.4073460261865],[0.157829791446877,51.4075706603064],[0.157840364606444,51.4077952944201],[0.157850937908728,51.4080199285276],[0.157861511353731,51.4082445626287],[0.157872084941457,51.4084691967237],[0.158231264604387,51.4084625816302],[0.158241840191569,51.4086872157328],[0.158601021568541,51.4086805995491],[0.15859044412463,51.4084559654327],[0.158949623502163,51.408449348131],[0.15930880273696,51.4084427297251],[0.159667981828997,51.4084361102152],[0.160027160778251,51.4084294896011],[0.160016576050314,51.408204855423],[0.160375753000067,51.408198233691],[0.16073492980699,51.4081916108549],[0.161094106471059,51.4081849869146],[0.161083516315984,51.4079603526888],[0.161072926303841,51.4077357184567],[0.161432099111732,51.4077290933848],[0.161791271776725,51.4077224672087],[0.162150444298798,51.4077158399285],[0.162161039880849,51.407940474202],[0.162171635605904,51.4081651084692],[0.162530811698317,51.4081584801125],[0.162889987647756,51.4081518506517],[0.163249163454197,51.4081452200867],[0.163259764892285,51.408369854389],[0.163618942412374,51.4083632227337],[0.163629545850236,51.4085878570435],[0.163988725083968,51.4085812242978],[0.16399933052165,51.408805858615],[0.164009937374083,51.4090304938498],[0.163650754555106,51.4090371266565],[0.163661360185563,51.4092617622229],[0.163302175472226,51.409268393982],[0.163312779482697,51.4094930295909],[0.163671965953241,51.4094863977791],[0.164031152286605,51.4094797648671],[0.164390338482768,51.4094731308548],[0.164749524541707,51.4094664957423],[0.165108711525919,51.4094598607418],[0.165467904694756,51.4094532318554],[0.165827097726834,51.409446601872],[0.166186290622133,51.4094399707916],[0.166545483380627,51.409433338614],[0.166534863374202,51.4092087034507],[0.166894054247722,51.4092020702824],[0.167253244984396,51.409195436017],[0.167612435584203,51.4091888006546],[0.167971626047118,51.4091821641951],[0.16833081637312,51.4091755266386],[0.168690006562186,51.409168887985],[0.169049196614293,51.4091622482344],[0.169038564507902,51.4089376138018],[0.169027932727228,51.4087129798561],[0.168668746224096,51.4087196193855],[0.168658116532329,51.4084949856105],[0.168647486983395,51.4082703518235],[0.16863685757729,51.4080457180245],[0.168626228314013,51.4078210842134],[0.16861559919356,51.4075964503904],[0.168604970215931,51.4073718165553],[0.168964145640471,51.4073651775273],[0.169323320922215,51.407358537401],[0.169312688394708,51.4071339037211],[0.169671861687286,51.40712726258],[0.169661227456323,51.4069026289717],[0.17002039875974,51.4068959868159],[0.170009762825368,51.4066713532792],[0.169650593368246,51.4066779953514],[0.169639959423053,51.406453361719],[0.169999127033902,51.4064467197304],[0.169988491385342,51.4062220861696],[0.169977855879683,51.4059974525968],[0.169618691961305,51.4060040944182],[0.169259527900097,51.4060107351414],[0.168900363696084,51.4060173747663],[0.168910993663061,51.4062420085898],[0.168551827470033,51.4062486472],[0.168192661134244,51.4062552847119],[0.167833494655718,51.4062619211255],[0.167844119226754,51.4064865551877],[0.167854743940553,51.4067111892379],[0.167865368797118,51.4069358232761],[0.167875993796451,51.4071604573022],[0.167886618938554,51.4073850913164],[0.167527443085766,51.4073917270494],[0.167516819790019,51.4071670929517],[0.167157645640889,51.4071737275029],[0.167168267090277,51.4073983616841],[0.166809090952111,51.4074049952205],[0.166819710697838,51.4076296294733],[0.166460532570631,51.4076362619948],[0.166101354300791,51.407642893418],[0.165742175888344,51.407649523743],[0.165731561681788,51.4074248892397],[0.165372384973153,51.4074315183827],[0.1653617727556,51.407206883784],[0.165351160680652,51.4069822491732],[0.165340548748308,51.4067576145504],[0.165329936958565,51.4065329799157],[0.165689106281855,51.4065263511066],[0.166048275462573,51.4065197211991],[0.166407444500696,51.4065130901934],[0.166418061829335,51.4067377245777],[0.166777232571132,51.4067310923902],[0.167136403170284,51.4067244591044],[0.16712578214906,51.4064998248871],[0.167115161270552,51.4062751906579],[0.16747432803448,51.4062685564408],[0.167463705452443,51.4060439222831],[0.167453083013142,51.4058192881134],[0.167442460716574,51.4055946539316],[0.167431838562734,51.4053700197379],[0.167421216551623,51.4051453855321],[0.167410594683237,51.4049207513144],[0.167769750227392,51.4049141165002],[0.16775912665563,51.404689482354],[0.167748503226612,51.4044648481957],[0.167737879940335,51.4042402140255],[0.167378729934402,51.404246848589],[0.167368108636891,51.4040222143232],[0.167357487482093,51.4037975800455],[0.167346866470005,51.4035729457557],[0.167706010937926,51.4035663114427],[0.168065155263164,51.4035596760316],[0.16807577996721,51.4037843101543],[0.168086404814013,51.404008944265],[0.168097029803577,51.4042335783638],[0.168107654935903,51.4044582124505],[0.168466806502476,51.404451575607],[0.168456179524105,51.4042269416038],[0.168815329101894,51.4042203037457],[0.168825957926308,51.4044449376653],[0.168836586893536,51.4046695715729],[0.169195740020668,51.4046629324494],[0.169554893005008,51.4046562922277],[0.169914045846533,51.4046496509078],[0.170273198545218,51.4046430084897],[0.170632351101041,51.4046363649734],[0.170991503513976,51.4046297203589],[0.171002143700509,51.4048543537529],[0.171361297816606,51.4048477079566],[0.171720451789765,51.404841061062],[0.172079605619961,51.4048344130692],[0.172438759307173,51.4048277639782],[0.172797912851375,51.404821113789],[0.173157066252543,51.4048144625016],[0.173516219510653,51.404807810116],[0.173875372625682,51.4048011566322],[0.174234525597605,51.4047945020502],[0.174223868796499,51.404569869409],[0.174583019779241,51.4045632138125],[0.174572361275274,51.404338581243],[0.17493151026884,51.4043319246319],[0.17492085006206,51.4041072921341],[0.17491018999849,51.4038826596243],[0.174899530078127,51.4036580271024],[0.174888870300968,51.4034333945686],[0.17487821066701,51.4032087620227],[0.175237350287643,51.403202104732],[0.175596489765091,51.4031954463432],[0.175607153090856,51.4034200787217],[0.175966294270996,51.4034134191511],[0.176325435307901,51.4034067584823],[0.176314768290338,51.4031821262713],[0.176304101416069,51.4029574940482],[0.175944964070936,51.4029641545496],[0.175934299185809,51.4027395222307],[0.175575163543298,51.4027461815502],[0.175216027757585,51.4027528397716],[0.175205366707385,51.4025282072733],[0.1751947058004,51.402303574763],[0.175184045036629,51.4020789422407],[0.175543175284917,51.4020722842705],[0.175902305390009,51.4020656252022],[0.17626143535188,51.4020589650358],[0.176620565170508,51.4020523037714],[0.176609897166917,51.4018276715719],[0.176969024996525,51.4018210092931],[0.177328152682845,51.4018143459163],[0.177687280225851,51.4018076814413],[0.17804640762552,51.4018010158683],[0.178035732382333,51.4015763839918],[0.17802505728254,51.4013517521034],[0.178384180847435,51.4013450855999],[0.178394857792923,51.4015697174045],[0.17875398306013,51.4015630497191],[0.17911310818393,51.4015563809357],[0.179123788964264,51.4017810125607],[0.179482915790344,51.4017743425954],[0.179842042472968,51.401767671532],[0.179852727088234,51.4019923029774],[0.180211855473106,51.4019856307321],[0.180570983714471,51.4019789573887],[0.180581672164758,51.4022035886544],[0.180940802108339,51.4021969141291],[0.180951492547964,51.4024215452989],[0.181310624193756,51.4024148695917],[0.181321316622766,51.4026395006656],[0.181680449970764,51.4026328237765],[0.181691144389205,51.4028574547544],[0.182050286914089,51.4028507696133],[0.18240943001521,51.4028440826923],[0.18242012823262,51.4030687135571],[0.182779272900322,51.4030620255979],[0.183138417432941,51.4030553365315],[0.18314911918876,51.4032799675314],[0.183508265287932,51.4032732774268],[0.183518968880566,51.403497908493],[0.183159821079717,51.4035045985285],[0.183170523105813,51.4037292295227],[0.183529672608363,51.4037225395562],[0.183540376471324,51.4039471706165],[0.183899527540462,51.4039404796117],[0.183910233240332,51.4041651107382],[0.183920939075392,51.4043897418617],[0.184280093412875,51.4043830498877],[0.184639247615175,51.4043763568065],[0.184998401682271,51.4043696626179],[0.184987690741931,51.4041450312873],[0.185346842972045,51.4041383359225],[0.185705995066913,51.4041316394504],[0.186065147026513,51.4041249418709],[0.18607586307211,51.4043495734085],[0.186435016598168,51.4043428747908],[0.186794169988913,51.4043361750658],[0.186804889573374,51.4045608067384],[0.187164044530548,51.4045541059751],[0.187153323244321,51.4043294742334],[0.187512476364372,51.4043227722938],[0.187501753511796,51.4040981404804],[0.187860904794729,51.4040914373645],[0.187850180375849,51.4038668054792],[0.187839456092401,51.403642173591],[0.188198603836528,51.4036354692299],[0.188557751445239,51.4036287637616],[0.188568479132068,51.4038533957877],[0.188579206954375,51.4040780278109],[0.188938357831045,51.4040713213731],[0.18929750857225,51.4040646138281],[0.189656659177969,51.4040579051757],[0.189667392240944,51.4042825374027],[0.189678125439466,51.4045071696268],[0.190037279313148,51.404500460005],[0.19002654441288,51.404275827712],[0.19001580964818,51.4040511954161],[0.190005075019048,51.4038265631173],[0.189994340525481,51.4036019308156],[0.189635193458653,51.403608640713],[0.189624460802308,51.4033840084773],[0.189265315301638,51.4033907173364],[0.18890616966549,51.4033974250881],[0.188547023893883,51.4034041317326],[0.18818787798684,51.4034108372699],[0.188177152272602,51.4031862053069],[0.188166426693812,51.4029615733411],[0.188155701250467,51.4027369413723],[0.187796560312888,51.4027436460091],[0.187785836706568,51.4025190141063],[0.187426697335187,51.4025257177048],[0.187067557828446,51.402532420196],[0.186708418186365,51.40253912158],[0.186349278408967,51.4025458218568],[0.186338561744326,51.402321190227],[0.186327845215013,51.4020965585942],[0.186317128821026,51.4018719269586],[0.186306412562361,51.4016472953201],[0.185947279455818,51.4016539947655],[0.185936565033957,51.401429363193],[0.185577433493634,51.4014360616003],[0.185588146214011,51.4016606931038],[0.185229012836962,51.4016673903348],[0.184869879324692,51.4016740864587],[0.184510745677223,51.4016807814754],[0.184500038061314,51.4014561501789],[0.184859170007291,51.4014494550932],[0.185218301818073,51.4014427589003],[0.185207590934436,51.4012181274629],[0.185566720908532,51.4012114300938],[0.185556008458702,51.4009867985845],[0.185545296144141,51.4007621670723],[0.185186169572907,51.4007688645793],[0.185175459095012,51.4005442331332],[0.185164751211548,51.4003196015766],[0.18480562788145,51.4003262981449],[0.184794922093528,51.4001016666777],[0.184784216444339,51.3998770352094],[0.184425096496023,51.3998837308672],[0.184414392745768,51.3996590994969],[0.184403689134219,51.3994344681255],[0.184392985661374,51.399209836753],[0.18438228232723,51.3989852053794],[0.184023169280933,51.3989919003249],[0.184012467845602,51.3987672690493],[0.184001766548944,51.3985426377727],[0.183991065390959,51.3983180064949],[0.184350173156983,51.3983113112519],[0.184709280784362,51.3983046149001],[0.184698576244956,51.3980799834229],[0.184339470377621,51.3980866798739],[0.184328767736948,51.3978620484947],[0.184687871844263,51.3978553519445],[0.185046975812915,51.3978486542856],[0.185057681973626,51.398073285863],[0.185416787563608,51.3980665871944],[0.185775893014879,51.3980598874168],[0.186134998327416,51.3980531865304],[0.186124286886664,51.3978285546556],[0.186113575584715,51.3976039227797],[0.186102864421562,51.3973792909027],[0.186461964315386,51.3973725886101],[0.186451251531088,51.3971479566329],[0.186810349526201,51.3971412531324],[0.187169447382522,51.3971345485231],[0.187158731217213,51.3969099163466],[0.187517827174807,51.3969032105294],[0.187876922993567,51.3968965036035],[0.187866203447343,51.3966718712277],[0.187855484040021,51.3964472388508],[0.1878447647716,51.3962226064728],[0.18748567423243,51.396229313696],[0.187474956862723,51.396004681416],[0.187464239631889,51.3957800491348],[0.187105152473508,51.3957867554474],[0.187094437141318,51.3955621232642],[0.187083721947974,51.3953374910799],[0.186724638170323,51.3953441964818],[0.186713924875553,51.3951195643955],[0.187073006893473,51.3951128588946],[0.187062291977811,51.3948882267081],[0.187421372097229,51.3948815199993],[0.187410655560723,51.3946568877126],[0.187769733781646,51.3946501797961],[0.188128811863735,51.3946434707708],[0.18811809194677,51.3944188382849],[0.188477168130348,51.3944121280518],[0.188836244175048,51.3944054167101],[0.188825520877724,51.394180784025],[0.189184595023898,51.3941740714755],[0.189543669031151,51.3941673578173],[0.18990274289946,51.3941606430504],[0.190261816628804,51.3941539271748],[0.190251086432022,51.3939292940926],[0.190610158262784,51.3939225770093],[0.190599426445463,51.3936979438271],[0.190958496377645,51.3936912255361],[0.191317566170798,51.3936845061364],[0.191306830973439,51.3934598727551],[0.191296095915177,51.3932352393728],[0.191285360996008,51.3930106059893],[0.19092629648142,51.3930173256859],[0.190915563460819,51.3927926924004],[0.190904830579283,51.3925680591137],[0.190545769444608,51.3925747778995],[0.19053503846157,51.3923501447107],[0.190524309056213,51.3921255116219],[0.190165251200927,51.3921322294805],[0.190154527044423,51.39190759669],[0.190143803035163,51.3916829638968],[0.189784748826479,51.3916896807982],[0.189774026861313,51.3914650480775],[0.189414974402338,51.3914717639466],[0.189404254481219,51.3912471312983],[0.189393534707288,51.3910224986475],[0.189752583372622,51.3910157826285],[0.189741861849094,51.3907911499001],[0.190100908470509,51.390784432699],[0.190090185197429,51.3905597998932],[0.190449229774928,51.39055308151],[0.190438504752347,51.3903284486268],[0.190797547285935,51.3903217290616],[0.191156589672318,51.3903150083892],[0.19114586100358,51.3900903753536],[0.191504901346035,51.3900836534992],[0.191494170927917,51.3898590203861],[0.191853209226447,51.3898522973498],[0.191842477058998,51.3896276641593],[0.191831745038888,51.3894030309662],[0.191472710533631,51.3894097541524],[0.19111367588113,51.3894164762314],[0.190754641081409,51.3894231972034],[0.190765367411638,51.3896478301717],[0.19040633056809,51.3896545499617],[0.190047293577369,51.3896612686446],[0.189688256439499,51.3896679862204],[0.18969897722702,51.3898926189614],[0.189339938045363,51.3898993353551],[0.189350657083393,51.3901239680187],[0.188991615857945,51.3901306832304],[0.188980898716606,51.3899060506418],[0.188970181722416,51.3896814180506],[0.189329219154508,51.389674702689],[0.189318500410822,51.3894500700204],[0.188959464875373,51.389456785457],[0.188600429192853,51.3894634997864],[0.188241393363286,51.3894702130088],[0.18823068045663,51.3892455805625],[0.187871646376666,51.3892522927528],[0.187860935513706,51.3890276603789],[0.187850224797812,51.3888030280025],[0.188209255084596,51.3887963156623],[0.188219967697067,51.3890209481137],[0.188578999733412,51.3890142347413],[0.188938031622715,51.389007520262],[0.189297063364951,51.3890008046755],[0.189656094960096,51.388994087982],[0.190015126408126,51.3889873701814],[0.190374157709015,51.3889806512738],[0.19036343371713,51.3887560183727],[0.190722462974293,51.3887492982831],[0.19108149208427,51.3887425770864],[0.191440521047034,51.3887358547827],[0.191799549862562,51.3887291313719],[0.191788818431781,51.3885044981687],[0.191778087148324,51.3882798649629],[0.191767356012191,51.3880552317547],[0.192126378990953,51.3880485070122],[0.192115646105686,51.3878238737265],[0.192104913367762,51.3875992404383],[0.192094180777179,51.3873746071475],[0.191735163487706,51.3873813321146],[0.191724432940841,51.3871566988962],[0.192083448333931,51.3871499738542],[0.192442463579752,51.3871432477052],[0.192431729387485,51.3869186143345],[0.192420995342573,51.3866939809613],[0.192061983889438,51.38670070726],[0.192072716038019,51.3869253405584],[0.191713702541287,51.3869320656752],[0.19170297228904,51.3867074324517],[0.191692242184099,51.3864827992257],[0.191333232332775,51.3864895233853],[0.191322504271425,51.3862648902316],[0.191311776357352,51.3860402570754],[0.190952770151374,51.3860469802778],[0.190942044280818,51.3858223471939],[0.190931318557508,51.3855977141075],[0.190572315996816,51.3856044363528],[0.190561592316949,51.3853798033387],[0.190550868784301,51.3851551703221],[0.190540145398868,51.3849305373029],[0.190529422160649,51.3847059042812],[0.19017042703746,51.3847126257192],[0.189811431767155,51.3847193460502],[0.189822151213117,51.3849439789221],[0.189463153899586,51.3849506980714],[0.189473871596555,51.3851753308658],[0.189114872239795,51.3851820488332],[0.189125588187725,51.3854066815502],[0.189136304282777,51.3856313142646],[0.188777300986573,51.3856380309752],[0.188788015332515,51.3858626636121],[0.188798729825561,51.3860872962465],[0.188439722589832,51.3860940117003],[0.188450435333699,51.3863186442572],[0.188461148224651,51.3865432768115],[0.188102137049314,51.3865499910084],[0.188112848191018,51.3867746234853],[0.188123559479786,51.3869992559596],[0.187764544364762,51.3870059688996],[0.187775253904213,51.3872306012964],[0.18741623674583,51.3872373130544],[0.187426944535915,51.3874619453737],[0.187067925334171,51.3874686559498],[0.187078631374842,51.3876932881915],[0.187089337562516,51.3879179204306],[0.18673031442094,51.3879246297497],[0.186741018859131,51.3881492619113],[0.186751723444307,51.3883738940704],[0.186392696362817,51.3883806021325],[0.18640339919844,51.388605234214],[0.186044370073522,51.388611941094],[0.186055071159544,51.3888365730979],[0.18606577239251,51.3890612050993],[0.185706739327566,51.3890679107222],[0.185717438810863,51.389292542646],[0.185728138441082,51.3895171745673],[0.185369101436031,51.389523878933],[0.185379799316512,51.3897485107767],[0.185020760267965,51.3897552139603],[0.185031456398659,51.3899798457264],[0.184672415306613,51.3899865477279],[0.184683109687469,51.3902111794164],[0.184324066551921,51.3902178802357],[0.184334759182894,51.3904425118465],[0.183975714003837,51.3904492114837],[0.183986404884877,51.3906738430169],[0.183997095912738,51.3908984745476],[0.18363804679337,51.3909051729274],[0.183648736071228,51.3911298043804],[0.183289684908315,51.3911365015781],[0.183300372436125,51.3913611329535],[0.182941319229665,51.3913678289689],[0.182582265876534,51.3913745238772],[0.182571582142435,51.391149892652],[0.18293063359871,51.3911431976686],[0.182919948114508,51.3909185663658],[0.182909262777056,51.3906939350605],[0.182898577586353,51.3904693037526],[0.182887892542396,51.3902446724421],[0.182877207645182,51.3900200411291],[0.182518165672827,51.3900267364881],[0.182159123553841,51.39003343074],[0.181800081288247,51.3900401238848],[0.181789402227918,51.3898154927946],[0.181430367946277,51.3898221842345],[0.18107133494278,51.3898288744115],[0.180712301802996,51.3898355634781],[0.180353268526946,51.3898422514341],[0.180342596767221,51.3896176208376],[0.180701628318388,51.3896109327491],[0.180690954970129,51.389386302021],[0.180331925143821,51.3893929902419],[0.179972895181275,51.3893996773524],[0.179613865082513,51.3894063633523],[0.179624533256185,51.3896309936831],[0.179265501296361,51.3896376784402],[0.178906469200362,51.3896443620868],[0.178547436968211,51.389651044623],[0.17818840459993,51.3896577260486],[0.177829372095541,51.3896644063638],[0.177840031781027,51.3898890360331],[0.177480997415651,51.3898957151053],[0.177470339455067,51.3896710855686],[0.177111306678529,51.3896777636629],[0.177100650578974,51.3894531342595],[0.176741619391279,51.3894598113758],[0.176382588067565,51.3894664873817],[0.176023556607857,51.3894731622772],[0.175664525012178,51.3894798360622],[0.175305493280548,51.3894865087368],[0.175316140755664,51.3897111374775],[0.174957107163211,51.3897178089091],[0.17459807343485,51.3897244792302],[0.174587429409525,51.3894998507547],[0.174228397270177,51.3895065200979],[0.173869364994968,51.3895131883308],[0.173510332583919,51.3895198554532],[0.173151300037054,51.3895265214652],[0.172792267354394,51.3895331863667],[0.172433234535961,51.3895398501578],[0.172074201581776,51.3895465128385],[0.171715168491864,51.3895531744088],[0.171725798717931,51.3897778018234],[0.171366763767395,51.3897844621506],[0.171377392404311,51.3900090894335],[0.171388021176999,51.3902337167171],[0.17102898264087,51.3902403756685],[0.170669943969072,51.3902470335095],[0.170310905161627,51.3902536902401],[0.170300281563841,51.3900290633545],[0.169941244345745,51.3900357191072],[0.169582206992048,51.3900423737496],[0.169223169502774,51.3900490272815],[0.169212551215545,51.3898244007949],[0.168853515315672,51.3898310533491],[0.168494479280267,51.3898377047929],[0.168505094117581,51.3900623310141],[0.168146056221707,51.3900689812148],[0.167787018190344,51.390075630305],[0.167427980023515,51.3900822782849],[0.167438589821464,51.3903069041087],[0.1670795497942,51.3903135508453],[0.166720509631512,51.3903201964715],[0.166731116114961,51.3905448220306],[0.166372074091853,51.3905514664136],[0.166013031933363,51.3905581096861],[0.16600242889995,51.3903334843926],[0.165643388331121,51.3903401266876],[0.165284347626957,51.3903467678721],[0.165273748178983,51.390122142845],[0.164914711672488,51.3901287813715],[0.164555678963806,51.3901354162586],[0.164196646124444,51.3901420500399],[0.164186051991832,51.3899174250996],[0.163827020669287,51.3899240578305],[0.163467989216106,51.3899306894556],[0.163457398509144,51.3897060646225],[0.163098368572808,51.3897126951973]]],[[[0.191349772597473,51.3943584062735],[0.190990697525551,51.3943651253764],[0.191001431519681,51.3945897586543],[0.191012165652897,51.3948143919311],[0.191371244244113,51.3948076730262],[0.191730322696264,51.3948009530125],[0.19208940100933,51.3947942318902],[0.192078661597147,51.3945695983165],[0.192437738011452,51.3945628759864],[0.192796814286628,51.3945561525476],[0.192786071494345,51.394331518775],[0.192775328841258,51.3941068850013],[0.192764586327365,51.3938822512265],[0.192405515330999,51.393888974962],[0.19204644419551,51.3938956975889],[0.191687372920921,51.3939024191071],[0.191698110156065,51.3941270525851],[0.191339036982813,51.3941337728956],[0.191349772597473,51.3943584062735]]],[[[0.154523343746072,51.40605770887],[0.154512788436295,51.4058330748316],[0.154153629627051,51.4058396790515],[0.154164183080356,51.4060643130759],[0.153805022272245,51.4060709161777],[0.153815574011512,51.4062955501819],[0.153826125893218,51.4065201841798],[0.15418529041435,51.4065135811059],[0.154544454793082,51.4065069769279],[0.154533899198334,51.406282342902],[0.154523343746072,51.40605770887]]]]}}