{"type":"Feature","properties":{"code":"E63005310","name":"Vigo Village"},"geometry":{"type":"MultiPolygon","coordinates":[[[[0.367213870551252,51.3340532604411],[0.366855321702547,51.3340605063233],[0.36686689347782,51.3342851087007],[0.366878465402122,51.3345097110682],[0.367237017734639,51.3345024650886],[0.367595569918139,51.3344952180116],[0.3679541219526,51.3344879698372],[0.367942544802554,51.3342633676158],[0.367930967801605,51.3340387653845],[0.367572419250945,51.3340460134615],[0.367213870551252,51.3340532604411]]],[[[0.336798067405366,51.3288184419193],[0.337156584867961,51.3288112867268],[0.337515102182969,51.3288041304375],[0.337526528484091,51.3290287376622],[0.337885047400914,51.3290215802193],[0.338243566170102,51.3290144216798],[0.33823213637013,51.3287898145689],[0.338590653242238,51.3287826549896],[0.338949169966668,51.3287754943135],[0.338937736815593,51.3285508873059],[0.338926303812254,51.3283262802879],[0.338567790586595,51.3283334408502],[0.33855635948034,51.3281088337648],[0.338197847856362,51.3281159931735],[0.338186418647146,51.3278913860209],[0.337827908624853,51.327898544276],[0.337469398454936,51.3279057014345],[0.337457972892029,51.3276810941576],[0.337446547476758,51.3274564868704],[0.337088040657851,51.3274636428185],[0.336729533691371,51.3274707976699],[0.336718111922278,51.3272461902585],[0.336359606557524,51.3272533439565],[0.336371026577341,51.3274779514247],[0.336382446744723,51.3277025588826],[0.336023937733863,51.3277097115975],[0.336035356299489,51.3279343191017],[0.336046775012664,51.3281589265955],[0.336405287522194,51.3281517737669],[0.336416708132288,51.3283763811934],[0.336775222243649,51.3283692272113],[0.336786644750707,51.3285938345705],[0.336798067405366,51.3288184419193]]],[[[0.338949169966668,51.3287754943135],[0.33896060326548,51.3290001013107],[0.338972036712034,51.3292247082974],[0.338983470306331,51.3294493152736],[0.339341992131376,51.3294421533302],[0.339330556787618,51.3292175464108],[0.339689076715474,51.3292103834275],[0.339700513808691,51.32943499029],[0.340059035338253,51.3294278261531],[0.340417556720038,51.3294206609194],[0.340776077954026,51.3294134945891],[0.341134599040192,51.329406327162],[0.341123154949165,51.3291817205273],[0.341481674138041,51.3291745520605],[0.341493119978515,51.3293991586383],[0.341504565966892,51.3296237652056],[0.341863088506815,51.3296165955281],[0.341874536392587,51.329841202028],[0.342233060534106,51.3298340311968],[0.342591584527708,51.3298268592689],[0.342580133142966,51.329602252883],[0.342938655239149,51.3295950799153],[0.342927202252921,51.3293704735759],[0.343285722451688,51.3293632995686],[0.34327426786402,51.3291386932757],[0.342915749414687,51.3291458672261],[0.342557230817399,51.3291530400797],[0.34254577987657,51.3289284336625],[0.342904296724443,51.3289212608658],[0.343262813424366,51.3289140869724],[0.343251359132722,51.3286894806586],[0.342892844182188,51.328696654495],[0.342881391787919,51.3284720481138],[0.342869939541634,51.3282474417222],[0.34285848744333,51.3280228353201],[0.342847035493003,51.3277982289075],[0.34248852739186,51.3278054014193],[0.34247707733879,51.3275807949393],[0.342465627433668,51.3273561884489],[0.342824132036276,51.3273490160511],[0.34318263649095,51.3273418425567],[0.343171183235313,51.3271172361698],[0.343529685792802,51.3271100616358],[0.34351823093595,51.3268854552955],[0.34387673159626,51.3268782797218],[0.343888188202316,51.3271028860051],[0.344246690463832,51.3270957092778],[0.344258148967147,51.3273203154937],[0.344616652829862,51.3273131376128],[0.344975156544531,51.3273059586352],[0.344986618694392,51.3275305647265],[0.344998080992362,51.3277551708074],[0.345356588057461,51.3277479906191],[0.345368052252825,51.3279725966325],[0.34572656091911,51.3279654152905],[0.345738027011914,51.3281900212364],[0.346096537279378,51.3281828387407],[0.346108005269666,51.3284074446191],[0.346466517138306,51.3284002609696],[0.346455047398697,51.3281756551484],[0.346813557369846,51.3281684704593],[0.346825028858774,51.3283930762235],[0.347183540431047,51.3283858903808],[0.347195013817545,51.3286104960774],[0.347206487352298,51.3288351017636],[0.34721796103531,51.3290597074394],[0.347229434866583,51.3292843131047],[0.347587953288119,51.3292771259368],[0.347599429017082,51.3295017315346],[0.347610904894334,51.3297263371219],[0.347969426666491,51.3297191487431],[0.347980904441503,51.3299437542628],[0.347992382364831,51.3301683597721],[0.348350907487667,51.3301611701823],[0.348362387308825,51.330385775624],[0.348373867278326,51.3306103810552],[0.348732395805513,51.3306031903327],[0.349090924184631,51.3305959985136],[0.349102407800973,51.3308206038243],[0.349460937780209,51.3308134108521],[0.349819467611139,51.3308062167831],[0.34983095487264,51.3310308219707],[0.350189486303658,51.3310236267485],[0.350548017586322,51.3310164304295],[0.350906548720612,51.3310092330137],[0.351265079706505,51.3310020345011],[0.351623610543975,51.3309948348917],[0.351982141233004,51.3309876341855],[0.352340671773566,51.3309804323824],[0.352352171422445,51.3312050371651],[0.352710703562939,51.3311978342088],[0.353069235554921,51.3311906301557],[0.353080738849211,51.3314152348151],[0.353439272441095,51.3314080296088],[0.353797805884418,51.3314008233056],[0.354156339179157,51.3313936159057],[0.354514872325291,51.3313864074089],[0.354873405322797,51.3313791978153],[0.354861893286344,51.3311545934381],[0.355220424386774,51.3311473828041],[0.355578955338533,51.3311401710734],[0.355590470871834,51.3313647753376],[0.355601986553867,51.3315893795914],[0.355613502384636,51.3318139838349],[0.35597203843303,51.3318067708378],[0.355983556161025,51.3320313750144],[0.35634209380918,51.332024160864],[0.3563305743327,51.331799556744],[0.356689110083624,51.3317923415533],[0.356700631308586,51.3320169456168],[0.356712152682356,51.3322415496699],[0.357070691781495,51.3322343332694],[0.357429230731837,51.332227115772],[0.357417705861064,51.3320025118319],[0.357776242914091,51.3319952932941],[0.358134779818279,51.3319880736596],[0.358493316573607,51.3319808529282],[0.35885185318005,51.3319736310999],[0.358840321464247,51.3317490273756],[0.358828789897384,51.3315244236409],[0.358817258479461,51.3312998198957],[0.359175789691672,51.3312925971403],[0.359164256674286,51.3310679934413],[0.359522785989181,51.3310607696457],[0.35951125137238,51.3308361659928],[0.359499716904553,51.3306115623295],[0.3594881825857,51.3303869586558],[0.359846706506614,51.3303797339331],[0.360205230278572,51.3303725081137],[0.360216768094071,51.3305971116742],[0.359858242573791,51.3306043375503],[0.359869778789965,51.330828941157],[0.359881315155137,51.3310535447533],[0.359892851669309,51.3312781483391],[0.36025138243469,51.3312709222933],[0.360262920846278,51.3314955258122],[0.359904388332485,51.3315027519146],[0.359915925144666,51.3317273554796],[0.360274459406894,51.3317201293206],[0.36028599811654,51.3319447328186],[0.360644533978229,51.3319375055063],[0.360656074585386,51.3321621089372],[0.361014612046531,51.3321548804714],[0.361026154551244,51.3323794838354],[0.361384693611839,51.3323722542161],[0.361743232523366,51.3323650234999],[0.361731686521668,51.3321404202492],[0.361720140669094,51.3319158169881],[0.362078675934574,51.3319085852884],[0.36206712848268,51.3316839820734],[0.362425661850609,51.3316767493336],[0.362414112799439,51.3314521461648],[0.362772644269824,51.3314449123848],[0.363131175591058,51.3314376775079],[0.363142728139059,51.3316622805633],[0.363154280836272,51.3318868836083],[0.363165833682697,51.3321114866429],[0.363177386678338,51.332336089667],[0.363535924844185,51.3323288534666],[0.363894462860827,51.3323216161694],[0.364253000728243,51.3323143777754],[0.364264559118601,51.3325389806191],[0.363906019502689,51.3325462190698],[0.363547479737547,51.3325534564237],[0.363188939823199,51.3325606926807],[0.362830399759666,51.3325679278408],[0.362471859546974,51.3325751619042],[0.362113319185141,51.3325823948706],[0.361754778674194,51.3325896267402],[0.361396238014152,51.332596857513],[0.36103769720504,51.3326040871889],[0.361049240007921,51.332828690532],[0.361060782959892,51.3330532938647],[0.361419327266106,51.3330460640756],[0.361430872115752,51.3332706673412],[0.361789418021473,51.3332634363986],[0.36180096476884,51.3334880395972],[0.36215951227406,51.333480807501],[0.362171060919193,51.3337054106326],[0.362529610023909,51.3336981773829],[0.362541160581244,51.3339227804333],[0.362899711282897,51.3339155460314],[0.362911263782942,51.334140148965],[0.363269816081496,51.3341329134065],[0.363628368231026,51.3341256767512],[0.363639924371949,51.3343502795544],[0.363998478118351,51.3343430417425],[0.363986920231511,51.3341184389993],[0.364345472082927,51.3341112001506],[0.364704023785252,51.3341039602053],[0.365062575224632,51.3340967192729],[0.365421124818059,51.3340894788778],[0.365779674262587,51.3340822373853],[0.366138223558192,51.3340749947954],[0.366496772704853,51.3340677511081],[0.366485202827821,51.3338431486623],[0.366473633151864,51.3336185461373],[0.36646206362464,51.3333939436023],[0.366450494246144,51.3331693410573],[0.366809036291472,51.3331620964679],[0.36679746532406,51.3329374939626],[0.366785894505395,51.3327128914474],[0.366774323835473,51.3324882889222],[0.366762753314293,51.332263686387],[0.366751182941851,51.3320390838418],[0.366739612718145,51.3318144812867],[0.366728042643172,51.3315898787216],[0.366716472716931,51.3313652761465],[0.366704902939417,51.3311406735614],[0.366346376532055,51.331147917704],[0.365987849976027,51.3311551607492],[0.365629323271357,51.3311624026973],[0.365617758854896,51.3309377999533],[0.365976283822122,51.3309305580549],[0.366334808640708,51.3309233150593],[0.366323240898062,51.3306987124046],[0.366311673304113,51.33047410974],[0.366300105858861,51.3302495070654],[0.366288538562302,51.3300249043808],[0.366276971414434,51.3298003016863],[0.366265404415254,51.3295756989818],[0.365906890020853,51.3295829416795],[0.365918455282724,51.3298075444337],[0.365930020693262,51.3300321471779],[0.365571502675591,51.3300393888777],[0.365559939002386,51.3298147860839],[0.365201422573442,51.3298220266368],[0.364842905109826,51.3298292669758],[0.364484386772851,51.3298365069397],[0.364472828425535,51.3296119040277],[0.364114311687541,51.3296191428382],[0.364102755237704,51.329394539859],[0.363744240098697,51.3294017775161],[0.363385724810496,51.3294090140765],[0.363397277763922,51.3296336171691],[0.36303876057834,51.3296408526894],[0.363050311932745,51.3298654558282],[0.363061863436341,51.3300900589566],[0.363073415089128,51.3303146620745],[0.363084966891113,51.3305392651821],[0.363096518842295,51.3307638682791],[0.362737992766168,51.330771102986],[0.36272644256331,51.3305464998323],[0.362714892509627,51.3303218966681],[0.362703342605118,51.3300972934935],[0.362344821624762,51.3301045269336],[0.361986300495295,51.3301117592771],[0.361974754236478,51.3298871559787],[0.361616234706187,51.3298943871687],[0.361257715026833,51.329901617262],[0.361246172413624,51.32967701384],[0.360887654333476,51.3296842427799],[0.360899195198438,51.3299088462585],[0.360540675221026,51.3299160741583],[0.360182155094617,51.3299233009613],[0.360193692612088,51.3301479045427],[0.359835170588429,51.3301551303056],[0.359823634819235,51.3299305266676],[0.359465114394902,51.3299377512771],[0.359453580522954,51.3297131475722],[0.359095061697952,51.3297203710284],[0.359083529723203,51.3294957672564],[0.358725012497539,51.3295029895593],[0.358366495122996,51.3295102107654],[0.358378023601264,51.3297348146505],[0.358736542724049,51.3297275933878],[0.358748073099476,51.3299521972059],[0.358389552228427,51.3299594185252],[0.358401081004487,51.3301840223894],[0.358042558236288,51.3301912426684],[0.357684035319247,51.3301984618507],[0.357325512253388,51.3302056799362],[0.357313988722204,51.3299810759024],[0.357672510039768,51.3299738578734],[0.357660984909141,51.3297492538857],[0.35801950432962,51.3297420348165],[0.358007977599598,51.3295174308749],[0.357649459927366,51.3295246498875],[0.357637935094438,51.329300045879],[0.357626410410356,51.32907544186],[0.357267896085746,51.3290826596629],[0.356909381612352,51.329089876369],[0.35689786057348,51.3288652722266],[0.356539347699513,51.3288724877795],[0.3565278285576,51.3286478835702],[0.356169317283065,51.3286550979699],[0.35581080585982,51.3286623112729],[0.355452294287887,51.3286695234792],[0.355093782567289,51.3286767345888],[0.355105294716517,51.3289013390241],[0.355116807014429,51.3291259434489],[0.355128319461026,51.3293505478634],[0.355139832056311,51.3295751522674],[0.354781313194226,51.3295823625061],[0.354792824189933,51.3298069669562],[0.35480433533431,51.3300315713959],[0.354445812827032,51.3300387806508],[0.354087290171141,51.3300459888089],[0.35407578252335,51.3298213842563],[0.353717261467166,51.3298285912612],[0.353358740262416,51.3298357971693],[0.353347236259802,51.3296111924935],[0.353705755716275,51.3296039866418],[0.353694250113986,51.3293793820119],[0.353682744660293,51.3291547773717],[0.353671239355196,51.328930172721],[0.353312725143421,51.3289373784034],[0.353301221735103,51.328712773686],[0.352942709122985,51.3287199782152],[0.352584196362359,51.3287271816478],[0.352225683453248,51.3287343839836],[0.351867170395674,51.3287415852227],[0.351508657189659,51.3287487853651],[0.351520151857002,51.3289733903646],[0.351531646672801,51.3291979953537],[0.351543141637061,51.3294226003324],[0.351184623037954,51.3294297995472],[0.350826104290444,51.3294369976652],[0.350467585394553,51.3294441946865],[0.350109066350305,51.329451390611],[0.349750547157721,51.3294585854388],[0.349392027816824,51.3294657791698],[0.349380543342088,51.329241173853],[0.349739060934724,51.3292339801784],[0.35009757837905,51.3292267854069],[0.350086090556167,51.3290021801924],[0.350444606103927,51.3289949843805],[0.350803121503335,51.328987787472],[0.3507916303324,51.3287631823598],[0.350780139309876,51.3285385772371],[0.350421627406861,51.328545774033],[0.350410138280907,51.3283211688436],[0.350051627977709,51.3283283644864],[0.35004014074828,51.3281037592302],[0.349681632044905,51.32811095372],[0.349323123193233,51.328118147113],[0.349311639608409,51.3278935417338],[0.348953132356588,51.3279007339738],[0.348941650668181,51.3276761285279],[0.348583145016217,51.3276833196149],[0.348224639244907,51.3276905096337],[0.347866133365207,51.3276976985951],[0.347507627337253,51.3277048864599],[0.34749615279451,51.3274802807785],[0.34785465707322,51.3274730929708],[0.347843180929521,51.3272484873361],[0.348201683310762,51.3272412984889],[0.348190205566155,51.3270166929008],[0.34783170493411,51.3270238816909],[0.347820229086981,51.3267992760353],[0.347461730055866,51.3268064636716],[0.34710323087653,51.3268136502114],[0.347091758675991,51.3265890444311],[0.346733261097614,51.3265962298172],[0.346374763371063,51.3266034141066],[0.346016265496362,51.3266105972995],[0.345657767473531,51.3266177793958],[0.345646302417785,51.3263931733767],[0.345287805995994,51.3264003543193],[0.344929309426122,51.3264075341653],[0.344570812708191,51.3264147129148],[0.344559353047963,51.3261901067141],[0.344200857931128,51.3261972843099],[0.344189400168079,51.3259726780418],[0.343830906652344,51.325979854484],[0.343472412988623,51.3259870298296],[0.343460958871798,51.3257624234371],[0.343102466809207,51.3257695976291],[0.342743974598677,51.3257767707246],[0.342385482240232,51.3257839427235],[0.342374033518626,51.3255593361495],[0.342362584796042,51.325334729504],[0.342351136205426,51.3251101228416],[0.34233968776242,51.3248855161687],[0.341981202243406,51.3248926868453],[0.341622716576845,51.3248998564254],[0.34126423076276,51.324907024909],[0.34090574480117,51.324914192296],[0.34091718626776,51.3251387991966],[0.340928627881869,51.3253634060868],[0.340940069602464,51.3255880129514],[0.340951511327741,51.3258126197533],[0.340962953200859,51.3260372265446],[0.340974395221818,51.3262618333256],[0.340615898625886,51.3262689999555],[0.34060445835406,51.3260443931176],[0.340245963359478,51.3260515585939],[0.340257401882169,51.3262761654887],[0.339898904990689,51.3262833299254],[0.339540407951466,51.3262904932655],[0.339551843123633,51.3265151002637],[0.339563278443557,51.3267397072514],[0.339574713911242,51.3269643142288],[0.339216211476737,51.326971476643],[0.339227645342951,51.3271960836667],[0.338869141011506,51.3272032450412],[0.338880573276204,51.3274278521114],[0.338522067047815,51.3274350124461],[0.338533497710953,51.3276596195628],[0.338544928521794,51.327884226669],[0.338903438248773,51.3278770662205],[0.338892005688626,51.3276524591712],[0.339250513518611,51.3276452976829],[0.339239079356908,51.3274206906801],[0.339597585289904,51.3274135281521],[0.339956091075169,51.3274063645274],[0.339944653562701,51.3271817576279],[0.340303157450961,51.3271745929635],[0.340661661191449,51.3271674272025],[0.340673102202415,51.3273920339882],[0.340684543361218,51.3276166407634],[0.341043050452424,51.3276094737919],[0.341054493508356,51.3278340804997],[0.341065936712151,51.3280586871971],[0.341077380063813,51.328283293884],[0.341088823563341,51.3285079005605],[0.341100267210742,51.3287325072266],[0.341458782900793,51.3287253388736],[0.341470228445468,51.3289499454723],[0.341111711006015,51.3289571138822],[0.340753193418724,51.3289642811953],[0.340741751372854,51.3287396744828],[0.340383235387154,51.3287468406423],[0.340371795238519,51.3285222338624],[0.34036035523771,51.328297627072],[0.340001842602968,51.328304792021],[0.339990404499323,51.3280801851633],[0.339631893466163,51.3280873489587],[0.339273382285264,51.3280945116574],[0.339284816890218,51.328319118629],[0.339296251642928,51.3285437255901],[0.339654766322542,51.3285365627775],[0.339666202972403,51.3287611696713],[0.339307686543396,51.3287683325408],[0.338949169966668,51.3287754943135]]],[[[0.363639924371949,51.3343502795544],[0.3632813704765,51.3343575162695],[0.362922816432024,51.334364751888],[0.362934369230147,51.3345893548004],[0.362945922177312,51.3348139577021],[0.3633044797137,51.3348067219638],[0.363663037101056,51.3347994851288],[0.364021594339358,51.3347922471971],[0.364010036154299,51.3345676444751],[0.363651480661958,51.3345748823469],[0.363639924371949,51.3343502795544]]],[[[0.342255960248485,51.3302832440514],[0.342244510317318,51.3300586376293],[0.34188598442629,51.3300658085175],[0.341527458387366,51.3300729783089],[0.34116893220057,51.3300801470035],[0.341180376883136,51.3303047535965],[0.341191821713593,51.3305293601789],[0.341550351399485,51.3305221913704],[0.341908880937498,51.330515021465],[0.341897432607926,51.3302904149965],[0.342255960248485,51.3302832440514]]],[[[0.340154459385298,51.3242547026745],[0.340165896921256,51.3244793097202],[0.340177334604681,51.3247039167555],[0.340535819117118,51.3246967516185],[0.340894303482098,51.324689585385],[0.340882862310539,51.3244649784635],[0.341241344783979,51.3244578111903],[0.341229902015891,51.3242332043153],[0.341218459395334,51.3240085974299],[0.341207016922307,51.323783990534],[0.340848539680922,51.3237911576364],[0.340859980409953,51.3240157645892],[0.340501501277102,51.324022930652],[0.340143021996803,51.3240300956183],[0.339784542569079,51.3240372594881],[0.339795978213548,51.3242618666012],[0.340154459385298,51.3242547026745]]],[[[0.338014997215801,51.3245222771737],[0.338003570144168,51.3242976697867],[0.337992143219866,51.3240730623893],[0.337633662908062,51.32408021968],[0.337645088088324,51.3243048271342],[0.337656513415893,51.3245294345781],[0.337667938890772,51.3247540420115],[0.337679364512962,51.3249786494344],[0.338037851801064,51.3249714919164],[0.338049279314699,51.325196099272],[0.338060706975674,51.3254207066173],[0.338072134677147,51.3256453139199],[0.338083562409645,51.325869921177],[0.338442056541325,51.3258627623371],[0.338430627059721,51.3256381551369],[0.338789119294651,51.3256309952572],[0.338800550525359,51.3258556024006],[0.339159044361724,51.3258484413675],[0.339147611381915,51.325623834281],[0.339506103321492,51.3256166722083],[0.339494668607934,51.3253920651246],[0.339853158647567,51.32538490201],[0.339841722265865,51.3251602949491],[0.339483233970373,51.3251674580068],[0.33947179948024,51.3249428508786],[0.339830286031614,51.3249356878778],[0.339818849944813,51.324711080796],[0.339460365137534,51.3247182437399],[0.339101880182867,51.3247254055873],[0.338743395080836,51.3247325663382],[0.338384909831461,51.3247397259925],[0.338373480868414,51.3245151186728],[0.338014997215801,51.3245222771737]]]]}}