{"type":"Feature","properties":{"code":"E63006153","name":"New Romney"},"geometry":{"type":"MultiPolygon","coordinates":[[[[0.953107121077244,50.9942394192874],[0.953462871484041,50.9942304260401],[0.953477127174415,50.9944549347417],[0.953491383051753,50.9946794434335],[0.953505639116057,50.9949039521157],[0.953519895367332,50.995128460788],[0.953534151805579,50.9953529694506],[0.953548408430802,50.9955774781034],[0.953904169217489,50.9955684834744],[0.953918427790901,50.9957929920678],[0.954274190151864,50.9957839963051],[0.954288450673506,50.9960085048392],[0.953932686551315,50.9960175006515],[0.95357692224219,50.9960264953799],[0.95359117942836,50.9962510040034],[0.95360543680152,50.9964755126172],[0.953619694361671,50.9967000212213],[0.953633952108819,50.9969245298156],[0.953648210042963,50.9971490384002],[0.95366246816411,50.997373546975],[0.953676726472261,50.9975980555401],[0.953320949646967,50.9976070495316],[0.953335206380714,50.9978315581366],[0.952979427607093,50.9978405510936],[0.952993682766392,50.9980650597384],[0.953007938112659,50.9982895683734],[0.953363720409176,50.9982805753171],[0.953377977703897,50.9985050838928],[0.953392235185618,50.9987295924587],[0.953406492854338,50.9989541010148],[0.953762280248438,50.9989451067255],[0.954118067455586,50.998936111352],[0.954473854475757,50.9989271148944],[0.954829641308932,50.9989181173525],[0.954815376594136,50.9986936089949],[0.955171161478779,50.9986846104185],[0.955526946176382,50.998675610758],[0.955882730686923,50.9986666100133],[0.956238515010378,50.9986576081844],[0.956594299146726,50.9986486052714],[0.956608572669046,50.9988731133806],[0.956622846378571,50.9990976214801],[0.956978633850801,50.9990886173835],[0.957334421135872,50.9990796122027],[0.957690208233762,50.9990706059378],[0.958045995144448,50.9990615985887],[0.958031714388873,50.9988370906881],[0.958387499350827,50.9988280823045],[0.958743284125535,50.9988190728368],[0.958729000034294,50.9985945650259],[0.958714716130388,50.9983700572052],[0.958700432413816,50.9981455493748],[0.958344652923479,50.9981545586933],[0.958330371155649,50.9979300508034],[0.958316089575124,50.9977055429037],[0.958671865542658,50.9976965336847],[0.959027641322942,50.9976875233816],[0.959013356406985,50.9974630155717],[0.959369130238631,50.9974540042342],[0.959354843748679,50.9972294964642],[0.958999071678373,50.997238507752],[0.958984787137099,50.9970139999225],[0.95934055744609,50.9970049886845],[0.959696327567793,50.9969959763625],[0.95968203969127,50.9967714686228],[0.960037807864374,50.9967624552664],[0.960023518413964,50.9965379475667],[0.960009229150952,50.9963134398572],[0.959653464500358,50.9963224531141],[0.95963917718596,50.9960979453451],[0.959283414109288,50.9961069574681],[0.958927650845339,50.996115968507],[0.958941934637287,50.9963404763756],[0.958586169424854,50.9963494863802],[0.958600451642875,50.9965739942887],[0.958614734048204,50.9967985021874],[0.958258965126003,50.9968075112075],[0.958244684481953,50.996583003259],[0.957888917133816,50.9965920111452],[0.957874638438311,50.9963675031372],[0.957518872664245,50.9963765098897],[0.957504595917239,50.9961520018222],[0.957148831717251,50.9961610074408],[0.95679306733012,50.9961700119754],[0.956778794292793,50.9959455037988],[0.956423031479773,50.9959545071996],[0.956408760390837,50.9957299989635],[0.956394489489062,50.9955054907177],[0.956038730011342,50.995514492935],[0.956024461057889,50.9952899846297],[0.955668703154272,50.9952989857134],[0.955654436149095,50.9950744773487],[0.955298679819588,50.9950834772986],[0.955284414762643,50.9948589688745],[0.954928660007252,50.9948679676908],[0.954914396898494,50.9946434592072],[0.954558643717226,50.9946524568898],[0.954544382556611,50.9944279483469],[0.954188630949472,50.9944369448958],[0.954174371736954,50.9942124362934],[0.953818621703952,50.9942214317088],[0.953804364439486,50.993996923047],[0.953448615980627,50.9940059173287],[0.953092867334885,50.9940149105264],[0.953107121077244,50.9942394192874]]],[[[0.952310121184923,50.9929103492227],[0.952665861399396,50.9929013584409],[0.952680112446167,50.9931258673003],[0.952694363679838,50.9933503761499],[0.953050107229402,50.993341384185],[0.953064360410966,50.9935658929752],[0.953420105534667,50.9935568998767],[0.953405850592116,50.9933323911361],[0.953761593767956,50.9933233970033],[0.9541173367569,50.9933144017865],[0.954103078479375,50.9930898931353],[0.954458819520445,50.9930808968842],[0.954814560374576,50.9930718995492],[0.954800298762178,50.9928473909876],[0.954786037336809,50.9926228824162],[0.954430300004515,50.992631879652],[0.95441604052706,50.9924073710212],[0.954060304768723,50.9924163671234],[0.95370456882348,50.9924253621417],[0.953348832691354,50.992434356076],[0.952993096372366,50.9924433489265],[0.952637359866541,50.9924523406929],[0.952651610539522,50.9926768495718],[0.952295872085976,50.992685840304],[0.952310121184923,50.9929103492227]]],[[[0.952310121184923,50.9929103492227],[0.951954380783652,50.9929193389205],[0.951940133445635,50.9926948299522],[0.951584394618519,50.9927038185164],[0.951228655604653,50.9927128059968],[0.951214411975309,50.9924882969196],[0.951200168532766,50.9922637878327],[0.950844432853982,50.99227277413],[0.950830190958136,50.9920482643644],[0.950474456910388,50.9920572496243],[0.950460216975048,50.9918327398295],[0.950104484542615,50.9918417240281],[0.949748751919941,50.9918507071364],[0.94976298824412,50.9920752168734],[0.949407253625644,50.9920841988626],[0.949393019107052,50.9918596891546],[0.94903728610397,50.9918686700825],[0.949023053581213,50.9916441603999],[0.94866732219353,50.9916531402666],[0.948653091666563,50.9914286306095],[0.948638861329813,50.991204120949],[0.948624631183276,50.990979611285],[0.948268905190016,50.9909885896784],[0.948254677059489,50.9907640799089],[0.947898953414317,50.9907730548551],[0.947884727180676,50.9905485450068],[0.948240449111812,50.9905395701282],[0.948226221346981,50.9903150603363],[0.948581941884915,50.9903060822724],[0.94859617146083,50.9905305919467],[0.948951893821007,50.9905216119353],[0.949307615991032,50.9905126308337],[0.949663337970883,50.990503648642],[0.950019059760538,50.99049466536],[0.95000482296291,50.99027015557],[0.949990586355573,50.9900456457764],[0.950346304344191,50.9900366613465],[0.950332066121769,50.9898121515206],[0.950687782114777,50.9898031659717],[0.950673542277314,50.9895786561134],[0.95102925627472,50.9895696694455],[0.951384970081851,50.9895606816874],[0.951370726824074,50.9893361717679],[0.951726438635587,50.9893271828908],[0.951712193762886,50.989102672939],[0.951697949080574,50.9888781629837],[0.951683704588648,50.988653653025],[0.951327998192947,50.9886626419887],[0.950972291606957,50.9886716298623],[0.950616584830704,50.9886806166458],[0.950602345944847,50.9884561067703],[0.950246640783587,50.9884650924927],[0.950232403893254,50.9882405826426],[0.950218167193206,50.988016072789],[0.950203930683439,50.9877915629321],[0.949848230747544,50.9878005476511],[0.949833996233204,50.9875760378195],[0.949478297912277,50.9875850214774],[0.949122599401197,50.9875940040452],[0.949108368687368,50.9873694942681],[0.949094138163743,50.9871449844875],[0.94907990783032,50.9869204747034],[0.949435600926077,50.9869114920488],[0.949421368977789,50.9866869822324],[0.949777060078341,50.9866779984588],[0.950132750988728,50.9866690135953],[0.950488441708927,50.9866600276417],[0.950844132238915,50.9866510405981],[0.951199822578667,50.9866420524645],[0.951555512728163,50.986633063241],[0.951541270139922,50.9864085532477],[0.951896958294119,50.9863995629052],[0.952252646258014,50.9863905714728],[0.952608334031586,50.9863815789503],[0.952594086218722,50.986157068867],[0.952949771996962,50.9861480752257],[0.95296402161481,50.9863725853378],[0.953319709007665,50.9863635906353],[0.953333960620959,50.9865881007728],[0.95368964962842,50.9865791050092],[0.953703903237205,50.9868036151721],[0.953718157036485,50.9870281253315],[0.954073849463589,50.9870191285355],[0.954088105258431,50.9872436387202],[0.954102361243797,50.9874681489016],[0.954458057090599,50.9874591510731],[0.954472315071598,50.9876836612798],[0.954828012533026,50.9876746623901],[0.954842272509706,50.9878991726221],[0.955197971585751,50.9878901726711],[0.955212233558155,50.9881146829285],[0.955567934248813,50.9881056819163],[0.955553670471265,50.9878811716301],[0.955539406884339,50.9876566613405],[0.955525143488035,50.9874321510475],[0.95588083857278,50.9874231488588],[0.95586657356202,50.9871986385335],[0.956222266651122,50.9871896352261],[0.956208000025952,50.9869651248686],[0.955852308741896,50.9869741282048],[0.955838044112406,50.9867496178726],[0.955823779673546,50.986525107537],[0.955468091808954,50.9865341098407],[0.955453829365704,50.9863095995305],[0.955439567113053,50.9860850892167],[0.955083882667872,50.986094090488],[0.955069622410759,50.9858695801995],[0.954713939580014,50.9858785804096],[0.954699681318393,50.9856540701465],[0.954685423247316,50.9854295598799],[0.954329743835915,50.9854385590576],[0.953974064234061,50.9854475571453],[0.953959809963286,50.9852230469329],[0.95360413197589,50.9852320439594],[0.953589879700469,50.9850075337724],[0.953575627615517,50.9847830235819],[0.953219953047426,50.9847920195761],[0.953205702957758,50.984567509411],[0.953191453058527,50.9843429992424],[0.952835781909687,50.9843519942043],[0.952821534005669,50.9841274840611],[0.952807286083691,50.9839029736611],[0.952451618454039,50.9839119677108],[0.952437370363561,50.98368745467],[0.952423122467939,50.9834629416284],[0.952067458364421,50.9834719347105],[0.952053212524086,50.9832474217307],[0.952038966878578,50.9830229087501],[0.952024721427894,50.9827983957688],[0.952010476172031,50.9825738827867],[0.951654819315348,50.9825828750262],[0.951299162263932,50.9825918661731],[0.951284920923576,50.9823673533153],[0.951270679777986,50.9821428404567],[0.951256438827161,50.9819183275974],[0.950900787162015,50.9819273178393],[0.95088654826623,50.9817028050417],[0.95087230956518,50.9814782922434],[0.950858071058862,50.9812537794443],[0.950843832747271,50.9810292666445],[0.950488188328443,50.9810382560439],[0.950473952071766,50.9808137433058],[0.950459716009787,50.980589230567],[0.950445480142503,50.9803647178274],[0.950431244469909,50.9801402050871],[0.950075607297078,50.9801491936441],[0.950061373679272,50.9799246809655],[0.950047140256129,50.9797001682862],[0.950032907027644,50.9794756556061],[0.950018673993814,50.9792511429253],[0.950004441154634,50.9790266302437],[0.949648813087486,50.9790356180209],[0.94929318482578,50.9790446047057],[0.949307413944934,50.9792691172623],[0.948951783628676,50.9792781027921],[0.948596153117904,50.9792870872295],[0.948610378711581,50.9795115996602],[0.948254745284464,50.9795205813846],[0.947899108466605,50.9795295562323],[0.947543471463158,50.9795385299939],[0.947187834274145,50.9795475026692],[0.947202053135211,50.9797720153912],[0.94684641401104,50.979780986996],[0.946860631308085,50.9800054997265],[0.946504990248749,50.9800144702609],[0.946519205981729,50.980238983],[0.946163562987223,50.9802479524637],[0.946177777156094,50.9804724652114],[0.946191991510523,50.9806969779521],[0.946206206050512,50.9809214906857],[0.945850557621382,50.9809304591101],[0.94586477059718,50.9811549718523],[0.945509120232815,50.9811639392061],[0.945523331644377,50.9813884519569],[0.945537543241465,50.9816129647007],[0.945893197105418,50.9816039973156],[0.945907410637863,50.9818285100367],[0.946263066066157,50.9818195415499],[0.946277281534005,50.9820440542483],[0.946632938526634,50.9820350846595],[0.946647155929927,50.9822595973353],[0.947002814486885,50.9822506266446],[0.94701703382567,50.9824751392977],[0.946661373518826,50.9824841100041],[0.946675591293334,50.9827086226658],[0.946319929051042,50.9827175923014],[0.946305713026443,50.9824930796241],[0.945950052348543,50.9825020481578],[0.945935838259423,50.9822775354579],[0.945580179145922,50.9822865028897],[0.945565966992234,50.9820619901671],[0.945210309443139,50.9820709564971],[0.945224519846952,50.9822954692353],[0.944868860362536,50.9823044344946],[0.944883069201965,50.9825289472414],[0.944527407782219,50.9825379114301],[0.944541615057222,50.9827624241854],[0.944185951702144,50.9827713873033],[0.94383028816168,50.982780349335],[0.943844492122256,50.9830048621144],[0.943488826646472,50.9830138230753],[0.943133160985343,50.9830227829499],[0.942777495138891,50.9830317417382],[0.942791694034957,50.9832562545573],[0.943147361631394,50.9832472957534],[0.943161562462842,50.98347180855],[0.942805893116398,50.9834807673693],[0.942450223584648,50.9834897251024],[0.942464421101432,50.9837142379229],[0.942108749634362,50.9837231945852],[0.942122945461398,50.9839477072276],[0.941767272021281,50.9839566627623],[0.941753077982029,50.9837321501611],[0.941738883965321,50.9835076373095],[0.941724690133923,50.9832831244509],[0.941369021796411,50.9832920789095],[0.941013353273687,50.9833010322818],[0.940999163127597,50.9830765193851],[0.940643496169686,50.9830854716556],[0.940629307958837,50.9828609587364],[0.940273642565748,50.9828699099051],[0.94028782902661,50.9830944228397],[0.939932161698392,50.9831033729376],[0.93994634659446,50.9833278858807],[0.939960531675724,50.9835523988168],[0.939604860662337,50.9835613478592],[0.939619044178742,50.9837858608037],[0.939633227552918,50.984010373245],[0.939277552837118,50.9840193212045],[0.939263371230189,50.9837948087753],[0.938907698096551,50.9838037556606],[0.938893518080272,50.9835792426852],[0.938879338249125,50.9833547297028],[0.938865158603108,50.9831302167133],[0.938509490534545,50.9831391624659],[0.938523668430539,50.9833636754708],[0.938167998426919,50.9833726201526],[0.937812328238287,50.983381563748],[0.937456657864667,50.9833905062571],[0.937100987306081,50.9833994476799],[0.937086816410212,50.9831749346133],[0.93673114741672,50.9831838749344],[0.936375478238311,50.9831928141692],[0.936361311027493,50.9829683010648],[0.936005643414211,50.9829772391979],[0.935649975616058,50.9829861762447],[0.935664139326827,50.9832106893798],[0.935678303222522,50.9834352025079],[0.935322631739441,50.9834441384991],[0.934966960071528,50.9834530734039],[0.934611288218806,50.9834620072225],[0.934597129573273,50.9832374940483],[0.934241459285825,50.9832464267652],[0.933885788813615,50.9832553583958],[0.933899943959022,50.9834798716006],[0.933914099289247,50.9837043847983],[0.933558425132142,50.9837133153732],[0.933572578882266,50.9839378285524],[0.933586732626411,50.984162341379],[0.933231054816989,50.9841712709413],[0.933245207029513,50.984395783824],[0.932889527324805,50.9844047123713],[0.932903678005663,50.9846292253101],[0.932547996405662,50.9846381528425],[0.93219231462392,50.9846470792927],[0.932178167370125,50.9844225662193],[0.931822487120197,50.98443149152],[0.931836632660456,50.9846560046606],[0.931480949784787,50.9846649292823],[0.931495093851516,50.9848894424545],[0.931509238099652,50.9851139556154],[0.931523382529198,50.9853384687648],[0.931167693664877,50.9853473928274],[0.931181836566611,50.9855719060355],[0.93119597964974,50.9857964192323],[0.931210122914265,50.9860209324176],[0.931224266360192,50.9862454455916],[0.930868570477514,50.9862543688527],[0.930882712395527,50.9864788820853],[0.930527014622226,50.9864878043345],[0.930171316667638,50.9864967255015],[0.930185455348354,50.986721238863],[0.929829755503157,50.9867301590181],[0.929474055476714,50.9867390780911],[0.929488190920032,50.9869635915814],[0.929132489002994,50.9869725096424],[0.929146622918219,50.9871970231914],[0.928790919110576,50.9872059402404],[0.928435215121747,50.9872148562073],[0.928079510951756,50.9872237710922],[0.928065382164739,50.986999257333],[0.927709679523013,50.9870081710656],[0.927695552626598,50.986783657225],[0.927339851513147,50.9867925698055],[0.927353976700172,50.9870170837162],[0.927368102068369,50.9872415976155],[0.927723806600623,50.9872326848949],[0.927737933859428,50.9874571987127],[0.928093639919993,50.98744828484],[0.928107769069452,50.9876727985763],[0.928463476658321,50.9876638835514],[0.928449345799412,50.9874393698851],[0.928805051497665,50.9874304538481],[0.92881918406602,50.9876549674444],[0.928833316815643,50.9878794810292],[0.929189025751616,50.98787056377],[0.929544734506373,50.9878616454286],[0.929558870856239,50.9880861588619],[0.929914581139237,50.9880772393683],[0.930270291240974,50.9880683187926],[0.930626001161425,50.9880593971347],[0.930981710900569,50.9880504743947],[0.930967567712798,50.9878259612419],[0.931323275561145,50.9878170374899],[0.931678983175044,50.987808112683],[0.931664836802885,50.9875835996319],[0.932020541226639,50.9875746744716],[0.932006393323041,50.9873501614762],[0.932362095850645,50.9873412353012],[0.932376245468064,50.9875657482292],[0.932390395267321,50.9877902611461],[0.932746101040823,50.9877813337542],[0.932731949527726,50.9875568209046],[0.933087653405607,50.9875478924976],[0.933073500360557,50.987323379704],[0.933059347497386,50.9870988668994],[0.93341504776586,50.9870899375446],[0.933400893370799,50.986865424796],[0.933756591743688,50.9868564944263],[0.934112289934738,50.9868475629742],[0.934126447757327,50.9870720755881],[0.934482147480274,50.9870631429865],[0.934496307198585,50.9872876555219],[0.934140605761857,50.987296588191],[0.934154763948332,50.9875211007826],[0.934510467098862,50.9875121680463],[0.9348661700675,50.9875032342276],[0.935221872854223,50.9874942993266],[0.93520770952635,50.987269786937],[0.935563410417344,50.987260851021],[0.935549245557711,50.9870363386875],[0.935904944552982,50.9870274017566],[0.935890778161633,50.9868028894793],[0.936246475261186,50.9867939515334],[0.936602172178748,50.9867850125053],[0.93661634199758,50.9870095246479],[0.936972040446864,50.98700058447],[0.937327738714109,50.9869916432099],[0.93734191214255,50.9872161552066],[0.937356085753134,50.987440667192],[0.937370259545864,50.9876651791663],[0.937014556137287,50.9876741206286],[0.936658852546661,50.9876830610086],[0.936303148774008,50.9876920003062],[0.936288980122688,50.9874674881298],[0.935933277881839,50.9874764262777],[0.93594744481935,50.9877009385215],[0.935961611938924,50.9879254507541],[0.936317317607413,50.9879165124714],[0.936331486622902,50.9881410246255],[0.935975779240561,50.9881499629755],[0.935989946724265,50.9883744751857],[0.936004114390038,50.9885989873848],[0.935648403397931,50.9886079247871],[0.935662569531855,50.9888324370424],[0.935306856643852,50.9888413734297],[0.934951143573893,50.9888503087347],[0.934595430322002,50.9888592429573],[0.934581269329859,50.9886347305001],[0.934567108519701,50.9884102180317],[0.934211398513744,50.9884191510373],[0.934197239599458,50.9881946384903],[0.933841531125511,50.9882035703463],[0.933855688325904,50.9884280829605],[0.933499977956202,50.9884370138013],[0.933514133624617,50.9886615264717],[0.93352828947495,50.9888860391308],[0.933542445507205,50.9891105517788],[0.933898161018725,50.9891016207361],[0.934253876348375,50.9890926886109],[0.93426803599052,50.9893172011131],[0.934623752852254,50.9893082678382],[0.934637914390372,50.9895327802619],[0.934993632784185,50.9895238458373],[0.935007796218318,50.9897483581825],[0.935021959834472,50.9899728705165],[0.935036123632652,50.9901973828393],[0.935391846986635,50.9901884471303],[0.935747570158644,50.9901795103389],[0.936103293148659,50.990170572465],[0.936459015956656,50.9901616335087],[0.936814738582616,50.99015269347],[0.936800566214173,50.989928181484],[0.937156286944028,50.9899192404302],[0.937170461026514,50.9901437523489],[0.937526183288331,50.9901348101453],[0.937881905368042,50.9901258668593],[0.938237627265627,50.9901169224909],[0.938593348981065,50.9901079770401],[0.93860753010194,50.990332488678],[0.938963253349257,50.9903235420773],[0.938949070514331,50.9900990305069],[0.939304791865406,50.9900900828912],[0.939290607498725,50.9898655713771],[0.939646326953565,50.9898566227464],[0.939632141055171,50.9896321112885],[0.939987858613781,50.989623161643],[0.93997367118372,50.9893986502413],[0.940329386846106,50.9893896995808],[0.940315197884421,50.9891651882354],[0.940670911650591,50.98915623656],[0.941026625234471,50.9891472838022],[0.941040817624047,50.9893717950127],[0.941396532739557,50.989362841105],[0.941410727025488,50.9895873522368],[0.941424921493834,50.9898118633573],[0.941069202950377,50.9898208174],[0.9407134842246,50.9898297703602],[0.94072767544735,50.9900542816045],[0.940741866852478,50.9902787928377],[0.940386144516356,50.9902877448504],[0.940030421997951,50.9902966957808],[0.940044610157346,50.9905212071377],[0.939688885742616,50.9905301570531],[0.939703072370269,50.9907546684662],[0.93934734605921,50.9907636173666],[0.939361531155075,50.990988128836],[0.939375716433243,50.9912126402942],[0.939731446172542,50.991203691259],[0.93974563334717,50.9914282026386],[0.940101364618368,50.9914192524534],[0.94045709570729,50.9914103011857],[0.940812826613913,50.9914013488356],[0.940827019113379,50.9916258600016],[0.941182751551846,50.9916169065015],[0.941538483807968,50.991607951919],[0.941552679918201,50.9918324629388],[0.94156687621088,50.9920569739475],[0.941922611713013,50.9920480181475],[0.941936809896172,50.9922725290727],[0.941581072677078,50.9922814849384],[0.941595269260897,50.9925059958703],[0.941239530147891,50.9925149507248],[0.941253725202207,50.9927394617163],[0.940897984195282,50.9927484155595],[0.940912177720051,50.9929729266106],[0.940926371427038,50.9931974376502],[0.940940565316244,50.9934219486783],[0.941296311458587,50.993412994622],[0.941310507241868,50.9936375055676],[0.941666254913888,50.993628550358],[0.941680452591285,50.9938530612212],[0.942036201792978,50.9938441048582],[0.942050401364538,50.9940686156388],[0.942406152095896,50.9940596581226],[0.942761902645012,50.9940506995241],[0.942747699649687,50.9938261888856],[0.94310344830466,50.9938172292759],[0.943089243779819,50.993592718697],[0.943444990540654,50.9935837580761],[0.943800737119189,50.993574796373],[0.943786529353046,50.9933502859247],[0.944142274037431,50.9933413232104],[0.944498018539472,50.9933323594139],[0.944483807532125,50.9931078490964],[0.944839550140004,50.9930988842887],[0.944853762859147,50.9933233945351],[0.945209506996437,50.9933144285741],[0.945565250951317,50.9933054615308],[0.945579467276554,50.9935299716234],[0.945935212760813,50.9935210034268],[0.945949430980392,50.9937455134368],[0.946305177994025,50.9937365440868],[0.946660924825177,50.9937275736545],[0.94667514665099,50.9939520835107],[0.947030895011485,50.993943111925],[0.947386643189451,50.9939341392571],[0.947400868621576,50.9941586489595],[0.94741509423633,50.9943831586504],[0.947429320033718,50.9946076683299],[0.947785073164782,50.9945986943661],[0.948140826113264,50.9945897193201],[0.948496579827526,50.9945807422538],[0.94851081104919,50.9948052516395],[0.94886656740571,50.9947962723852],[0.94888080057519,50.9950207817116],[0.94923655850627,50.9950118013238],[0.949592316250726,50.995002819852],[0.949606553129245,50.9952273290696],[0.949962312448229,50.9952183464642],[0.950318071580541,50.9952093627748],[0.950332312168179,50.9954338718836],[0.950688072874986,50.9954248870605],[0.950702315410613,50.9956493961101],[0.951058077691911,50.9956404101534],[0.95141383978646,50.9956314231127],[0.95176960169424,50.995622434988],[0.95175535387499,50.9953979260872],[0.951741106242604,50.9951734171766],[0.951726858797081,50.9949489082562],[0.951712611538414,50.9947243993261],[0.952068366214733,50.9947154103156],[0.952054117381809,50.9944909014254],[0.952039868735761,50.9942663925254],[0.952025620276583,50.9940418836156],[0.952011372004274,50.9938173746961],[0.952367119449489,50.9938083847999],[0.952352869603025,50.9935838759202],[0.952338619943445,50.9933593670308],[0.951982876020246,50.9933683568278],[0.951968628308522,50.993143847879],[0.952324370470745,50.9931348581316],[0.952310121184923,50.9929103492227]]],[[[0.955567934248813,50.9881056819163],[0.955582198216988,50.988330192199],[0.95593790052225,50.9883211901254],[0.955952166486242,50.9885457004334],[0.95596643264089,50.988770210738],[0.956322138365955,50.9887612076319],[0.956307870406101,50.9885366972985],[0.956293602636926,50.9883121869618],[0.956279335058427,50.9880876766215],[0.955923634748911,50.9880966798139],[0.955567934248813,50.9881056819163]]],[[[0.926272747086327,50.9868193010545],[0.926628448742989,50.9868103917203],[0.926984150218603,50.9868014813039],[0.926970026922118,50.9865769673118],[0.926955903806778,50.9863524533083],[0.92694178087258,50.9861279392934],[0.927297477039076,50.986119028005],[0.92728335257671,50.9858945140488],[0.926927658119521,50.9859034252671],[0.926571963481272,50.9859123354033],[0.926586084525023,50.9861368494996],[0.926230387996428,50.9861457586239],[0.926244507511961,50.9863702727788],[0.926258627208593,50.9865947869224],[0.926272747086327,50.9868193010545]]]]}}