{"type":"Feature","properties":{"code":"E63005204","name":"Gillingham (Medway)"},"geometry":{"type":"MultiPolygon","coordinates":[[[[0.53781493190672,51.3880391915691],[0.53785225239063,51.388712913852],[0.538211178922308,51.3887051410864],[0.53822362102278,51.3889297149949],[0.538941476897246,51.3889141658831],[0.5389041412477,51.3882404450176],[0.538545218289476,51.3882482196642],[0.538532775012184,51.3880236458565],[0.53781493190672,51.3880391915691]]],[[[0.53781493190672,51.3880391915691],[0.537802492050295,51.3878146174408],[0.538161412045066,51.3878068452825],[0.538111647607129,51.3869085492065],[0.537752734148922,51.3869163207575],[0.537740295054648,51.3866917465442],[0.537381383078098,51.3866995168512],[0.537368945770314,51.3864749424691],[0.537010035275428,51.386482711532],[0.536997599754092,51.3862581369811],[0.536638690740873,51.3862659047999],[0.536626257005942,51.3860413300802],[0.536267349474394,51.3860490966551],[0.536254917525825,51.3858245217666],[0.535178198919288,51.3858478144822],[0.535091213856851,51.3842757866006],[0.534732318787652,51.3842835475925],[0.534719894593008,51.3840589719612],[0.532566530784779,51.3841055140662],[0.532628604263176,51.3852283966038],[0.531910798770896,51.3852439034177],[0.531923210654924,51.3854684801775],[0.531564306780874,51.3854762356385],[0.531576716911846,51.385700812294],[0.532294528781183,51.3856853037563],[0.532282115111092,51.3854607271651],[0.532999923567102,51.3854452178633],[0.533049592232229,51.386343522913],[0.532690681544178,51.3863512787167],[0.53270309745672,51.3865758550884],[0.531985272356073,51.3865913637222],[0.532010098101052,51.3870405170212],[0.532727929738164,51.3870250077807],[0.532740346107072,51.3872495841014],[0.533099263331573,51.387241827691],[0.533111681486774,51.387466403843],[0.533470600193275,51.3874586461885],[0.533495440228526,51.3879077981382],[0.533136518253634,51.3879155560961],[0.533173774545103,51.3885892843483],[0.533532701422743,51.3885815259353],[0.533557542979811,51.3890306777151],[0.533916472973851,51.3890229179064],[0.533928895615004,51.3892474936191],[0.533569963986631,51.3892552535796],[0.533594806456852,51.3897044052575],[0.532876936206032,51.389719922508],[0.532864518163582,51.3894953463742],[0.532146650572847,51.3895108589517],[0.532159065346529,51.3897354353889],[0.531800129688574,51.3897431901907],[0.53181254297996,51.3899677667626],[0.531453598573072,51.389975532604],[0.531428775591887,51.3895263798433],[0.531069831760527,51.3895341500355],[0.531045014123329,51.3890849959891],[0.531403953397369,51.3890772269035],[0.531366721580537,51.3884034971579],[0.530648856507362,51.3884190309449],[0.530611640131432,51.3877452974768],[0.529893787942934,51.3877608236861],[0.529906188648012,51.38798540266],[0.529547259980456,51.3879931647209],[0.529522463323788,51.3875440056219],[0.529881387434386,51.3875362446674],[0.529868987122362,51.387311665604],[0.530227908757996,51.3873039041381],[0.530203104166726,51.3868547469834],[0.530562021049025,51.3868469855594],[0.530549616769858,51.3866224074681],[0.529113957174901,51.3866534445642],[0.529101562205603,51.3864288642154],[0.529819387839455,51.3864133489028],[0.529806988510008,51.3861887696157],[0.529448078069622,51.3861965272511],[0.52941088809503,51.3855227874616],[0.52905198429291,51.385530542373],[0.529089167432759,51.3862042838219],[0.528730256599447,51.3862120393282],[0.528767434672341,51.386885782034],[0.529126352340655,51.3868780248682],[0.529151143261546,51.387327185342],[0.528433298614869,51.3873427008217],[0.528470472798868,51.3880164445159],[0.528111543345468,51.3880242023184],[0.528136322559806,51.3884733656639],[0.528495256570304,51.3884656067551],[0.528507648750663,51.3886901878076],[0.528148712461574,51.3886979472696],[0.528334584558539,51.3920666659867],[0.527975613890823,51.3920744326824],[0.527988004031933,51.3922990091837],[0.52762903118837,51.3923067745154],[0.527641419146681,51.3925313442617],[0.527282444615444,51.3925391080355],[0.527319604736474,51.3932128161355],[0.527678583894481,51.3932050536379],[0.527703361120429,51.3936541933366],[0.52806234321758,51.3936464305574],[0.528074733591121,51.3938710008665],[0.528433717085116,51.3938632373803],[0.528458501353465,51.3943123789182],[0.52881748778667,51.3943046151504],[0.528829881681542,51.3945291863791],[0.529188869511601,51.3945214219042],[0.52921366082287,51.3949705652814],[0.529572651592208,51.3949628005247],[0.529585049008669,51.3951873726731],[0.529944041174871,51.3951796072093],[0.529968839529577,51.3956287524258],[0.530327834635125,51.3956209866803],[0.530340235573434,51.3958455597484],[0.531058228432627,51.3958300257103],[0.53107063260164,51.3960545996521],[0.531788624140464,51.3960390654074],[0.531776217292531,51.3958144903476],[0.531417224643725,51.3958222569923],[0.531404819077909,51.3955976826481],[0.532122791171581,51.395582157234],[0.532147608234136,51.3960313070131],[0.532506592166746,51.3960235475281],[0.532519002703564,51.3962481222095],[0.532877988238995,51.396240361454],[0.532865575938271,51.3960157869524],[0.533942526286109,51.3959924986809],[0.533954943878533,51.3962170726432],[0.533236973613315,51.3962325996078],[0.533249387839102,51.3964571739107],[0.532172425941049,51.3964804567165],[0.532160017007047,51.3962558818743],[0.531801031149464,51.3962636404483],[0.531825845650674,51.3967127904733],[0.532184835036146,51.3967050315398],[0.532197244292343,51.3969296063442],[0.532556235280722,51.3969218461401],[0.532581057804438,51.3973709953326],[0.532940052159737,51.3973632336782],[0.53295246542733,51.3975878080663],[0.532234473027544,51.3976033306437],[0.532222063288038,51.3973787558961],[0.531863068610559,51.3973865153689],[0.532011974948347,51.4000814132478],[0.531652958083488,51.4000891738975],[0.531739733658473,51.4016611763715],[0.531380696932458,51.4016689363163],[0.531541789151287,51.4045883534432],[0.531900846390541,51.4045805930414],[0.53197521594259,51.4059280156393],[0.532334282338112,51.4059202542095],[0.532383873201809,51.4068185356601],[0.53274294713784,51.4068107730159],[0.532767747461326,51.4072599136342],[0.533126825081521,51.407252149832],[0.533164032645868,51.4079258606117],[0.533523115878663,51.4079180956232],[0.533547925641244,51.4083672360445],[0.533907012558368,51.4083594698979],[0.533931826868278,51.4088086102289],[0.534290917469792,51.4088008429242],[0.534303331424896,51.4090254175149],[0.534662423469025,51.4090176488396],[0.534674841246079,51.4092422251577],[0.535033934923762,51.40923445532],[0.535058774562767,51.4096836077976],[0.535776968615868,51.4096680645718],[0.535789392275006,51.4098926406682],[0.536148490853318,51.4098848673432],[0.536160916473241,51.4101094433655],[0.5368791167333,51.4100938932912],[0.536891546111209,51.4103184691765],[0.539046153745881,51.4102717921899],[0.539033713585114,51.4100472166835],[0.540470108210831,51.4100160769578],[0.540457661025502,51.4097915016934],[0.54153494988281,51.4097681355455],[0.541522497470212,51.4095435604599],[0.542958873129629,51.4095123904583],[0.542946413692887,51.4092878156148],[0.544023688324018,51.4092644267605],[0.544011223660361,51.409039852096],[0.544729402333285,51.4090242541565],[0.544716935018922,51.4087996811494],[0.545794196526232,51.4087762766919],[0.545781725473693,51.4085517074752],[0.546140810367718,51.4085439038145],[0.546128337560247,51.4083193346179],[0.5468465029714,51.4083037240486],[0.546834026480705,51.4080791549006],[0.547552187341475,51.4080635399816],[0.547539707167665,51.4078389708823],[0.547898785409543,51.4078311617989],[0.547886303481001,51.4076065927197],[0.548245379621104,51.4075987825632],[0.548232895937878,51.4073742135041],[0.548591967021903,51.4073664070399],[0.548579481808936,51.4071418377237],[0.548938549479921,51.407134032443],[0.548913575920728,51.4066848937556],[0.549272639795559,51.40667708733],[0.549247663269013,51.4062279485825],[0.549606723347773,51.4062201410121],[0.549569254355867,51.4055464327931],[0.549928308823535,51.405538624058],[0.54990332669441,51.4050894851802],[0.550262377366215,51.4050816753003],[0.55023739227028,51.4046325363625],[0.550596439146304,51.4046247253379],[0.5505589573012,51.4039510168335],[0.550917998566594,51.4039432046443],[0.550893007869262,51.4034940655764],[0.551252045339085,51.4034862522426],[0.551227051675483,51.4030371131146],[0.551586085349816,51.4030292986362],[0.551561088720112,51.4025801594483],[0.551920118599034,51.4025723438253],[0.551895119003398,51.4021232045774],[0.552254145086992,51.4021153878099],[0.552229142525592,51.4016662485021],[0.552588164813937,51.4016584305901],[0.552575661967467,51.4014338609088],[0.552934682275276,51.4014260418722],[0.552909673450926,51.4009769024547],[0.553268689963599,51.4009690822736],[0.553243677649768,51.400519943],[0.553602690065758,51.4005121217979],[0.553590173866226,51.4002875554908],[0.553231163213228,51.4002953766681],[0.553218648939065,51.400070810328],[0.553577657829095,51.4000629891756],[0.553552626242023,51.3996138565205],[0.552834615351358,51.3996294976244],[0.552822103327216,51.399404931235],[0.553540110692077,51.3993892901808],[0.55352759530452,51.3991647238328],[0.553886596980541,51.3991569016782],[0.553899114130972,51.3993814680013],[0.55425811740748,51.3993736447202],[0.554245598494175,51.3991490784219],[0.554604599845404,51.3991412540642],[0.554579558980418,51.3986921214928],[0.55493855664355,51.3986842960832],[0.554963601034202,51.3991334286048],[0.555681602924416,51.3991177743815],[0.555656551482451,51.3986686419594],[0.555297554144235,51.3986764695721],[0.555272506877903,51.3982273370675],[0.554913512902787,51.3982351635289],[0.554900991276106,51.3980105972395],[0.554541998901302,51.3980184225745],[0.554516959660767,51.3975692899214],[0.554875948510132,51.3975614646361],[0.554863427370834,51.3973368983222],[0.555222414295084,51.3973290719603],[0.555247460261526,51.3977782045302],[0.555606450548705,51.3977703770171],[0.555631500690554,51.3982195095046],[0.555990494340718,51.3982116808402],[0.556015548658173,51.3986608132452],[0.556374545671379,51.3986529834294],[0.556349487828373,51.3982038510742],[0.556708481153494,51.3981960202067],[0.556695950713088,51.3979714540417],[0.557054942112917,51.3979636220976],[0.557042410072374,51.3977390559494],[0.557401399546917,51.3977312229287],[0.557388865906282,51.3975066567973],[0.557029878194428,51.397514489793],[0.557017346479076,51.3972899236285],[0.557376332428264,51.3972820906576],[0.557363799112861,51.3970575245098],[0.557722783136818,51.3970496904624],[0.557710248221409,51.3968251243314],[0.557351265960068,51.3968329583538],[0.557338732969884,51.3966083921896],[0.557697713468629,51.3966005581921],[0.557685178878479,51.3963759920447],[0.558762114111298,51.3963524835182],[0.558774653989149,51.3965770495908],[0.559133633837341,51.3965692111874],[0.559183802026212,51.397467475296],[0.559542788762171,51.3974596356913],[0.559567877358342,51.3979087676465],[0.559208887097018,51.3979166073012],[0.559221429876523,51.3981411732915],[0.558503445340317,51.3981568493463],[0.558515984757073,51.3983814153784],[0.561028940125052,51.3983265297351],[0.561016388369136,51.3981019638779],[0.561734370626544,51.3980862724019],[0.561721815508077,51.3978617065866],[0.562080804629783,51.3978538592213],[0.562030578734264,51.3969555959786],[0.561671596663122,51.3969634432437],[0.561709260552503,51.3976371407632],[0.559914321314777,51.3976763609418],[0.55987668386497,51.3970026630471],[0.55951770081701,51.3970105037033],[0.559467526879637,51.3961122396292],[0.559826502877328,51.3961043990729],[0.559851593045619,51.3965535310764],[0.560569551602935,51.3965378465595],[0.560557002912305,51.3963132806118],[0.561274957293385,51.3962975917391],[0.561199647418858,51.3949501961819],[0.561558613790392,51.3949423502435],[0.561621380424304,51.3960651797699],[0.562339330303315,51.3960494843386],[0.562326773125814,51.3958249184998],[0.562685746058502,51.3958170691571],[0.562698304998491,51.3960416349708],[0.564134202149799,51.3960102264853],[0.564096504669138,51.3953365293204],[0.564814441692137,51.3953208186197],[0.56480187266649,51.3950962529319],[0.56551981072515,51.3950805434482],[0.565494666045716,51.3946314118573],[0.565135699375516,51.3946392659312],[0.565123128963444,51.3944147001039],[0.565841058764718,51.3943989908947],[0.565828485129657,51.3941744250998],[0.566905373574501,51.3941508530833],[0.566892795026056,51.3939262873409],[0.566174872935226,51.39394200308],[0.566162297925861,51.3937174372895],[0.565085418675486,51.3937410025751],[0.565097988613433,51.3939655684259],[0.564739029984181,51.3939734243703],[0.564726461936885,51.3937488586334],[0.564367505843245,51.3937567143587],[0.564380072128273,51.3939812801207],[0.563662155927466,51.3939969883174],[0.563649593166979,51.3937724225052],[0.5632906365844,51.3937802749265],[0.563278075749148,51.393555709081],[0.562919120765891,51.3935635603759],[0.562868886103206,51.3926652968119],[0.563227834037667,51.3926574456174],[0.563215274017164,51.392432879731],[0.562856327844845,51.3924407309005],[0.562843769749403,51.3922161649809],[0.563202714159602,51.3922083138365],[0.563190155916501,51.3919837489802],[0.563908041056626,51.3919680436925],[0.563920602557639,51.3921926082923],[0.564279546547385,51.3921847538943],[0.564292111556524,51.3924093196149],[0.564651057077036,51.3924014640402],[0.564663624146081,51.3926260298262],[0.565022571356244,51.3926181732039],[0.565035140504036,51.3928427390938],[0.564676191378161,51.392850595604],[0.564688758773279,51.3930751613736],[0.565765619325574,51.3930515960076],[0.565740474110464,51.392602464316],[0.566458376232513,51.3925867510214],[0.56647095214175,51.392811316831],[0.566829904656012,51.3928034585111],[0.56681732705642,51.3925788927217],[0.567176277722218,51.3925710333203],[0.567214016066526,51.3932447306048],[0.567572971645309,51.3932368700413],[0.567598134713175,51.3936860014849],[0.567957093514646,51.3936781397795],[0.56796967697632,51.3939027054694],[0.568328637310059,51.3938948426422],[0.568316052157932,51.3936702769724],[0.569392927138456,51.393646681941],[0.569380337073283,51.393422116324],[0.569739293393187,51.3934142491303],[0.569726701795912,51.3931896835256],[0.570085656267127,51.3931818152504],[0.570073063137796,51.3929572496581],[0.570790968224532,51.3929415098432],[0.570778371872838,51.3927169442834],[0.571137322488346,51.3927090727436],[0.571124724604706,51.3924845071962],[0.571483673371523,51.3924766345751],[0.571471073955983,51.3922520690401],[0.572188967633841,51.3922363205333],[0.572214173384559,51.3926854515145],[0.573649972361317,51.3926539411193],[0.573662582235693,51.3928785065171],[0.574739434874818,51.3928548620924],[0.574714205142764,51.3924057314108],[0.575073152324714,51.3923978477732],[0.575047918824574,51.3919487177569],[0.57468897517075,51.3919566013699],[0.574676360066328,51.3917320366201],[0.574317418042593,51.3917399191423],[0.574292191924123,51.3912907896526],[0.572497497276723,51.3913301858359],[0.572484893446876,51.3911056211488],[0.573202768211531,51.3910898659609],[0.573190160955505,51.3908653012418],[0.574984835982687,51.3908258938873],[0.574972219912548,51.390601329097],[0.574613287035125,51.3906092127889],[0.574588058985012,51.3901600832181],[0.574946988270487,51.3901521994999],[0.574934372698559,51.3899276346931],[0.575293300022058,51.3899197498578],[0.57528068282028,51.3896951850324],[0.576357458406597,51.389671523864],[0.576344835983247,51.3894469589937],[0.577062681951775,51.3894311793358],[0.577037430420148,51.3889820495264],[0.577396349563489,51.3889741580155],[0.577383722251158,51.3887495930895],[0.578101556447651,51.3887338067299],[0.578114187351584,51.388958371682],[0.578473105996292,51.3889504768595],[0.578447840763115,51.3885013469237],[0.578088925709977,51.3885092417723],[0.578038404421794,51.3876109818871],[0.578397312292067,51.3876030869862],[0.578384680589977,51.3873785219882],[0.578025774515363,51.3873864169021],[0.578013144775172,51.3871618519116],[0.578730953166895,51.3871460609539],[0.578655156669992,51.3857986707393],[0.577937369824915,51.3858144618537],[0.577912112837956,51.3853653317905],[0.578271002752677,51.3853574367591],[0.578245742839742,51.3849083066479],[0.577886856515855,51.3849162017054],[0.577874228604121,51.3846916366546],[0.577515343909437,51.3846995306215],[0.577502717959271,51.3844749655784],[0.577861600858592,51.3844670715984],[0.577848973279266,51.3842425065367],[0.577131210905152,51.3842582934191],[0.577118587082664,51.384033728378],[0.577477466557476,51.3840258354755],[0.577464842668324,51.383801271585],[0.576747086784861,51.3838170560338],[0.576759707441725,51.3840416201768],[0.576400827634685,51.3840495108719],[0.576426068264477,51.3844986408962],[0.576784951662191,51.3844907502273],[0.576822819238902,51.3851644452619],[0.577181707856682,51.3851565535286],[0.577194332509972,51.3853811185422],[0.576835442096755,51.3853890102625],[0.576848065120753,51.3856135752576],[0.576489172745955,51.3856214658611],[0.576501794140615,51.3858460308376],[0.575784005301765,51.3858618087072],[0.575771387498085,51.3856372437569],[0.575412494625059,51.3856451310492],[0.575425110633245,51.3858696959864],[0.574707320798133,51.3858854672335],[0.574719933381334,51.386110032139],[0.573643241997247,51.3861336806922],[0.57366845688832,51.3865828104078],[0.573309555837284,51.386590691025],[0.573284344537349,51.3861415613358],[0.572925446911556,51.3861494408757],[0.572900239866372,51.3857003111909],[0.572541345665763,51.3857081896534],[0.572516142875127,51.3852590599731],[0.572157252099648,51.3852669373583],[0.572119454543972,51.3845932428362],[0.571760568988972,51.3846011191573],[0.571747971930807,51.3843765543189],[0.570671319657374,51.3844001766997],[0.570683911329366,51.3846247414984],[0.569966138727691,51.3846404842074],[0.569953550646495,51.3844159194352],[0.568518010636956,51.3844473916621],[0.568530591536527,51.3846719563813],[0.567453929404545,51.384695548923],[0.567479080927803,51.385144678265],[0.56819686302981,51.3851289510608],[0.568222022397229,51.3855780804342],[0.568580916790898,51.3855702152031],[0.568606080411773,51.3860193445811],[0.56896497823093,51.3860114782729],[0.568977562085372,51.386236042967],[0.569336461534483,51.3862281755683],[0.569386805791267,51.3871264343429],[0.569745712257233,51.3871185658936],[0.569783477576591,51.3877922599567],[0.569424565723513,51.3878001283663],[0.569437152698974,51.3880246930297],[0.568001496447272,51.3880561555766],[0.567976337028006,51.3876070263505],[0.566181780945807,51.3876463298316],[0.566194351593907,51.3878708943807],[0.565476524411213,51.3878866080198],[0.565463957354627,51.3876620434974],[0.565105045310923,51.3876698986746],[0.565079915285505,51.3872207696401],[0.564721007854623,51.3872286246732],[0.564683319196791,51.3865549308935],[0.564324416825509,51.3865627847011],[0.564311855902212,51.3863382199682],[0.563952955027717,51.3863460725696],[0.563915278145476,51.3856723779519],[0.562838589458693,51.3856959281855],[0.562826035764316,51.385471362951],[0.564261613761803,51.3854399608943],[0.564249053614882,51.3852153960903],[0.564966838378437,51.3851996887146],[0.564954275082979,51.3849751241187],[0.566030946075346,51.3849515548141],[0.566018377578284,51.3847269901937],[0.56673615382233,51.3847112717657],[0.566723581899854,51.3844867071131],[0.567441353891222,51.3844709842437],[0.567428778543433,51.384246419559],[0.56778766249548,51.3842385564554],[0.56776251062823,51.3837894282655],[0.56740363007995,51.3837972912699],[0.567328216060468,51.3824499235592],[0.568404824715018,51.3824263312711],[0.568392250878436,51.3822017699685],[0.569109985540445,51.3821860362676],[0.569097408260158,51.3819614749621],[0.570174003591279,51.3819378661475],[0.570161421062437,51.3817133048411],[0.571238009481837,51.3816896861097],[0.571225421704599,51.3814651248025],[0.572302003211766,51.3814414961544],[0.572289410186295,51.3812169348464],[0.57300712674907,51.3812011769059],[0.572994530280382,51.3809766155952],[0.572635673887092,51.3809844951147],[0.572597890894764,51.3803108111375],[0.572239039749452,51.3803186895488],[0.572213855530017,51.3798695668607],[0.571855007827788,51.3798774441657],[0.571829827883748,51.3794283214475],[0.571470983624544,51.3794361976462],[0.571458395706901,51.3792116362754],[0.571099553086002,51.3792195113699],[0.571086967139459,51.3789949499906],[0.570728126156869,51.3790028239807],[0.57071554218138,51.378778262593],[0.569997863326531,51.3787940072624],[0.569985283126674,51.3785694458643],[0.569267607215964,51.3785851861205],[0.569255030791657,51.3783606247121],[0.568896194391555,51.3783684931848],[0.568883619938121,51.3781439317681],[0.568165950248513,51.3781596654027],[0.568153379570479,51.3779351039757],[0.567794546281005,51.3779429691376],[0.567781977573732,51.3777184077023],[0.567423145922683,51.3777262717601],[0.567410579186125,51.3775017103163],[0.567051749173506,51.37750957327],[0.567039184407619,51.3772850118179],[0.566321527493202,51.3773007344146],[0.566195923868856,51.3750551219447],[0.565478302274819,51.3750708398428],[0.565465745926212,51.374846279364],[0.565106936653884,51.3748541366206],[0.565094382238896,51.3746295760887],[0.56473557358793,51.3746374313431],[0.564723021080539,51.3744128707383],[0.564364213782012,51.3744207246314],[0.564351663231898,51.3741961639978],[0.563992857560502,51.3742040167691],[0.563980308967616,51.3739794561067],[0.563621504923359,51.3739873077563],[0.563608958287657,51.3737627470652],[0.563250155870543,51.3737705975931],[0.563237611191979,51.3735460368731],[0.562520009447121,51.3735617345848],[0.562507468517733,51.3733371738152],[0.562148669190021,51.373345020999],[0.562136130217657,51.3731204602007],[0.561777332517133,51.3731283062628],[0.561764795501748,51.3729037454358],[0.561405999428417,51.3729115903763],[0.561393464369967,51.3726870295206],[0.561034669923834,51.3726948733394],[0.561022136822271,51.372470312455],[0.5613809294764,51.372462468657],[0.561368394747715,51.3722379077855],[0.561727185445045,51.3722300629075],[0.561714649089284,51.372005502049],[0.563149803062155,51.3719741116127],[0.563162346585707,51.3721986723879],[0.563521136458593,51.3721908220061],[0.563533681939103,51.3724153827525],[0.564251264773897,51.3723996786448],[0.564238715709468,51.3721751179401],[0.565315082503583,51.3721515528796],[0.565327636889073,51.3723761134721],[0.565686426529021,51.3723682555961],[0.565786881660854,51.374164739646],[0.566504488767782,51.3741490198984],[0.566491927763782,51.3739244595126],[0.567209530676408,51.3739087354552],[0.567184402079821,51.3734596148297],[0.566825604245112,51.3734674773207],[0.566762794467511,51.3723446753728],[0.566404005318261,51.3723525365464],[0.566366326724924,51.3716788551329],[0.566725110564995,51.3716709940902],[0.56671254959148,51.3714464336437],[0.567788894820957,51.3714228440517],[0.567776328702143,51.3711982837266],[0.568493887830865,51.3711825519236],[0.568481318336528,51.3709579916764],[0.568840095885714,51.3709501241699],[0.568827524785547,51.3707255639569],[0.569186300401409,51.370717695395],[0.569198873271169,51.3709422555643],[0.56955765049287,51.3709343858595],[0.569633101769575,51.3722817464137],[0.5699918894455,51.3722738753476],[0.570029622605102,51.3729475553654],[0.570388415426509,51.3729396830689],[0.570413575225294,51.373388802946],[0.570772371422494,51.3733809294628],[0.570810117659634,51.3740546090759],[0.570451316152802,51.3740624826903],[0.570501639684349,51.3749607222166],[0.570860448271008,51.3749528484273],[0.570885614560397,51.375401968046],[0.571244426523203,51.3753940930699],[0.571282182334354,51.3760677763964],[0.571640999525722,51.3760599002264],[0.571653586917885,51.376284461687],[0.572012405747247,51.3762765844128],[0.572037584639627,51.3767257073105],[0.572396406911381,51.3767178289302],[0.572421590078434,51.3771669517978],[0.572780415792636,51.3771590723113],[0.572793009430348,51.3773836337333],[0.573151836782567,51.3773757531426],[0.573177028166508,51.3778248759631],[0.573535858961248,51.3778169942661],[0.57356105462041,51.3782661170565],[0.573919888857726,51.3782582342532],[0.573932488741725,51.3784827956366],[0.574291324617081,51.378474911729],[0.574316528494059,51.3789240344722],[0.574675367812066,51.3789161494583],[0.574700575964812,51.3793652721713],[0.575059418725525,51.379357386051],[0.575072024856548,51.3795819473957],[0.574354335559164,51.3795977185379],[0.574366938247448,51.37982227988],[0.574725784784143,51.3798143948581],[0.574738389443787,51.3800389561917],[0.575097237618612,51.3800310700654],[0.575109844249659,51.3802556313905],[0.575468694062608,51.3802477441597],[0.575456085626814,51.3800231828367],[0.57617378114325,51.380007405072],[0.576186393188532,51.380231966391],[0.575827543708907,51.3802398558266],[0.575840154116174,51.380464417141],[0.576199005400564,51.3804565277034],[0.576287295554024,51.3820284567072],[0.576646159305696,51.3820205661529],[0.576658774656777,51.3822451274109],[0.577735370326061,51.3822214491269],[0.577722749560156,51.3819968878751],[0.578440475562436,51.381981096844],[0.578453099938208,51.3822056580917],[0.578811964493999,51.3821977609204],[0.578786712299531,51.3817486384225],[0.579504433690775,51.3817328407807],[0.579491804234181,51.3815082795261],[0.58056837965442,51.3814845748011],[0.580555744950254,51.3812600135464],[0.581632313453023,51.3812362989054],[0.581619673501446,51.3810117376506],[0.581978528650521,51.3810038320502],[0.581965886992731,51.3807792707022],[0.583042446619788,51.3807555480905],[0.583029799637687,51.3805309866472],[0.584465202783155,51.3804993409105],[0.584452548645846,51.3802747793416],[0.585170245541949,51.3802589497842],[0.585157587911717,51.3800343881504],[0.585516434275031,51.3800264716843],[0.585503774982981,51.379801910016],[0.58622146354008,51.3797860737092],[0.586208800755284,51.3795615119761],[0.586567642949053,51.3795535921353],[0.586554978502559,51.3793290303677],[0.587272658720483,51.3793131873116],[0.587259990781415,51.3790886254792],[0.587618828805555,51.3790807022639],[0.587606159204909,51.378856140397],[0.587964995228859,51.3788482160468],[0.587952323966682,51.3786236541455],[0.588669991844871,51.3786078020705],[0.588657317090369,51.3783832401046],[0.589374980629433,51.3783673835505],[0.589362302382708,51.3781428215199],[0.589721132067332,51.3781348915557],[0.589708452159269,51.3779103294907],[0.590426107358649,51.377894466188],[0.590413423958537,51.3776699040585],[0.590772249473276,51.37766197072],[0.590746879520145,51.3772128463878],[0.591464522718265,51.3771969762765],[0.591451834334635,51.3769724140437],[0.591810653848729,51.376964477301],[0.591797963804021,51.3767399150339],[0.592156781317911,51.3767319771564],[0.592144089612171,51.376507414855],[0.592502905125863,51.3764994758428],[0.592490211759134,51.376274913507],[0.593207838616514,51.3762590321087],[0.593195141758278,51.3760344697085],[0.593912764275958,51.3760185838317],[0.593900063926316,51.3757940213671],[0.594258873100101,51.3757860767417],[0.594246171089665,51.3755615142428],[0.594604978263232,51.3755535684829],[0.594592277021396,51.3753290102591],[0.594951082332798,51.3753210635744],[0.594938379661861,51.3750965056933],[0.595655986218473,51.3750806090543],[0.595643280147072,51.3748560511996],[0.596002081392267,51.3748481012453],[0.595989373703927,51.3746235434],[0.596348172999229,51.3746155923616],[0.596335463693997,51.3743910345257],[0.597053058218319,51.3743751291794],[0.597040345512864,51.37415057137],[0.597399140741868,51.3741426170622],[0.597386426419639,51.3739180592623],[0.597745219698746,51.3739101038703],[0.597732503759787,51.3736855460799],[0.598450086600193,51.3736696324002],[0.598437367210262,51.3734450745772],[0.598796157585031,51.3734371171434],[0.598783436547536,51.3732125592809],[0.599142224936718,51.3732046007064],[0.599129502251705,51.3729800428044],[0.599488288655306,51.3729720830893],[0.599475564322821,51.3727475251477],[0.599834348740847,51.3727395642921],[0.599821622760938,51.3725150063109],[0.600539187456764,51.3724990812138],[0.600526458012996,51.3722745231574],[0.600885238290782,51.3722665589159],[0.600872507199709,51.3720420008199],[0.601231285491915,51.3720340354379],[0.601218552753581,51.3718094773025],[0.601936105197675,51.3717935431526],[0.601923368995729,51.3715689849421],[0.602282143147601,51.3715610161743],[0.602269405298515,51.3713364579242],[0.602628177464803,51.371328488016],[0.602615437968622,51.3711039297265],[0.602974208149332,51.3710959586778],[0.602961467006103,51.3708714003488],[0.603679003227102,51.3708554548659],[0.603691748002965,51.3710800132661],[0.603332978160788,51.3710879865244],[0.603345721289655,51.3713125448851],[0.603704492948173,51.3713045716625],[0.603729983346626,51.3717536884439],[0.6044475334212,51.3717377388267],[0.60446028250726,51.3719622972828],[0.604819059106921,51.3719543208526],[0.604831810178806,51.3721788793405],[0.605190588425504,51.372170901841],[0.605203341483259,51.3723954603607],[0.605562121376987,51.372387481792],[0.605574876420658,51.3726120403434],[0.606292439332699,51.3725960799625],[0.606279680656111,51.37237152134],[0.606638460041459,51.3723635394568],[0.606651220534502,51.3725880981148],[0.607368782429556,51.3725721311049],[0.607356018303612,51.3723475723757],[0.608432354425127,51.3723236134679],[0.608445124000399,51.3725481723036],[0.60916268419953,51.3725321942452],[0.609175457577385,51.372756753148],[0.609534239238905,51.372748762497],[0.609547014602952,51.3729733214315],[0.609905797911247,51.3729653297111],[0.60991857526153,51.3731898886773],[0.609559790136738,51.3731978803622],[0.609585341713542,51.3736469982121],[0.609226552785972,51.3736549887212],[0.609239327012424,51.373879547605],[0.608880536098593,51.3738875369737],[0.608893308678177,51.3741120958182],[0.608175722708328,51.3741280711699],[0.608201261110082,51.3745771887054],[0.608560057813105,51.374569201653],[0.608572829085153,51.3747937604505],[0.608931627435191,51.3747857723287],[0.608918854346474,51.3745612134957],[0.609277650710166,51.3745532242334],[0.609264875974518,51.3743286653611],[0.610341258597383,51.3743046908383],[0.610328478581631,51.3740801318557],[0.610687270633138,51.3740721381028],[0.610712834467691,51.374521256135],[0.611789220503072,51.3744972684594],[0.611776433051007,51.3742727093389],[0.612135226239816,51.3742647112018],[0.612160804947108,51.3747138295098],[0.613237194393878,51.3746898286812],[0.613249989452392,51.3749143879356],[0.612891191323408,51.3749223892814],[0.612903984735239,51.3751469484966],[0.612545184619631,51.3751549487021],[0.612557976384733,51.3753795078781],[0.612199174282495,51.3753875069431],[0.612211965015249,51.3756120673676],[0.611494356826311,51.3756280624158],[0.611468783253376,51.3751789426885],[0.611109982458226,51.375186938474],[0.611097198129841,51.3749623794359],[0.610738398981561,51.3749703741519],[0.610751181493248,51.3751949331546],[0.610392380358467,51.3752029267303],[0.610405161223269,51.3754274856937],[0.609687554810934,51.3754434694592],[0.609725892902899,51.3761171567487],[0.610084701487846,51.3761091652968],[0.610110265207848,51.3765582912896],[0.610827889013642,51.3765423050919],[0.610853460542218,51.3769914310747],[0.611571090816412,51.3769754404802],[0.611532723067174,51.3763017514754],[0.612967960189098,51.3762697570106],[0.612955164136296,51.3760451939827],[0.613313971213118,51.3760371926061],[0.613326769050476,51.3762617556376],[0.613685577744165,51.3762537531618],[0.613711177491195,51.3767028792134],[0.6147876132734,51.3766788651904],[0.614800418752373,51.3769034282176],[0.615518045131526,51.3768874203237],[0.615543663570047,51.3773365465194],[0.616620112179655,51.3773125303634],[0.61658166916325,51.3766388416437],[0.616222858325942,51.37664684793],[0.616210046049569,51.3764222849358],[0.615851236781855,51.3764302900587],[0.615825616189521,51.375981163906],[0.615466810225205,51.3759891677999],[0.615428387441041,51.3753154817441],[0.615069586391027,51.3753234843578],[0.615043977603477,51.3748743651204],[0.614685180268439,51.3748823715031],[0.614659575788301,51.3744332527074],[0.614300781972587,51.3744412585437],[0.614287981804246,51.3742166991755],[0.613570397295958,51.374232707604],[0.613557600930837,51.3740081483027],[0.613198810238297,51.3740161508949],[0.613186015859747,51.3737915916252],[0.612827226813818,51.3737995931479],[0.612814434421792,51.3735750339097],[0.612096859453268,51.3735910337112],[0.612071282445128,51.3731419153651],[0.611353714063162,51.3731579108887],[0.611340929446916,51.3729333517807],[0.610982146817672,51.3729413479206],[0.610956581727646,51.3724922297641],[0.610597802561513,51.3725002248701],[0.610585022087661,51.3722756658215],[0.610226244568182,51.3722836598581],[0.61021346608053,51.3720591008411],[0.610931017316927,51.3720431115924],[0.6109182353663,51.3718185525008],[0.611635782290815,51.3718025587619],[0.611622996877315,51.3715779995956],[0.612340539489829,51.3715620013666],[0.612327750613557,51.3713374421257],[0.613045288913952,51.3713214394066],[0.613032496575009,51.3710968800911],[0.613391263654058,51.3710888770389],[0.613404057809283,51.3713134363898],[0.613762826534672,51.3713054322682],[0.613775622676177,51.3715299916506],[0.614134393047901,51.3715219864596],[0.614159989473584,51.3719711052837],[0.614518763307983,51.3719630990586],[0.614544364046542,51.3724122179381],[0.614903141343672,51.3724042106788],[0.614915943784449,51.3726287701482],[0.615274724267298,51.3726207653283],[0.615300333201126,51.3730698847376],[0.615659117409496,51.3730618802229],[0.615684730317601,51.3735109997881],[0.616043517702724,51.373502994324],[0.616069134585298,51.3739521140451],[0.61642792514723,51.3739441076314],[0.616453546004462,51.3743932275084],[0.616812339743258,51.3743852201452],[0.616825152079493,51.374609780162],[0.61718394732695,51.37460177177],[0.617196761491054,51.3748263318654],[0.617555558247166,51.3748183224445],[0.617542742414807,51.3745937622699],[0.618977921169815,51.3745617131885],[0.618965098824203,51.3743371526963],[0.619323891445522,51.3743291375765],[0.619362363966313,51.3750028192887],[0.619721161432625,51.3749948032984],[0.619733987594039,51.3752193639471],[0.620092786568878,51.3752113469278],[0.620067131069302,51.3747622254715],[0.620425926547828,51.3747542071858],[0.620413097369523,51.3745296463775],[0.621489477841567,51.3745055846341],[0.62145097625195,51.3738319014928],[0.621092187925642,51.3738399234194],[0.621079356050351,51.3736153624502],[0.622155715545302,51.3735912931085],[0.622142878825529,51.3733667319011],[0.622860447686547,51.3733506799748],[0.622834768054472,51.3729015572416],[0.622475987040064,51.3729095839171],[0.622450311383899,51.3724604613396],[0.622091533545655,51.3724684870652],[0.622104369625747,51.3726930482752],[0.621745589959605,51.3727010728136],[0.621386810133608,51.3727090962441],[0.621373977389569,51.3724845351924],[0.621015199071768,51.372492557594],[0.620989537399291,51.3720434356469],[0.621707087203077,51.3720273894192],[0.621694253270678,51.3718028282864],[0.622053026264851,51.3717948034314],[0.622040190824397,51.3715702422188],[0.622398961990769,51.3715622161767],[0.622386125042305,51.3713376548843],[0.622027355543845,51.3713456810056],[0.622014520423193,51.3711211197917],[0.621655752432768,51.371129144884],[0.621642919139886,51.3709045837486],[0.6212841526575,51.3709126078122],[0.621258489887036,51.3704634856976],[0.620899726580527,51.3704715088115],[0.62087406778505,51.3700223868526],[0.621232827755956,51.3700143635804],[0.621219996930176,51.3697898025209],[0.621578755073514,51.3697817780617],[0.621565922739827,51.3695572169223],[0.622283435211538,51.369541164522],[0.622270599702271,51.3693166032238],[0.622629354030631,51.3693085752826],[0.622616517013567,51.3690840139046],[0.622975269514359,51.3690759847765],[0.622988108199113,51.3693005462336],[0.623346862207695,51.3692925160766],[0.623359702720099,51.3695170776121],[0.623718458236466,51.3695090464264],[0.623744143076652,51.3699581696536],[0.624461660300469,51.3699421042745],[0.624500198767435,51.3706157895848],[0.62485896214272,51.3706077554706],[0.624884658589927,51.3710568791656],[0.625243425140864,51.3710488441015],[0.625256275272442,51.3712734060271],[0.625615043331198,51.371265369934],[0.62562789529076,51.371489931938],[0.625986664857327,51.3714818948159],[0.625973811229878,51.3712573327329],[0.626332578968464,51.3712492944238],[0.626345434263798,51.3714738565858],[0.627062972596358,51.3714577768017],[0.627024397183692,51.3707840898396],[0.62738316110618,51.3707760480486],[0.627370301287882,51.3705514856476],[0.628087825316698,51.3705353985836],[0.628100688470608,51.3707599611425],[0.629535741276681,51.3707277740347],[0.629522871451578,51.37050321116],[0.629881632584601,51.3704951615342],[0.629843019068129,51.3698214726695],[0.629484262938349,51.3698295225321],[0.629497132282415,51.3700540854087],[0.629138374324615,51.3700621340844],[0.629112639132259,51.3696130084884],[0.629830148216698,51.3695969097133],[0.629817277525627,51.3693723467565],[0.63017603015971,51.3693642956281],[0.630201775037594,51.3698134216989],[0.630919286495499,51.369797316434],[0.630880659413187,51.3691236268534],[0.630163157961338,51.3691397325917],[0.630137414045717,51.3686906065171],[0.629778666414542,51.3686986578822],[0.62976579636488,51.3684740949228],[0.629407050241002,51.3684821452589],[0.629368446056737,51.3678084566137],[0.629009704775248,51.3678165060787],[0.628958246630601,51.3669182585973],[0.62931698144769,51.3669102090116],[0.629291255585197,51.3664610891962],[0.629649987001825,51.3664530384865],[0.629637122684386,51.36622847856],[0.629278392889478,51.3662365292802],[0.629252667969082,51.3657874094315],[0.628893941260607,51.3657954590699],[0.628868220211545,51.36534633922],[0.627792048874598,51.3653704815813],[0.627779193450407,51.3651459216797],[0.627420470979315,51.3651539669383],[0.627369057337983,51.3642557273184],[0.627010341196366,51.3642637715165],[0.626997489799773,51.3640392116082],[0.627356204319868,51.3640311673995],[0.627343351458635,51.3638066074751],[0.626984638560041,51.3638146516943],[0.626958936551149,51.3633655318499],[0.626600226738707,51.3633735749876],[0.626574528600085,51.3629244551421],[0.626215821873737,51.3629324971981],[0.626190127605199,51.3624833773516],[0.625472720167874,51.3624994581979],[0.625459876511529,51.3622748982874],[0.62653598256834,51.3622507753321],[0.626523134204732,51.3620262153844],[0.627599233986754,51.3620020824729],[0.627586380916031,51.3617775224879],[0.628303776744067,51.3617614283456],[0.628290920587656,51.3615368683339],[0.628649616645127,51.3615288195982],[0.628623901560561,51.3610796995371],[0.628265208745583,51.3610877482938],[0.628239497531155,51.3606386282315],[0.628598187103726,51.3606305794537],[0.628585330110701,51.3604060194037],[0.628944017905241,51.3603979695127],[0.628905443004322,51.3597242892976],[0.629264125778613,51.3597162382724],[0.629251266171104,51.3594916781791],[0.628892585017896,51.3594997292149],[0.628879727188403,51.3592751691265],[0.628521047499389,51.3592832190701],[0.628495335934989,51.3588340992699],[0.628136659265379,51.3588421480416],[0.628123807420097,51.3586175899753],[0.627406457010627,51.3586336840496],[0.627393608747805,51.3584091257871],[0.627752282324508,51.3584010793892],[0.627739432515302,51.3581765212054],[0.62702208861794,51.3581926127228],[0.627034935007976,51.3584171710898],[0.626317587039029,51.3584332584095],[0.626330430173018,51.3586578169469],[0.625971754234328,51.3586658590555],[0.62598459603424,51.3588904177783],[0.625625918333148,51.3588984589224],[0.625587398866186,51.358224782615],[0.625228726020661,51.35823282235],[0.625280081780691,51.3591310589577],[0.624204042404405,51.3591551724347],[0.624229715758692,51.3596042923419],[0.623871032411207,51.3596123279412],[0.623845362299093,51.3591632080552],[0.623486682037206,51.3591712425731],[0.623499515393868,51.3593958025082],[0.623140833354348,51.3594038359128],[0.623128001618768,51.3591792759884],[0.622769321043796,51.3591873083011],[0.622782151158293,51.3594118682149],[0.622423468805723,51.3594198994143],[0.622436297455684,51.3596444593119],[0.622794981429361,51.3596364281231],[0.622820642441221,51.3600855479229],[0.623179329500653,51.3600775156529],[0.623192161862618,51.3603020755551],[0.622833473182017,51.3603101078145],[0.622846304079395,51.3605346677005],[0.620694158982286,51.3605828380373],[0.620668516798371,51.3601337183881],[0.620309828643715,51.3601417429398],[0.620284190327915,51.3596926232898],[0.619566820034124,51.3597086691282],[0.619554004353116,51.3594841093164],[0.61811926837426,51.359516187805],[0.618093650450204,51.3590670682507],[0.617734969307042,51.3590750851379],[0.617709360587325,51.3586259645342],[0.616633325692057,51.3586500084423],[0.616607732232954,51.358200886389],[0.616249057028885,51.3582088986517],[0.616236262252758,51.3579843375144],[0.615160240794891,51.3580083674572],[0.615173030442126,51.3582329288686],[0.613738359275658,51.3582649656947],[0.61376392578355,51.3587140887466],[0.613046585180595,51.3587301015679],[0.613033804962419,51.358505539929],[0.612675135989781,51.3585135446341],[0.612662357478625,51.3582889829255],[0.611945022191097,51.358304988925],[0.611932246942614,51.3580804270876],[0.610856247544543,51.3581044276778],[0.610881788858518,51.3585535516965],[0.610523118978789,51.3585615498163],[0.610510349801929,51.3583369877531],[0.610151681326814,51.3583449847163],[0.610126146537982,51.3578958604402],[0.609767481023167,51.3579038561876],[0.609729184640413,51.3572301695171],[0.609370523641473,51.3572381639899],[0.609357760038392,51.3570136016863],[0.608999100444023,51.3570215950025],[0.60898633854762,51.3567970326293],[0.608627680357823,51.356805024789],[0.608602160129334,51.3563558998928],[0.608243504899668,51.356363890837],[0.608230746567518,51.356139328314],[0.607513438766364,51.3561553067919],[0.607500683696261,51.3559307441404],[0.606424725529182,51.3559547034492],[0.606437475932725,51.3561792662776],[0.605720166622589,51.3561952337806],[0.605707419330099,51.3559706708343],[0.606066072505064,51.3559626876905],[0.605976834793773,51.3543907471832],[0.605618192506923,51.3543987299144],[0.605592700486595,51.3539496038422],[0.605234061159645,51.3539575853582],[0.605221316931079,51.3537330222473],[0.604862679008671,51.3537410026069],[0.604837194114602,51.3532918762358],[0.604478559152027,51.3532998553801],[0.604465818486461,51.3530752921198],[0.604107184928418,51.3530832701079],[0.604119924038714,51.3533078334271],[0.603761288774683,51.3533158103767],[0.603774026480447,51.3535403737443],[0.603056752389718,51.3535563244691],[0.603044017794546,51.3533317609838],[0.603402653359954,51.3533237862289],[0.603377181511166,51.3528746593443],[0.603735813815368,51.3528666836099],[0.603723076561811,51.3526421202107],[0.604081707160088,51.3526341434377],[0.604056229994763,51.3521850167254],[0.603697602506884,51.3521929933805],[0.603659392554928,51.3515193030562],[0.604018015377363,51.3515113265777],[0.604005277473042,51.351286763174],[0.603646656205714,51.3512947395936],[0.603621183959429,51.3508456126368],[0.603979802116606,51.350837636335],[0.6039543285289,51.3503885092436],[0.604312943546957,51.3503805319784],[0.604300206643338,51.3501559683059],[0.604658820046425,51.350147990043],[0.604633343732786,51.349698862852],[0.60391612266304,51.3497148178959],[0.603928857806967,51.3499393816917],[0.602853020706772,51.349963306339],[0.602865751584522,51.3501878704121],[0.601789908772136,51.3502117854988],[0.601802635383574,51.350436349849],[0.601444019353361,51.3504443194523],[0.601456745286212,51.3506688835571],[0.600739509822885,51.3506848195836],[0.600752233279514,51.3509093835487],[0.600393613767007,51.3509173499748],[0.600406335819092,51.3511419139881],[0.599689093232435,51.3511578436661],[0.599701812324823,51.3513824077865],[0.599343189250683,51.3513903710383],[0.599355906938423,51.3516149352069],[0.598638657228563,51.3516308585361],[0.598587799821274,51.3507326013284],[0.598229183855168,51.3507405613351],[0.598216471866111,51.3505159968862],[0.597857863451708,51.3505239562631],[0.597845153708376,51.350299390921],[0.597486546867619,51.3503073491377],[0.597473839024453,51.3500827837215],[0.597115233757346,51.350090740778],[0.597077116417915,51.3494170442746],[0.598152916097976,51.3493931703831],[0.598165626925002,51.3496177357055],[0.598882844567619,51.3496018154497],[0.598895558983177,51.3498263806137],[0.599971396441492,51.3498024923773],[0.59998411541235,51.3500270572379],[0.600701342602973,51.3500111260805],[0.600688620691537,51.3497865614135],[0.601405844363677,51.3497706260714],[0.601393119656222,51.3495460615846],[0.60175172980527,51.3495380923686],[0.601739003772123,51.3493135279653],[0.602097612306403,51.3493055577515],[0.602084884947603,51.3490809934318],[0.601726277883542,51.3490889635488],[0.601713552139526,51.3488643991191],[0.602072157733387,51.3488564290989],[0.602021250322316,51.3479581716346],[0.603097048594837,51.3479342561686],[0.603084317693217,51.3477096920599],[0.603801512878484,51.3476937431371],[0.603725112865645,51.3463463593682],[0.604083701421254,51.3463383838461],[0.604058232967691,51.3458892560108],[0.605133988947095,51.3458653234594],[0.605121250527608,51.3456407598124],[0.605838417517404,51.3456247994999],[0.605825676302887,51.3454002360334],[0.606542839774096,51.3453842715372],[0.606530095764636,51.3451597082512],[0.606888675813283,51.3451517244585],[0.606863185289125,51.3447025980405],[0.606504608180118,51.3447105816394],[0.606479121174782,51.3442614549746],[0.606120546860602,51.3442694372854],[0.606095063373916,51.3438203103738],[0.605736491854513,51.3438282913965],[0.605711011886304,51.3433791642381],[0.605352443161626,51.3433871439728],[0.605276017068749,51.3420397618465],[0.604917457081046,51.3420477398903],[0.604904723352786,51.341823176344],[0.604546164866779,51.3418311531919],[0.604520701204626,51.3413820258544],[0.603445034756852,51.3414059492232],[0.603406855388244,51.3407322571971],[0.603048304568845,51.3407402291599],[0.60303558008866,51.340515665022],[0.600884281812509,51.3405634732165],[0.600871567448855,51.3403389084535],[0.60015447007938,51.340354835564],[0.600141759193154,51.3401302705836],[0.59906611693413,51.34015415274],[0.599053411184968,51.3399295874405],[0.598336319409362,51.3399455032717],[0.598323617790417,51.3397209378386],[0.596530984851475,51.3397607192361],[0.596518291462712,51.3395361534508],[0.596159766026482,51.3395441063735],[0.596147074407352,51.3393195405089],[0.595071502017233,51.3393433924955],[0.595058815397851,51.3391188264151],[0.594341769595886,51.3391347221223],[0.594329086361078,51.3389101558945],[0.593612043171807,51.3389260470807],[0.593599363321497,51.3387014807055],[0.592882322745065,51.3387173673709],[0.592869646279174,51.3384928008483],[0.591794089102642,51.3385166224208],[0.591781417636113,51.3382920556827],[0.590347345702014,51.3383238021609],[0.590334680849746,51.3380992351395],[0.58997616409587,51.3381071689507],[0.589963501012752,51.3378826018501],[0.588887954671585,51.3379063965026],[0.588875296587522,51.3376818291868],[0.588158268153153,51.3376976866717],[0.588145613453077,51.3374731192088],[0.586711561196454,51.3375048207532],[0.58669891311018,51.3372802530072],[0.584189327041141,51.3373356880332],[0.584214600758068,51.3377848244645],[0.583497568322832,51.3378006534496],[0.583484934617454,51.3375760851038],[0.583126419784233,51.3375839978842],[0.583113787847579,51.3373594294594],[0.582396760950005,51.3373752515962],[0.582422018517089,51.337824388706],[0.58206350160782,51.3378322982658],[0.582076129006871,51.3380568668717],[0.581717610328933,51.3380647754032],[0.581730236266608,51.3382893440657],[0.581371718369373,51.3382972516336],[0.581384342632514,51.3385218203463],[0.581742862357934,51.3385139127171],[0.581755488602917,51.3387384813573],[0.581038445902516,51.3387542956558],[0.581051068744832,51.3389788644099],[0.580692545679259,51.3389867699842],[0.580679924583597,51.338762201167],[0.579604359649861,51.3387859111214],[0.579591743956981,51.338561342104],[0.578874703347187,51.3385771431313],[0.57886209131035,51.3383525739769],[0.578503572507973,51.3383604727827],[0.578490962380492,51.3381359035543],[0.578132445162016,51.3381438012005],[0.578119836943845,51.3379192318982],[0.577761321309277,51.3379271283849],[0.577748715000371,51.3377025590087],[0.577031686736429,51.3377183485664],[0.577044289552199,51.3379429180687],[0.576327257144683,51.3379587033664],[0.576314657822063,51.3377341337381],[0.575956143121025,51.3377420246792],[0.575943545707545,51.3375174549769],[0.575226519310995,51.3375332334436],[0.575239113231355,51.3377578032719],[0.5741635671782,51.3377814629371],[0.574176156021312,51.3380060329435],[0.573100603266524,51.338029682929],[0.573113187032231,51.3382542531133],[0.572396147557271,51.3382700144136],[0.572408727992068,51.338494584713],[0.57276724955737,51.3384867045482],[0.572779831901186,51.3387112747738],[0.573138355050813,51.3387033934495],[0.573150939303694,51.3389279636013],[0.573509464037641,51.3389200811175],[0.573547223010887,51.3395937913191],[0.573188693036736,51.3396016739917],[0.573163523718974,51.3391525337423],[0.572804997075939,51.3391604151925],[0.572792414407375,51.3389358449885],[0.572433889348704,51.3389437252792],[0.572459051354752,51.3393928658021],[0.57210052264029,51.339400745122],[0.572113102140084,51.3396253154301],[0.571754571516541,51.3396331937164],[0.571767149431882,51.3398577640765],[0.571408616899254,51.3398656413291],[0.571421193230097,51.3400902117414],[0.571062658788378,51.3400980879603],[0.571087808443258,51.340547228878],[0.570729270345577,51.3405551041261],[0.570754417155784,51.3410042451262],[0.570395875402061,51.3410121194035],[0.570421019367431,51.341461260486],[0.569703928385543,51.341477006002],[0.569691359815662,51.3412524353404],[0.568974271678998,51.341268176344],[0.56898683675494,51.3414927471314],[0.568628290696426,51.341500616051],[0.568665981656157,51.3421743285365],[0.569024532955726,51.3421664594283],[0.569037098630019,51.3423910297596],[0.567244331743358,51.3424303644882],[0.567369909731548,51.3446760687606],[0.567728480949357,51.3446682035252],[0.567741041392975,51.3448927738499],[0.567382468423472,51.3449006391337],[0.56753318539406,51.3475954828451],[0.566457402444938,51.3476190738555],[0.566482513701856,51.3480682146274],[0.565048120147665,51.3480996543249],[0.565073218037565,51.3485487954453],[0.564714615595508,51.3485566521102],[0.564702068324104,51.3483320815053],[0.564343467454346,51.3483399369361],[0.564368558636422,51.3487890781798],[0.564009954080095,51.3487969325525],[0.564022498153641,51.3490215031834],[0.563663891672564,51.3490293564771],[0.563676434147112,51.349253927121],[0.564035042390086,51.3492460738063],[0.564047586789436,51.3494706444214],[0.56440619663145,51.349462789986],[0.564393650470182,51.3492382193918],[0.564752258387377,51.3492303638774],[0.56476480631056,51.3494549344506],[0.565123415764752,51.349447077568],[0.565085767225935,51.3487733659907],[0.565444371114139,51.3487655075678],[0.565482024909383,51.3494392189998],[0.565840633891726,51.3494313593336],[0.565853187233615,51.3496559297428],[0.565494576499089,51.3496637894574],[0.56550712825111,51.3498883599053],[0.565865740737845,51.3498805001421],[0.565890848233331,51.3503296409114],[0.565532232242115,51.3503375007714],[0.56559499011464,51.3514603359727],[0.565236365121373,51.3514681947249],[0.565286566435983,51.3523664598705],[0.56492793416159,51.3523743173536],[0.564978131077882,51.353272582602],[0.564619491352175,51.3532804382574],[0.564632039223187,51.3535050045646],[0.564273397568021,51.353512859133],[0.564298490267262,51.3539619917522],[0.564657135454975,51.3539541371569],[0.564682232339799,51.3544032697196],[0.564323583619447,51.3544111243419],[0.564348677624599,51.3548602569021],[0.563990025208301,51.3548681104508],[0.563977479890481,51.3546435441609],[0.563260178101091,51.3546592479294],[0.563285261834378,51.3551083805558],[0.562926607162156,51.355116230816],[0.562951688015284,51.3555653634398],[0.563310346220393,51.3555575131526],[0.563322888658182,51.35578207944],[0.56368154846661,51.3557742280387],[0.563669004262347,51.3555496617648],[0.56402766214112,51.3555418092763],[0.564002570689345,51.3550926767333],[0.564361224872046,51.3550848231712],[0.564373772282742,51.3553093894328],[0.564732428068644,51.3553015347565],[0.564744977409038,51.3555261009973],[0.565103634709332,51.3555182449261],[0.565116185965227,51.3557428111029],[0.567626792884316,51.3556877814814],[0.567639356633566,51.3559123474946],[0.569791309630252,51.3558651362119],[0.569829033563942,51.3565388338022],[0.57162234966194,51.35649946048],[0.571609766046517,51.3562748947363],[0.573044408938844,51.3562433763667],[0.573031818440851,51.3560188107045],[0.573390476993933,51.3560109283843],[0.573377884897941,51.3557863627366],[0.57373654152612,51.3557784793388],[0.573723947832176,51.3555539137054],[0.574082602535456,51.35554602923],[0.57405741211527,51.3550968979842],[0.574416063132278,51.3550890124535],[0.574403466406102,51.3548644468411],[0.575120764426866,51.3548486725247],[0.575133364675747,51.3550732380923],[0.575850665565003,51.3550574593309],[0.575863269500207,51.3552820248456],[0.576580573257796,51.3552662416392],[0.576555358505605,51.3548171106918],[0.577272654563219,51.3548013231753],[0.577285265380149,51.355025888608],[0.577643914924769,51.3550179931772],[0.578361213522848,51.3550021990156],[0.578348597421931,51.3547776336505],[0.578707244714023,51.3547697349422],[0.578732480602313,51.3552188656194],[0.579449781740463,51.3552030648127],[0.579475025329502,51.3556521953677],[0.581626945947719,51.3556047662759],[0.581639578556422,51.3558293314059],[0.583791504665819,51.3557818599048],[0.583804148025086,51.3560064248932],[0.58488011416159,51.3559826742038],[0.584892762976077,51.3562072391255],[0.585251419789901,51.3561993200089],[0.585289372510616,51.3568730146685],[0.584930710405751,51.356880933844],[0.58496865931481,51.3575546284925],[0.584609991754344,51.3575625466266],[0.584635288321354,51.3580116763926],[0.584276617068932,51.3580195934655],[0.584327204606836,51.3589178520441],[0.583968526045224,51.3589257679289],[0.583993812428335,51.3593748883278],[0.58363513018072,51.3593828031385],[0.583584560712489,51.358484554163],[0.582508534400648,51.3585082922952],[0.582495896289466,51.3582837273141],[0.581419873912079,51.3583074551783],[0.581432506727318,51.358532020235],[0.581073830636901,51.3585399270275],[0.581099091925732,51.3589890547187],[0.58074041205977,51.3589969602907],[0.580778294322358,51.3596706413593],[0.580419609012122,51.3596785459024],[0.580457487468857,51.3603522269695],[0.580098796714151,51.3603601304836],[0.580086172158302,51.3601355701123],[0.579368793678043,51.3601513737929],[0.579406657275456,51.3608250550248],[0.579047962508876,51.360832955286],[0.579338258574864,51.3659978428612],[0.579696993834553,51.3659899420553],[0.579722244587746,51.3664390624648],[0.580080983205321,51.3664311605112],[0.580131492271144,51.3673294004776],[0.580490237864975,51.3673214973603],[0.580528119934519,51.3679951740302],[0.580169369033065,51.3680030772795],[0.580181994949331,51.3682276361944],[0.580540747620039,51.3682197329011],[0.580578631663655,51.368893409457],[0.579143598762694,51.3689250165636],[0.579168841459469,51.3693741345717],[0.57881007928451,51.3693820336886],[0.578797459623288,51.3691574746454],[0.578079938319097,51.3691732694943],[0.578067322360999,51.3689487103538],[0.57878484012647,51.3689329155927],[0.578772220794054,51.3687083565304],[0.57948973436347,51.3686925574611],[0.579477111656837,51.3684679984773],[0.57911835672362,51.3684758985175],[0.579105735950714,51.3682513394802],[0.579823242114193,51.3682355383887],[0.579785370166536,51.3675618614835],[0.579426622474697,51.3675697624469],[0.579439244523579,51.3677943214687],[0.579080494898148,51.3678022213771],[0.578966901542212,51.3657811823026],[0.578608167715788,51.3657890808841],[0.578595548031224,51.3655645205882],[0.578954280096846,51.3655566220303],[0.578853314430628,51.3637601395612],[0.578135878306867,51.363775935198],[0.578123261856835,51.3635513748057],[0.578481978239973,51.3635434775611],[0.578469360193097,51.3633189171844],[0.578828074651945,51.3633110188632],[0.578714503754458,51.3612899753226],[0.578355805139771,51.3612978734308],[0.578330572484558,51.3608487525079],[0.577613181805515,51.3608645453293],[0.577625794530597,51.3610891058421],[0.576908399676335,51.3611048943102],[0.576933618576062,51.3615540154061],[0.575857514505511,51.3615776899987],[0.575870118919599,51.3618022506054],[0.575152711867368,51.3618180282135],[0.575177914144467,51.362267149497],[0.57374308399464,51.3622986916996],[0.573755678336513,51.3625232524235],[0.572679548726815,51.3625468975939],[0.57271731688819,51.363220579929],[0.572358601409918,51.3632284595226],[0.572346013619987,51.3630038987288],[0.571987299738973,51.3630117771986],[0.571999885768324,51.363236338016],[0.571641169963428,51.3632442154091],[0.571653754395516,51.3634687762418],[0.571295036666733,51.3634766525582],[0.571307619501513,51.3637012134064],[0.570590180032923,51.3637169627853],[0.570602759509691,51.3639415236724],[0.570244037769898,51.363949396735],[0.570231460053794,51.3637248358244],[0.569155299137334,51.3637484483401],[0.569167871571435,51.363973009321],[0.56845042662345,51.3639887455437],[0.568462995699326,51.3642133065633],[0.568104271219996,51.3642211730477],[0.568079136752749,51.3637720509534],[0.568796578505567,51.3637563169781],[0.568784007995284,51.3635317559657],[0.569501445574395,51.3635160176363],[0.569488871706,51.3632914566627],[0.569847588490226,51.363283585871],[0.569822437721811,51.3628344639465],[0.5701811508217,51.3628265921015],[0.57019372788488,51.3630511530444],[0.570552442582159,51.3630432800757],[0.570539863758407,51.3628187191563],[0.57089857653191,51.3628108451109],[0.570873415853075,51.3623617232949],[0.570514706600643,51.3623695972934],[0.570489550095843,51.3619204753982],[0.569772138143378,51.3619362200008],[0.569784712793193,51.3621607809993],[0.569067296667159,51.362176521248],[0.569079867959146,51.3624010822854],[0.568362447659656,51.3624168181801],[0.568375015593717,51.3626413792562],[0.567657591120885,51.3626571107969],[0.567670155696919,51.3628816719118],[0.566594012483353,51.3629052610413],[0.566606571940661,51.3631298222183],[0.565889138795595,51.3631455428502],[0.565901694894653,51.3633701040659],[0.565184257576672,51.3633858203435],[0.565196810317379,51.3636103815978],[0.56483808941001,51.3636182377345],[0.564863191891127,51.36406736034],[0.564504467049317,51.3640752150967],[0.564517016771499,51.3642997764335],[0.564158290003738,51.3643076301404],[0.564170838125972,51.3645321915161],[0.563453380575593,51.3645478957319],[0.563465925334823,51.3647724571951],[0.562748463606707,51.3647881571143],[0.562761005002833,51.3650127186651],[0.562043539097092,51.3650284142875],[0.562056077130017,51.3652529759259],[0.561338607046767,51.3652686672515],[0.561351141716389,51.3654932289773],[0.560992404667457,51.365501073041],[0.561004937736803,51.3657256348057],[0.560287459624373,51.3657413197346],[0.560299989330248,51.3659658815867],[0.559941248266766,51.3659737224519],[0.559953776372248,51.3661982843428],[0.559595033382872,51.3662061241581],[0.559607559887916,51.3664306860878],[0.55924881497264,51.3664385248531],[0.559261339877201,51.3666630868216],[0.558902593036021,51.366670924537],[0.558915116340054,51.3668954865442],[0.558556367572963,51.3669033232095],[0.558568889276422,51.3671278852555],[0.558210138583415,51.3671357208708],[0.558222656259663,51.3673602823552],[0.557863903498057,51.3673681168699],[0.557888933619911,51.3678172393261],[0.557530177110731,51.3678250727817],[0.557542690627034,51.3680496340187],[0.556825173532001,51.3680652976696],[0.556837683629751,51.3682898589401],[0.556120162293607,51.3683055182299],[0.556245236487852,51.3705511309157],[0.556604015155232,51.3705433016141],[0.556654056607222,51.3714415463848],[0.557012842277567,51.3714337158996],[0.55706289353049,51.3723319604613],[0.557421686204121,51.3723241287925],[0.557446716402238,51.3727732509846],[0.556729123722336,51.3727889133041],[0.556741635484223,51.3730134744297],[0.555306440982049,51.373044785942],[0.555318945740163,51.3732693471425],[0.553883741438638,51.3733006411246],[0.553896239192753,51.3735252023998],[0.552102221157589,51.3735642952121],[0.552114710115316,51.3737888565825],[0.550679485562189,51.3738201110998],[0.550691967515431,51.3740446725446],[0.549256733167213,51.3740759095306],[0.549269208115747,51.3743004710497],[0.547833958293002,51.3743316853971],[0.547846426477906,51.3745562471577],[0.546411157137276,51.3745874350628],[0.546423618607818,51.3748119970207],[0.544988339854323,51.374843167554],[0.545000794610284,51.3750677297092],[0.543924328724327,51.3750910962282],[0.543949228391052,51.3755402208329],[0.543590402652968,51.3755480076058],[0.543602850382654,51.3757725707144],[0.543244022750838,51.3757803564474],[0.54323157675524,51.3755557932804],[0.542872750697891,51.3755635778567],[0.542885194959395,51.375788141082],[0.542167538897729,51.3758037070565],[0.542179979850667,51.376028270388],[0.541821149846363,51.3760360517861],[0.541833589224783,51.3762606151654],[0.541474757326794,51.3762683955236],[0.541487195130652,51.3764929589507],[0.541128361338971,51.3765007382688],[0.541140797568222,51.3767253017437],[0.540781961882845,51.3767330800219],[0.540794396537444,51.3769576435445],[0.540435558958364,51.3769654207827],[0.540447992038267,51.3771899843531],[0.540089152565481,51.3771977605512],[0.540101584070642,51.3774223241694],[0.539742742704141,51.3774300993274],[0.539755172634516,51.3776546629934],[0.539396329374298,51.3776624371113],[0.53940875772984,51.3778870008251],[0.539049912575898,51.3778947739029],[0.539062339356566,51.3781193376644],[0.538703492308894,51.3781271097021],[0.53871591751464,51.3783516735114],[0.538357068573234,51.3783594445089],[0.538381915994207,51.3788085722124],[0.538023063424638,51.378816342228],[0.5380354856398,51.3790409061222],[0.53767663117646,51.3790486750977],[0.537689051816548,51.3792732390396],[0.538047908014356,51.3792654700059],[0.538072753241662,51.3797145977417],[0.538431612749138,51.3797068274931],[0.53845646208314,51.3801559550703],[0.538815324900342,51.3801481836068],[0.538827751541062,51.3803727473214],[0.538110022278141,51.3803882892666],[0.538122445609117,51.3806128530872],[0.537404712239611,51.3806283907549],[0.537417132260746,51.3808529546814],[0.536340525807876,51.380876253119],[0.536377771215415,51.3815499453595],[0.536736645396349,51.3815421801375],[0.536773897441938,51.3822158721089],[0.537132776667841,51.3822081056137],[0.537170035351949,51.3828817973158],[0.537528919622983,51.3828740295474],[0.537578607039246,51.3837722847701],[0.537937498090494,51.3837645156702],[0.537987247183163,51.384662807826],[0.539781730487829,51.3846239412775],[0.539794178013724,51.384848514733],[0.540870871067943,51.3848251812421],[0.540920682304017,51.3857234730716],[0.540561778236136,51.3857312526016],[0.540599133363524,51.3864049717507],[0.540958042333413,51.3863971917651],[0.540995403736322,51.3870709103055],[0.541354317455791,51.387063128772],[0.541416597683831,51.3881859919061],[0.541775519421393,51.3881782085209],[0.54180043584962,51.3886273533516],[0.541082585684942,51.3886429196373],[0.541095040859564,51.3888674923309],[0.54145396765249,51.3888597095824],[0.541478881728237,51.3893088546147],[0.541119951666732,51.3893166376671],[0.541132407299284,51.3895412103097],[0.541850270538265,51.3895256428087],[0.54186272959215,51.3897502151305],[0.54222166261695,51.3897424295896],[0.542234123457888,51.3899670017423],[0.541157319022337,51.3899903555437],[0.541144863084485,51.3897657829352],[0.540426995966209,51.3897813463704],[0.540439448635325,51.3900059192827],[0.540080513212889,51.3900136995136],[0.540092964400221,51.3902382725608],[0.539734027190796,51.3902460518512],[0.53977137676504,51.3909197713461],[0.539412434499716,51.3909275499997],[0.539437331709776,51.3913766965484],[0.539078386022895,51.3913844744132],[0.539065938976093,51.3911599009955],[0.538706994771178,51.391167677616],[0.538669659449394,51.3904939568054],[0.537951780388849,51.3905095058581],[0.537939338855468,51.3902849319168],[0.537580400730908,51.3902927046527],[0.537555521390334,51.3898435564156],[0.537196586382132,51.3898513277554],[0.537209024341806,51.3900759020343],[0.536850087546786,51.3900836724335],[0.536874960654537,51.3905328212439],[0.53543919887514,51.3905638931308],[0.535414338842858,51.3901147431062],[0.535773276247375,51.3901069770767],[0.535760844825296,51.3898824021907],[0.536119780443067,51.3898746352205],[0.536107347538937,51.3896500604692],[0.536825215048621,51.3896345235552],[0.536812779028127,51.3894099490905],[0.536094914787155,51.389425485701],[0.536045185303463,51.388527186458],[0.536404110962922,51.3885194193061],[0.536391677338594,51.3882948446046],[0.53675060121144,51.3882870765121],[0.53673816610524,51.3880625019454],[0.537097088191477,51.3880547329123],[0.537084651603448,51.3878301584804],[0.537443571903082,51.3878223885068],[0.537456010125309,51.3880469627869],[0.53781493190672,51.3880391915691]]],[[[0.568493887830865,51.3711825519236],[0.568506457488969,51.3714071121613],[0.568865238577415,51.3713992445674],[0.568877810168956,51.3716238047519],[0.569236592863326,51.3716159360152],[0.569198873271169,51.3709422555643],[0.568840095885714,51.3709501241699],[0.56885266714967,51.3711746843734],[0.568493887830865,51.3711825519236]]],[[[0.585516434275031,51.3800264716843],[0.585541753366768,51.3804755950082],[0.585900603222992,51.380467677498],[0.58592592665377,51.3809168008654],[0.58628478000296,51.380908882311],[0.586297443803336,51.3811334440186],[0.587374008328785,51.3811096818174],[0.587361339035076,51.380885120019],[0.588437896543515,51.3808613477843],[0.588475921412804,51.3815350334386],[0.589911351026168,51.3815033220213],[0.589949399394455,51.3821770079998],[0.590667124171458,51.3821611458434],[0.590654437550112,51.3819365837945],[0.591372157986612,51.3819207171585],[0.591334088153065,51.3812470308054],[0.590975233513028,51.3812549647662],[0.590924483433648,51.3803567163565],[0.590206788293526,51.3803725812051],[0.59018142159525,51.3799234570954],[0.589822577432962,51.3799313879229],[0.589797215074661,51.3794822638566],[0.589438374404839,51.3794901936397],[0.589425695310844,51.3792656316304],[0.589066856302527,51.379273560339],[0.589054179208896,51.3790489983556],[0.588336504345916,51.3790648525191],[0.588349177777731,51.3792894144421],[0.587990338261298,51.3792973398366],[0.588003010031566,51.3795219017252],[0.586567642949053,51.3795535921353],[0.586580307564823,51.3797781538987],[0.58622146354008,51.3797860737092],[0.586234126494133,51.380010635438],[0.585516434275031,51.3800264716843]]],[[[0.539734027190796,51.3902460518512],[0.539721577637858,51.3900214786521],[0.539362641910257,51.3900292566982],[0.539350194144266,51.3898046833303],[0.537914456246092,51.3898357839833],[0.537926897474549,51.3900603579586],[0.539003706030105,51.3900370336519],[0.539016152314241,51.3902616071547],[0.539734027190796,51.3902460518512]]],[[[0.630330509050459,51.3720590520148],[0.630317634927369,51.3718344889861],[0.629600092807513,51.3718505883987],[0.629574351714105,51.371401462655],[0.628856815624556,51.3714175579512],[0.628895417497788,51.3720912460921],[0.629254190626424,51.3720831992349],[0.629267059906094,51.3723077620261],[0.629625834542379,51.3722997141398],[0.629612963594762,51.3720751512695],[0.630330509050459,51.3720590520148]]],[[[0.625907548743576,51.357543065782],[0.627342217328501,51.3575108926082],[0.62736791271176,51.3579600092234],[0.627726582869317,51.3579519630088],[0.627688034910665,51.3572782883415],[0.626970704689543,51.3572943791258],[0.626945013704351,51.35684526225],[0.62658635176808,51.3568533058162],[0.626560664854376,51.3564041887055],[0.625843347330381,51.3564202721861],[0.625869027406375,51.3568693896632],[0.625510364980984,51.3568774299439],[0.625523203554155,51.3571019887547],[0.625881867689011,51.3570939483823],[0.625907548743576,51.357543065782]]],[[[0.615774380521398,51.3750829182454],[0.615812806139715,51.375756600813],[0.616171610206043,51.3757485958869],[0.616184421989621,51.3759731589142],[0.616902033097083,51.3759571456373],[0.616863590045876,51.3752834602084],[0.616145989062546,51.3752994731925],[0.61613317958408,51.3750749133362],[0.615774380521398,51.3750829182454]]],[[[0.602827559385167,51.3495141781531],[0.60211033980979,51.349530122058],[0.602123067457764,51.3497546863512],[0.603198901014727,51.3497307685617],[0.603173437041898,51.3492816405429],[0.603532044997887,51.349273665951],[0.603506578663242,51.3488245380729],[0.602789368487469,51.3488404857749],[0.602827559385167,51.3495141781531]]],[[[0.581627475640929,51.3875319832072],[0.582704196129969,51.3875082659081],[0.582716849423023,51.3877328309509],[0.583075757710519,51.38772492301],[0.583101068270951,51.3881740529879],[0.582742156497595,51.3881819610088],[0.582780118330646,51.3888556560265],[0.583856868849087,51.3888319283033],[0.583844209512886,51.3886073634267],[0.5845620388915,51.3885915395241],[0.58454937623224,51.3883669747183],[0.584190463367357,51.3883748871797],[0.584177802613993,51.3881503223247],[0.583818891329174,51.3881582336458],[0.583806232481658,51.3879336687416],[0.583447322776907,51.3879415789226],[0.583422009056349,51.3874924490064],[0.583063102674567,51.3875003580073],[0.583050447801454,51.3872757929953],[0.58233263803522,51.387291607617],[0.582319986810652,51.3870670425158],[0.582678890032308,51.387059135795],[0.582666237227696,51.3868345707245],[0.582307335748872,51.3868424774053],[0.582294684849879,51.3866179122857],[0.582653584585893,51.3866100056449],[0.582640932106895,51.386385440556],[0.582999829937343,51.3863775328552],[0.582987175878385,51.3861529677972],[0.582628279790701,51.386160875458],[0.582615627637306,51.3859363103507],[0.581897838459119,51.3859521222922],[0.581910487127025,51.3861766874795],[0.581551590960587,51.386184592434],[0.581564237991154,51.3864091575765],[0.580487545305922,51.3864328689653],[0.580512829093103,51.386881999156],[0.580871730412359,51.3868740964895],[0.580884374351134,51.3870986615897],[0.58160218008162,51.3870828529714],[0.581627475640929,51.3875319832072]]],[[[0.582074934621543,51.3890960340755],[0.582011682329695,51.387973208646],[0.580934951770476,51.3879969219356],[0.580947596541387,51.3882214870084],[0.580588684448229,51.3882293895969],[0.580563398664233,51.3877802594718],[0.579845581161578,51.3877960613894],[0.579870859762772,51.3882451914624],[0.580229772188682,51.3882372910816],[0.580267696725508,51.388910986189],[0.581344449166743,51.3888872785404],[0.58135709639921,51.3891118436042],[0.582074934621543,51.3890960340755]]],[[[0.579115127533869,51.3875872938731],[0.580191849149364,51.3875635959248],[0.580153927607475,51.3868899007187],[0.5794361241372,51.3869057005328],[0.579448760893587,51.387130265581],[0.579089857113381,51.3871381638193],[0.579115127533869,51.3875872938731]]],[[[0.565363726545031,51.3408976726994],[0.565413916645517,51.3417959583824],[0.565772465909242,51.34178809927],[0.565747367041121,51.3413389565757],[0.566105912648899,51.3413310964922],[0.566093361710796,51.3411065251915],[0.566451905409653,51.3410986640741],[0.566426800525489,51.3406495215659],[0.565709719953577,51.340665242453],[0.56572226882081,51.3408898138381],[0.565363726545031,51.3408976726994]]],[[[0.566105912648899,51.3413310964922],[0.566118463748978,51.341555667782],[0.56791119809309,51.3415163506004],[0.56788607858515,51.3410672086379],[0.56681044894654,51.34109080186],[0.566823003378581,51.3413153730351],[0.566105912648899,51.3413310964922]]],[[[0.566910888674596,51.3428873691709],[0.56688577787892,51.3424382281408],[0.566527223852166,51.3424460906957],[0.566514670449293,51.3422215201174],[0.5661561180117,51.3422293815261],[0.566143566435072,51.342004810329],[0.56578501558624,51.3420126706009],[0.565797565411838,51.3422372418371],[0.564721906723816,51.3422608162231],[0.564734451358083,51.3424853870203],[0.565093006122436,51.3424775299382],[0.565105552681699,51.3427021007004],[0.565464109108979,51.342694242488],[0.565476657581983,51.342918813192],[0.565835215598539,51.3429109538333],[0.565822665374031,51.3426863831777],[0.566181221476831,51.3426785227698],[0.566193773452842,51.3429030933769],[0.566910888674596,51.3428873691709]]],[[[0.557909369122682,51.3424098915397],[0.558626481107861,51.342394218095],[0.558613966516784,51.3421696467008],[0.56076528796126,51.3421225999004],[0.56075276275046,51.341898027707],[0.562904067891498,51.3418509417915],[0.562891532358227,51.3416263699566],[0.563967177503047,51.3416028123771],[0.563954636889611,51.3413782407161],[0.563596090417132,51.3413860942778],[0.563571013170412,51.3409369508005],[0.563929556148321,51.340929097362],[0.563917016020462,51.3407045256689],[0.564275557089291,51.3406966711952],[0.564300641001383,51.3411458144476],[0.565017729642623,51.3411301019638],[0.564980093533697,51.3404563874386],[0.565697171248289,51.3404406710571],[0.565684622704942,51.3402160996504],[0.566043159578082,51.3402082398807],[0.566030609449813,51.3399836685259],[0.56459646810059,51.3400151008504],[0.564621554535814,51.3404642440441],[0.563904476054456,51.3404799539649],[0.563866857127533,51.3398062387886],[0.563508322885652,51.3398140919192],[0.563445636646394,51.3386912327692],[0.563087110978198,51.3386990844952],[0.563074575962805,51.3384745125714],[0.558055224092205,51.3385843207258],[0.558067734648909,51.3388088935107],[0.557350678303025,51.3388245629663],[0.557363185527011,51.3390491358634],[0.557004655364861,51.3390569690076],[0.557017161003153,51.3392815419553],[0.556658628932499,51.3392893740643],[0.556683637198996,51.3397385200503],[0.557042172763963,51.3397306878185],[0.557092198222553,51.3406289794161],[0.557450740615019,51.3406211458419],[0.55750077564563,51.3415194370219],[0.557859324865908,51.3415116021052],[0.557909369122682,51.3424098915397]]],[[[0.531811540055076,51.3834473115048],[0.531848741631626,51.3841210193636],[0.532207636284245,51.384113267261],[0.532195223678697,51.3838886905509],[0.532554116545384,51.3838809375078],[0.532516922666454,51.3832072429694],[0.532158034432262,51.3832149954157],[0.532170430183183,51.383439560099],[0.531811540055076,51.3834473115048]]],[[[0.530462792319382,51.3850503595758],[0.530821690779121,51.3850426015127],[0.530796881005994,51.3845934456756],[0.530437987102472,51.3846012026324],[0.530450389612658,51.3848257811265],[0.530091493234493,51.384833537572],[0.530128695109838,51.3855072744452],[0.530487598322465,51.3854995163403],[0.530462792319382,51.3850503595758]]]]}}