{"type":"Feature","properties":{"code":"E63004441","name":"St Albans"},"geometry":{"type":"MultiPolygon","coordinates":[[[[-0.354489720645754,51.735337532284],[-0.354497868506346,51.7351128397607],[-0.354859751416241,51.7351179077677],[-0.354851605102873,51.735342600389],[-0.354843458694324,51.7355672929983],[-0.355205344793758,51.7355723600899],[-0.355197199837296,51.735797052785],[-0.35555908757905,51.7358021188632],[-0.355550944074716,51.7360268116442],[-0.355189054785673,51.736021745468],[-0.355180909638886,51.7362464381389],[-0.355172764396934,51.7364711307977],[-0.355164619059816,51.7366958234443],[-0.355526512990852,51.7367008899145],[-0.355518369105939,51.736925582647],[-0.355510225125876,51.7371502753674],[-0.355872122246722,51.7371553409221],[-0.355863979718925,51.7373800337284],[-0.356225878482211,51.7373850982696],[-0.356217737406722,51.7376097911618],[-0.356209596236121,51.7378344840418],[-0.356571498189314,51.7378395476675],[-0.356933400237495,51.7378446101816],[-0.356925262066746,51.7380693032455],[-0.357287165757381,51.738074364746],[-0.357649069542966,51.738079425135],[-0.357640934372158,51.7383041183827],[-0.358002839800183,51.7383091777582],[-0.357994706081872,51.7385338710917],[-0.358356613152342,51.7385389294535],[-0.35834848088657,51.7387636228728],[-0.358710389599489,51.738768680221],[-0.358702258786297,51.7389933737262],[-0.35906416914167,51.7389984300607],[-0.3590560397811,51.7392231236517],[-0.35941795177893,51.7392281789726],[-0.359409823871024,51.7394528726494],[-0.359771737511317,51.7394579269566],[-0.359763611056117,51.7396826207192],[-0.359755484505998,51.7399073144696],[-0.359747357860961,51.740132008208],[-0.360109276239071,51.7401370616973],[-0.360471194711989,51.740142114075],[-0.360479318261653,51.7399174201408],[-0.360487441716439,51.7396927261945],[-0.360849357188787,51.7396977772648],[-0.36085747900105,51.7394730832085],[-0.36086560071846,51.7392483891402],[-0.361227513190296,51.7392534389031],[-0.361589425756874,51.7392584875544],[-0.361581307134722,51.7394831818185],[-0.361943221343654,51.739488229456],[-0.361935104174343,51.7397129238059],[-0.362297020025633,51.7397179704297],[-0.362288904309204,51.7399426648653],[-0.362650821802856,51.7399477104753],[-0.362642707539352,51.7401724049966],[-0.363004626675371,51.7401774495928],[-0.362996513864832,51.7404021441999],[-0.363358434643222,51.7404071877823],[-0.36335032328569,51.7406318824751],[-0.363712245706457,51.7406369250436],[-0.363704135801974,51.7408616198222],[-0.364066059865121,51.7408666613768],[-0.364057951413729,51.7410913562411],[-0.364049842867661,51.7413160510932],[-0.364041734226915,51.7415407459332],[-0.364403663028086,51.7415457866696],[-0.36439555584051,51.7417704815954],[-0.364757486284114,51.7417755213179],[-0.365119416822282,51.7417805599287],[-0.365481347454992,51.7417855974278],[-0.365843278182227,51.7417906338151],[-0.365835177091495,51.7420153291199],[-0.366197109461113,51.7420203644933],[-0.366189003476983,51.7422450602448],[-0.366550937227205,51.7422500946144],[-0.366542823923554,51.7424747909402],[-0.366904759510098,51.7424798242733],[-0.366896647837066,51.7427045206642],[-0.366888536061195,51.742929217044],[-0.367250475217569,51.7429342494169],[-0.367242365072383,51.7431589458619],[-0.367604306065112,51.7431639771983],[-0.367596197550657,51.7433886737083],[-0.367958140379742,51.7433937040083],[-0.367950033496066,51.7436184005834],[-0.367941926509609,51.7438430971475],[-0.367933819420373,51.7440677937004],[-0.367571871390489,51.7440627631718],[-0.367563762464826,51.7442874596373],[-0.36720181280411,51.7442824279196],[-0.367193702041974,51.7445071242978],[-0.367185591177007,51.7447318206649],[-0.366823638151775,51.7447267876819],[-0.366815525450265,51.7449514839615],[-0.366453570794186,51.7449464497894],[-0.366445456256089,51.7451711459817],[-0.366083499969167,51.7451661106205],[-0.365721543785154,51.7451610741465],[-0.365359587704073,51.7451560365596],[-0.365351467861845,51.7453807325119],[-0.365343347916665,51.745605428453],[-0.364981388471023,51.7456003896007],[-0.364973266689098,51.7458250854544],[-0.364611305612646,51.745820045413],[-0.36460318199393,51.7460447411792],[-0.364241219286672,51.7460396999486],[-0.364233093831119,51.7462643956273],[-0.36422496827254,51.746489091295],[-0.363863002200624,51.7464840487988],[-0.363854874805138,51.7467087443789],[-0.363492907102402,51.7467037006936],[-0.363484777869965,51.7469283961862],[-0.3638467473066,51.746933439948],[-0.363838619705005,51.7471581355058],[-0.36347664853445,51.7471530916678],[-0.363468519095854,51.7473777871382],[-0.363106546294439,51.7473727421108],[-0.363098415018798,51.7475974374937],[-0.363090283640052,51.7478221328655],[-0.362728307473794,51.7478170865725],[-0.362720174257931,51.7480417818568],[-0.362358196460799,51.7480367343745],[-0.362350061407775,51.7482614295712],[-0.362341926251594,51.7484861247568],[-0.361979945089541,51.7484810760088],[-0.361971808096128,51.7487057711069],[-0.361609825303186,51.7487007211696],[-0.36161796403067,51.7484760261479],[-0.361255983075004,51.748470975174],[-0.361264123433331,51.7482462802177],[-0.361272263688432,51.7480215852501],[-0.36091028630406,51.7480165333162],[-0.360918428189938,51.7477918384139],[-0.36055645264281,51.7477867854435],[-0.360564596159418,51.7475620906065],[-0.36020262244953,51.7475570365996],[-0.360210767596824,51.747332341828],[-0.359848795724172,51.7473272867846],[-0.359856942502106,51.7471025920782],[-0.359494972466685,51.7470975359984],[-0.359503120875214,51.7468728413574],[-0.359141152677022,51.7468677842412],[-0.3591493027161,51.7466430896654],[-0.358787336355133,51.7466380315128],[-0.358425370097536,51.7466329722473],[-0.358433523500968,51.7464082778134],[-0.358795488024713,51.7464133370024],[-0.358803639590924,51.7461886424809],[-0.359165602484208,51.7461937004806],[-0.359173752213244,51.7459690058714],[-0.358811791053766,51.7459639479482],[-0.358449829997653,51.7459588889121],[-0.358087869044928,51.7459538287632],[-0.358079714114477,51.746178523143],[-0.357717751531359,51.7461734618048],[-0.35770959476367,51.7463981560969],[-0.357347630550163,51.7463930935693],[-0.357355789051675,51.7461683993537],[-0.357363947449728,51.745943705127],[-0.357001986807299,51.7459386416396],[-0.356640026268346,51.7459335770394],[-0.356648188030491,51.7457088829546],[-0.356286229328809,51.7457038173181],[-0.356294392721202,51.7454791232986],[-0.355932435856788,51.7454740566259],[-0.355570479095914,51.7454689888403],[-0.355562312236029,51.7456936827067],[-0.355924270730648,51.7456987505688],[-0.355916105500961,51.7459234445006],[-0.355907940167726,51.7461481384212],[-0.355545978205548,51.746143070406],[-0.355184016346938,51.746138001278],[-0.355175847442527,51.7463626950344],[-0.354813883953698,51.746357624717],[-0.354451920568483,51.7463525532867],[-0.354089957286906,51.7463474807436],[-0.354098131392742,51.746122787217],[-0.35373616994863,51.7461177136377],[-0.353744345684584,51.7458930201764],[-0.353382386077932,51.7458879455609],[-0.35339056344396,51.7456632521651],[-0.353398740706282,51.7454385587582],[-0.353036784670821,51.745433483183],[-0.35304496356315,51.7452087898415],[-0.353053142351755,51.7449840964889],[-0.353061321036636,51.7447594031251],[-0.352699370305952,51.744754326667],[-0.352337419679006,51.7447492490962],[-0.35197546915582,51.7447441704125],[-0.351967285269954,51.7449688635465],[-0.351605333116891,51.7449637836734],[-0.351613518736415,51.7447390906162],[-0.351621704252127,51.7445143975477],[-0.351259751624727,51.7445093180703],[-0.351267938753636,51.7442846250605],[-0.351629889664029,51.7442897044681],[-0.351638074972123,51.7440650113773],[-0.351646260176409,51.7438403182754],[-0.35200820366141,51.7438453977652],[-0.352016387028347,51.7436207045755],[-0.351654445276891,51.7436156251623],[-0.35166263027357,51.7433909320381],[-0.352024570291505,51.7433960113746],[-0.352032753450883,51.7431713181626],[-0.352394691839089,51.7431763963098],[-0.352402873161213,51.74295170301],[-0.352040936506486,51.7429466249394],[-0.352049119458313,51.7427219317051],[-0.351687184640807,51.7427168525984],[-0.351325245938659,51.7427117736345],[-0.351317059489074,51.7429364667336],[-0.351308872942447,51.7431611598199],[-0.350946929207027,51.7431560801393],[-0.350938740979625,51.7433807731011],[-0.350930552655158,51.7436054660502],[-0.350568605849312,51.7436003850348],[-0.350560415844005,51.7438250778593],[-0.350198467551465,51.7438199956211],[-0.350190275865276,51.744044688321],[-0.350182084081973,51.7442693810082],[-0.349820132718932,51.7442642974352],[-0.349811939254681,51.7444889899978],[-0.349803745693293,51.7447136825477],[-0.349441791259691,51.7447085976399],[-0.34943359601729,51.7449332900652],[-0.349425400677725,51.7451579824777],[-0.349063443173505,51.7451528962351],[-0.349055246152863,51.745377588523],[-0.3486932871619,51.7453725010573],[-0.348685088460136,51.7455971932207],[-0.348323127982433,51.7455921045319],[-0.348314927599505,51.7458167965706],[-0.348306727119344,51.7460414885966],[-0.348668690764977,51.7460465775091],[-0.348660491771579,51.7462712696342],[-0.34829852654195,51.7462661806098],[-0.347936561409539,51.7462610904743],[-0.347574596374369,51.7462559992275],[-0.347212631436457,51.7462509068696],[-0.346850666595825,51.7462458134004],[-0.346858873509189,51.7460211218347],[-0.346496910349845,51.7460160273663],[-0.346134947287818,51.7460109317866],[-0.345772984323131,51.7460058350957],[-0.345764772657807,51.7462305263257],[-0.345402808206495,51.7462254284117],[-0.345040843852564,51.7462203293865],[-0.344678879596033,51.7462152292501],[-0.344687096013302,51.745990538356],[-0.344325133438169,51.7459854372203],[-0.343963170960477,51.7459803349735],[-0.343601208580245,51.7459752316155],[-0.343239246297492,51.7459701271463],[-0.342877284112239,51.7459650215659],[-0.342869059775094,51.7461897119002],[-0.342507096103391,51.7461846050966],[-0.3424988700847,51.7464092953061],[-0.342490643968432,51.7466339855027],[-0.342482417754584,51.7468586756866],[-0.342844386178325,51.7468637828262],[-0.343206354699593,51.7468688888545],[-0.343568323318368,51.7468739937717],[-0.34356010175911,51.7470986842788],[-0.34392207205943,51.7471037881967],[-0.344284042457219,51.7471088910034],[-0.344646012952456,51.7471139926988],[-0.34500798354512,51.747119093283],[-0.344999768224678,51.7473437842252],[-0.345361740498837,51.7473488838101],[-0.345723712870385,51.7473539822838],[-0.345715500620728,51.7475786734371],[-0.346077474673756,51.7475837709115],[-0.346439448824134,51.7475888672746],[-0.346801423071842,51.7475939625264],[-0.34716339741686,51.747599056667],[-0.347155191406353,51.7478237482553],[-0.3475171674328,51.7478288413965],[-0.347508962909142,51.7480535330838],[-0.347870940617023,51.7480586252257],[-0.347862737580259,51.7482833170122],[-0.348224716969578,51.7482884081546],[-0.348216515419749,51.7485131000402],[-0.34857849649051,51.7485181901832],[-0.348570296427658,51.7487428821679],[-0.348208313772667,51.748737791913],[-0.347846331214912,51.7487327005469],[-0.347838127886326,51.7489573922951],[-0.34747614384158,51.7489522997057],[-0.347114159894113,51.748947206005],[-0.347105953299713,51.7491718975166],[-0.346743967865278,51.7491668025927],[-0.346735759589269,51.7493914939797],[-0.347097746607991,51.7493965890155],[-0.347459733724015,51.74940168294],[-0.347451528519281,51.7496263745381],[-0.347813517316898,51.7496314674631],[-0.34782172093732,51.7494067757532],[-0.348183708247888,51.749411867455],[-0.348175506211779,51.7496365592769],[-0.34816730407841,51.7498612510859],[-0.348529294654871,51.7498663419002],[-0.348891285328557,51.7498714316031],[-0.348883086266642,51.7500961236231],[-0.348874887107505,51.7503208156304],[-0.349236881047138,51.7503259044457],[-0.34922868381229,51.7505505947762],[-0.349220487523418,51.7507752808192],[-0.349212291122966,51.7509999668515],[-0.349204094610933,51.751224652873],[-0.349195897987318,51.7514493388838],[-0.348833894737466,51.7514442498353],[-0.348825696100664,51.7516689357676],[-0.348817497352251,51.7518936216893],[-0.34917950440533,51.7518987108731],[-0.349171307446954,51.7521233968516],[-0.349163110376987,51.7523480828194],[-0.349525121344962,51.752353171025],[-0.349516926065103,51.7525778570496],[-0.349508730673674,51.7528025430635],[-0.349500535170673,51.7530272290667],[-0.349862551955376,51.7530323163617],[-0.350224568851606,51.7530374025432],[-0.350232760551102,51.7528127164049],[-0.350594775657078,51.7528178014054],[-0.350586585859338,51.7530424876113],[-0.350948602978547,51.7530475715659],[-0.351310620209208,51.7530526544071],[-0.351302434103533,51.7532773407375],[-0.351664452780613,51.7532824225109],[-0.351656268486762,51.7535071088855],[-0.351648084086408,51.753731795252],[-0.352010104899738,51.7537368758666],[-0.352001922185848,51.7539615622333],[-0.352363944898604,51.7539666417399],[-0.352355763871227,51.7541913281067],[-0.352347582737388,51.7544160144655],[-0.352709609142593,51.7544210928724],[-0.352717788483413,51.7541964065054],[-0.352725967717794,51.7539717201304],[-0.352734146845739,51.7537470337474],[-0.352742325867249,51.7535223473563],[-0.353104345206924,51.7535274246142],[-0.353112522329075,51.7533027382068],[-0.353474539982203,51.7533078143404],[-0.353836557741691,51.7533128893577],[-0.354198575607514,51.753317963259],[-0.354206747244533,51.753093276819],[-0.35384473117162,51.753088202926],[-0.353852904495189,51.7528635164861],[-0.353861077712402,51.7526388300382],[-0.353869250823259,51.7524141435822],[-0.354231261517581,51.7524192174508],[-0.354239432729269,51.7521945309786],[-0.354247603834628,51.7519698444984],[-0.354609611049641,51.7519749172345],[-0.354617780255902,51.751750230738],[-0.354979785784419,51.7517553023499],[-0.355341791419189,51.7517603728456],[-0.355333625798478,51.7519850593584],[-0.355695633332255,51.7519901287462],[-0.355687469398088,51.752214815259],[-0.356049478830876,51.7522198835388],[-0.356411488369849,51.7522249507024],[-0.356773498014986,51.75223001675],[-0.357135507766263,51.7522350816814],[-0.357127350897176,51.7524597682186],[-0.357489362547403,51.7524648320419],[-0.357851374303725,51.7524698947492],[-0.357843220914209,51.7526945812944],[-0.357835067418595,51.7529192678317],[-0.357473052076533,51.7529142051083],[-0.357464896681914,51.7531388916294],[-0.357102879653047,51.7531338277817],[-0.357094722359375,51.7533585142867],[-0.356732703643708,51.7533534493148],[-0.356724544450937,51.7535781358036],[-0.35671638515199,51.7538028222843],[-0.357078407453577,51.7538078872724],[-0.357440429861293,51.7538129511442],[-0.357432274042159,51.7540376376331],[-0.357070249841446,51.7540325737531],[-0.35706209212316,51.7542572602258],[-0.356700066235561,51.7542521952216],[-0.356708225746865,51.754027508757],[-0.356346201758439,51.7540224426446],[-0.356354362956556,51.7537977561801],[-0.356362524048472,51.7535730697075],[-0.356000503752182,51.7535680024951],[-0.35563848356209,51.7535629341666],[-0.355276463478217,51.753557864722],[-0.355268297007403,51.7537825511702],[-0.35563031888424,51.753787620623],[-0.355622154100142,51.7540123070714],[-0.355260130430318,51.7540072376104],[-0.35525196374696,51.7542319240426],[-0.354889938390375,51.7542268534573],[-0.354881769807711,51.7544515398733],[-0.354873601118746,51.7546762262812],[-0.354865432323479,51.754900912681],[-0.354503401694006,51.7548958409551],[-0.354495230999336,51.7551205273387],[-0.354133198683066,51.7551154544884],[-0.353771166473124,51.7551103805219],[-0.353409134369531,51.7551053054391],[-0.353417310443491,51.7548806190799],[-0.353425486411054,51.7546559327128],[-0.353063457999998,51.7546508565301],[-0.353055280239365,51.7548755428891],[-0.353047102372312,51.7551002292401],[-0.352685070481489,51.7550951519248],[-0.352676890714899,51.7553198382595],[-0.353038924398837,51.755324915583],[-0.353030746318937,51.7555496019178],[-0.353392781902413,51.7555546781332],[-0.353384605509251,51.7557793644681],[-0.353376429009685,51.756004050795],[-0.35373846828589,51.7560091259105],[-0.353730293473129,51.7562338122375],[-0.353722118553985,51.7564584985564],[-0.353713943528453,51.7566831848673],[-0.353351898872544,51.7566781097273],[-0.353343721947343,51.756902796022],[-0.352981675604541,51.7568977197575],[-0.352973496779623,51.7571224060359],[-0.352611448749931,51.7571173286469],[-0.352603268025252,51.7573420149091],[-0.352965317848268,51.7573470923063],[-0.352957138810472,51.7575717785685],[-0.352595087194108,51.7575667011632],[-0.352586906256499,51.7577913874092],[-0.352224852953206,51.7577863088793],[-0.351862799756379,51.7577812292331],[-0.351870984280724,51.7575565430034],[-0.351879168698558,51.7573318567658],[-0.352241218308673,51.7573369363956],[-0.352249400826676,51.7571122501416],[-0.35188735300988,51.75710717052],[-0.351525304830966,51.7571020896535],[-0.351533490929423,51.7568774034383],[-0.351171441253659,51.7568723205618],[-0.350809391689355,51.7568672365717],[-0.350801201786499,51.7570919226517],[-0.350439150431483,51.7570868374804],[-0.350430958514895,51.7573115234821],[-0.350793011772132,51.757316608721],[-0.350784821646251,51.7575412947796],[-0.350776631408856,51.7577659808274],[-0.3511386885821,51.7577710650879],[-0.351500745866812,51.7577761482347],[-0.351492559322494,51.758000834407],[-0.351854615125519,51.7580059154546],[-0.352216670115737,51.7580109951091],[-0.352208487171776,51.7582356813308],[-0.352570544061877,51.7582407598771],[-0.352562362804861,51.758465446099],[-0.352554181441372,51.7586901323128],[-0.352192120964369,51.75868505375],[-0.35218393762342,51.7589097400009],[-0.352175754065319,51.7591344263185],[-0.352167570400492,51.7593591126264],[-0.35180550464183,51.7593540328335],[-0.351797319071757,51.7595787190875],[-0.35178913339493,51.7598034053317],[-0.351427062077864,51.7597983237069],[-0.351418874328056,51.760023009854],[-0.35141068646625,51.7602476959907],[-0.351402498492446,51.760472382117],[-0.351040418300468,51.7604672982112],[-0.351032228300825,51.7606919842668],[-0.351024038189155,51.760916670312],[-0.350661954281484,51.7609115851715],[-0.3506537621439,51.761136271146],[-0.350291676434376,51.7611311848311],[-0.350283482270829,51.7613558707348],[-0.350275287995201,51.7615805566282],[-0.349913198569899,51.7615754690786],[-0.349905002268232,51.7618001549012],[-0.349542911041065,51.7617950661771],[-0.349534712713311,51.7620197519289],[-0.34952651427342,51.7622444376704],[-0.349164419330392,51.7622393477115],[-0.349156218864338,51.7624640333822],[-0.348794122119432,51.7624589422488],[-0.348785919627166,51.7626836278487],[-0.348423821080384,51.7626785355408],[-0.348415616561857,51.76290322107],[-0.348053516213206,51.7628981275875],[-0.348045309668369,51.7631228130459],[-0.347683207517852,51.7631177183889],[-0.347674998946656,51.7633424037765],[-0.347312894994278,51.763337307945],[-0.347304684396675,51.7635619932617],[-0.34694257864244,51.7635568962556],[-0.34658047300051,51.7635517981352],[-0.346218367470911,51.7635466989007],[-0.345856262053668,51.7635415985519],[-0.345848043687141,51.7637662836167],[-0.345839825208217,51.763990968671],[-0.345477716075026,51.7639858670872],[-0.345469495569502,51.7642105520706],[-0.345107384634522,51.7642054493121],[-0.345099162102349,51.7644301342247],[-0.345090939457722,51.7646548191269],[-0.344728824806713,51.7646497151333],[-0.344366710268169,51.7646446100255],[-0.34435848368255,51.7648692947963],[-0.343996367342231,51.7648641885138],[-0.343988138729816,51.7650888732137],[-0.343626020587726,51.7650837657564],[-0.343617789948465,51.7653084503855],[-0.343609559196646,51.7655331350041],[-0.343247437338455,51.7655280263116],[-0.343239204559714,51.7657527108593],[-0.343230971668387,51.7659773953966],[-0.343222738664471,51.7662020799234],[-0.343214505547965,51.7664267644398],[-0.343206272318865,51.7666514489458],[-0.343198038977171,51.7668761334414],[-0.343560172321894,51.7668812424968],[-0.343922305779177,51.7668863504378],[-0.344284439348996,51.7668914572646],[-0.344276211638234,51.7671161419311],[-0.344638347235076,51.767121247704],[-0.344630121010964,51.767345932588],[-0.344992258368405,51.7673510372295],[-0.344984033625221,51.7675757221003],[-0.344975808782644,51.7678004069649],[-0.345337949492877,51.7678055104261],[-0.345700090302473,51.7678106127689],[-0.345691868613977,51.7680352975655],[-0.345329726177642,51.7680301952536],[-0.345321502763032,51.7682548800748],[-0.345313279249044,51.7684795648897],[-0.345675424938923,51.7684846671398],[-0.345667202952361,51.7687093519176],[-0.346029350368394,51.7687144530184],[-0.346391497883756,51.7687195530006],[-0.346383279051492,51.7689442377103],[-0.346745428292993,51.7689493365431],[-0.347107577633783,51.7689544342573],[-0.34746972707384,51.768959530853],[-0.347461513022822,51.7691842154638],[-0.347823664188985,51.76918931091],[-0.347815451665593,51.7694139954836],[-0.347453298872551,51.7694089000683],[-0.347445084623024,51.7696335846666],[-0.34743687027424,51.7698582692586],[-0.347428655826198,51.7700829538443],[-0.347066498251644,51.7700778574031],[-0.347058282077377,51.7703025420134],[-0.346696122975137,51.7702974444845],[-0.346687905074602,51.7705221291195],[-0.34667968707476,51.7707468137481],[-0.346317524817832,51.7707417151624],[-0.346309305091655,51.7709663998156],[-0.345947141307026,51.7709613001421],[-0.34593891985447,51.7711859848199],[-0.34593069830256,51.7714106694915],[-0.345568531363166,51.7714055687611],[-0.345560308084809,51.7716302534572],[-0.345552084707073,51.7718549381471],[-0.345189914612855,51.7718498363597],[-0.345181689508607,51.7720745210741],[-0.345173464304952,51.7722992057823],[-0.345535637653451,51.772304307508],[-0.345527413977562,51.772528992179],[-0.345519190202285,51.7727536768438],[-0.34551096632762,51.7729783615023],[-0.345148788097539,51.7729732598692],[-0.345140562496244,51.7731979445523],[-0.345132336795536,51.773422629229],[-0.344770155410361,51.7734175265389],[-0.344778382738328,51.7731928418313],[-0.344416203079837,51.7731877379915],[-0.344407974124614,51.77341242273],[-0.344399745069932,51.7736371074622],[-0.344391515915789,51.7738617921881],[-0.344383286662183,51.7740864769078],[-0.344375057309113,51.7743111616211],[-0.344366827856577,51.7745358463282],[-0.344358598304572,51.7747605310291],[-0.344720789354313,51.7747656346529],[-0.344712561330248,51.7749903193166],[-0.345074754106835,51.7749954217908],[-0.345066527610752,51.7752201064174],[-0.34542872211419,51.7752252077419],[-0.345420497146132,51.7754498923314],[-0.345782693376425,51.7754549925062],[-0.345774472781484,51.7756796781973],[-0.345766252472428,51.7759043640365],[-0.34540405273198,51.7758992638268],[-0.345395830593726,51.7761239496528],[-0.345033629231755,51.7761188483206],[-0.345025405264257,51.7763435341334],[-0.344663202280766,51.7763384316787],[-0.34465497648398,51.7765631174782],[-0.344646750583284,51.7767878032698],[-0.344284544252852,51.7767826996873],[-0.344276316522798,51.7770073854657],[-0.343914108570831,51.7770022807606],[-0.343922338026329,51.7767775949875],[-0.343560131903737,51.7767724891705],[-0.343568362980697,51.7765478033948],[-0.343206158687477,51.7765426964659],[-0.343214391385854,51.7763180106877],[-0.342852188922,51.7763129026469],[-0.342860423241748,51.7760882168661],[-0.342498222607258,51.7760831077134],[-0.34250645854833,51.77585842193],[-0.342514694385362,51.7756337361388],[-0.342152497305553,51.7756286258796],[-0.342160735549001,51.7754039404105],[-0.342168975164092,51.7751792555436],[-0.341806781556179,51.7751741441497],[-0.341815022699086,51.7749494592458],[-0.341452830818195,51.7749443467023],[-0.341461073488873,51.7747196617613],[-0.341098883335002,51.7747145480683],[-0.341107127533408,51.7744898630903],[-0.340744939106552,51.7744847482477],[-0.340753184832643,51.7742600632326],[-0.340390998132797,51.7742549472405],[-0.34039924538653,51.7740302621884],[-0.340037060413691,51.7740251450468],[-0.339674875540554,51.7740200267863],[-0.339312690767141,51.774014907407],[-0.338950506093472,51.774009786909],[-0.338588321519569,51.7740046652922],[-0.338580066129238,51.7742293504978],[-0.338217880027807,51.7742242277929],[-0.337855694026183,51.7742191039692],[-0.337493508124389,51.7742139790267],[-0.337131322322446,51.7742088529655],[-0.336769136620373,51.7742037257854],[-0.336406951018194,51.7741985974866],[-0.336398685764057,51.7744232828699],[-0.336390420409977,51.7746479682469],[-0.336028231653035,51.7746428388905],[-0.335666042996031,51.7746377084154],[-0.335303854438984,51.7746325768214],[-0.335295584102853,51.774857262284],[-0.334933394018421,51.7748521296018],[-0.334571209391069,51.7748469980318],[-0.334579482978965,51.7746223125081],[-0.334587756460119,51.7743976269754],[-0.334596029834536,51.7741729414335],[-0.33495820960881,51.7741780731033],[-0.334966481272209,51.7739533875912],[-0.334974752835581,51.7737287020729],[-0.33461257626316,51.7737235703223],[-0.334620849317372,51.7734988847531],[-0.334629122264852,51.7732741991747],[-0.334266950646376,51.7732690669152],[-0.334275225260463,51.7730443813596],[-0.334283499767799,51.7728196957948],[-0.333921331802687,51.7728145624833],[-0.333929607976563,51.7725898769413],[-0.333567441891475,51.7725847425457],[-0.333575719731843,51.7723600570265],[-0.333583997465421,51.7721353714982],[-0.333221835033591,51.7721302360506],[-0.332859672708539,51.7721250994872],[-0.332497510490288,51.7721199618079],[-0.332135348378862,51.7721148230128],[-0.3321436330985,51.771890137603],[-0.331781472867129,51.771884997724],[-0.331773186374284,51.7721096831018],[-0.331764899774533,51.7723343684704],[-0.331402736103596,51.7723292274117],[-0.331394447623686,51.7725539127392],[-0.331032282286393,51.7725487705326],[-0.330670117056019,51.7725436272101],[-0.330661824922633,51.7727683124646],[-0.330299658025932,51.7727631679943],[-0.330307951932589,51.7725384827718],[-0.329945786916124,51.7725333372176],[-0.329954082489024,51.7723086520179],[-0.329962377954901,51.7720839668092],[-0.329600216591889,51.7720788202031],[-0.329608513723941,51.7718541350172],[-0.329616810748951,51.7716294498222],[-0.329254653039314,51.7716243021643],[-0.329262951730432,51.7713996169922],[-0.329271250314489,51.7711749318109],[-0.32890909625815,51.7711697831012],[-0.328900795900969,51.7713944682505],[-0.328538640178554,51.771389318393],[-0.328530337941144,51.7716140035011],[-0.328168180552658,51.7716088524957],[-0.328159876434972,51.7718335375626],[-0.327797717380418,51.7718283854094],[-0.327789411382409,51.7720530704352],[-0.327427250661791,51.772047917134],[-0.327418942783414,51.7722726021186],[-0.327056780396736,51.7722674476696],[-0.327048470637944,51.7724921326129],[-0.326686306585208,51.772486977016],[-0.326677994945955,51.7727116619181],[-0.326315829227166,51.7727065051732],[-0.326307515707405,51.7729311900341],[-0.325945348322566,51.7729260321413],[-0.325937032922252,51.773150716961],[-0.325574863871366,51.7731455579202],[-0.325212694927752,51.7731403977634],[-0.325204375873524,51.7733650825098],[-0.324842205263891,51.7733599212051],[-0.324833884328996,51.7735846059102],[-0.324471712053349,51.7735794434574],[-0.32446338923774,51.7738041281212],[-0.324101215296082,51.7737989645205],[-0.323739041461793,51.7737937998038],[-0.323730714992048,51.7740184843942],[-0.323368539491777,51.7740133185294],[-0.323360211141204,51.7742380030785],[-0.322998033974953,51.7742328360657],[-0.323006364098922,51.7740081515488],[-0.323014694115411,51.7737834670227],[-0.323023024024426,51.7735587824875],[-0.322660852285727,51.7735536144553],[-0.322669183860592,51.7733289299431],[-0.322677515327962,51.7731042454218],[-0.32268584668784,51.7728795608914],[-0.322694177940226,51.7726548763518],[-0.322702509085123,51.7724301918031],[-0.322710840122533,51.7722055072453],[-0.322719171052457,51.7719808226783],[-0.322727501874898,51.7717561381022],[-0.322735832589857,51.7715314535169],[-0.322373676917679,51.7715262846585],[-0.322382009298272,51.7713016000963],[-0.322390341571363,51.7710769155249],[-0.322752493697336,51.771082084319],[-0.323114645930748,51.7710872519973],[-0.323122974550203,51.7708625673525],[-0.32348512511796,51.7708677338828],[-0.323847275793106,51.7708728992974],[-0.324209426575619,51.7708780635961],[-0.324571577465477,51.7708832267791],[-0.324579898885278,51.7706585419965],[-0.324942048109402,51.7706637040316],[-0.324950367648814,51.7704390192077],[-0.325312515207201,51.7704441800949],[-0.32532083286627,51.7702194952298],[-0.325682978758915,51.7702246549691],[-0.325691294537687,51.7699999700627],[-0.326053438764589,51.7700051286541],[-0.326061752663111,51.7697804437066],[-0.326423895224263,51.7697856011501],[-0.326786037892612,51.7697907574779],[-0.326794348137982,51.7695660724571],[-0.326802658276143,51.7693413874271],[-0.326810968307096,51.7691167023879],[-0.326448830957525,51.7691115461564],[-0.326440519153668,51.7693362311634],[-0.326078380138387,51.7693310737841],[-0.325716241230322,51.769325915289],[-0.325354102429497,51.7693207556781],[-0.325345785199644,51.7695454405798],[-0.324983644733163,51.7695402798211],[-0.324621504373968,51.7695351179467],[-0.324259364122084,51.7695299549565],[-0.324251041466111,51.7697546397526],[-0.324242718702766,51.7699793245396],[-0.323880575012319,51.7699741603694],[-0.323518431429234,51.7699689950835],[-0.323156287953531,51.7699638286818],[-0.323164616035748,51.7697391439913],[-0.323172944010523,51.7695144592917],[-0.32281080418811,51.7695092918386],[-0.322819133828352,51.769284607162],[-0.32245699588627,51.7692794386253],[-0.322465327191933,51.7690547539718],[-0.322473658390114,51.768830069309],[-0.322481989480813,51.7686053846372],[-0.322490320464034,51.7683806999562],[-0.322498651339777,51.7681560152661],[-0.322506982108046,51.7679313305669],[-0.32251531276884,51.7677066458585],[-0.322877438301232,51.7677118141699],[-0.322885767081834,51.7674871294202],[-0.322523643322163,51.7674819611409],[-0.322531973768016,51.7672572764143],[-0.322169851888471,51.7672521070516],[-0.322178184945987,51.7670274226918],[-0.322186518693575,51.7668027386125],[-0.322194852341063,51.7665780545268],[-0.321832735515249,51.7665728840125],[-0.321824400255467,51.7667975681234],[-0.32146228191745,51.7667923965159],[-0.321453944945236,51.7670170806453],[-0.321091825095017,51.7670119079447],[-0.321083486894646,51.7672365922697],[-0.321445608451763,51.7672417649793],[-0.32180773011638,51.7672469365733],[-0.321799396125137,51.7674716212356],[-0.321791062026379,51.7676963058887],[-0.321782727820103,51.7679209905327],[-0.321774393506307,51.7681456751676],[-0.322136522369313,51.7681508457747],[-0.322128189720781,51.7683755304326],[-0.322119856964749,51.7686002150814],[-0.322111524101215,51.768824899721],[-0.322103191130178,51.7690495843516],[-0.322094858051634,51.7692742689729],[-0.322086524865582,51.7694989535852],[-0.322078191572021,51.7697236381883],[-0.322069858170949,51.7699483227823],[-0.322061524662363,51.7701730073671],[-0.322053191046262,51.7703976919428],[-0.322044857322645,51.7706223765094],[-0.322036523491508,51.7708470610668],[-0.321674373353543,51.7708418900733],[-0.321312223323084,51.770836717964],[-0.321303885838301,51.7710614024479],[-0.32094173414231,51.7710562291906],[-0.320579582553873,51.7710510548176],[-0.320571241415357,51.7712757392279],[-0.320209088161417,51.7712705637068],[-0.319846935015076,51.7712653870699],[-0.319484781976361,51.7712602093172],[-0.319122629045293,51.7712550304487],[-0.318760476221895,51.7712498504644],[-0.318752126110268,51.7714745347043],[-0.319114280706761,51.7714797147209],[-0.319105932260518,51.7717043989839],[-0.318743775890907,51.771699218935],[-0.318735425563809,51.7719239031566],[-0.318373267528755,51.7719187219597],[-0.318364915320757,51.7721434061399],[-0.318356563004995,51.7723680903109],[-0.317994401916826,51.7723629082531],[-0.317986047711523,51.7725875923871],[-0.317623885114792,51.772582409327],[-0.317261722627279,51.7725772251515],[-0.317253364703765,51.7728019091924],[-0.316891200521009,51.7727967238597],[-0.316882840683702,51.7730214078493],[-0.316874480737088,51.7732460918293],[-0.316512313054561,51.7732409052977],[-0.316150145481327,51.7732357176506],[-0.316141781816296,51.7734604015374],[-0.31577961254783,51.7734552127332],[-0.315771246968866,51.7736798965686],[-0.316133418041905,51.7736850854147],[-0.316125054158154,51.7739097692824],[-0.315762881280517,51.7739045803946],[-0.315754515482783,51.7741292642109],[-0.315746149575659,51.7743539480177],[-0.315383973198109,51.7743487579307],[-0.315021796929932,51.7743435667283],[-0.314659620771153,51.7743383744104],[-0.314667992092197,51.774113690729],[-0.314305817847476,51.7741084973375],[-0.314297444721795,51.774333180977],[-0.313935268781882,51.7743279864281],[-0.313573092951436,51.7743227907638],[-0.313581469686385,51.7740981072079],[-0.313219295770062,51.77409291047],[-0.313210917230483,51.7743175939839],[-0.312848741619045,51.7743123960886],[-0.312840361165259,51.7745370795512],[-0.312478183858708,51.7745318804985],[-0.312469801490668,51.7747565639096],[-0.312461419013024,51.7749812473111],[-0.31209923820667,51.7749760470592],[-0.3120908538147,51.7752007304092],[-0.31172867131322,51.7751955289999],[-0.311720285006877,51.7754202122985],[-0.311358100810274,51.7754150097318],[-0.31134971256027,51.7756396929746],[-0.31134132418861,51.775864376206],[-0.310979136517403,51.775859172441],[-0.310970746246433,51.7760838556214],[-0.310608556893926,51.7760786506995],[-0.310600164723597,51.776303333829],[-0.310591772444207,51.7765280169489],[-0.310229579620061,51.7765228108286],[-0.310237973689793,51.77629812775],[-0.309875782765035,51.7762929205555],[-0.309513591949347,51.7762877122455],[-0.309151401242751,51.7762825028198],[-0.308789210645272,51.7762772922786],[-0.308797611767175,51.7760526093562],[-0.309159800574343,51.776057819856],[-0.309168199796781,51.7758331368826],[-0.309176598910068,51.7756084538997],[-0.309538784245794,51.775613663201],[-0.309900969690608,51.7756188713868],[-0.310263155244485,51.7756240784571],[-0.310271548878413,51.7753993953386],[-0.3102799424037,51.7751747122078],[-0.310642124466573,51.7751799180791],[-0.3106505160774,51.7749552348967],[-0.311012696445248,51.7749604396105],[-0.311021086141664,51.7747357563766],[-0.311029475728381,51.7745110731331],[-0.311391652596535,51.7745162766477],[-0.311400040268911,51.7742915933527],[-0.311762215442055,51.7742967957099],[-0.311770601200139,51.7740721123634],[-0.312132774678267,51.7740773135633],[-0.312141158522106,51.7738526301653],[-0.312503330305216,51.7738578302078],[-0.312511712234856,51.7736331467584],[-0.312873882322944,51.7736383456436],[-0.312882262338431,51.7734136621427],[-0.313244430731494,51.7734188598706],[-0.313252808832876,51.7731941763183],[-0.31361497553091,51.7731993728888],[-0.313623351718232,51.7729746892851],[-0.313985516721232,51.7729798846984],[-0.313993890994543,51.7727552010432],[-0.314002265158361,51.7725305173785],[-0.313640103764322,51.7725253220489],[-0.31327794247976,51.7725201256039],[-0.312915781304698,51.7725149280435],[-0.312924160772353,51.7722902444947],[-0.312932540130448,51.7720655609364],[-0.312570382673765,51.7720603623443],[-0.312562001511254,51.7722850458608],[-0.312199842359699,51.7722798461114],[-0.312191459283166,51.7725045295765],[-0.311829298436744,51.7724993286698],[-0.311820913446143,51.7727240120834],[-0.311458750904858,51.7727188100195],[-0.311096588473192,51.7727136068402],[-0.310734426151169,51.7727084025454],[-0.310372263938812,51.7727031971353],[-0.310010101836144,51.7726979906098],[-0.309647939843191,51.7726927829688],[-0.309285777959973,51.7726875742125],[-0.308923616186516,51.7726823643407],[-0.308561454522842,51.7726771533535],[-0.308199292968976,51.772671941251],[-0.30783713152494,51.772666728033],[-0.307474970190757,51.7726615136996],[-0.307112808966453,51.7726562982509],[-0.30675064785205,51.7726510816867],[-0.306388486847571,51.7726458640071],[-0.30602632595304,51.7726406452122],[-0.305664165168481,51.7726354253018],[-0.305302004493916,51.772630204276],[-0.304939843929369,51.7726249821349],[-0.304577683474865,51.7726197588783],[-0.304215523130426,51.7726145345064],[-0.304207100136491,51.7728392170287],[-0.303844938097699,51.7728339914993],[-0.30383651318917,51.7730586739699],[-0.30347434945603,51.7730534472829],[-0.303465922632861,51.7732781297019],[-0.303457495699513,51.7735028121112],[-0.303449068655982,51.7737274945109],[-0.303440641502268,51.7739521769011],[-0.303078470661192,51.7739469489303],[-0.303070041592714,51.7741716312688],[-0.302707869057232,51.7741664021405],[-0.302699438073946,51.7743910844272],[-0.302337263844062,51.7743858541413],[-0.302328830945919,51.7746105363764],[-0.301966655021637,51.7746053049329],[-0.301604479207602,51.774600072374],[-0.301596042589915,51.7748247545151],[-0.301233865256702,51.7748195207099],[-0.300871688043745,51.7748142857835],[-0.300509510939463,51.7748090497419],[-0.300501068906165,51.7750337317313],[-0.300138890141146,51.7750284945277],[-0.299776711484849,51.7750232562088],[-0.299414532937299,51.7750180167747],[-0.299052354498517,51.7750127762252],[-0.298690176168526,51.7750075345606],[-0.29832799794735,51.7750022917806],[-0.297965819835011,51.7749970478854],[-0.297603641831532,51.7749918028749],[-0.297612098020255,51.7747671212594],[-0.297249921895079,51.7747618751805],[-0.297258379744277,51.774537193602],[-0.2968962054974,51.7745319464546],[-0.296904665007028,51.7743072649131],[-0.296913124407692,51.7740825833618],[-0.296921583699395,51.7738579018006],[-0.296559414869484,51.7738526536784],[-0.296567875821527,51.7736279721542],[-0.29657633666459,51.7734032906203],[-0.296584797398675,51.7731786090765],[-0.296593258023782,51.772953927523],[-0.296601718539914,51.7727292459596],[-0.296610178947073,51.7725045643864],[-0.29661863924526,51.7722798828034],[-0.296256482908896,51.7722746338936],[-0.296264944867251,51.7720499523475],[-0.296273406716616,51.7718252707917],[-0.296281868456991,51.7716005892261],[-0.295919717536915,51.7715953393416],[-0.295928180937369,51.7713706578129],[-0.295936644228816,51.7711459762745],[-0.295945107411255,51.7709212947262],[-0.295582961907272,51.770916043867],[-0.295591426749701,51.7706913623558],[-0.295229283123698,51.7706861104283],[-0.295237749626072,51.7704614289541],[-0.294875607878045,51.7704561759584],[-0.294884076040316,51.7702314945212],[-0.294521936170262,51.7702262404573],[-0.294530405992385,51.7700015590571],[-0.294168268000298,51.769996303925],[-0.293806130117283,51.7699910476778],[-0.293443992343363,51.7699857903156],[-0.29308185467856,51.7699805318383],[-0.292719717122897,51.7699752722459],[-0.292728195680387,51.7697505910703],[-0.292736674128673,51.7695259098848],[-0.292745152467758,51.7693012286896],[-0.292753630697644,51.7690765474845],[-0.292762108818333,51.7688518662696],[-0.29239998021603,51.7688466057967],[-0.292408459996294,51.7686219246189],[-0.292416939667341,51.7683972434312],[-0.292425419229174,51.7681725622338],[-0.292433898681793,51.7679478810265],[-0.292071777263601,51.7679426196262],[-0.292080258375686,51.767717938456],[-0.292088739378538,51.767493257276],[-0.292097220272161,51.7672685760862],[-0.292105699665345,51.7670438952256],[-0.292114177401792,51.7668192147322],[-0.292122655031489,51.7665945342282],[-0.292131132554436,51.7663698537136],[-0.292139609970637,51.7661451731885],[-0.292148087280093,51.7659204926528],[-0.292156564482806,51.7656958121066],[-0.292165041578778,51.7654711315497],[-0.29217351856801,51.7652464509823],[-0.291811417964496,51.7652411891824],[-0.291819896562649,51.7650165086674],[-0.291828375054043,51.7647918281417],[-0.291466277988523,51.7647865653534],[-0.291457797781495,51.7650112458162],[-0.291095699107065,51.765005981851],[-0.291087217077601,51.7652306622403],[-0.290725116794265,51.765225397098],[-0.290716632942321,51.7654500774139],[-0.290354531050081,51.7654448110946],[-0.290346045375612,51.765669491337],[-0.289983941874473,51.7656642238407],[-0.289621838480151,51.7656589552303],[-0.289630327586007,51.7654342751138],[-0.289268226014216,51.7654290054522],[-0.28925973519267,51.7656536855058],[-0.288897632012051,51.7656484146671],[-0.288889139367872,51.7658730946472],[-0.288527034578428,51.7658678226315],[-0.288164929895893,51.7658625495016],[-0.288173425971489,51.7656378696474],[-0.288181921940095,51.7654131897826],[-0.288190417801714,51.7651885099073],[-0.288552517337194,51.7651937828483],[-0.288561011376187,51.7649691028994],[-0.288923109302929,51.7649743746633],[-0.288931601519341,51.7647496946409],[-0.289293697837342,51.7647549652278],[-0.289302188231219,51.7645302851319],[-0.289664282940474,51.7645355545418],[-0.289672771511861,51.7643108743724],[-0.290034864612367,51.7643161426053],[-0.29004335136131,51.7640914623624],[-0.290405442853065,51.7640967294183],[-0.290413927779607,51.7638720491019],[-0.290776017662607,51.7638773149809],[-0.290784500766795,51.763652634591],[-0.290792983764167,51.7634279541906],[-0.290430897312175,51.7634226884374],[-0.290439381918205,51.7631980080893],[-0.290447866417401,51.7629733277307],[-0.290456350809764,51.7627486473614],[-0.290818432115413,51.7627539129259],[-0.291180513527811,51.7627591773763],[-0.291542595046938,51.7627644407128],[-0.291904676672771,51.7627697029352],[-0.292266758405287,51.7627749640436],[-0.292628840244464,51.762780224038],[-0.292990922190281,51.7627854829183],[-0.293353004242715,51.7627907406847],[-0.293715086401745,51.762795997337],[-0.293723555248588,51.7625713163914],[-0.294085635798771,51.7625765718669],[-0.294447716455503,51.7625818262284],[-0.294809797218761,51.7625870794758],[-0.294818260812785,51.7623623983313],[-0.295180339967146,51.762367650402],[-0.295542419227988,51.7623729013586],[-0.295550879284696,51.7621482200779],[-0.295912956936613,51.7621534698578],[-0.295921415171451,51.7619287885038],[-0.295929873299804,51.7617041071392],[-0.295938331321675,51.7614794257641],[-0.295946789237064,51.7612547443784],[-0.295955247045975,51.7610300629822],[-0.295963704748408,51.7608053815754],[-0.295972162344366,51.760580700158],[-0.295610096699498,51.7605754508175],[-0.295618555904185,51.7603507694523],[-0.295627015002377,51.7601260880766],[-0.295635473994077,51.7599014066903],[-0.295643932879286,51.7596767252935],[-0.295652391658006,51.759452043886],[-0.295290334695361,51.7594467937455],[-0.294928277839172,51.759441542491],[-0.294919815630233,51.7596662237729],[-0.294557757165416,51.7596609713418],[-0.294195698807103,51.7596557177967],[-0.293833640555316,51.7596504631378],[-0.293471582410075,51.759645207365],[-0.293109524371404,51.7596399504783],[-0.292747466439325,51.7596346924776],[-0.29238540861386,51.7596294333631],[-0.29239388282851,51.759404752521],[-0.292031826824775,51.7593994923554],[-0.292040302647805,51.7591748115656],[-0.292048778364127,51.7589501307651],[-0.292057258191183,51.758725448976],[-0.291695207789069,51.7587201878048],[-0.291703695524188,51.7584955046086],[-0.291712183140806,51.7582708214044],[-0.291720670638924,51.7580461381924],[-0.291358626253084,51.7580408759239],[-0.291350136789065,51.7582655591295],[-0.290988090555846,51.7582602957381],[-0.290626044441174,51.7582550312302],[-0.290617550926789,51.758479714415],[-0.290255502964771,51.7584744487842],[-0.290247007365866,51.7586991319547],[-0.290238517096287,51.7589238138579],[-0.290230032804748,51.759148494344],[-0.290221548406385,51.7593731748194],[-0.290213063901198,51.7595978552843],[-0.290204579289183,51.7598225357387],[-0.290196094570339,51.7600472161824],[-0.290187609744665,51.7602718966156],[-0.290179124812157,51.7604965770382],[-0.290170639772815,51.7607212574503],[-0.290162154626637,51.7609459378517],[-0.290153669373621,51.7611706182426],[-0.290145184013766,51.761395298623],[-0.290136698547068,51.7616199789927],[-0.290128212973526,51.7618446593519],[-0.29011972729314,51.7620693397005],[-0.290481803345881,51.7620746061903],[-0.290473319274003,51.7622992865913],[-0.290464835095298,51.7625239669816],[-0.290102755611822,51.7625187003661],[-0.290094269610887,51.762743380683],[-0.289732188518805,51.7627381128905],[-0.28937010753354,51.762732843984],[-0.289361617994912,51.7629575241645],[-0.288999535401067,51.7629522540811],[-0.288637452914085,51.7629469828836],[-0.288645945883547,51.762722302829],[-0.288283865218864,51.7627170305805],[-0.288292359796774,51.7624923505782],[-0.287930280954387,51.7624870772787],[-0.287921784661086,51.762711757218],[-0.287559704210235,51.7627064827415],[-0.287551206094536,51.7629311626072],[-0.287189124035226,51.7629258869537],[-0.287197623866334,51.7627012071509],[-0.286835543629404,51.7626959304464],[-0.286473463499469,51.7626906526279],[-0.286464960237548,51.7629153323047],[-0.286102878499225,51.7629100533091],[-0.286111383476548,51.7626853736954],[-0.285749303560666,51.7626800936488],[-0.285387223751844,51.7626748124883],[-0.285025144050105,51.7626695302138],[-0.285033654066459,51.7624448507785],[-0.285042163975646,51.7622201713326],[-0.285050673777668,51.7619954918761],[-0.285059183472528,51.7617708124091],[-0.285067693060226,51.7615461329315],[-0.28470562209553,51.7615408499093],[-0.284714133433961,51.7613161704477],[-0.284722644652491,51.7610914909786],[-0.28473115575112,51.760866811502],[-0.284739666729851,51.7606421320177],[-0.284748177588688,51.7604174525259],[-0.28475668832763,51.7601927730265],[-0.284765198946682,51.7599680935195],[-0.284773709445842,51.759743414005],[-0.284782219825117,51.7595187344828],[-0.284420166886183,51.7595134503779],[-0.284428679130647,51.7592887708475],[-0.284437191255201,51.7590640913095],[-0.284445703259849,51.7588394117639],[-0.284454228815401,51.7586147290732],[-0.284092184213323,51.7586094437867],[-0.284100713006915,51.7583847607744],[-0.28410924168461,51.7581600777535],[-0.283747200997435,51.7581547913927],[-0.283755731458693,51.7579301083839],[-0.283393692786909,51.7579248209281],[-0.283031654231081,51.7579195323564],[-0.283040188375285,51.7576948493806],[-0.282678151834866,51.7576895597139],[-0.28268668776251,51.7574648767503],[-0.282695223574167,51.757240193778],[-0.283057256315801,51.7572454834032],[-0.283065790112118,51.7570208004016],[-0.283427821070371,51.7570260888901],[-0.283436352851396,51.7568014058592],[-0.283444884516489,51.7565767228196],[-0.283806911792044,51.7565820101509],[-0.283815441441921,51.756357327082],[-0.283453416065653,51.7563520397715],[-0.283461947498888,51.7561273567148],[-0.283470478816198,51.7559026736495],[-0.283108457354367,51.7558973852648],[-0.283116990454963,51.7556727022116],[-0.283125523439614,51.7554480191499],[-0.28313405630832,51.7552233360796],[-0.283142589061084,51.7549986530007],[-0.282780575311907,51.7549933635834],[-0.282789109847842,51.7547686805167],[-0.282797644267815,51.7545439974414],[-0.282806178571827,51.7543193143575],[-0.282814712759881,51.754094631265],[-0.282452706722976,51.7540893408152],[-0.282461242694085,51.7538646577349],[-0.282469778549216,51.753639974646],[-0.282478314288369,51.7534152915486],[-0.282116314064419,51.7534100000454],[-0.282124851586535,51.7531853169602],[-0.282133388992653,51.7529606338664],[-0.282141926282776,51.7527359507639],[-0.281779931871574,51.7527306582076],[-0.281788470944566,51.7525059751173],[-0.281797009901542,51.7522812920186],[-0.281805548742505,51.7520566089111],[-0.281443560143845,51.7520513153016],[-0.281452100767583,51.7518266322064],[-0.28109011418376,51.7518213375022],[-0.280728127716014,51.7518160416823],[-0.280719583294708,51.7520407247358],[-0.280357595044281,51.7520354277795],[-0.279995606909982,51.7520301297077],[-0.279633618891835,51.7520248305203],[-0.279625068658034,51.7522495135027],[-0.279263078857266,51.7522442131788],[-0.278901089172702,51.7522389117393],[-0.278909643204099,51.7520142287987],[-0.278547655534559,51.7520089262645],[-0.278185667981271,51.7520036226148],[-0.278177110152286,51.7522283055137],[-0.277815120816483,51.7522230007275],[-0.277453131596984,51.7522176948257],[-0.277444569854113,51.7524423776741],[-0.277082578852132,51.7524370706358],[-0.277074015094116,51.7526617534548],[-0.276712022309657,51.75265644528],[-0.27635002964158,51.7526511359895],[-0.276341461969516,51.752875818758],[-0.275979467518992,51.7528705083311],[-0.275617473184903,51.7528651967885],[-0.275608901598698,51.7530898795065],[-0.275246905482193,51.7530845668273],[-0.274884909482175,51.7530792530326],[-0.274893484866125,51.7528545703565],[-0.274531490881488,51.7528492554671],[-0.274540068047803,51.7526245728034],[-0.274548645097612,51.7523998901312],[-0.274186655027172,51.7523945741682],[-0.274195233859274,51.7521698915083],[-0.274203812574851,51.7519452088399],[-0.273841826418528,51.7519398918033],[-0.273850406916326,51.7517152091472],[-0.273488422775321,51.7517098910161],[-0.273497005055291,51.7514852083724],[-0.273505587218696,51.7512605257202],[-0.273143606991696,51.7512552065155],[-0.273152190937202,51.7510305238757],[-0.272790212725486,51.7510252035765],[-0.272428234630413,51.7510198821618],[-0.27243682225661,51.7507951995554],[-0.272445409766172,51.7505705169405],[-0.272807384063992,51.7505758383131],[-0.272815970233572,51.7503511567905],[-0.272824556744843,51.7501264760164],[-0.272833143142922,51.7499017952338],[-0.273195112020059,51.7499071153921],[-0.273557081010397,51.7499124344348],[-0.273919050113913,51.7499177523618],[-0.274281019330581,51.7499230691733],[-0.27428959830918,51.7496983883118],[-0.274651565812401,51.74970370399],[-0.275013533428725,51.7497090185526],[-0.27537550115813,51.7497143319995],[-0.275737469000591,51.7497196443308],[-0.276099436956084,51.7497249555464],[-0.276461405024585,51.7497302656464],[-0.276823373206072,51.7497355746308],[-0.277185341500519,51.7497408824996],[-0.277547309907904,51.7497461892527],[-0.277909278428202,51.7497514948901],[-0.27827124706139,51.749756799412],[-0.278279805834695,51.7495321183493],[-0.278641772754173,51.749537421738],[-0.279003739786491,51.7495427240111],[-0.279365706931625,51.7495480251685],[-0.279727674189553,51.7495533252103],[-0.280089641560248,51.7495586241366],[-0.280451609043688,51.7495639219471],[-0.28081357663985,51.749569218642],[-0.281175544348708,51.7495745142214],[-0.28153751217024,51.749579808685],[-0.281899480104421,51.7495851020331],[-0.282261448151229,51.7495903942655],[-0.282269986719527,51.7493657130025],[-0.282631953052363,51.7493710041019],[-0.282993919497776,51.7493762940857],[-0.283355886055741,51.7493815829538],[-0.283717852726235,51.7493868707063],[-0.284079819509233,51.7493921573432],[-0.284441786404713,51.7493974428645],[-0.284803753412649,51.7494027272701],[-0.285165721087188,51.7494080104696],[-0.285174244929303,51.749183329061],[-0.285182768657791,51.7489586476443],[-0.28554473296456,51.7489639296689],[-0.285553254726385,51.7487392482329],[-0.285561776374611,51.7485145667887],[-0.285199815773894,51.7485092847864],[-0.284837855417612,51.7485040016483],[-0.284475895715779,51.7484987173119],[-0.284113936126394,51.74849343186],[-0.283751976649483,51.7484881452925],[-0.283743445837376,51.7487128266586],[-0.2837349149128,51.7489375080163],[-0.283372951895394,51.7489322202985],[-0.283364419031815,51.7491569016304],[-0.283002454300404,51.7491516127796],[-0.283010988990512,51.7489269314651],[-0.282649026198178,51.748921641516],[-0.282657562602273,51.7486969602105],[-0.282666098893828,51.7484722788964],[-0.282304139867047,51.7484669878666],[-0.282312677872519,51.7482423065615],[-0.282321215765432,51.748017625248],[-0.282683171139325,51.7480229162431],[-0.282691707093273,51.7477982349038],[-0.282329753545787,51.7477929439261],[-0.282338291213586,51.7475682625957],[-0.281976339605069,51.7475629705198],[-0.281984878986673,51.7473382891984],[-0.28162292931712,51.7473329960244],[-0.281260979760198,51.7473277017347],[-0.281269522681891,51.7471030204397],[-0.280907575063951,51.747097725052],[-0.280916119699329,51.746873043766],[-0.280554174020368,51.7468677472801],[-0.280192228454106,51.7468624496788],[-0.280183680166124,51.7470871309299],[-0.279821732886283,51.7470818321956],[-0.27945978571919,51.7470765323457],[-0.279097838664867,51.7470712313804],[-0.279106392431742,51.7468465501815],[-0.278744447316508,51.7468412481181],[-0.278382502314091,51.7468359449391],[-0.278391059620744,51.7466112637668],[-0.278029116557433,51.7466059594897],[-0.278037675577522,51.7463812783265],[-0.278046234484784,51.7461565971548],[-0.278408173895633,51.7461619013968],[-0.278416730863875,51.7459372201992],[-0.278778668561362,51.7459425233083],[-0.279140606371657,51.7459478253019],[-0.279149159574749,51.7457231440609],[-0.279511095671652,51.7457284449215],[-0.279502544294738,51.74595312618],[-0.27986448233058,51.7459584259426],[-0.280226420479159,51.7459637245897],[-0.280217872641924,51.7461884058746],[-0.280579812729423,51.7461937034237],[-0.280941752929615,51.7461989998573],[-0.281303693242475,51.7462042951753],[-0.281295150771253,51.7464289765041],[-0.281657093022993,51.7464342707241],[-0.282019035387356,51.7464395638285],[-0.282010496456041,51.7466642451837],[-0.282372440759267,51.74666953719],[-0.282363903541671,51.7468942185541],[-0.282725849783762,51.7468995094623],[-0.282717314279931,51.7471241908353],[-0.283079262460892,51.7471294806454],[-0.283070728670873,51.7473541620273],[-0.283432678790709,51.7473594507392],[-0.283794629023055,51.7473647383356],[-0.283786098773263,51.7475894197438],[-0.284148050944464,51.747594706242],[-0.284510003228132,51.7475999916245],[-0.284871955624242,51.7476052758916],[-0.284863430741171,51.7478299573434],[-0.285225385595894,51.7478352404385],[-0.285587340637714,51.7478405224074],[-0.285595861831563,51.7476158409307],[-0.285604382911823,51.7473911594459],[-0.285966334361447,51.7473964402766],[-0.285974853475247,51.7471717587725],[-0.285983372475486,51.7469470772603],[-0.285991891362165,51.7467223957399],[-0.286000410135286,51.7464977142113],[-0.286008928794852,51.7462730326747],[-0.286370871093937,51.746278312334],[-0.286379387787194,51.746053630778],[-0.286387904366924,51.745828949214],[-0.286749843074077,51.7458342277352],[-0.287111781894761,51.7458395051407],[-0.287103269020499,51.746064186727],[-0.287465209807425,51.7460694630279],[-0.287456698672444,51.7462941446171],[-0.287818641425616,51.7462994198132],[-0.288180584292251,51.7463046938936],[-0.288542527272323,51.7463099668581],[-0.28855103284901,51.7460852852356],[-0.288559538312314,51.745860603605],[-0.288921477700285,51.7458658754316],[-0.288929981197485,51.7456411937818],[-0.28929191884612,51.7456464644816],[-0.289653856608113,51.7456517340656],[-0.289662356286557,51.7454270523855],[-0.290024292309182,51.7454323208427],[-0.29003279002164,51.7452076391435],[-0.290394724304893,51.7452129064739],[-0.290756658701429,51.7452181726886],[-0.291118593211222,51.7452234377875],[-0.291110101056813,51.7454481195198],[-0.291101608789191,51.745672801244],[-0.291463547117617,51.7456780652491],[-0.291455056589517,51.7459027469761],[-0.291816996883892,51.7459080098765],[-0.291808508095361,51.7461326916064],[-0.29217045035569,51.746137953402],[-0.292161963306776,51.7463626351347],[-0.292153476144714,51.7465873168593],[-0.292515422223813,51.746592577561],[-0.292506936801438,51.7468172592884],[-0.292868884846523,51.7468225188853],[-0.292860401163883,51.7470472006155],[-0.293222351174959,51.7470524591076],[-0.293230833004736,51.7468277773664],[-0.293239314721433,51.746603095617],[-0.293601261139907,51.7466083529714],[-0.293963207671456,51.7466136092099],[-0.293971685569438,51.7463889274305],[-0.294333630361219,51.7463941825423],[-0.294342106293374,51.7461695007439],[-0.294704049345381,51.7461747547289],[-0.294695575266025,51.7463994365382],[-0.295057520283833,51.7464046894184],[-0.295049047944323,51.7466293712305],[-0.295040575491855,51.7468540530345],[-0.295032102926426,51.7470787348303],[-0.294670152350068,51.7470734819174],[-0.29466167781878,51.7472981636942],[-0.295023630248035,51.747303416618],[-0.295385582790275,51.747308668426],[-0.295394053615767,51.7470839866274],[-0.295756004418067,51.7470892373086],[-0.295764473277744,51.746864555491],[-0.2961264223401,51.7468698050455],[-0.296134889234008,51.7466451232089],[-0.296143356015029,51.7464204413641],[-0.296151822683165,51.7461957595112],[-0.29616028923842,51.7459710776501],[-0.295798347587342,51.7459658281392],[-0.295806815882476,51.7457411462808],[-0.295815284064706,51.7455164644144],[-0.296177222010288,51.7455217139036],[-0.296185688226906,51.7452970320182],[-0.296547624432671,51.7453022803808],[-0.296909560751307,51.7453075276276],[-0.296901098240119,51.7455322095348],[-0.297263036524321,51.7455374556767],[-0.297624974921347,51.7455427007029],[-0.297633433727096,51.745318018774],[-0.297641892420066,51.745093336837],[-0.298003827224473,51.7450985807257],[-0.297995370384201,51.7453232626735],[-0.29835730715408,51.7453285054573],[-0.298719244036709,51.7453337471254],[-0.299081181032065,51.7453389876776],[-0.299443118140123,51.7453442271142],[-0.299451567569583,51.745119545123],[-0.299089632314232,51.7451143056973],[-0.299098083483717,51.7448896237089],[-0.298736150193745,51.7448843831782],[-0.298744603103206,51.7446597011924],[-0.299106534540521,51.7446649417123],[-0.299114985484649,51.7444402597075],[-0.299476915182027,51.7444454991008],[-0.299838844992074,51.7444507373784],[-0.299847292118302,51.744226055344],[-0.299855739131905,51.7440013733014],[-0.300217665349394,51.7440066104417],[-0.300226110397806,51.7437819283802],[-0.300588034875344,51.743787164394],[-0.300949959465473,51.7437923992921],[-0.30131188416817,51.7437976330745],[-0.301303444677469,51.7440223151683],[-0.301665372935804,51.7440275481614],[-0.301656935012105,51.7442522302218],[-0.302018869748551,51.744257462998],[-0.302380804591888,51.7442626946571],[-0.302389239050968,51.7440380126377],[-0.302751172268862,51.7440432432001],[-0.302759604888802,51.7438185611945],[-0.302768037401916,51.7435938791822],[-0.303129967262094,51.7435991086685],[-0.303138397936138,51.74337442667],[-0.303146828503383,51.7431497446649],[-0.303508755005906,51.743154973075],[-0.303517183734152,51.7429302910838],[-0.303525612355624,51.7427056090858],[-0.303163689317483,51.7427003806347],[-0.302801766386154,51.7426951510664],[-0.302793334300323,51.7429198331054],[-0.302431409743651,51.7429146024405],[-0.302422975818804,51.7431392844933],[-0.302061049636792,51.7431340527318],[-0.301699123561663,51.7431288198532],[-0.301337201965122,51.7431235867443],[-0.301328762811994,51.7433482688625],[-0.301320323546345,51.7435729509725],[-0.300958400696196,51.7435677172009],[-0.300596477958613,51.7435624823135],[-0.30060492092931,51.743337800225],[-0.300243000156837,51.7433325642327],[-0.300251444867461,51.7431078821468],[-0.299889526060094,51.7431026450497],[-0.299897972510595,51.7428779629664],[-0.299906418848482,51.742653280875],[-0.299544503858664,51.7426480426838],[-0.2991825889815,51.7426428033769],[-0.298820674217014,51.7426375629543],[-0.298812222321798,51.7428622450133],[-0.298450305817576,51.7428570034643],[-0.298088389426082,51.7428517607996],[-0.298096845026175,51.7426270787622],[-0.29773493059987,51.7426218349927],[-0.297743387939641,51.7423971529581],[-0.297381475478521,51.7423919080838],[-0.297389934557924,51.7421672260518],[-0.297028024061984,51.7421619800727],[-0.29703648132066,51.7419373007027],[-0.297044938317388,51.7417126214393],[-0.297406845535378,51.7417178672189],[-0.297415300750874,51.7414931878754],[-0.297777206396774,51.741498432473],[-0.298139112147214,51.7415036759576],[-0.298501018002169,51.7415089183295],[-0.298509468083214,51.7412842387675],[-0.298517918059769,51.7410595591947],[-0.298526367931835,51.7408348796111],[-0.298164467106711,51.7408296374468],[-0.298156015558056,51.7410543169613],[-0.297794113160857,51.741049073615],[-0.297432210868193,51.7410438291558],[-0.29744066577002,51.7408191497798],[-0.297078765258495,51.740813904277],[-0.297087221732331,51.7405892249592],[-0.296725323001942,51.7405839784128],[-0.296733781047741,51.7403592991534],[-0.296742238988947,51.7401346198832],[-0.297104134366284,51.7401398662912],[-0.297466029848191,51.7401451115863],[-0.297827925434648,51.7401503557687],[-0.297819472522993,51.7403750352466],[-0.298181369890498,51.7403802783853],[-0.298172918550858,51.7406049579215],[-0.298534817699416,51.7406102000166],[-0.298896716952461,51.7406154409988],[-0.298905164939011,51.7403907613243],[-0.2989136128211,51.7401660816389],[-0.299275508825539,51.74017132137],[-0.299283954926666,51.7399466416046],[-0.299645849359041,51.7399518801537],[-0.29965429367925,51.7397272003083],[-0.300016186539559,51.7397324376755],[-0.300378079504263,51.7397376739299],[-0.300386520367133,51.7395129939353],[-0.300748411759744,51.7395182290078],[-0.301110303256705,51.7395234629675],[-0.301118740662321,51.7392987828238],[-0.301480630587162,51.7393040156016],[-0.301842523627165,51.7393092481282],[-0.302204417813277,51.7393144798383],[-0.302566312115392,51.7393197104369],[-0.302928206533483,51.739324939924],[-0.303290101067524,51.7393301682995],[-0.303651995717491,51.7393353955635],[-0.303643571394074,51.7395600763172],[-0.304005468088284,51.7395653025655],[-0.303997045577335,51.7397899834029],[-0.303988622950511,51.7400146642283],[-0.30398020020781,51.7402393450416],[-0.304342102803074,51.7402445704659],[-0.304333681872936,51.7404692513629],[-0.304325260826942,51.7406939322479],[-0.304316839665088,51.7409186131207],[-0.303954931284425,51.7409133874088],[-0.303946508078196,51.7411380681737],[-0.30393808475608,51.7413627489265],[-0.304299996993799,51.7413679748301],[-0.304661909347386,51.7413731996221],[-0.30467032881242,51.7411485186776],[-0.304678748161615,51.740923837721],[-0.304687167394975,51.7406991567523],[-0.305049074078845,51.7407043801451],[-0.305057491267901,51.7404796990685],[-0.305419396139111,51.7404849212539],[-0.305427811283911,51.7402602400693],[-0.305065908341149,51.7402550179797],[-0.304704005514195,51.7402497947786],[-0.30471242440006,51.7400251137736],[-0.304720843170096,51.7398004327565],[-0.304358944315788,51.7397952086355],[-0.30436736489837,51.7395705277022],[-0.304375785365102,51.7393458467567],[-0.304384205715988,51.7391211657992],[-0.30474609878526,51.7391263896327],[-0.304754517092006,51.7389017085672],[-0.304762935282933,51.7386770274896],[-0.305124824611457,51.7386822500198],[-0.305486714055773,51.7386874714385],[-0.305495128274385,51.7384627901572],[-0.305857015906217,51.7384680103685],[-0.305865428080836,51.7382433289793],[-0.306227313900178,51.7382485479833],[-0.306589199835233,51.7382537658758],[-0.306597608037702,51.7380290842829],[-0.306235724030855,51.7380238664862],[-0.306244134045821,51.7377991849769],[-0.305882252082866,51.7377939661645],[-0.305890663910278,51.7375692847389],[-0.306252543945077,51.7375745034555],[-0.306260953728627,51.7373498219221],[-0.306622831950998,51.7373550394314],[-0.30698471028905,51.7373602558293],[-0.306993116100674,51.7371355740921],[-0.307354992626267,51.7371407892827],[-0.307363396394149,51.7369161074377],[-0.307725271107279,51.7369213214211],[-0.307733672831467,51.7366966394682],[-0.308095545732129,51.7367018522443],[-0.308457418748363,51.736707063909],[-0.308465816500863,51.7364823817525],[-0.308827687704597,51.73648759221],[-0.309189559023851,51.736492801556],[-0.309197952804754,51.7362681191959],[-0.309559822311476,51.7362733273348],[-0.309568214048878,51.7360486448669],[-0.309930081743063,51.7360538517986],[-0.309921691933664,51.7362785343621],[-0.310283561671295,51.7362837402781],[-0.310645431524342,51.7362889450825],[-0.310653817477727,51.7360642623276],[-0.310291949552688,51.7360590576188],[-0.310300337318658,51.7358343749475],[-0.310308724969209,51.7356096922641],[-0.309946861015523,51.7356044866353],[-0.309584997177272,51.7355992798951],[-0.309593388568267,51.735374597391],[-0.309601779843796,51.7351499148748],[-0.309239919976838,51.7351447072146],[-0.308878060225362,51.735139498443],[-0.308886455241184,51.7349148161062],[-0.308894850141495,51.7346901337573],[-0.309256706037242,51.7346953423375],[-0.309618562048466,51.7347005498063],[-0.309626952977611,51.7344758672539],[-0.309265098894216,51.7344706598808],[-0.309273491635709,51.734245977412],[-0.308911639595593,51.7342407690233],[-0.308920034149384,51.7340160866381],[-0.308928427772599,51.7337914045856],[-0.308566579512813,51.7337861953479],[-0.308574969070349,51.7335615158018],[-0.308583358525244,51.7333368362411],[-0.308945203484411,51.7333420451817],[-0.309307048546159,51.7333472530134],[-0.309298662391863,51.7335719328712],[-0.30929027613497,51.7337966127144],[-0.309652124599903,51.7338018197343],[-0.309643734489531,51.7340265021128],[-0.310005584832787,51.7340317081831],[-0.310367435291466,51.734036913142],[-0.310359048448801,51.73426159591],[-0.310720900950661,51.7342667998532],[-0.31072928586554,51.7340421169896],[-0.311091136554986,51.7340473197258],[-0.311099519426722,51.7338226367544],[-0.3111078974901,51.7335979561393],[-0.311116275392868,51.733373275539],[-0.311478121069655,51.7333784767174],[-0.311486497219648,51.7331537959541],[-0.311848341348577,51.7331589958752],[-0.311856715745838,51.7329343149489],[-0.312218558326907,51.7329395136126],[-0.312580401010362,51.7329447111676],[-0.312572029913643,51.7331693923908],[-0.312933874349738,51.7331745889853],[-0.312925504800918,51.7333992703425],[-0.312917135149721,51.7336239516852],[-0.313278982988779,51.7336291474677],[-0.313270614418147,51.7338538292589],[-0.313262243113036,51.7340785128042],[-0.313253871692719,51.7343031963375],[-0.313615725116857,51.7343083913897],[-0.313977578656165,51.7343135853305],[-0.313969210976294,51.7345382690429],[-0.313960843181263,51.7347629527431],[-0.314322700691403,51.7347681457638],[-0.314314334709088,51.7349928295476],[-0.31430596861163,51.7352175133193],[-0.314667830092685,51.7352227054198],[-0.314676194262235,51.7349980215524],[-0.315038053930483,51.7350032124458],[-0.315046416057031,51.7347785284708],[-0.31505477806849,51.7345538444838],[-0.315416633996065,51.7345590340746],[-0.315778490038686,51.7345642225541],[-0.315770131882953,51.7347889067322],[-0.316131989968461,51.7347940941958],[-0.316140346196329,51.7345694099221],[-0.316502202468966,51.7345745961787],[-0.316510556653976,51.7343499117974],[-0.316872411113738,51.734355096847],[-0.31688076325594,51.7341304123581],[-0.317242615902823,51.7341355962008],[-0.317250966002266,51.7339109116043],[-0.317612816836264,51.7339160942401],[-0.317621165033024,51.7336914103626],[-0.317629513229934,51.7334667270908],[-0.317991360747266,51.7334719083091],[-0.317999707191763,51.7332472248745],[-0.318361551227785,51.7332524044153],[-0.3187233916627,51.7332575820388],[-0.31871504901051,51.733482265737],[-0.318353206651376,51.7334770880117],[-0.318344861960274,51.7337017715957],[-0.318706706243651,51.7337069494229],[-0.318698363742389,51.7339316337607],[-0.318690021508942,51.7341563187572],[-0.318328173305987,51.7341511407205],[-0.318319828995678,51.7343758256205],[-0.31868167915915,51.7343810037421],[-0.318673336693009,51.7346056887154],[-0.318664994110518,51.7348303736771],[-0.318656651411675,51.7350550586273],[-0.318648308596478,51.7352797435659],[-0.318639965664924,51.735504428493],[-0.319001825747689,51.7355096059271],[-0.318993484660445,51.7357342909275],[-0.318985143456867,51.7359589759163],[-0.31897680213695,51.7361836608935],[-0.318968460700695,51.7364083458592],[-0.3193303287426,51.736413522521],[-0.319321989150774,51.7366382075599],[-0.319313649442629,51.7368628925873],[-0.319305309618164,51.7370875776032],[-0.319667183658752,51.7370927534077],[-0.319658845678812,51.7373174384968],[-0.319650507582571,51.7375421235744],[-0.319642169370029,51.7377668086404],[-0.319633831041184,51.7379914936948],[-0.319625492596033,51.7382161787377],[-0.319987376557388,51.7382213538545],[-0.319979039956905,51.7384460389707],[-0.319970703240134,51.7386707240754],[-0.319962366407079,51.7388954091684],[-0.320324256367694,51.7389005834278],[-0.320315921379401,51.7391252685942],[-0.320677813417305,51.7391304418264],[-0.320669480273824,51.7393551270661],[-0.320661147014099,51.7395798122942],[-0.321023043090401,51.739584984584],[-0.321014711675562,51.7398096698854],[-0.321006380144501,51.7400343551752],[-0.320998048497215,51.7402590404535],[-0.320989716733704,51.7404837257201],[-0.321351620770875,51.7404888972373],[-0.32171352492422,51.7404940676423],[-0.321705196966946,51.7407187530671],[-0.321696868893492,51.7409434384804],[-0.321688540703856,51.741168123882],[-0.322050450857131,51.7411732934294],[-0.322042124512621,51.7413979789044],[-0.322404036743337,51.7414031474244],[-0.322395712244004,51.7416278329726],[-0.322757626552164,51.7416330004653],[-0.322749303898057,51.7418576860868],[-0.323111220283664,51.7418628525521],[-0.323102899474834,51.7420875382468],[-0.323094573013275,51.742312222168],[-0.323456493411627,51.7423173876799],[-0.323448166753982,51.7425420710215],[-0.32381008944727,51.7425472355717],[-0.324172012266172,51.7425523990125],[-0.32453393521066,51.742557561344],[-0.324525614935348,51.7427822451138],[-0.324887540174721,51.7427874064835],[-0.325249465539622,51.7427925667439],[-0.325241149477465,51.7430172507943],[-0.325603077137227,51.7430224100929],[-0.325594763118948,51.7432470942764],[-0.325956693073574,51.7432522526131],[-0.325965004922464,51.743027568282],[-0.326326932833146,51.7430327253618],[-0.326335242387215,51.7428080408687],[-0.326697168253946,51.7428131966916],[-0.327059094246062,51.7428183514052],[-0.327421020363534,51.7428235050094],[-0.327782946606332,51.7428286575042],[-0.327774645729745,51.7430533425872],[-0.327766344727839,51.7432780276558],[-0.327404414146264,51.7432728748661],[-0.327042483690023,51.7432677209669],[-0.32703417822394,51.7434924057261],[-0.326672245723635,51.7434872505701],[-0.326663937962724,51.7437119351673],[-0.326302003418362,51.7437067787544],[-0.326293693362568,51.7439314631897],[-0.326285383181339,51.7441561476105],[-0.325923444423426,51.7441509897931],[-0.32591513194723,51.744375674052],[-0.32555319114525,51.7443705149777],[-0.32556150579097,51.7441458308663],[-0.325199567283999,51.7441406708301],[-0.325207883973723,51.7439159868518],[-0.32484594776176,51.7439108258537],[-0.324837628902543,51.7441355096845],[-0.324829309917779,51.7443601935007],[-0.325191250468756,51.7443653547939],[-0.325182933527991,51.7445900387433],[-0.325174616461701,51.7448147226782],[-0.325166299269885,51.7450394065987],[-0.325528246455109,51.7450445672251],[-0.325519931307395,51.7452692512787],[-0.325511616034178,51.7454939353178],[-0.325873567684188,51.7454990951299],[-0.325865254455151,51.7457237793021],[-0.325856941100634,51.7459484634599],[-0.325848627620633,51.7461731476033],[-0.326210585905261,51.7461783067485],[-0.326202274469545,51.746402991025],[-0.326564235049395,51.7464081492082],[-0.326555925658017,51.7466328336178],[-0.326917888533089,51.746637990839],[-0.326926195754665,51.746413306282],[-0.326934502850833,51.7461886217104],[-0.326942809821597,51.7459639371245],[-0.32658085345585,51.7459587803458],[-0.326589162470933,51.7457340958929],[-0.326597471360588,51.7455094114256],[-0.326959423386921,51.7455145679093],[-0.326967729981486,51.74528988328],[-0.327329679963532,51.7452950385067],[-0.327337984263059,51.7450703537155],[-0.326976036450654,51.7450651986363],[-0.326614088763627,51.7450600424477],[-0.326622397277016,51.7448353579371],[-0.326630705664984,51.744610673412],[-0.326992649012813,51.7446158293056],[-0.327000955105808,51.7443911446186],[-0.327362896409449,51.7443962992552],[-0.327371200207523,51.7441716144063],[-0.327733139466971,51.744176767786],[-0.327741440970178,51.7439520827751],[-0.328103378185427,51.7439572348979],[-0.328111677393821,51.7437325497251],[-0.328473612564864,51.7437377005911],[-0.3284819094785,51.7435130152563],[-0.328843842605331,51.7435181648654],[-0.329205775857379,51.7435233133651],[-0.329567709234617,51.7435284607553],[-0.329575999514672,51.7433037749638],[-0.32958428966954,51.7430790891579],[-0.329592579699224,51.7428544033376],[-0.329600869603726,51.7426297175028],[-0.329609159383047,51.7424050316536],[-0.329971082038509,51.7424101771973],[-0.329979369523346,51.7421854911862],[-0.329987653631519,51.7419608040713],[-0.330349572333354,51.7419659482922],[-0.33035785379833,51.7417412608914],[-0.330366135147718,51.7415165734791],[-0.330728050042299,51.7415217164185],[-0.33073632931474,51.74129702891],[-0.330744608471621,51.74107234139],[-0.330752887512944,51.7408476538584],[-0.331114796639027,51.7408527954317],[-0.331106519559015,51.7410774830479],[-0.33146843076189,51.7410826235936],[-0.33183034208022,51.7410877630271],[-0.332192253513979,51.7410929013483],[-0.332554165063141,51.7410980385574],[-0.332545895712964,51.7413227265004],[-0.332537626247351,51.7415474144319],[-0.332175710775474,51.7415422770537],[-0.331813795419005,51.7415371385632],[-0.331451880177969,51.7415319989605],[-0.331443604712741,51.7417566866267],[-0.331805521915167,51.741761826314],[-0.331797248295841,51.7419865140532],[-0.331788973830318,51.742211201527],[-0.331780697192046,51.7424358882751],[-0.331772420428759,51.7426605750087],[-0.331764143540453,51.742885261728],[-0.331402215920961,51.7428801214364],[-0.331393936738237,51.7431048079938],[-0.331032007074359,51.7430996664454],[-0.331023725597161,51.743324352841],[-0.331385657430463,51.7433294945368],[-0.331377377997637,51.7435541810653],[-0.331015443994886,51.7435490392222],[-0.330653510117179,51.7435438962696],[-0.330291576364546,51.7435387522076],[-0.330283290298241,51.7437634382795],[-0.330645226220347,51.7437685824889],[-0.331007162267529,51.7437737255889],[-0.330998880415089,51.7439984119413],[-0.331360818756822,51.7440035540792],[-0.331352538948829,51.7442282405645],[-0.331714479585117,51.7442333817405],[-0.332076420346398,51.744238521807],[-0.332068144752468,51.7444632085726],[-0.332430087808279,51.744468347677],[-0.332421814258933,51.7446930345757],[-0.332783759609277,51.744698172718],[-0.332775488104568,51.7449228597496],[-0.3327672164749,51.7451475467667],[-0.33312916628943,51.7451526840943],[-0.333120896704478,51.7453773712444],[-0.333482848813576,51.7453825076099],[-0.333844801047534,51.7453876428658],[-0.334206753406324,51.7453927770122],[-0.334568705889916,51.7453979100491],[-0.33456044485887,51.7456225977742],[-0.334922399831146,51.7456277297916],[-0.335284358282375,51.7456328597054],[-0.335276100780197,51.7458575476985],[-0.335638060913285,51.7458626766132],[-0.336000021144297,51.7458678044168],[-0.336361981473212,51.7458729311093],[-0.336353728624854,51.7460976194261],[-0.336715690635595,51.7461027451196],[-0.337077652744202,51.7461078697019],[-0.337069402965835,51.7463325582302],[-0.337061153089571,51.7465572467458],[-0.337423118463978,51.7465623704412],[-0.337431366756253,51.7463376818135],[-0.337793330644498,51.7463428042857],[-0.33815529463055,51.7463479256466],[-0.338517258714387,51.7463530458964],[-0.338525502156877,51.7461283569196],[-0.338887464754506,51.7461334759461],[-0.33924942744988,51.7461385938614],[-0.339611390242977,51.7461437106656],[-0.339973353133779,51.7461488263586],[-0.339965116027193,51.7463735157838],[-0.340327080599658,51.7463786304777],[-0.340335316122263,51.7461539409404],[-0.340343551547165,51.7459292513904],[-0.33998159014264,51.7459241369206],[-0.339619628835796,51.7459190213397],[-0.339627867330869,51.7456943320011],[-0.339265907705662,51.7456892154211],[-0.338903948178175,51.7456840977299],[-0.33891218974333,51.7454594086026],[-0.338550231897493,51.7454542899124],[-0.338558474948754,51.7452296008845],[-0.338196518784563,51.7452244811952],[-0.337834562718151,51.7452193603948],[-0.337472606749536,51.7452142384833],[-0.337480854454585,51.7449895497789],[-0.33711890016765,51.7449844268684],[-0.33675694597855,51.7449793028468],[-0.336394991887309,51.7449741777141],[-0.336403244246006,51.7447494893333],[-0.336041291836476,51.7447443632016],[-0.33604954568106,51.7445196749202],[-0.336411496506776,51.7445248009397],[-0.336419748669621,51.7443001125333],[-0.336057799427696,51.744294986626],[-0.336066053076388,51.744070298319],[-0.335704105516124,51.7440651714127],[-0.335342158053772,51.7440600433953],[-0.335350414772014,51.7438353552998],[-0.334988468991338,51.7438302262836],[-0.334626529612175,51.74382509557],[-0.334264592315821,51.7438199635644],[-0.333902655144255,51.7438148304493],[-0.333540718097505,51.7438096962248],[-0.333548984638473,51.7435850088265],[-0.33355725105455,51.7433603214137],[-0.333565517345736,51.7431356339865],[-0.333573783512036,51.7429109465449],[-0.333935711880976,51.7429160801801],[-0.333943975753005,51.7426913925767],[-0.33395223950018,51.742466704959],[-0.333960503122499,51.7422420173268],[-0.333968765702173,51.7420173293274],[-0.333977027552964,51.7417926410807],[-0.333985289288415,51.7415679528226],[-0.333623373355167,51.7415628198932],[-0.333631636936659,51.7413381317081],[-0.33326972308009,51.7413329977511],[-0.33290780933885,51.7413278626819],[-0.332916076727681,51.7411031746543],[-0.332924344001104,51.7408784866151],[-0.332562434297886,51.7408733506028],[-0.332570703417199,51.7406486626368],[-0.332578972421084,51.7404239746591],[-0.332587241309541,51.7401992866699],[-0.332595510082573,51.7399745986692],[-0.33223360833976,51.739969461883],[-0.332241878958563,51.7397447739554],[-0.331879979292336,51.7397396361416],[-0.331888251756862,51.739514948287],[-0.331896524105918,51.7392902604208],[-0.331534628477414,51.7392851216641],[-0.33154290267212,51.7390604338709],[-0.331551176751335,51.7388357460663],[-0.331189285160473,51.7388306063666],[-0.331197561085265,51.738605918635],[-0.330835671570926,51.7386007779079],[-0.330827393685072,51.7388254655549],[-0.330465502325157,51.738820323631],[-0.330103611080754,51.738815180595],[-0.330111892888726,51.7385904931172],[-0.329750003720917,51.7385853490538],[-0.32938811466867,51.7385802038782],[-0.329396400283115,51.7383555165582],[-0.329404685781927,51.7381308292266],[-0.329766570912141,51.7381359742329],[-0.329774854334342,51.7379112868051],[-0.329783137640939,51.7376865993658],[-0.329791420831932,51.737461911915],[-0.32942954158458,51.7374567671626],[-0.329437826620876,51.7372320797848],[-0.32944611154155,51.7370073923955],[-0.329454396346601,51.7367827049947],[-0.329092523097457,51.7367775593842],[-0.329100809747717,51.7365528720564],[-0.329109096282333,51.7363281847171],[-0.329470965609847,51.7363333301583],[-0.329479250068045,51.7361086427228],[-0.32948753441063,51.7358839552757],[-0.329849399932178,51.7358890994356],[-0.329857682198421,51.7356644118924],[-0.330219545874774,51.7356695548557],[-0.330227826064727,51.7354448672163],[-0.330589687895881,51.735450008983],[-0.330951549842518,51.7354551496376],[-0.331313411904609,51.7354602891804],[-0.331321686096947,51.7352356012756],[-0.33168354631378,51.7352407396218],[-0.331691818429972,51.7350160516209],[-0.33205367680154,51.7350211887704],[-0.332415535288483,51.7350263248081],[-0.332423803367936,51.7348016366265],[-0.332785660009581,51.7348067714676],[-0.333147516766547,51.7348119051967],[-0.333155780809355,51.7345872168345],[-0.333517635720991,51.7345923493671],[-0.333879490747895,51.7345974807878],[-0.33424134589004,51.7346026110965],[-0.334233087729114,51.7348272997124],[-0.33422482945291,51.7350519883166],[-0.333862970389482,51.7350468578389],[-0.333854710037321,51.7352715463471],[-0.333846449569852,51.7354962348438],[-0.334208312554664,51.7355013654906],[-0.334570175654698,51.7355064950254],[-0.334578432200756,51.7352818063597],[-0.334940294479721,51.7352869347069],[-0.334948549159463,51.7350622459495],[-0.335310418187268,51.7350673731939],[-0.335672287334575,51.7350724993254],[-0.335680537782622,51.734847810427],[-0.336042404993349,51.7348529353805],[-0.336050653265827,51.7346282464063],[-0.335688788111131,51.734623121518],[-0.335697038320105,51.7343984325983],[-0.336058901418798,51.7344035574215],[-0.336420764636932,51.7344086811318],[-0.336412518539968,51.7346333701818],[-0.336404272323521,51.7348580592211],[-0.336396025987589,51.7350827482498],[-0.33675789549324,51.7350878710428],[-0.336766139773112,51.7348631819489],[-0.337128007342095,51.7348683035639],[-0.337489875030441,51.7348734240659],[-0.337851742838124,51.7348785434551],[-0.337859980830422,51.7346538541553],[-0.338221846701372,51.7346589723665],[-0.338583712691603,51.7346640894649],[-0.338591946452485,51.7344394000242],[-0.338953810505948,51.7344445159447],[-0.339315674678635,51.7344496307523],[-0.339677538970519,51.734454744447],[-0.340039403381572,51.7344598570289],[-0.340047628799135,51.7342351673173],[-0.340409491273327,51.7342402787213],[-0.340771353866631,51.7342453890124],[-0.341133216579021,51.7342504981907],[-0.341495079410471,51.7342556062562],[-0.34185694236095,51.7342607132088],[-0.341865157379385,51.7340360231614],[-0.341873372390634,51.7338113331307],[-0.342235231278212,51.7338164388233],[-0.342597090312771,51.73382154341],[-0.342958949508223,51.7338266468941],[-0.343320808822593,51.7338317492653],[-0.343682668255854,51.7338368505238],[-0.343690875784332,51.7336121608734],[-0.344052733239139,51.7336172609442],[-0.344044527807979,51.7338419506694],[-0.34440638747894,51.7338470497021],[-0.344398186971375,51.734071740215],[-0.344389986344902,51.7342964307173],[-0.34438178559952,51.7345211212089],[-0.344373584735226,51.7347458116899],[-0.344735452749061,51.7347509098696],[-0.344727253821935,51.7349756004049],[-0.34471905477592,51.7352002909296],[-0.345080927020736,51.7352053881263],[-0.345072729911963,51.7354300787053],[-0.345064532684323,51.7356547692736],[-0.345426409160206,51.7356598654873],[-0.345434604331684,51.735435174854],[-0.34544279938432,51.7352104842101],[-0.345450994318116,51.7349857935555],[-0.345459189133074,51.7347611028904],[-0.345467383829197,51.7345364122146],[-0.345475578406486,51.7343117215281],[-0.345483772864944,51.734087030831],[-0.345845635066964,51.7340921254774],[-0.345853827350608,51.7338674347047],[-0.346215687615345,51.7338725281733],[-0.346577547998755,51.733877620529],[-0.346585738702155,51.7336529302689],[-0.346947597093605,51.7336580214337],[-0.347309455602014,51.7336631114852],[-0.347671314227357,51.7336682004234],[-0.347663129860753,51.733892890919],[-0.348024990718584,51.7338979788234],[-0.348386851694953,51.7339030656148],[-0.348748712789831,51.7339081512935],[-0.349110574003193,51.7339132358592],[-0.349102400223493,51.7341379272157],[-0.349464263611314,51.7341430107335],[-0.349826127117567,51.7341480931383],[-0.349817957331358,51.7343727846138],[-0.350179823012048,51.7343778659707],[-0.350171655163379,51.7346025575003],[-0.35053352301851,51.7346076378091],[-0.350895390991994,51.734612717005],[-0.350887227137007,51.7348374086536],[-0.35124909728491,51.7348424868014],[-0.35161096879493,51.7348475639429],[-0.351602808651971,51.735072255694],[-0.35196469080062,51.7350773325922],[-0.352326573044492,51.735082408379],[-0.352318415900591,51.7353071003141],[-0.352680299786883,51.7353121750876],[-0.353042183768362,51.7353172487497],[-0.353404067845009,51.7353223213004],[-0.353395915247492,51.7355470135176],[-0.353757800966526,51.7355520850549],[-0.353749649821005,51.7357767773579],[-0.353741498580239,51.7360014696488],[-0.354103387488948,51.7360065402708],[-0.35411153718243,51.7357818478818],[-0.354119686780688,51.7355571554808],[-0.354127836283724,51.7353324630676],[-0.354489720645754,51.735337532284]]],[[[-0.348668690764977,51.7460465775091],[-0.348676889661162,51.7458218853713],[-0.349038851820015,51.7458269730606],[-0.349400814076043,51.7458320596388],[-0.349392618347813,51.7460567520004],[-0.349754582284976,51.7460618375792],[-0.349746388043577,51.7462865300398],[-0.349384422522412,51.7462814443491],[-0.349376226599839,51.7465061366852],[-0.349738193705026,51.7465112224876],[-0.349729999269323,51.7467359149228],[-0.349368030580093,51.7467308290084],[-0.349006061988023,51.7467257419828],[-0.348644093493136,51.746720653846],[-0.348652292680966,51.7464959617465],[-0.348660491771579,51.7462712696342],[-0.349022457098406,51.7462763575473],[-0.349030654507806,51.7460516653103],[-0.348668690764977,51.7460465775091]]],[[[-0.308583358525244,51.7333368362411],[-0.308221513668679,51.7333316261917],[-0.308213122563487,51.7335563056038],[-0.30785127615925,51.7335510942969],[-0.307489429857659,51.7335458818812],[-0.307127583658735,51.7335406683566],[-0.307135979714807,51.7333159893902],[-0.307497824263439,51.7333212027662],[-0.307506218566514,51.7330965236367],[-0.30786806156754,51.7331017357553],[-0.307876454117661,51.7328770564627],[-0.308238295571079,51.7328822673238],[-0.308600137127116,51.7328874770762],[-0.308591747877499,51.7331121566659],[-0.308583358525244,51.7333368362411]]],[[[-0.336041291836476,51.7447443632016],[-0.336033037893943,51.7449690514703],[-0.336024783853461,51.7451937397261],[-0.33566282837414,51.745188612259],[-0.335300872992737,51.7451834836808],[-0.334938917709275,51.7451783539914],[-0.334576966796134,51.7451732223096],[-0.334585227577526,51.7449485345557],[-0.334593488234095,51.7447238467874],[-0.334601748765841,51.7444991590046],[-0.334963693791354,51.7445042901951],[-0.33495543519534,51.74472897814],[-0.335317387311123,51.744734107605],[-0.335679339524841,51.7447392359589],[-0.336041291836476,51.7447443632016]]],[[[-0.33424134589004,51.7346026110965],[-0.334249603935691,51.7343779224692],[-0.334611457232446,51.7343830515814],[-0.334619713202243,51.734158362858],[-0.334257861866069,51.7341532338303],[-0.334266119681176,51.7339285451799],[-0.334627969056794,51.7339336741231],[-0.334989820764355,51.7339388020028],[-0.335351679512161,51.7339439289213],[-0.335359932504437,51.7337192402973],[-0.335721789275896,51.7337243660284],[-0.335713538379458,51.733949054727],[-0.335705288409547,51.734173743668],[-0.335343427486299,51.7341686177971],[-0.335335175340882,51.7343933066623],[-0.334973312481154,51.7343881796134],[-0.334965058160177,51.7346128684028],[-0.334603201147401,51.7346077402933],[-0.33424134589004,51.7346026110965]]],[[[-0.277011800874164,51.7447925908435],[-0.277003237165607,51.7450172720133],[-0.277365167107099,51.7450225795142],[-0.27735660511175,51.7452472606931],[-0.277718536992235,51.7452525670961],[-0.278080468985595,51.7452578723837],[-0.278071910529624,51.7454825535891],[-0.278433844461959,51.7454878577787],[-0.278795778507122,51.7454931608528],[-0.278787223590629,51.7457178420848],[-0.278425287719316,51.7457125389932],[-0.278063351960833,51.7457072347861],[-0.278054793279221,51.7459319159746],[-0.277692855807423,51.7459266106346],[-0.277330918448505,51.7459213041791],[-0.277322356001684,51.7461459853242],[-0.27731379344199,51.7463706664609],[-0.276951852543574,51.7463653588549],[-0.276960416929481,51.7461406777357],[-0.276598477970208,51.7461353690317],[-0.276607044069406,51.7459106879216],[-0.276245107049272,51.7459053781196],[-0.276253674861713,51.7456806970186],[-0.276262242561215,51.7454560159092],[-0.276270810147779,51.7452313347913],[-0.276279377621406,51.745006653665],[-0.276641307337035,51.7450119633968],[-0.276649872871661,51.7447872822446],[-0.277011800874164,51.7447925908435]]],[[[-0.276649872871661,51.7447872822446],[-0.2762879449821,51.7447819725302],[-0.275926017205504,51.7447766617005],[-0.275564089541898,51.7447713497553],[-0.275572660441742,51.7445466686472],[-0.275581231228607,51.7443219875307],[-0.275943155240157,51.7443272994408],[-0.275934586279308,51.7445519805749],[-0.276296512229862,51.7445572913871],[-0.276658438293379,51.7445626010839],[-0.276649872871661,51.7447872822446]]],[[[-0.304064422420592,51.7379925363643],[-0.304426305732792,51.73799776083],[-0.304417885961108,51.738222441848],[-0.304779771317344,51.7382276652981],[-0.304771353358046,51.7384523463999],[-0.304409466073588,51.738447122854],[-0.304401046070229,51.7386718038478],[-0.304039156973368,51.7386665790945],[-0.303677267992376,51.7386613532297],[-0.303685691852222,51.7384366724276],[-0.304047578904972,51.7384418981965],[-0.304056000720713,51.7382172172865],[-0.304064422420592,51.7379925363643]]],[[[-0.316635849175575,51.7309796647313],[-0.316997678234367,51.7309848476445],[-0.316989327860182,51.7312095307791],[-0.317351158671168,51.7312147127318],[-0.317359507395255,51.7309900294488],[-0.317721336658218,51.7309952101444],[-0.31771298958423,51.7312198935757],[-0.317704642408167,51.7314445769925],[-0.317696295130027,51.7316692603947],[-0.317687947749808,51.7318939437825],[-0.318049783715361,51.7318991239625],[-0.31804143788325,51.7321238074841],[-0.318403272389492,51.7321289862482],[-0.318411616277781,51.7319043025777],[-0.318419960051389,51.7316796188948],[-0.318781787017455,51.7316847958055],[-0.319143614098155,51.7316899716052],[-0.319135274172643,51.7319146554917],[-0.319126934132502,51.7321393393659],[-0.319118593977727,51.7323640232276],[-0.319110253708318,51.7325887070771],[-0.318748418931273,51.7325835308701],[-0.318740076623079,51.7328082146053],[-0.318731734200222,51.7330328983283],[-0.318369895689502,51.7330277208066],[-0.31837824003653,51.7328030371855],[-0.318016399774552,51.7327978579618],[-0.318024745912848,51.7325731744838],[-0.31803309194908,51.7323484909912],[-0.317671252683129,51.7323433105145],[-0.317309413519242,51.732338128929],[-0.317301064182547,51.732562812125],[-0.316939223470515,51.7325576292822],[-0.31694757445744,51.7323329462346],[-0.316955925342236,51.7321082631725],[-0.316594088032746,51.7321030795176],[-0.31623225082538,51.7320978947539],[-0.315870413720162,51.7320927088812],[-0.315508576717112,51.7320875218997],[-0.315516934100506,51.7318628394166],[-0.315155098849822,51.7318576514746],[-0.314793263701346,51.7318524624238],[-0.314801624282836,51.7316277802229],[-0.314439790886741,51.7316225902116],[-0.314077957592895,51.7316173990915],[-0.314086321372389,51.7313927171729],[-0.313724489830939,51.7313875250924],[-0.31336265839178,51.7313823319031],[-0.313000827054931,51.731377137605],[-0.313009195682436,51.7311524561171],[-0.313017564207581,51.7309277746147],[-0.313025932630368,51.7307030930978],[-0.313034300950799,51.7304784115663],[-0.313396125687377,51.7304836052707],[-0.313757950526259,51.7304887978664],[-0.314119775467424,51.7304939893532],[-0.314111412097103,51.7307186713299],[-0.314473238790569,51.7307238618564],[-0.314835065586278,51.7307290512741],[-0.314843425656518,51.7305043690006],[-0.315205250904405,51.7305095571611],[-0.315196892484208,51.730734239583],[-0.315558719484339,51.730739426783],[-0.315567076254489,51.7305147442128],[-0.315928901706751,51.7305199301557],[-0.315920546586648,51.7307446128743],[-0.316282373791114,51.7307497978568],[-0.316644201097717,51.7307549817305],[-0.316635849175575,51.7309796647313]]],[[[-0.328089824163952,51.7345152446231],[-0.328451677459138,51.734520392723],[-0.328443387928391,51.7347450799854],[-0.328435098281968,51.7349697672362],[-0.328426808519866,51.7351944544755],[-0.328418518642083,51.7354191417033],[-0.328780379895442,51.7354242890298],[-0.329142241264412,51.7354294352444],[-0.329133955192347,51.7356541226299],[-0.329125669004646,51.7358788100038],[-0.32876380371425,51.73587366362],[-0.32840193853947,51.7358685161241],[-0.328393648314634,51.7360932033172],[-0.328031781294747,51.7360880546246],[-0.328023488993452,51.7363127417215],[-0.327661620128465,51.7363075918323],[-0.327299751379174,51.7363024408311],[-0.326937882745605,51.7362972887179],[-0.326946180929202,51.7360726018751],[-0.32695447899701,51.7358479150207],[-0.326962776949033,51.7356232281548],[-0.326600914313426,51.7356180751837],[-0.326609214110353,51.735393388391],[-0.326971074785271,51.7353985412773],[-0.326979372505727,51.7351738543883],[-0.326617513791471,51.7351687015866],[-0.32625565519298,51.735163547673],[-0.32626395671893,51.7349388609418],[-0.325902100196862,51.734933706001],[-0.325910403567593,51.734709019343],[-0.325548549121945,51.7347038633749],[-0.325556854337407,51.73447917679],[-0.325565159436996,51.7342544901937],[-0.325927009961504,51.7342596459923],[-0.326288860601819,51.734264800679],[-0.326650711357915,51.7342699542538],[-0.327012562229767,51.7342751067167],[-0.32700426497242,51.734499793652],[-0.327366117920567,51.7345049450876],[-0.327374413217348,51.7342802580677],[-0.327382708398382,51.7340555710362],[-0.327744557541124,51.7340607211906],[-0.327736264320633,51.7342854083067],[-0.328098115539595,51.7342905574339],[-0.328089824163952,51.7345152446231]]]]}}