{"type":"Feature","properties":{"code":"E63003358","name":"Leiston"},"geometry":{"type":"MultiPolygon","coordinates":[[[[1.5969106621744,52.2027117019551],[1.59727574435373,52.2027005650963],[1.59764082629536,52.20268942711],[1.59762269592559,52.202465104719],[1.59798777579893,52.2024539656984],[1.59796964383644,52.2022296433873],[1.59760456579363,52.2022407823146],[1.59723948751311,52.2022519201143],[1.59725761581453,52.202476242612],[1.59689253546576,52.2024873793775],[1.5969106621744,52.2027117019551]]],[[[1.57461381214446,52.1939450020226],[1.5749788314319,52.193933935318],[1.57499684220344,52.194158263552],[1.57536186308766,52.1941471956304],[1.57537987592905,52.1943715237622],[1.57574489841005,52.1943604546237],[1.57576291332131,52.1945847826533],[1.575397889007,52.1945958518811],[1.57541590232155,52.1948201799869],[1.57578092846919,52.1948091106698],[1.57579894385368,52.1950334386733],[1.57581695947478,52.1952577666639],[1.57583497533252,52.1954820946415],[1.57620000674372,52.1954710239288],[1.5762180246715,52.1956953518041],[1.57623604283593,52.1959196796664],[1.57625406123702,52.1961440075157],[1.57661909791197,52.1961329354074],[1.57663711838321,52.1963572631544],[1.57665513909114,52.1965815908885],[1.57702017919647,52.1965705174738],[1.57703820197462,52.1967948451055],[1.5770562249895,52.1970191727242],[1.57707424824111,52.1972435003299],[1.57709227172945,52.1974678279227],[1.57745731893237,52.1974567530229],[1.57747534449107,52.1976810805133],[1.57749337028652,52.1979054079907],[1.57751139631875,52.1981297354552],[1.57787644878592,52.1981186591596],[1.5778944768886,52.1983429865217],[1.57752942258775,52.1983540629066],[1.5771643680502,52.1983651381638],[1.57679931327598,52.1983762122932],[1.57643425826512,52.1983872852947],[1.57606920301764,52.1983983571685],[1.57608722218853,52.1986226849643],[1.57610524159611,52.1988470127471],[1.57612326124037,52.199071340517],[1.57614128112134,52.1992956682738],[1.57615930123899,52.1995199960177],[1.57617732159335,52.1997443237485],[1.57581225510653,52.1997553950304],[1.5754471883831,52.1997664651844],[1.5750821214231,52.1997775342105],[1.57471705422655,52.1997886021088],[1.57435198679347,52.1997996688792],[1.57398691912389,52.1998107345218],[1.57362185121783,52.1998217990364],[1.57325678307532,52.1998328624233],[1.57289171469637,52.1998439246822],[1.57252664608102,52.1998549858133],[1.57216157722928,52.1998660458165],[1.57179650814118,52.1998771046918],[1.57143143881675,52.1998881624393],[1.571066369256,52.1998992190588],[1.57108436417245,52.2001235480264],[1.57110235932528,52.2003478769809],[1.57073728586036,52.200358932651],[1.57071929254149,52.2001346036072],[1.57035422067425,52.2001456580602],[1.57033622942567,52.1999213289144],[1.56997115915613,52.1999323821503],[1.56995316997779,52.1997080529023],[1.56958810130595,52.1997191049212],[1.56922303239793,52.1997301558122],[1.56885796325375,52.1997412055753],[1.5688399798134,52.1995168760469],[1.56882199660927,52.1992925465055],[1.56845693089674,52.1993035949624],[1.56843894976269,52.1990792653189],[1.56807388564791,52.1990903125589],[1.56770882129705,52.1991013586711],[1.56769084406688,52.1988770288363],[1.56732578131382,52.1988880737315],[1.56696071832473,52.1988991174988],[1.5669786918872,52.1991234475117],[1.56661362682824,52.1991344902403],[1.56663159879292,52.1993588203294],[1.56664957099368,52.1995831504054],[1.56628450203094,52.1995941921843],[1.56630247263384,52.1998185223365],[1.5663204434728,52.2000428524757],[1.56633841454782,52.200267182602],[1.56670348901242,52.2002561405559],[1.56706856324102,52.2002450973819],[1.56743363723359,52.20023405308],[1.56779871099011,52.2002230076502],[1.56781668963719,52.2004473374071],[1.56818176499162,52.2004362907602],[1.56854684010995,52.2004252429855],[1.56891191499215,52.2004141940828],[1.56927698963819,52.2004031440523],[1.56964206404806,52.2003920928938],[1.56966005214621,52.2006164222709],[1.57002512814911,52.2006053698904],[1.57004311834368,52.2008296992178],[1.57006110877436,52.2010540285324],[1.57042618820523,52.2010429748503],[1.57044418070406,52.2012673040655],[1.5708092617309,52.2012562491685],[1.57082725629794,52.2014805782843],[1.57119233892074,52.2014695221723],[1.57121033555602,52.2016938511886],[1.57122833242751,52.2019181801921],[1.57086324614054,52.2019292364775],[1.57049815961747,52.2019402916347],[1.57013307285833,52.2019513456637],[1.56976798586312,52.2019623985645],[1.5694028986319,52.201973450337],[1.56903781116466,52.2019845009814],[1.56905579727957,52.2022088304925],[1.56942088657895,52.2021977797615],[1.56943887476209,52.2024221091732],[1.56945686318134,52.2026464385721],[1.56947485183668,52.2028707679584],[1.56949284072813,52.2030950973319],[1.56951082985569,52.2033194266927],[1.56952881921936,52.2035437560407],[1.56954680881915,52.203768085376],[1.56956479865506,52.2039924146986],[1.5695827887271,52.2042167440085],[1.56960077903526,52.2044410733057],[1.56961876957956,52.2046654025901],[1.56963676036,52.2048897318618],[1.56965475137658,52.2051140611208],[1.56967274262931,52.205338390367],[1.5700378573451,52.2053273372937],[1.57005585066648,52.2055516664405],[1.57007384422402,52.2057759955746],[1.56970872584322,52.2057870488213],[1.56934360722634,52.2057981009396],[1.56897848837341,52.2058091519296],[1.56896050031343,52.2055848225354],[1.568595383057,52.2055958723103],[1.56861336928445,52.2058202017912],[1.56824824995948,52.2058312505245],[1.56826623459046,52.2060555800793],[1.56863135574798,52.2060445312594],[1.5689964766695,52.2060334813111],[1.56901446520171,52.2062578106799],[1.56903245397003,52.2064821400359],[1.56866732938334,52.2064931901576],[1.56864934244761,52.2062688607149],[1.56828421945751,52.2062799096215],[1.56791909623141,52.2062909573997],[1.56755397276936,52.2063020040495],[1.56753599156749,52.2060776743341],[1.56717086970208,52.2060887197688],[1.56715289056881,52.205864389954],[1.56713491167152,52.2056400601264],[1.56676979323534,52.2056511042595],[1.56640467456327,52.2056621472642],[1.56603955565534,52.2056731891406],[1.56605752905496,52.2058975192281],[1.5660755026905,52.2061218493029],[1.56571037988159,52.2061328902241],[1.56534525683686,52.2061439300169],[1.56536322704309,52.2063682602522],[1.56538119748521,52.2065925904748],[1.5653991681632,52.2068169206847],[1.56503403938475,52.206827959609],[1.56505200846595,52.2070522898927],[1.56506997778301,52.2072766201638],[1.56508794733594,52.2075009504221],[1.56472281281183,52.2075119884615],[1.56435767803419,52.2075230253478],[1.56399254302092,52.2075340611058],[1.56401050731543,52.2077583916175],[1.56364537023485,52.2077694263357],[1.56328023291868,52.2077804599255],[1.56291509536693,52.2077914923871],[1.56289713656749,52.2075671616103],[1.5625320006119,52.2075781928552],[1.56254995757963,52.2078025237204],[1.56256791478297,52.2080268545727],[1.56258587222193,52.208251185412],[1.56260382989649,52.2084755162385],[1.56223868637842,52.2084865467086],[1.5622566424568,52.2087108776105],[1.56189149687141,52.2087219070406],[1.56152635105053,52.2087329353424],[1.56116120499418,52.2087439625158],[1.56079605870238,52.2087549885608],[1.56081400761403,52.2089793197371],[1.56044885925285,52.2089903447384],[1.56008371065662,52.2090013686115],[1.55971856182537,52.2090123913563],[1.55973650546208,52.2092367227648],[1.55937135456744,52.2092477444704],[1.55900620343782,52.2092587650477],[1.55864105207323,52.2092697844968],[1.55827590047371,52.2092808028176],[1.55791074863927,52.20929182001],[1.55754559656994,52.2093028360742],[1.55718044426574,52.2093138510101],[1.55719837533868,52.209538183029],[1.55721630664654,52.209762515035],[1.55758146260761,52.209751499921],[1.55759939597888,52.209975831825],[1.55761732958512,52.210200163716],[1.55763526342633,52.210424495594],[1.5576531975025,52.2106488274591],[1.5580183605427,52.2106378108607],[1.55803629668241,52.2108621426238],[1.55767113181365,52.2108731593113],[1.55768906635979,52.2110974911504],[1.55805423305712,52.2110864743739],[1.55807216966685,52.2113108061111],[1.55809010651159,52.2115351378353],[1.55810804359133,52.2117594695466],[1.5581259809061,52.2119838012449],[1.55849115468308,52.2119727829837],[1.55850909406158,52.21219711458],[1.55887426943229,52.2121860951015],[1.55923944456801,52.2121750744945],[1.55960461946871,52.2121640527591],[1.55996979413437,52.2121530298953],[1.55995184744112,52.2119286986553],[1.56031702004304,52.2119176747523],[1.56068219240988,52.2119066497208],[1.56104736454161,52.2118956235609],[1.56102941259754,52.2116712925754],[1.5613945826655,52.2116602653762],[1.5617597524983,52.2116492370488],[1.56212492209593,52.2116382075929],[1.56249009145837,52.2116271770087],[1.56247213243506,52.2114028463667],[1.56245417364705,52.2111785157118],[1.56243621509435,52.2109541850439],[1.56241825677693,52.210729854363],[1.56278341858987,52.210718823007],[1.56276545867924,52.2104944924023],[1.56240029869481,52.2105055236691],[1.56238234084797,52.2102811929623],[1.56236438323641,52.2100568622425],[1.56234642586013,52.2098325315097],[1.56271158035919,52.2098215005105],[1.56307673462303,52.2098104683829],[1.56309469565617,52.2100347989373],[1.56311265692465,52.2102591294788],[1.56313061842845,52.2104834600073],[1.56314858016758,52.2107077905228],[1.56316654214206,52.2109321210253],[1.56318450435187,52.2111564515149],[1.56320246679703,52.2113807819915],[1.56356763362513,52.2113697481114],[1.56393280021794,52.2113587131029],[1.56429796657544,52.2113476769661],[1.56431593474172,52.2115720071621],[1.56468110269246,52.2115609698077],[1.56469907292277,52.2117852999016],[1.56471704338854,52.2120096299825],[1.56508221478669,52.2119985913117],[1.56510018732169,52.2122229212903],[1.56511816009264,52.2124472512559],[1.56548333493955,52.2124362112735],[1.56584850955056,52.2124251701625],[1.56621368392566,52.2124141279231],[1.56619570565469,52.2121897982222],[1.56656087796051,52.2121787549425],[1.56654289809225,52.211954425317],[1.56652491846001,52.2117300956786],[1.56650693906381,52.2115057660273],[1.56614177225785,52.2115168090421],[1.56612379493092,52.2112924792897],[1.56575862972228,52.2113035210878],[1.56574065446457,52.2110791912343],[1.56537549085326,52.2110902318157],[1.56539346427774,52.2113145617576],[1.56502829859733,52.2113256012988],[1.56501032700607,52.2111012712688],[1.56499235565074,52.2108769412258],[1.56497438453134,52.21065261117],[1.56495641364785,52.2104282811014],[1.56493844300028,52.2102039510198],[1.56492047258861,52.2099796209254],[1.56490250241286,52.2097552908181],[1.56526765526117,52.2097442518944],[1.56563280787365,52.2097332118424],[1.56561483426768,52.2095088818987],[1.56597998481123,52.2094978408065],[1.56634513511891,52.209486798586],[1.56671028519067,52.2094757552371],[1.5670754350265,52.2094647107598],[1.56744058462637,52.2094536651542],[1.56780573399026,52.2094426184202],[1.56817088311815,52.2094315705579],[1.56853603201001,52.2094205215672],[1.56855402028028,52.2096448508047],[1.5685720087867,52.2098691800293],[1.56858999752926,52.210093509241],[1.56895515168419,52.210082458857],[1.56897314249599,52.2103067879675],[1.56899113354397,52.2105311170652],[1.56935629112901,52.2105200653761],[1.56937428424631,52.2107443943725],[1.56900912482813,52.2107554461499],[1.56864396517385,52.2107664967989],[1.56827880528349,52.2107775463195],[1.56829679313751,52.211001875568],[1.56793163117793,52.2110129240484],[1.56756646898231,52.2110239714005],[1.56720130655069,52.2110350176241],[1.56721928914125,52.2112593471246],[1.56723727196788,52.2114836766122],[1.56725525503059,52.211708006087],[1.56727323832938,52.2119323355489],[1.56729122186426,52.2121566649978],[1.56730920563523,52.2123809944339],[1.56694403196802,52.2123920400588],[1.56657885806482,52.2124030845552],[1.56659683840518,52.212627414155],[1.56661481898159,52.2128517437419],[1.56663279979406,52.2130760733159],[1.56699797919739,52.2130650285547],[1.56701596207935,52.2132893580275],[1.56703394519738,52.2135136874875],[1.56739912803158,52.2135026414212],[1.56776431062976,52.2134915942264],[1.56774632384483,52.213267264943],[1.56811150437351,52.213256216708],[1.56847668466611,52.2132451673444],[1.5684586944505,52.2130208382247],[1.5688238726736,52.213009787821],[1.56918905066058,52.2129987362887],[1.56917105701438,52.2127744073328],[1.56953623293185,52.2127633547604],[1.56990140861315,52.2127523010595],[1.57026658405826,52.2127412462302],[1.57063175926717,52.2127301902723],[1.57061375852382,52.2125058616569],[1.57097893166316,52.2124948046589],[1.57099693423985,52.2127191331859],[1.57101493705286,52.2129434617],[1.57138011362263,52.2129324033968],[1.57174528995611,52.2129213439651],[1.57211046605329,52.2129102834049],[1.57209245774022,52.212685955156],[1.57207444966356,52.2124616268942],[1.57243962185774,52.2124505653823],[1.5724216121842,52.212226237196],[1.57278678230875,52.2122151746441],[1.57315195219692,52.2122041109638],[1.57316996553703,52.2124284389732],[1.5735351370221,52.212417374076],[1.57390030827074,52.2124063080503],[1.57391832551393,52.2126306358699],[1.57428349835943,52.2126195686273],[1.57426547928293,52.2123952408961],[1.57463065005866,52.2123841726135],[1.57464867096845,52.2126085002562],[1.57501384334097,52.2125974307567],[1.57503186632065,52.212821758298],[1.57504988953693,52.2130460858265],[1.57506791298984,52.2132704133421],[1.57508593667935,52.2134947408447],[1.57510396060549,52.2137190683345],[1.57512198476825,52.2139433958113],[1.57548716790446,52.2139323246524],[1.5755051941373,52.2141566520279],[1.5755232206068,52.2143809793905],[1.57554124731296,52.2146053067401],[1.57555927425578,52.2148296340769],[1.57557730143528,52.2150539614007],[1.57521210913158,52.2150650330021],[1.57484691659131,52.215076103475],[1.57486494034034,52.2153004309629],[1.57523013471418,52.2152893604016],[1.57559532885145,52.2152782887117],[1.57596052275213,52.2152672158932],[1.57632571641618,52.2152561419462],[1.57634374773621,52.2154804690672],[1.57636177929296,52.2157047961754],[1.57599658196171,52.2157158702994],[1.57601461192156,52.2159401974832],[1.57637981108645,52.2159291232706],[1.57639784311667,52.2161534503529],[1.57603264211813,52.216164524654],[1.57605067255141,52.216388851812],[1.57568546948254,52.216399925073],[1.57532026617706,52.2164109972053],[1.57533829317965,52.2166353245274],[1.57535632041891,52.2168596518365],[1.57537434789485,52.2170839791328],[1.5753923757511,52.2173083064633],[1.57541040389666,52.2175326337983],[1.57542843227883,52.2177569611205],[1.57579364657495,52.2177458884543],[1.57615886063452,52.2177348146594],[1.5761408285864,52.217510487514],[1.57650604057642,52.2174994126788],[1.57687125232985,52.2174883367149],[1.5768532168525,52.2172640097335],[1.57683518170177,52.2170396827694],[1.57720038956182,52.217028605857],[1.57756559718514,52.2170175278159],[1.57754755870669,52.2167932010508],[1.57752952046506,52.2165688742728],[1.57789472418418,52.2165577952802],[1.57825992766655,52.216546715159],[1.57862513091212,52.2165356339092],[1.57860708740626,52.216311307384],[1.57858904413729,52.2160869808458],[1.57822384455905,52.2160980619185],[1.57785864474404,52.2161091418626],[1.57784060537922,52.2158848151344],[1.57782256625124,52.2156604883933],[1.57780452736009,52.2154361616393],[1.57778648870577,52.2152118348724],[1.57776845028826,52.2149875080926],[1.57813364093533,52.2149764285913],[1.57815168118638,52.2152007552826],[1.57816972167427,52.2154250819609],[1.57818776239901,52.2156494086264],[1.57855295831,52.2156383277308],[1.57853491575168,52.215414001154],[1.5789001095923,52.2154029192184],[1.57888206543729,52.2151785927172],[1.57886402151917,52.2149542662031],[1.57884597783794,52.2147299396761],[1.5788279343936,52.2145056131362],[1.57846274788706,52.2145166947174],[1.57809756114375,52.2145277751701],[1.57773237416369,52.2145388544943],[1.57736718694691,52.2145499326899],[1.57734915107332,52.2143256057829],[1.57733111543651,52.2141012788629],[1.57731308003647,52.21387695193],[1.5776782617529,52.213865874],[1.57804344323262,52.2138547949415],[1.57802540440256,52.2136304681728],[1.57800736580931,52.2134061413912],[1.57798932745288,52.2131818145967],[1.57762415147328,52.2131928933895],[1.57725897525698,52.2132039710539],[1.57689379880401,52.2132150475898],[1.57691183166038,52.2134393746499],[1.57654665313739,52.2134504501459],[1.57652862211438,52.2132261229972],[1.57616344518813,52.2132371972762],[1.57614541623518,52.2130128700261],[1.57612738751891,52.2127885427631],[1.57610935903932,52.2125642154872],[1.5760913307964,52.2123398881984],[1.57572616096679,52.2123509609949],[1.5757081347938,52.2121266336047],[1.57569010885746,52.2119023062016],[1.57532494245777,52.2119133776926],[1.57495977582155,52.2119244480551],[1.57459460894881,52.2119355172893],[1.5742294418396,52.211946585395],[1.57421142347275,52.2117222576251],[1.57419340534244,52.2114979298423],[1.57455856878524,52.2114868619135],[1.57454054905829,52.2112625342062],[1.57417538744867,52.2112736020466],[1.57415736979143,52.211049274238],[1.57452252956791,52.2110382064861],[1.57488768910791,52.2110271376059],[1.57525284841143,52.2110160675972],[1.5752708715681,52.2112403951404],[1.57528889496138,52.2114647226707],[1.57565405769468,52.2114536513567],[1.57601922019143,52.2114425789142],[1.57638438245161,52.2114315053433],[1.57674954447519,52.2114204306441],[1.57711470626216,52.2114093548164],[1.57709667370312,52.2111850277286],[1.5770786413808,52.210960700628],[1.57706060929521,52.2107363735144],[1.57742576534618,52.2107252968239],[1.5777909211605,52.210714219005],[1.57815607673814,52.2107031400578],[1.57852123207907,52.2106920599822],[1.57888638718328,52.2106809787782],[1.57925154205074,52.2106698964458],[1.57961669668143,52.2106588129851],[1.57998185107532,52.210647728396],[1.57996380456201,52.210423401978],[1.58032895688604,52.2104123163491],[1.58069410897322,52.2104012295919],[1.58105926082355,52.2103901417063],[1.58142441243698,52.2103790526923],[1.58178956371748,52.2103679625348],[1.58215471472082,52.2103568712423],[1.58251986548703,52.2103457788213],[1.58288501601609,52.2103346852717],[1.58290307719327,52.2105590109875],[1.58326822931986,52.2105479162228],[1.58363338120925,52.2105368203295],[1.58365144629317,52.2107611458594],[1.58401659978006,52.210750048751],[1.58403466693605,52.2109743741815],[1.58439982202043,52.210963275858],[1.58476497686752,52.2109521764058],[1.58478304793041,52.2111765016505],[1.58514820437496,52.2111654009831],[1.58516627751004,52.2113897261284],[1.58518435088254,52.2116140512611],[1.58554951075935,52.2116029492919],[1.58556758620412,52.2118272743251],[1.58558566188635,52.2120515993457],[1.58560373780604,52.2122759243535],[1.58562181396321,52.2125002493486],[1.58598698094211,52.2124891459043],[1.58600505917166,52.2127134708],[1.58602313763872,52.212937795683],[1.58604121634329,52.2131621205533],[1.58605929528536,52.2133864454109],[1.58642446936668,52.2133753404913],[1.58678964321054,52.2133642344431],[1.58677156059849,52.2131399097588],[1.58713673236989,52.2131288026686],[1.58715481681693,52.2133531272662],[1.58751999018582,52.2133420189606],[1.58753807670545,52.2135663434588],[1.58755616346269,52.2137906679443],[1.58792134026408,52.2137795583366],[1.58828651682792,52.2137684476004],[1.58865169315417,52.2137573357354],[1.58863360089187,52.21353301151],[1.58899877514551,52.2135218986031],[1.58936394916152,52.2135107845675],[1.58934585346693,52.2132864605029],[1.5889806812859,52.2132975744517],[1.588962587664,52.2130732502876],[1.58859741708032,52.2130843630211],[1.58857932553105,52.2128600387576],[1.58821415654472,52.2128711502757],[1.58819606706804,52.2126468259127],[1.58783089967907,52.2126579362155],[1.58781281227495,52.2124336117531],[1.58779472510843,52.212209287278],[1.58742956115171,52.2122203962788],[1.58741147605767,52.2119960717043],[1.58704631369831,52.2120071794898],[1.58702823067669,52.2117828548158],[1.58666306991469,52.2117939613861],[1.58664498896544,52.2115696366127],[1.58662690825372,52.2113453118267],[1.58626175092389,52.211356417095],[1.58624367228447,52.2111320922096],[1.58587851655201,52.2111431962627],[1.58586043998483,52.2109188712779],[1.58549528584975,52.2109299741158],[1.58547721135477,52.2107056490317],[1.58545913709723,52.2104813239348],[1.58509398639424,52.2104924254709],[1.58507591420883,52.2102681002747],[1.58471076510321,52.2102792005956],[1.58469269498987,52.2100548753],[1.58432754748163,52.2100659744058],[1.58430947944032,52.2098416490109],[1.58429141163637,52.2096173236034],[1.58392626756014,52.2096284214074],[1.58390820182814,52.2094040959005],[1.58354305934928,52.2094151924894],[1.58317791663322,52.2094262879498],[1.58315985480772,52.209201962257],[1.58279471368906,52.2092130565023],[1.5827766539354,52.2089887307103],[1.58241151441416,52.2089998237405],[1.58239345671156,52.208775497824],[1.58237539913877,52.2085511717635],[1.58235734180287,52.2083268456897],[1.58199220754768,52.2083379373261],[1.58162707305572,52.2083490278346],[1.58126193821959,52.2083601171972],[1.58127999006775,52.2085844435469],[1.58091485312427,52.2085955318618],[1.58089680310884,52.2083712054251],[1.58053166776124,52.2083822925246],[1.58051361981545,52.2081579659882],[1.58049557210655,52.207933639439],[1.58086070378875,52.2079225525136],[1.58084265448409,52.2076982260386],[1.58120778409679,52.2076871380717],[1.58118973319641,52.2074628116711],[1.58117168253297,52.2072384852576],[1.58153680824183,52.2072273963364],[1.58151875598449,52.2070030699972],[1.58188387949407,52.2069919800457],[1.58224900276188,52.2069808889668],[1.58261412579291,52.2069697967602],[1.58297924858714,52.2069587034257],[1.58334437114454,52.2069476089635],[1.58336243255269,52.2071719348385],[1.58338049419776,52.2073962607002],[1.58339855607978,52.2076205865486],[1.58341661819875,52.2078449123836],[1.58378174784406,52.2078338164218],[1.58414687725249,52.2078227193322],[1.584512006424,52.2078116211147],[1.58487713535858,52.2078005217695],[1.58489520503946,52.2080248472193],[1.58453007427365,52.2080359466575],[1.58454814236032,52.208260272187],[1.58456621068402,52.2084845977031],[1.58493134511238,52.2084734980789],[1.58494941550442,52.2086978234887],[1.58531455152711,52.2086867226437],[1.58533262394239,52.2089110479008],[1.58535069653798,52.2091353730867],[1.58571583599585,52.2091242709419],[1.58608097521638,52.2091131676686],[1.58606289895171,52.208888842656],[1.58642803610033,52.2088777383408],[1.58679317301155,52.2088666328972],[1.58715830968536,52.2088555263251],[1.58714022808507,52.2086312015009],[1.5875053626854,52.2086200938888],[1.58787049704858,52.2086089851488],[1.5882356311746,52.2085978752811],[1.58821754430097,52.2083735507086],[1.58858267635852,52.208362439806],[1.58894780817887,52.2083513277757],[1.58892971788003,52.2081270033759],[1.5892948476319,52.2081158903109],[1.58927675573916,52.2078915659908],[1.58964188342257,52.2078804518911],[1.59000701086871,52.2078693366635],[1.58998891555094,52.2076450125163],[1.59035404092861,52.207633896254],[1.59033594401706,52.2074095721866],[1.59070106732626,52.2073984548896],[1.59068296882099,52.207174130902],[1.59104809006173,52.2071630125704],[1.59102998996278,52.2069386886625],[1.59139510913508,52.2069275692962],[1.5913770074425,52.2067032454681],[1.59174212454635,52.2066921250673],[1.59172402126019,52.2064678013189],[1.59208913629561,52.2064566798835],[1.59207103141591,52.2062323562149],[1.59243614438291,52.2062212337449],[1.59280125711247,52.2062101101472],[1.59278314880831,52.2059857866516],[1.59314825946943,52.2059746620194],[1.59313014957186,52.2057503386036],[1.59311203991184,52.2055260151744],[1.59347714667361,52.2055148896008],[1.59345903542025,52.2052905662514],[1.59382414011363,52.2052794396434],[1.59380602726698,52.2050551163738],[1.59417112989198,52.2050439887313],[1.59415301545207,52.2048196655416],[1.5945181160087,52.2048085368645],[1.59488321632777,52.2047974070599],[1.59524831640926,52.2047862761275],[1.59523019671453,52.2045619532041],[1.59559529472762,52.2045508212374],[1.5955771734398,52.2043264983938],[1.59594226938448,52.2043153653927],[1.59592414650361,52.204091042629],[1.59628924037991,52.2040799085934],[1.59627111590604,52.2038555859096],[1.59663620771396,52.2038444508397],[1.59661808164713,52.2036201282358],[1.59659995581806,52.2033958056184],[1.59696504372694,52.2033846696075],[1.59694691630498,52.2031603470701],[1.5969287891208,52.2029360245192],[1.59656370487319,52.2029471603437],[1.59658183022675,52.2031714829878],[1.59621674391084,52.2031826177779],[1.59623486767151,52.2034069405018],[1.59586977928731,52.2034180742576],[1.59588790145503,52.2036423970614],[1.59552281100252,52.2036535297829],[1.59554093157725,52.2038778526666],[1.59517583905643,52.2038889843536],[1.59519395803812,52.2041133073171],[1.59482886344898,52.2041244379698],[1.59484698083759,52.2043487610132],[1.59448188418012,52.2043598906314],[1.5941167872851,52.204371019122],[1.59375169015256,52.204382146485],[1.59373357825626,52.204157823162],[1.59336848271699,52.2041689493041],[1.59300338694026,52.2041800743186],[1.59263829092607,52.2041911982054],[1.59227319467447,52.2042023209647],[1.59190809818547,52.2042134425962],[1.59154300145908,52.2042245631002],[1.59152490078493,52.2040002392048],[1.59115980565198,52.2040113584879],[1.5907947102817,52.2040224766434],[1.59042961467412,52.2040335936713],[1.59041151972967,52.2038092694832],[1.59039342502258,52.2035849452817],[1.59037533055284,52.2033606210669],[1.5907404206682,52.2033495043183],[1.59072232460512,52.2031251801832],[1.5907042287794,52.2029008560348],[1.59068613319104,52.202676531873],[1.59105121757713,52.2026654142762],[1.59103312039552,52.2024410901941],[1.59101502345129,52.2022167660987],[1.59138010393888,52.2022056475606],[1.59136200540146,52.2019813235449],[1.59134390710143,52.2017569995159],[1.59097883027493,52.2017681178678],[1.59061375321115,52.2017792350921],[1.59024867591011,52.2017903511888],[1.59023058333903,52.2015660268671],[1.58986550763128,52.2015771417432],[1.58950043168633,52.2015882554918],[1.58913535550419,52.2015993681128],[1.58877027908489,52.2016104796063],[1.58840520242846,52.2016215899722],[1.58804012553492,52.2016326992106],[1.58802204418423,52.2014083743171],[1.58765696888413,52.2014194823349],[1.58729189334696,52.2014305892252],[1.58692681757276,52.2014416949879],[1.58656174156155,52.201452799623],[1.58619666531336,52.2014639031306],[1.5858315888282,52.2014750055107],[1.58546651210609,52.2014861067632],[1.58544844380618,52.2012617812052],[1.58581351869776,52.2012506800457],[1.58579544880434,52.2010263545673],[1.58577737914793,52.2008020290756],[1.58575930972854,52.2005777035706],[1.58574124054561,52.2003533781173],[1.58537617297632,52.2003644789033],[1.58501110517006,52.2003755785609],[1.58464603712687,52.2003866770902],[1.58428096884675,52.2003977744913],[1.58391590032975,52.200408870764],[1.58389784053904,52.2001845449241],[1.58353277361629,52.2001956399836],[1.58316770645671,52.2002067339148],[1.5828026390603,52.2002178267176],[1.58243757142709,52.2002289183922],[1.58245562389325,52.2004532445717],[1.58209055419213,52.2004643352028],[1.58207250355712,52.2002400089384],[1.58205445315894,52.2000156826615],[1.58203640299759,52.199791356372],[1.58201835307306,52.1995670300699],[1.58200030338534,52.1993427037553],[1.581635242603,52.1993537928337],[1.58161719498312,52.1991294664217],[1.58159914760004,52.1989051399972],[1.58158110045374,52.1986808135601],[1.58156305354421,52.1984564871104],[1.58119799978383,52.198467574851],[1.58117995494114,52.1982432483065],[1.5808149027716,52.1982543348415],[1.58083294578062,52.1984786614755],[1.58085098902663,52.1987029880964],[1.58048593295281,52.1987140736825],[1.5804678915405,52.1984897469722],[1.58044985036515,52.1982654202488],[1.58043180942678,52.1980410935124],[1.58041376872537,52.1978167667631],[1.58004871974933,52.1978278508637],[1.57968367053644,52.1978389338366],[1.57970170757058,52.1980632607648],[1.57971974484163,52.19828758768],[1.5793546917246,52.1982986697039],[1.57933665628722,52.1980743426993],[1.57931862108672,52.1978500156817],[1.57930058612311,52.1976256886512],[1.57928255139638,52.1974013616076],[1.57926451690653,52.1971770345511],[1.57924648265356,52.1969527074815],[1.57961152476895,52.196941625994],[1.57959348891933,52.1967172990008],[1.57995852896439,52.196706216475],[1.57994049151816,52.1964818895582],[1.57992245430885,52.1962575626285],[1.58028749045012,52.1962464791538],[1.58065252635455,52.1962353945513],[1.5810175620221,52.1962243088212],[1.58099951954938,52.1959999821467],[1.5813645531466,52.1959888953783],[1.58134650907745,52.1957645687803],[1.58098147731363,52.1957756554593],[1.58096343531485,52.1955513287588],[1.58094539355303,52.1953270020453],[1.58058036521907,52.1953380874178],[1.58021533664826,52.1953491716625],[1.57985030784062,52.1953602547797],[1.57983227181579,52.195135927785],[1.57981423602786,52.1949116007773],[1.5797962004768,52.1946872737566],[1.57943117693233,52.1946983554778],[1.57906615315109,52.1947094360714],[1.57904812150348,52.194485108859],[1.57868309931878,52.1944961882355],[1.57831807689736,52.1945072664845],[1.57830004915311,52.1942829390803],[1.57793502832827,52.1942940161123],[1.57757000726676,52.1943050920166],[1.57720498596861,52.1943161667933],[1.57718696396089,52.194091839108],[1.57755198342578,52.1940807644207],[1.57753395982152,52.1938564368118],[1.57751593645398,52.1936321091899],[1.57749791332316,52.193407781555],[1.5778629270518,52.1933967060081],[1.57784490232452,52.1931723784496],[1.57820991398336,52.1931613018644],[1.57819188765969,52.1929369743823],[1.57782687783398,52.1929480508781],[1.57780885358016,52.1927237232936],[1.57744384535092,52.1927347985725],[1.57707883688507,52.1927458727239],[1.57706081653415,52.1925215449477],[1.57669580966479,52.1925326178821],[1.57633080255888,52.192543689689],[1.57596579521643,52.1925547603684],[1.5759477806014,52.1923304323113],[1.5759297662124,52.1921061042228],[1.57556476230204,52.1921171736005],[1.57554674993099,52.1918928453221],[1.57552873779617,52.1916685170303],[1.575163737309,52.1916795850948],[1.57514572724005,52.1914552566966],[1.5751277174073,52.1912309282851],[1.57476272034328,52.1912419950364],[1.57474471257631,52.1910176665185],[1.57437971710581,52.1910287320497],[1.57436171140459,52.1908044034254],[1.57434370593951,52.1905800747878],[1.57432570071056,52.1903557461369],[1.57396071049267,52.1903668102619],[1.57359572003875,52.1903778732598],[1.57323072934884,52.1903889351306],[1.57286573842295,52.1903999958743],[1.57250074726112,52.1904110554909],[1.57213575586335,52.1904221139803],[1.57215375011503,52.1906464431891],[1.57217174460271,52.1908707723845],[1.57253673965961,52.1908597137091],[1.57255473621288,52.1910840427983],[1.57291973286344,52.1910729829028],[1.57293773148236,52.1912973118856],[1.57295573033733,52.1915216408551],[1.57332073041118,52.1915105796466],[1.57333873133187,52.1917349085097],[1.57297372942835,52.1917459698112],[1.57299172875543,52.191970298754],[1.57300972830017,52.192194627655],[1.57302772801402,52.1924189564392],[1.57304572796428,52.1926432852104],[1.57306372815094,52.1928676139686],[1.57308172857402,52.1930919427139],[1.57309972923351,52.1933162714461],[1.57346474396689,52.1933052095197],[1.5738297584639,52.1932941464656],[1.57419477272454,52.193283082284],[1.57421277912006,52.1935074107355],[1.57423078575207,52.1937317391741],[1.57459580344271,52.1937206736863],[1.57461381214446,52.1939450020226]]],[[[1.57780885358016,52.1927237232936],[1.57817386157277,52.1927126468871],[1.57853886932871,52.1927015693531],[1.57890387684796,52.1926904906915],[1.57888584733163,52.1924661633621],[1.5788678180521,52.1922418360197],[1.57923282166853,52.1922307564093],[1.57921479077497,52.1920064291006],[1.57919676010726,52.1917821017529],[1.57883176015298,52.191793181182],[1.57846675996233,52.191804259484],[1.57844873319034,52.1915799319368],[1.57843070665477,52.1913556043761],[1.57841268035561,52.1911312768021],[1.57804768541745,52.1911423536977],[1.57806570988703,52.1913666813647],[1.57770071288297,52.1913777572263],[1.57771873575932,52.1916020849731],[1.57808373459299,52.1915910090185],[1.57810175953534,52.1918153366588],[1.57811978471409,52.1920396642859],[1.57813781010915,52.1922639918579],[1.57777280578269,52.1922750680857],[1.57779082956307,52.1924993956961],[1.57780885358016,52.1927237232936]]],[[[1.59417112989198,52.2050439887313],[1.5941892445695,52.2052683119076],[1.59420735948465,52.2054926350706],[1.59384225319789,52.2055037628995],[1.59386036651975,52.2057280861423],[1.59422547463742,52.2057169582202],[1.59424359002782,52.2059412813564],[1.59460869973888,52.2059301522133],[1.59459058251755,52.2057058291703],[1.59457246553386,52.2054815061139],[1.59455434878783,52.2052571830442],[1.59453623227944,52.2050328599611],[1.59417112989198,52.2050439887313]]],[[[1.57985462436383,52.1908626307338],[1.57983659121938,52.1906383035056],[1.58020158131662,52.1906272211607],[1.58018354657918,52.1904028940122],[1.58016551207824,52.1901785668503],[1.57980052563996,52.1901896490089],[1.57943553896527,52.1902007300405],[1.57945356980727,52.1904250573886],[1.57908858106672,52.1904361373862],[1.57910661031568,52.190660464814],[1.57874161950927,52.1906715437776],[1.57875964716515,52.1908958712852],[1.57877767505745,52.1911201987795],[1.57914266952294,52.1911091196297],[1.57950766375206,52.1910980393527],[1.57987265774477,52.1910869579487],[1.57985462436383,52.1908626307338]]],[[[1.57857492540553,52.1931502241517],[1.5785929537991,52.1933745515314],[1.57861098242946,52.1935988788982],[1.5786290112966,52.1938232062521],[1.57864704040053,52.1940475335929],[1.57901205891873,52.194036454395],[1.57937707720019,52.1940253740696],[1.57974209524489,52.1940142926165],[1.57972406064132,52.1937899655439],[1.58008907661604,52.1937788830526],[1.58007104041615,52.1935545560563],[1.58005300445314,52.1933302290471],[1.58003496872702,52.1931059020248],[1.57966995825177,52.1931169842479],[1.57965192459562,52.1928926571233],[1.57928691571672,52.1929037381294],[1.57930494753976,52.1931280653434],[1.578939936591,52.1931391453113],[1.57857492540553,52.1931502241517]]],[[[1.56704502072483,52.2045184107977],[1.56706299844222,52.2047427406888],[1.566697887336,52.2047537844754],[1.56633277599392,52.2047648271335],[1.56635075028236,52.2049891571853],[1.56636872480673,52.2052134872243],[1.56673383981376,52.2052024443929],[1.56709895458492,52.2051914004331],[1.56711693301023,52.2054157302861],[1.56748204937799,52.2054046851113],[1.56784716550982,52.2053936388081],[1.56821228140571,52.2053825913766],[1.56857739706563,52.2053715428167],[1.56855941131034,52.2051472133104],[1.56854142579113,52.2049228837913],[1.56852344050798,52.2046985542595],[1.56815833034546,52.2047096025593],[1.5681403471308,52.2044852729281],[1.56777523856473,52.204496320013],[1.56741012976274,52.2045073659695],[1.56739215044891,52.2042830361522],[1.56775725741851,52.2042719902824],[1.56773927650829,52.2040476605391],[1.56737417137107,52.2040587063222],[1.56700906599795,52.2040697509771],[1.56702704324341,52.2042940808938],[1.56704502072483,52.2045184107977]]]]}}