{"type":"Feature","properties":{"code":"E63000474","name":"Ulverston"},"geometry":{"type":"MultiPolygon","coordinates":[[[[-3.02231421058531,54.1961224772772],[-3.0223197560505,54.1963471249386],[-3.02270288257479,54.1963438698447],[-3.02270843021839,54.1965685174651],[-3.02271397793848,54.1967931650766],[-3.02309710859024,54.1967899087004],[-3.02310265848883,54.1970145562709],[-3.02310820846393,54.1972392038324],[-3.02311375851553,54.1974638513849],[-3.02349689539695,54.1974605936943],[-3.02388003220179,54.1974573347855],[-3.02426316893002,54.1974540746584],[-3.02426872536449,54.1976787221057],[-3.0246518641182,54.1976754607284],[-3.02465742273142,54.1979001081347],[-3.02427428187556,54.1979033695441],[-3.02427983846322,54.1981280169736],[-3.02428539512748,54.1983526643941],[-3.02429095186833,54.1985773118056],[-3.02429650868579,54.1988019592083],[-3.0239133593444,54.198805219528],[-3.02391891413616,54.1990298669537],[-3.0239244690045,54.1992545143706],[-3.02393002394941,54.1994791617785],[-3.02354686822443,54.1994824209762],[-3.02316371242287,54.1994856789556],[-3.02316926323959,54.1997103264187],[-3.02355242114354,54.1997070684072],[-3.02355797413919,54.1999317158293],[-3.02317481413284,54.1999349738729],[-3.0231803651026,54.2001596213182],[-3.02318591580474,54.2003842687476],[-3.02280275153307,54.200387525633],[-3.02280830022621,54.2006121730816],[-3.02242513379722,54.2006154287766],[-3.02241958718548,54.2003907812999],[-3.02203642276198,54.2003940357483],[-3.02165325826262,54.2003972889783],[-3.02127009368741,54.2004005409899],[-3.02126455339566,54.2001758934201],[-3.02088139082601,54.2001791441851],[-3.02049822818058,54.2001823937317],[-3.0204926919461,54.1999577460652],[-3.02010953132802,54.1999609943623],[-3.02010399725412,54.1997363466517],[-3.01972083866212,54.1997395936985],[-3.01972637063361,54.199964241441],[-3.01934320986287,54.1999674873014],[-3.01896004901589,54.1999707319435],[-3.01895452124925,54.199746084137],[-3.01894899355882,54.1995214363215],[-3.01894346594459,54.1992967884971],[-3.01893793840657,54.1990721406638],[-3.01932109084404,54.1990688961496],[-3.0193266204844,54.199293543951],[-3.01970977494794,54.1992902981865],[-3.01970424320523,54.1990656504172],[-3.02008739549013,54.1990624034664],[-3.02047054769869,54.1990591552974],[-3.0208536998309,54.1990559059101],[-3.02123685188672,54.1990526553046],[-3.02123131181104,54.1988280076543],[-3.02084816185753,54.1988312582279],[-3.02046501182763,54.1988345075831],[-3.02045947603288,54.1986098598599],[-3.0200763280289,54.1986131079649],[-3.02007079441272,54.1983884602007],[-3.01968764843466,54.1983917070554],[-3.01968211699698,54.1981670592503],[-3.01967658563556,54.1979424114362],[-3.01967105435038,54.1977177636132],[-3.01966552314145,54.1974931157812],[-3.01928238549582,54.1974963612897],[-3.01889924777393,54.1974996055801],[-3.01851610997581,54.1975028486521],[-3.01851058514946,54.1972782007153],[-3.01850506039927,54.1970535527696],[-3.01812192672914,54.1970567945595],[-3.01812744937724,54.1972814425372],[-3.01774431318313,54.1972846831672],[-3.01773879261253,54.1970600351621],[-3.01735565831984,54.1970632745548],[-3.01697252395171,54.1970665127291],[-3.01696700761454,54.1968418646617],[-3.01696149135274,54.1966172165855],[-3.01695597516633,54.1963925685005],[-3.01695045905529,54.1961679204068],[-3.01733358510761,54.1961646823394],[-3.01732806699306,54.1959400342636],[-3.01771119089105,54.1959367950047],[-3.01770567077305,54.1957121469469],[-3.01770015073048,54.1954874988803],[-3.01769463076334,54.1952628508048],[-3.01807774828489,54.1952596104159],[-3.01808327032399,54.1954842584651],[-3.01846638928033,54.1954810168989],[-3.01846086513938,54.1952563688816],[-3.01884398191767,54.1952531261291],[-3.01884950816048,54.1954777741144],[-3.0192326269644,54.1954745301119],[-3.01922709861974,54.1952498821586],[-3.01961021524557,54.1952466369699],[-3.01999333179511,54.1952433905631],[-3.01998779932301,54.1950187426648],[-3.01998226692717,54.1947940947575],[-3.01997673460759,54.1945694468413],[-3.01997120236427,54.1943447989162],[-3.01996567019721,54.1941201509821],[-3.02034877616164,54.1941169035172],[-3.02073188204974,54.1941136548342],[-3.02072634575558,54.1938890069552],[-3.02110944946565,54.1938857570862],[-3.02149255309933,54.1938825059992],[-3.02187565665661,54.1938792536941],[-3.02188119925579,54.194103901477],[-3.02226430483829,54.1941006479218],[-3.02226984961556,54.1943252956637],[-3.02188674193136,54.194328549251],[-3.02189228468334,54.194553197016],[-3.02189782751172,54.1947778447721],[-3.0219033704165,54.1950024925192],[-3.02190891339768,54.1952271402574],[-3.02191445645528,54.1954517879867],[-3.0215313381857,54.1954550405161],[-3.02114821983971,54.1954582918274],[-3.02076510141732,54.1954615419205],[-3.0207706382457,54.1956861897369],[-3.0207761751504,54.1959108375444],[-3.02115929777657,54.1959075873872],[-3.02154242032634,54.1959043360119],[-3.02154796151123,54.1961289837463],[-3.0219310860865,54.1961257311208],[-3.02231421058531,54.1961224772772]]],[[[-3.10768225842883,54.1928954890203],[-3.10729917807997,54.1928990136476],[-3.10691609764925,54.1929025370569],[-3.1065330171367,54.192906059248],[-3.10652701241229,54.1926814180366],[-3.10652100776962,54.1924567768164],[-3.10613793131443,54.1924602977334],[-3.10613192882303,54.1922356564763],[-3.10574885435561,54.1922391761472],[-3.10575485477747,54.1924638174323],[-3.10537177815878,54.1924673359131],[-3.10498870145837,54.1924708531759],[-3.10499469782278,54.1926954945082],[-3.10461161897112,54.1926990105809],[-3.10461761334755,54.1929236519324],[-3.10462360780558,54.193148293275],[-3.1046296023452,54.1933729346089],[-3.10463559696642,54.1935975759339],[-3.10464159166924,54.19382221725],[-3.10464758645366,54.1940468585574],[-3.10426449510233,54.1940503735799],[-3.10427048789858,54.1942750149064],[-3.10427648077641,54.1944996562241],[-3.10389338520387,54.1945031700843],[-3.10388739439584,54.1942785287387],[-3.10350430081149,54.1942820413528],[-3.10312120714557,54.1942855527488],[-3.10311522055863,54.1940609113384],[-3.10273212888092,54.1940644214883],[-3.10273811339808,54.1942890629266],[-3.10235501956908,54.1942925718863],[-3.1023610020979,54.1945172133437],[-3.10197790611759,54.1945207211131],[-3.10198388665801,54.1947453625897],[-3.10198986727984,54.1949700040574],[-3.10199584798308,54.1951946455163],[-3.10237895017297,54.1951911376631],[-3.10237296739984,54.1949664962321],[-3.10275606743835,54.1949629871887],[-3.1027500826768,54.1947383457768],[-3.10313318056391,54.1947348355431],[-3.10313916739532,54.194959476927],[-3.10352226727074,54.1949559654472],[-3.10352825625354,54.1951806067943],[-3.10353424531785,54.1954052481326],[-3.10391734925148,54.1954017353787],[-3.10392334046727,54.1956263766802],[-3.10430644638922,54.1956228626801],[-3.10431243975653,54.1958475039448],[-3.10392933176461,54.1958510179729],[-3.10393532314351,54.1960756592568],[-3.10394131460396,54.1963003005318],[-3.10432442673591,54.1962967864477],[-3.1047075387862,54.1962932711454],[-3.10509065075481,54.1962897546249],[-3.10509664850698,54.1965143958071],[-3.10547976246393,54.1965108780403],[-3.10548576236783,54.1967355191857],[-3.1054917623534,54.1969601603223],[-3.10510864425627,54.1969636781452],[-3.10511464225338,54.197188319301],[-3.1047315220044,54.1971918359335],[-3.10434840167373,54.1971953513478],[-3.1039652812614,54.1971988655437],[-3.10358216076745,54.1972023785214],[-3.10319904019189,54.1972058902808],[-3.10320502791983,54.1974305315676],[-3.10282190519252,54.1974340421367],[-3.10243878238368,54.1974375514874],[-3.10205565949332,54.1974410596199],[-3.1020496779759,54.1972164182492],[-3.10166655707422,54.1972199251354],[-3.10128343608145,54.1972234308078],[-3.10127745878774,54.1969987893735],[-3.10127148157577,54.1967741479305],[-3.10126550444554,54.1965495064788],[-3.10088238958106,54.1965530108753],[-3.10049927463482,54.1965565140534],[-3.10050524760072,54.1967811555548],[-3.10088836462913,54.1967776523518],[-3.10089433975892,54.1970022938197],[-3.10051122064832,54.1970057970474],[-3.10012810145598,54.1970092990567],[-3.09974498218191,54.1970127998477],[-3.09936186282615,54.1970162994203],[-3.09897874338873,54.1970197977745],[-3.09898470818913,54.1972444393575],[-3.09936782970877,54.1972409409785],[-3.09975095114675,54.1972374413812],[-3.09975692019322,54.1974620829059],[-3.09976288932132,54.1976867244219],[-3.09937976371881,54.1976902240688],[-3.09899663803464,54.1976937224972],[-3.09900260307976,54.197918364054],[-3.09938573084624,54.1979148656008],[-3.09976885853106,54.1979113659291],[-3.10015198613418,54.1979078650391],[-3.10053511365557,54.1979043629306],[-3.10091824109521,54.1979008596036],[-3.10091226563856,54.1976762181707],[-3.10129539091411,54.1976727136502],[-3.10130136845306,54.1978973550583],[-3.10168449566014,54.1978938493047],[-3.10169047535158,54.1981184906768],[-3.10207360453413,54.1981149836789],[-3.10207958637726,54.1983396250142],[-3.1024627175486,54.1983361167701],[-3.10246870154348,54.1985607580687],[-3.10208556830182,54.1985642663408],[-3.10170243497867,54.1985677733945],[-3.10169645512442,54.1983431320401],[-3.10131332377621,54.1983466378483],[-3.10131930156041,54.1985712792302],[-3.10132527942636,54.1987959206034],[-3.10094214373902,54.198799425248],[-3.10055900796988,54.1988029286741],[-3.10017587211899,54.1988064308818],[-3.10018184381936,54.1990310723206],[-3.1005649817527,54.1990275700882],[-3.10094811960428,54.1990240666372],[-3.10095409555127,54.1992487080178],[-3.10096007157999,54.1994733493896],[-3.10057692956344,54.1994768528901],[-3.10019378746512,54.1994803551722],[-3.1001997594105,54.1997049965848],[-3.10020573143757,54.1999296379888],[-3.10021170354631,54.200154279384],[-3.10059485189231,54.2001507770276],[-3.10060082596088,54.2003754182476],[-3.10098397630231,54.2003719146461],[-3.10136712656035,54.200368409826],[-3.1013731048451,54.2005930509722],[-3.10137908321161,54.2008176921096],[-3.10099592881212,54.2008211969885],[-3.1010019051892,54.2010458381464],[-3.10100788164773,54.2012704792954],[-3.10062472301265,54.2012739830133],[-3.10024156429608,54.2012774855128],[-3.09985840549805,54.2012809867938],[-3.0994752466186,54.2012844868564],[-3.09948121486465,54.2015091281129],[-3.0990980538303,54.2015126269861],[-3.09909208765774,54.2012879857005],[-3.09908612156649,54.2010633444061],[-3.09908015555655,54.2008387031027],[-3.09869700066121,54.2008422006703],[-3.09870296459771,54.2010668420027],[-3.0987089286155,54.2012914833262],[-3.09871489271457,54.2015161246409],[-3.09872085689493,54.2017407659467],[-3.09872682115657,54.2019654072436],[-3.0987327854995,54.2021900485317],[-3.09911595283587,54.2021865507898],[-3.09949912009085,54.2021830518294],[-3.09988228726442,54.2021795516505],[-3.09988825790945,54.2024041928425],[-3.10027142707518,54.2024006914161],[-3.10027739987521,54.2026253325702],[-3.10028337275665,54.2028499737154],[-3.09990019944363,54.2028534752],[-3.09990617033279,54.2030781163655],[-3.09991214130333,54.2033027575221],[-3.09991811235525,54.2035273986698],[-3.09992408348855,54.2037520398087],[-3.09954090179918,54.2037555401911],[-3.09915772002839,54.2037590393549],[-3.09877453817622,54.2037625373002],[-3.09839135624267,54.2037660340269],[-3.0980081742278,54.2037695295351],[-3.09800221346336,54.203544888251],[-3.09799625278016,54.203320246958],[-3.09799029217821,54.2030956056561],[-3.09760711630327,54.2030990998587],[-3.09722394034707,54.2031025928427],[-3.09721798397374,54.202877951474],[-3.09683481000998,54.2028814432105],[-3.09645163596501,54.2028849337285],[-3.0964456838202,54.2026602922929],[-3.09606251176771,54.2026637815634],[-3.09567933963407,54.2026672696154],[-3.0952961674193,54.2026707564489],[-3.09491299512343,54.2026742420638],[-3.09452982274649,54.2026777264603],[-3.09452388105103,54.202453084871],[-3.09490705135432,54.2024496005035],[-3.09490110766621,54.2022249589343],[-3.09451793943654,54.2022284432729],[-3.09413477112582,54.202231926393],[-3.0937516027341,54.2022354082946],[-3.09374566534778,54.2020107666297],[-3.09336249894866,54.2020142472839],[-3.0929793324686,54.2020177267197],[-3.09297339931033,54.2017930849881],[-3.09296746623292,54.2015684432478],[-3.09335062856588,54.2015649638698],[-3.09373379081788,54.2015614832734],[-3.09411695298891,54.2015580014586],[-3.09411101377183,54.2013333597961],[-3.09372785367431,54.201336841582],[-3.09334469349582,54.2013403221495],[-3.09296153323637,54.2013438014985],[-3.09257837289601,54.2013472796291],[-3.0925724420538,54.2011226378421],[-3.09256651129243,54.2008979960462],[-3.09256058061188,54.2006733542415],[-3.09217742641099,54.200676831067],[-3.09217149788467,54.2004521892246],[-3.09178834567633,54.2004556648028],[-3.09140519338716,54.2004591391626],[-3.09102204101719,54.2004626123039],[-3.09063888856645,54.2004660842269],[-3.09064480879915,54.2006907261848],[-3.09026165419426,54.2006941969181],[-3.08987849950864,54.2006976664331],[-3.08988441567515,54.2009223084398],[-3.0895012588354,54.2009257767651],[-3.089118101915,54.200929243872],[-3.08912401401519,54.2011538859274],[-3.08874085494068,54.2011573518447],[-3.08874676504795,54.2013819939201],[-3.08875267523577,54.2016066359866],[-3.08836951193362,54.201610100743],[-3.08798634855088,54.2016135642809],[-3.08760318508759,54.2016170266004],[-3.08759728112037,54.2013923844475],[-3.08759137723361,54.2011677422858],[-3.08758547342731,54.2009431001153],[-3.08757956970146,54.2007184579359],[-3.08719641445162,54.2007219189219],[-3.08719051287965,54.2004972767049],[-3.08718461138811,54.2002726344791],[-3.08717871003286,54.2000479922456],[-3.08717280881375,54.1998233500047],[-3.086789661789,54.1998268096637],[-3.08640651468352,54.1998302681041],[-3.08640061771028,54.1996056258056],[-3.08601747260667,54.1996090830031],[-3.08602336749732,54.199833725326],[-3.08564022023044,54.1998371813294],[-3.0852570728829,54.1998406361142],[-3.08526296368894,54.2000652784772],[-3.08487981417815,54.200068732068],[-3.08449666465564,54.2000721843755],[-3.08411351511443,54.2000756354067],[-3.08410763054471,54.1998509929628],[-3.0841017460552,54.19962635051],[-3.08448489144876,54.1996228995352],[-3.08447900496568,54.1993982571018],[-3.08486214824952,54.1993948048796],[-3.08485625976771,54.199170162466],[-3.08523940094819,54.1991667089728],[-3.0852335104644,54.198942066575],[-3.08561664948175,54.1989386118877],[-3.08599978841845,54.198935155982],[-3.08638292727446,54.1989316988578],[-3.08638882400576,54.1991563411824],[-3.08677196486357,54.1991528828153],[-3.08715510564064,54.1991494232297],[-3.08753824633695,54.1991459624256],[-3.08754414939647,54.1993706046682],[-3.08792729209451,54.1993671426211],[-3.08793319731732,54.1995917848306],[-3.08831634201709,54.1995883215405],[-3.08831043471173,54.1993636793556],[-3.08869357724809,54.1993602148715],[-3.088687667941,54.1991355727023],[-3.08907080831396,54.1991321070243],[-3.0890648970052,54.1989074648708],[-3.08868175871473,54.1989109305244],[-3.08867584956927,54.1986862883377],[-3.08866994050462,54.1984616461424],[-3.08828680629818,54.1984651105285],[-3.08828089939675,54.1982404683],[-3.08827499257611,54.1980158260627],[-3.08789186245361,54.1980192891814],[-3.08750873225029,54.1980227510817],[-3.08712560196618,54.1980262117636],[-3.08713150253968,54.1982508540742],[-3.08674837009243,54.1982543135621],[-3.08675426866421,54.1984789558885],[-3.08637113405381,54.1984824141823],[-3.08598799936271,54.1984858712577],[-3.08560486459094,54.1984893271146],[-3.08522172973852,54.198492781753],[-3.08483859480548,54.198496235173],[-3.08445545983569,54.1984996872799],[-3.08407232481075,54.1985031381139],[-3.08368918970555,54.1985065877296],[-3.08330605452012,54.1985100361269],[-3.08331193446125,54.1987346786801],[-3.08369507172036,54.1987312302546],[-3.08407820889923,54.1987277806108],[-3.08408409306791,54.1989524230988],[-3.0840899773168,54.1991770655781],[-3.0837068359905,54.1991805152782],[-3.08371271824584,54.1994051577768],[-3.08371860058136,54.1996298002665],[-3.08333545502728,54.1996332488046],[-3.08334133536916,54.1998578913136],[-3.0833472157912,54.2000825338138],[-3.08335309637956,54.2003071763368],[-3.0829699445183,54.200310623745],[-3.08258679257652,54.200314069935],[-3.08220364055422,54.2003175149067],[-3.08182048845146,54.2003209586602],[-3.08143733626824,54.2003244011953],[-3.08105418400461,54.2003278425122],[-3.08104831589719,54.2001031997931],[-3.08066516563452,54.2001066398586],[-3.08028201529184,54.2001100787056],[-3.07989886486916,54.2001135163341],[-3.07990472673147,54.2003381591532],[-3.07952157414645,54.200341595597],[-3.07952743401056,54.2005662384603],[-3.07953329395488,54.2007908813147],[-3.07915013711939,54.2007943166065],[-3.0791559950588,54.2010189594851],[-3.07916185307839,54.2012436023546],[-3.07877869199235,54.2012470364946],[-3.07878454800694,54.2014716793883],[-3.0787904041017,54.201696322273],[-3.07840723876501,54.201699755261],[-3.07841309285468,54.2019243981699],[-3.07841894702449,54.2021490410699],[-3.07842480127444,54.2023736839609],[-3.0780416296017,54.20237711583],[-3.07804748184645,54.2026017587451],[-3.07805333417132,54.2028264016513],[-3.07767015824769,54.2028298323683],[-3.07766430800819,54.202605189429],[-3.07765845784878,54.2023805464807],[-3.07765260776945,54.2021559035234],[-3.07764675777021,54.2019312605572],[-3.07764090785105,54.2017066175819],[-3.07802407334811,54.2017031870306],[-3.07801822142381,54.2014785440796],[-3.07801236957961,54.2012539011195],[-3.07839553082608,54.2012504694162],[-3.07838967697681,54.2010258264803],[-3.07838382320768,54.2008011835354],[-3.07876698020365,54.2007977506801],[-3.07876112442954,54.2005731077595],[-3.07875526873559,54.2003484648298],[-3.07874941312147,54.2001238219093],[-3.07913256378395,54.200120387936],[-3.07912670617428,54.1998957451268],[-3.07912084864445,54.1996711023089],[-3.07911499119446,54.199446459482],[-3.07949813555554,54.1994430243744],[-3.07949227611162,54.1992183815668],[-3.079875418319,54.1992149452688],[-3.0798695568812,54.1989903024804],[-3.08025269693488,54.1989868649922],[-3.08024683350326,54.198762222223],[-3.07986369552329,54.1987656596832],[-3.07985783424527,54.1985410168772],[-3.07947469825904,54.198544453091],[-3.07909156219289,54.1985478880865],[-3.07908570514208,54.1983232452155],[-3.0790798481711,54.1980986023357],[-3.07907399127996,54.1978739594471],[-3.07906813446864,54.1976493165497],[-3.07945126224033,54.1976458816663],[-3.07983438993209,54.1976424455647],[-3.07984025089056,54.197867088406],[-3.08022338057595,54.197863651058],[-3.0802292436879,54.1980882938625],[-3.08061237536692,54.1980848552681],[-3.08099550696593,54.1980814154554],[-3.08098963970678,54.197856772707],[-3.08137276915216,54.1978533317041],[-3.08175589851748,54.1978498894827],[-3.08213902780271,54.1978464460431],[-3.08252215700782,54.1978430013852],[-3.08252803256134,54.1980676440211],[-3.0829111637599,54.1980641981167],[-3.08290528613279,54.1978395555089],[-3.08328841517758,54.1978361084143],[-3.08367154414216,54.1978326601014],[-3.08367742591646,54.198057302653],[-3.0840605568744,54.1980538530936],[-3.08405467302652,54.1978292105702],[-3.08404878925884,54.197604568038],[-3.08443191598938,54.1976011173166],[-3.08442603022837,54.1973764748037],[-3.08404290557136,54.1973799254969],[-3.08403702196407,54.1971552829471],[-3.0836538993003,54.1971587323938],[-3.0832707765563,54.1971621806223],[-3.08288765373211,54.1971656276325],[-3.08288177642543,54.1969409849893],[-3.08249865559454,54.1969444307531],[-3.08211553468352,54.1969478752986],[-3.08173241369238,54.1969513186258],[-3.08172654268616,54.1967266758895],[-3.08134342368839,54.1967301179703],[-3.08096030461057,54.1967335588329],[-3.08057718545272,54.1967369984772],[-3.0805713207468,54.1965123556478],[-3.08018820358238,54.1965157940457],[-3.079805086338,54.1965192312254],[-3.07979922585881,54.1962945883311],[-3.07941611060789,54.1962980242645],[-3.07941025228196,54.1960733813333],[-3.07902713902451,54.1960768160204],[-3.07864402568718,54.1960802494893],[-3.07826091227,54.1960836817399],[-3.07825506024396,54.1958590387158],[-3.07824920829768,54.1956343956829],[-3.07786609894736,54.1956378266592],[-3.07748298951724,54.1956412564174],[-3.07747714179731,54.1954166133196],[-3.07709403436073,54.1954200418315],[-3.07671092684441,54.1954234691253],[-3.07670508335073,54.1951988259627],[-3.07632197782798,54.1952022520103],[-3.07632781924839,54.1954268952007],[-3.0759447115727,54.195430320058],[-3.07556160381735,54.1954337436971],[-3.07517849598239,54.1954371661179],[-3.07517266078181,54.1952125228436],[-3.07478955494053,54.1952159440183],[-3.07440644901969,54.1952193639748],[-3.07440061804514,54.1949947206358],[-3.07401751411803,54.1949981393462],[-3.07363441011141,54.1950015568384],[-3.07325130602531,54.1950049731123],[-3.07324548134991,54.1947803296809],[-3.0728623792576,54.1947837447088],[-3.07247927708587,54.1947871585185],[-3.07247345663626,54.1945625150225],[-3.07209035645835,54.1945659275861],[-3.07170725620107,54.1945693389316],[-3.07132415586447,54.1945727490589],[-3.07131834171372,54.1943481054706],[-3.07093524337099,54.1943515143518],[-3.07092943137263,54.1941268707269],[-3.07054633502379,54.1941302783622],[-3.07054052517776,54.1939056347005],[-3.07053471541092,54.1936809910301],[-3.07091780761354,54.1936775834504],[-3.07130089973689,54.1936741746526],[-3.07130671364993,54.1938988182674],[-3.07168980776708,54.1938954082236],[-3.07207290180491,54.1938919969616],[-3.07207871994342,54.194116640512],[-3.07246181597501,54.194113228004],[-3.07284491192722,54.1941098142779],[-3.07283908964246,54.1938851707833],[-3.07322218344214,54.1938817558668],[-3.07321635916364,54.1936571123913],[-3.07283326743705,54.1936605272798],[-3.07282744531099,54.1934358837676],[-3.07282162326428,54.1932112402465],[-3.07281580129691,54.1929865967166],[-3.07243271571001,54.1929900103034],[-3.07204963004374,54.1929934226721],[-3.07166654429811,54.1929968338227],[-3.07128345847317,54.1930002437552],[-3.07128927214851,54.1932248873965],[-3.07090618417127,54.1932282961387],[-3.07052309611476,54.1932317036627],[-3.07051728658544,54.1930070599658],[-3.0701342005227,54.193010466244],[-3.07012839314554,54.1927858225105],[-3.06974530907659,54.1927892275427],[-3.06936222492846,54.1927926313568],[-3.06936802815964,54.1930172751459],[-3.06898494185937,54.1930206777697],[-3.06899074309663,54.1932453215777],[-3.06860765464421,54.1932487230112],[-3.06860185547998,54.1930240791754],[-3.06821876902149,54.1930274793629],[-3.06821297200928,54.1928028354905],[-3.06859605639477,54.1927994353307],[-3.06897914070117,54.1927960339528],[-3.06897333962204,54.1925713901272],[-3.0685902573886,54.1925747914773],[-3.06820717507607,54.1925781916094],[-3.06782409277946,54.1925815906114],[-3.06782988762546,54.1928062345191],[-3.06783568255109,54.1930308784179],[-3.06784147755635,54.1932555223078],[-3.06784727264125,54.1934801661888],[-3.0674641819642,54.1934835641654],[-3.06708109120748,54.1934869609238],[-3.06707530031235,54.1932623169829],[-3.06669221157088,54.1932657124934],[-3.06630912274979,54.1932691067858],[-3.06630333612396,54.1930444627762],[-3.06592024931815,54.1930478558206],[-3.06553716243279,54.193051247647],[-3.06553138007614,54.1928266035686],[-3.06514829520609,54.1928299941471],[-3.06476521025654,54.1928333835074],[-3.06438212522753,54.1928367716498],[-3.06437634923476,54.1926121274729],[-3.06399326622113,54.1926155143673],[-3.06361018312808,54.1926189000437],[-3.06360441140426,54.1923942557982],[-3.06322133032662,54.1923976402267],[-3.06283824916964,54.1924010234371],[-3.06283248171464,54.1921763791231],[-3.0624494025731,54.1921797610857],[-3.06206632335227,54.1921831418303],[-3.06168324405217,54.1921865213568],[-3.06167748296063,54.1919618769445],[-3.06129440567604,54.1919652552232],[-3.06091132831225,54.191968632284],[-3.06090557137054,54.1917439878175],[-3.06052249601815,54.1917473636307],[-3.06013942058736,54.1917507382257],[-3.06013366766922,54.1915260937188],[-3.05975059423035,54.1915294670681],[-3.05936752071312,54.1915328391993],[-3.05898444711756,54.1915362101125],[-3.05897870048859,54.1913115655137],[-3.05859562888502,54.1913149351811],[-3.05821255720318,54.1913183036305],[-3.05820681479297,54.1910936589676],[-3.05782374510315,54.1910970261713],[-3.05744067533511,54.1911003921569],[-3.0570576054889,54.1911037569245],[-3.05705186936756,54.1908791121698],[-3.05666880151342,54.1908824756918],[-3.05628573358117,54.1908858379957],[-3.05628000167833,54.190661193177],[-3.05589693573818,54.1906645542353],[-3.05589120598356,54.1904399093801],[-3.05588547630694,54.1902152645161],[-3.05550241442907,54.1902186243012],[-3.05549668690058,54.1899939794009],[-3.05549095945006,54.1897693344917],[-3.0558740171877,54.1897659747617],[-3.05625707484729,54.1897626138138],[-3.05664013242879,54.189759251648],[-3.05702318993216,54.1897558882641],[-3.05701745427934,54.1895312434565],[-3.05740050963451,54.1895278788823],[-3.0574062473574,54.1897525236623],[-3.05778930470445,54.1897491578424],[-3.05817236197331,54.1897457908047],[-3.05855541916393,54.1897424225489],[-3.0589384762763,54.1897390530751],[-3.05932153331038,54.1897356823834],[-3.05970459026614,54.1897323104736],[-3.06008764714356,54.1897289373459],[-3.06008189493026,54.1895042927597],[-3.05969884012289,54.1895076658597],[-3.05931578523719,54.1895110377417],[-3.05931003724225,54.1892863930912],[-3.05969309005793,54.1892830212368],[-3.05968734007124,54.1890583766052],[-3.06007039073858,54.1890550035606],[-3.0600646387602,54.1888303589479],[-3.06005888686012,54.1886057143263],[-3.06044193330919,54.1886023401192],[-3.0604361794175,54.1883776955165],[-3.06081922371826,54.1883743201192],[-3.0612022679406,54.1883709435039],[-3.0615853120845,54.1883675656707],[-3.06159107218591,54.1885922101902],[-3.06159683236573,54.1888168547009],[-3.061213784082,54.1888202325895],[-3.06083073571981,54.1888236092603],[-3.06083649183813,54.1890482538176],[-3.06121954227028,54.1890448771191],[-3.06160259262398,54.1890414992028],[-3.0619856428992,54.1890381200684],[-3.0623686930959,54.1890347397161],[-3.06275174321407,54.1890313581459],[-3.06274597674595,54.1888067137274],[-3.06274021035632,54.1885820692999],[-3.06235716437804,54.1885854508146],[-3.06235140013682,54.1883608063506],[-3.06234563597407,54.1881361618778],[-3.06233987188979,54.1879115173962],[-3.06233410788398,54.1876868729057],[-3.06232834395663,54.1874622284064],[-3.06194530824905,54.1874656085644],[-3.06193954646993,54.1872409640286],[-3.06155651275362,54.1872443429409],[-3.06156227246298,54.1874689875045],[-3.06117923659843,54.1874723652268],[-3.06117347895884,54.1872477206354],[-3.06079044508562,54.1872510971121],[-3.06040741113398,54.1872544723708],[-3.06002437710396,54.1872578464117],[-3.06001862575197,54.1870332017284],[-3.05963559371334,54.1870365745238],[-3.05962984450935,54.186811929804],[-3.05962409538363,54.1865872850753],[-3.05924106740607,54.1865906565974],[-3.05923532042827,54.1863660118323],[-3.05961834633617,54.1863626403379],[-3.05961259736697,54.1861379955916],[-3.05960684847602,54.1859133508365],[-3.05960109966334,54.1856887060726],[-3.0595953509289,54.1854640612999],[-3.05958960227273,54.1852394165183],[-3.0595838536948,54.185014771728],[-3.05996686710702,54.1850113991819],[-3.05996111653788,54.1847867544104],[-3.05995536604702,54.1845621096301],[-3.06033837524201,54.1845587359216],[-3.06072138435863,54.1845553609954],[-3.06110439339686,54.1845519848515],[-3.06109863677607,54.1843273401455],[-3.06148164366648,54.1843239628115],[-3.06186465047843,54.1843205842598],[-3.06224765721191,54.1843172044904],[-3.06225342004088,54.1845418491132],[-3.06263642876524,54.1845384680982],[-3.06264219374208,54.1847631126844],[-3.06264795879739,54.1849877572618],[-3.06265372393119,54.1852124018303],[-3.06265948914346,54.18543704639],[-3.06266525443421,54.1856616909409],[-3.06304827342742,54.1856583085694],[-3.06305404086621,54.1858829530837],[-3.06305980838352,54.1861075975892],[-3.0634428314373,54.1861042139443],[-3.06382585441248,54.1861008290816],[-3.06420887730903,54.1860974430011],[-3.06459190012692,54.1860940557028],[-3.06497492286612,54.1860906671866],[-3.06498070081001,54.1863153115443],[-3.0653637255401,54.1863119217825],[-3.06535794552661,54.1860872774527],[-3.06574096810835,54.1860838865009],[-3.06574675019145,54.1863085308029],[-3.06612977476403,54.1863051386055],[-3.0665127992578,54.1863017451903],[-3.06689582367274,54.1862983505572],[-3.06690161204345,54.1865229947668],[-3.06728463844916,54.186519598888],[-3.06727884800882,54.1862949547063],[-3.06766187226601,54.1862915576376],[-3.06804489644397,54.1862881593529],[-3.06805069102389,54.1865128034799],[-3.068056485683,54.1867374475981],[-3.06806228042131,54.1869620917076],[-3.06767925003251,54.1869654900725],[-3.06768504277906,54.1871901341998],[-3.06730201024318,54.1871935313801],[-3.06729621956635,54.1869688872249],[-3.06691318902129,54.1869722831594],[-3.06690740049297,54.1867476389675],[-3.06652437193874,54.1867510336563],[-3.06653015839737,54.1869756778761],[-3.06614712769461,54.1869790713749],[-3.0661529121623,54.1872037156137],[-3.06615869670873,54.1874283598437],[-3.0661644813339,54.1876530040649],[-3.0665475182459,54.1876496104825],[-3.06655330501963,54.1878742546669],[-3.06693634392259,54.1878708598388],[-3.06694213284493,54.1880955039866],[-3.06694792184608,54.1883201481255],[-3.06656487880343,54.1883235430094],[-3.06655909187214,54.1880988988426],[-3.06617605082051,54.1881022924808],[-3.06617026603783,54.1878776482772],[-3.06578722697722,54.1878810406696],[-3.06540418783782,54.1878844318441],[-3.06502114861967,54.1878878218008],[-3.06502692719284,54.1881124660878],[-3.06503270584468,54.1883371103661],[-3.0650384845752,54.1885617546355],[-3.06465543906872,54.1885651434577],[-3.06466121580797,54.1887897877461],[-3.06504426338438,54.1887863988961],[-3.06505004227223,54.1890110431479],[-3.06505582123875,54.1892356873908],[-3.06506160028395,54.1894603316249],[-3.06544465399155,54.1894569414735],[-3.06545043518546,54.1896815856709],[-3.06545621645808,54.1899062298596],[-3.06507315861038,54.1899096200667],[-3.06507893789161,54.1901342642744],[-3.0654619978094,54.1901308740394],[-3.06546777923943,54.1903555182104],[-3.06585084114857,54.1903521267296],[-3.0662339029789,54.1903487340307],[-3.06622811740863,54.1901240899154],[-3.06661117709002,54.1901206960265],[-3.06660538952844,54.1898960519302],[-3.06659960204564,54.1896714078252],[-3.06659381464164,54.1894467637113],[-3.066976868034,54.189443368688],[-3.06697107863879,54.1892187245931],[-3.06696528932239,54.1889940804895],[-3.06695950008481,54.188769436377],[-3.06734254718838,54.1887660402194],[-3.06772559421305,54.1887626428438],[-3.06810864117917,54.1887592442702],[-3.06811443663035,54.1889838883013],[-3.06849748568147,54.1889804885671],[-3.06888053465328,54.1889770876149],[-3.06926358354577,54.1889736854446],[-3.06926938531732,54.1891983293946],[-3.06965243621082,54.1891949259821],[-3.06965824014209,54.1894195698993],[-3.07004129303662,54.1894161652446],[-3.07004709912765,54.189640809129],[-3.07043015402319,54.1896374032321],[-3.07081320883928,54.189633996117],[-3.07081901917061,54.1898586399443],[-3.07120207598769,54.1898552315871],[-3.07158513272525,54.1898518220117],[-3.07159094729698,54.1900764657819],[-3.0719740060355,54.1900730549643],[-3.07235706469445,54.1900696429286],[-3.0727401232738,54.1900662296747],[-3.0727343024606,54.1898415859772],[-3.07311735887984,54.1898381715295],[-3.07312318177352,54.1900628152028],[-3.07350624019359,54.1900593995128],[-3.07351206524738,54.1902840431532],[-3.07351789038078,54.1905086867848],[-3.07390095288222,54.1905052698282],[-3.07389512566828,54.1902806262208],[-3.07427818600947,54.1902772080703],[-3.07427235679466,54.1900525644785],[-3.07426652765954,54.1898279208779],[-3.07464958376,54.1898245015579],[-3.07503263978069,54.1898210810198],[-3.0754156957216,54.1898176592636],[-3.07579875158267,54.1898142362893],[-3.07580458903971,54.1900388797928],[-3.07581042657653,54.1902635232875],[-3.07581626419314,54.1904881667735],[-3.07543320209056,54.1904915898207],[-3.07505013990814,54.1904950116497],[-3.07466707764593,54.1904984322607],[-3.07467290910065,54.1907230758108],[-3.07467874063509,54.1909477193523],[-3.07429567413194,54.1909511387937],[-3.07391260754906,54.1909545570169],[-3.07352954088646,54.1909579740221],[-3.07314647414417,54.190961389809],[-3.07315229743582,54.1911860334388],[-3.07276922853324,54.1911894480319],[-3.07276340732222,54.1909648043779],[-3.07238034042064,54.1909682177286],[-3.07237452136979,54.1907435740417],[-3.07236870239847,54.190518930346],[-3.07198563957846,54.1905223424302],[-3.0719914564692,54.19074698615],[-3.07160839148905,54.1907503970403],[-3.0716142063787,54.1909750407757],[-3.0712311392384,54.190978450472],[-3.0712369521269,54.1912030942228],[-3.07085388282645,54.1912065027252],[-3.07085969371374,54.1914311464915],[-3.07086550468047,54.1916557902491],[-3.07124857814227,54.1916523816984],[-3.07125439128487,54.1918770254165],[-3.07163746674519,54.1918736156231],[-3.0720205421262,54.1918702046117],[-3.07202635955114,54.1920948482414],[-3.07240943692567,54.1920914359841],[-3.07241525650279,54.1923160795772],[-3.07279833587084,54.1923126660739],[-3.07280415760019,54.1925373096303],[-3.07318723896176,54.1925338948811],[-3.07319306284339,54.1927585384008],[-3.07357614619848,54.1927551224056],[-3.07358197223245,54.1929797658886],[-3.07396505758105,54.1929763486474],[-3.0739592294741,54.1927517051923],[-3.07434231267023,54.1927482867609],[-3.07433648256977,54.1925236433249],[-3.07471956361344,54.1925202237033],[-3.07472539578685,54.1927448671114],[-3.07473122803974,54.1929695105107],[-3.07511431314978,54.1929660896152],[-3.07512014755515,54.1931907329778],[-3.07550323465861,54.1931873108362],[-3.07550907121651,54.193411954162],[-3.07551490785397,54.193636597479],[-3.07552074457096,54.1938612407871],[-3.07552658136751,54.1940858840865],[-3.07590967668362,54.194082460615],[-3.07591551563285,54.1943071038776],[-3.0755324182436,54.194310527377],[-3.07553825519925,54.1945351706586],[-3.07592135466165,54.1945317471313],[-3.07630445404442,54.1945283223859],[-3.07629861294245,54.1943036791601],[-3.07668171017239,54.1943002532244],[-3.07706480732262,54.1942968260705],[-3.077058962154,54.1940721828918],[-3.07705311706503,54.1938475397043],[-3.07704727205573,54.193622896508],[-3.07704142712609,54.1933982533028],[-3.0770355822761,54.1931736100888],[-3.07702973750577,54.192948966866],[-3.0770238928151,54.1927243236344],[-3.07701804820408,54.1924996803939],[-3.07740112869035,54.1924962522457],[-3.07739528208608,54.1922716090244],[-3.0777783604197,54.1922681796861],[-3.07777251182224,54.1920435364839],[-3.07815558800323,54.1920401059555],[-3.07814973740862,54.191815462767],[-3.07853281143534,54.1918120310468],[-3.078915885382,54.1918085981085],[-3.07891003064105,54.1915839548696],[-3.07929310242692,54.1915805207374],[-3.07967617413268,54.1915770853872],[-3.07967031531044,54.1913524421883],[-3.08005338485539,54.1913490056443],[-3.0800475240326,54.1911243624612],[-3.08043059141675,54.1911209247234],[-3.0808136587207,54.1911174857676],[-3.08119672594442,54.1911140455936],[-3.0812025930091,54.1913386887034],[-3.08120846015396,54.1915633318046],[-3.08121432737903,54.191787974897],[-3.0812201945761,54.1920126178781],[-3.08122606182935,54.192237260828],[-3.08123192916256,54.192461903769],[-3.08123779657574,54.1926865467012],[-3.08085471481525,54.1926899870583],[-3.08086058023545,54.1929146300097],[-3.08047749632202,54.1929180691768],[-3.08047163297477,54.1926934261973],[-3.08008855105431,54.1926968641183],[-3.07970546905391,54.1927003008211],[-3.07971132825526,54.1929249438567],[-3.08009441232861,54.1929215071258],[-3.0801002736828,54.1931461501245],[-3.08010613511687,54.1933707931144],[-3.08048922325626,54.1933673551093],[-3.08049508684324,54.1935919980623],[-3.08087817697568,54.193588558811],[-3.08088404271564,54.1938132017271],[-3.08088990853555,54.1940378446343],[-3.08127300273413,54.1940344041087],[-3.08165609685267,54.194030962365],[-3.08203919089115,54.1940275194031],[-3.08204506301034,54.1942521622173],[-3.08242815904184,54.1942487180091],[-3.0824340333142,54.1944733607863],[-3.08243990766662,54.1946980035547],[-3.08205680748882,54.1947014478191],[-3.0820626798481,54.1949260906068],[-3.08167957751701,54.1949295336811],[-3.08168544788311,54.1951541764881],[-3.08130234339872,54.1951576183722],[-3.08130821177157,54.1953822611985],[-3.08169131832922,54.1953788192862],[-3.08207442480679,54.1953753761557],[-3.08206855228743,54.1951507333857],[-3.08245165661165,54.1951472890651],[-3.0824457820991,54.1949226463143],[-3.08282888426997,54.1949192008037],[-3.0828230077643,54.1946945580722],[-3.08320610778182,54.1946911113715],[-3.08358920771916,54.1946876634525],[-3.08358332714725,54.1944630207685],[-3.08396642493122,54.1944595716596],[-3.08396054236632,54.1942349289949],[-3.08434363799693,54.194231478696],[-3.08472673354005,54.1942280271626],[-3.08510982891195,54.1942245742059],[-3.08549292420326,54.194221120031],[-3.08587601941395,54.1942176646378],[-3.086259114544,54.1942142080264],[-3.08626500958206,54.1944388505341],[-3.08664810671333,54.19443539268],[-3.08664220959336,54.1942107501967],[-3.08702530456203,54.1942072911487],[-3.08740839944996,54.1942038308824],[-3.08740249824689,54.1939791884393],[-3.08701940544083,54.1939826486811],[-3.0870135064003,54.1937580062048],[-3.08663041559536,54.193761465204],[-3.08624732470971,54.1937649229848],[-3.08624142991348,54.193540280451],[-3.08585834102898,54.1935437369892],[-3.08585244839516,54.1933190944222],[-3.08546936151181,54.1933225497177],[-3.08508627454784,54.1933260037951],[-3.0847031875033,54.1933294566541],[-3.08469730119491,54.1931048140045],[-3.08508038615813,54.1931013611706],[-3.08507449784893,54.1928767185373],[-3.08469141496511,54.1928801713432],[-3.08468552881554,54.192655528673],[-3.08430244777631,54.1926589799929],[-3.08429656377986,54.1924343372857],[-3.08429067986359,54.1922096945697],[-3.08390760288989,54.1922131446152],[-3.08352452583597,54.1922165934427],[-3.08314144870186,54.1922200410521],[-3.08313557108433,54.1919953982428],[-3.0827524959429,54.191998844606],[-3.08274662043884,54.191774201726],[-3.08236354729438,54.191777646846],[-3.08235767382728,54.191553003827],[-3.08235180044046,54.1913283607992],[-3.08234592713393,54.1911037177628],[-3.08234005390767,54.1908790747176],[-3.0823341807617,54.1906544316637],[-3.08271724350306,54.1906509866662],[-3.08310030616406,54.1906475404505],[-3.08348336874466,54.1906440930167],[-3.08347748943737,54.1904194500276],[-3.08386054985701,54.1904160014002],[-3.08424361019621,54.1904125515547],[-3.08423772680828,54.1901879086059],[-3.08462078498649,54.1901844575669],[-3.08461489959851,54.1899598146339],[-3.08499795553313,54.1899563622414],[-3.08538101136449,54.1899529085866],[-3.08576406711561,54.1899494537138],[-3.08614712278645,54.1899459976232],[-3.08614122919774,54.1897213548089],[-3.08652428271819,54.1897178975319],[-3.08690733615831,54.189714439037],[-3.08729038951807,54.1897109793244],[-3.08767344279744,54.1897075183938],[-3.08766754100872,54.1894828756965],[-3.08766163930035,54.1892582329902],[-3.08727859016107,54.1892616938577],[-3.08727269060305,54.189037051111],[-3.08765573767233,54.1890335902749],[-3.08764983612466,54.1888089475508],[-3.08764393465733,54.1885843048177],[-3.08726089172797,54.1885877655907],[-3.08725499241091,54.1883631228171],[-3.08687195147109,54.1883665823408],[-3.08648891045092,54.1883700406468],[-3.08649480562815,54.1885946834833],[-3.08611176245773,54.1885981406029],[-3.08572871920703,54.1886015965047],[-3.08534567587606,54.1886050511887],[-3.08535156492369,54.1888296941106],[-3.08496851944252,54.1888331476083],[-3.08496263246485,54.1886085046548],[-3.08495674556733,54.1883838616925],[-3.08457370413498,54.1883873138586],[-3.08456781939051,54.1881626708559],[-3.08418477993549,54.1881661216741],[-3.08417889735167,54.1879414786381],[-3.0837958598964,54.1879449282138],[-3.08341282236069,54.1879483765716],[-3.08302978474458,54.1879518237113],[-3.08264674704808,54.1879552696331],[-3.08226370927124,54.1879587143369],[-3.08225783716876,54.1877340711696],[-3.08225196514654,54.1875094279937],[-3.08186893144973,54.1875128714305],[-3.0818630615879,54.1872882282214],[-3.0818571918063,54.1870635850035],[-3.08185132210493,54.1868389417769],[-3.08184545248378,54.1866142985416],[-3.08183958294285,54.1863896552976],[-3.08145655956615,54.1863930973941],[-3.08145069218544,54.1861684541169],[-3.08144482488492,54.185943810831],[-3.08182784410165,54.1859403687833],[-3.08182197480138,54.1857157255131],[-3.08181610558133,54.1854910822342],[-3.08219912055793,54.1854876390176],[-3.08219324933821,54.1852629957544],[-3.08257626215463,54.1852595513444],[-3.08295927489071,54.1852561057165],[-3.08334228754643,54.1852526588707],[-3.08334816500578,54.1854773020604],[-3.08373117966099,54.1854738539722],[-3.08411419423577,54.1854704046662],[-3.08412007593526,54.1856950477981],[-3.0845030925095,54.1856915972497],[-3.08488610904786,54.1856881454474],[-3.08489199498375,54.1859127885169],[-3.08489788099977,54.1861374315775],[-3.08528090164334,54.1861339784572],[-3.08528678980913,54.1863586214775],[-3.08529267805508,54.1865832644888],[-3.08567570275774,54.1865798100879],[-3.08568159315355,54.1868044530588],[-3.08568748362955,54.1870290960208],[-3.08569337418575,54.1872537389739],[-3.08607640501733,54.1872502832609],[-3.08607051239138,54.1870256403393],[-3.08645354107293,54.18702218344],[-3.08683656967417,54.187018725323],[-3.08721959819507,54.1870152659882],[-3.08721369944017,54.1867906231521],[-3.08759672581098,54.1867871626312],[-3.0875908250667,54.1865625198176],[-3.08720780076558,54.1865659803071],[-3.08720190217129,54.1863413374531],[-3.08758492440274,54.1863378769952],[-3.08757902381912,54.1861132341638],[-3.08757312331583,54.1858885913235],[-3.08719010522361,54.1858920517184],[-3.08680708705104,54.1858955108957],[-3.08642406879814,54.1858989688553],[-3.08641817458391,54.1856743259116],[-3.08603515832028,54.1856777826221],[-3.08604105046492,54.1859024255972],[-3.08565803205144,54.1859058811215],[-3.08565214197638,54.1856812381148],[-3.0856462519815,54.1854565950992],[-3.0856403620668,54.1852319520747],[-3.08563447223228,54.1850073090412],[-3.0860174823676,54.1850038536428],[-3.08640049242265,54.1850003970268],[-3.08639459852937,54.1847757540473],[-3.08677760643466,54.1847722962451],[-3.08677171055217,54.1845476532881],[-3.08676581474995,54.1843230103223],[-3.08675991902799,54.1840983673475],[-3.08714292064471,54.1840949084221],[-3.08714881843606,54.1843195513654],[-3.08753182204182,54.1843160911909],[-3.08752592218109,54.1840914482791],[-3.08790892363709,54.1840879869185],[-3.08829192501269,54.1840845243404],[-3.08828602109358,54.1838598814826],[-3.08866902031939,54.1838564177184],[-3.08905201946475,54.1838529527365],[-3.08904611148737,54.1836283099329],[-3.08942910848292,54.183624843765],[-3.08981210539795,54.1836213763796],[-3.08980619321721,54.1833967335928],[-3.08942319839434,54.1834002009543],[-3.08941728822262,54.183175558095],[-3.08941137813264,54.1829509152272],[-3.08940546812439,54.182726272351],[-3.08902247955271,54.1827297384442],[-3.08901657173713,54.1825050955427],[-3.08901066400326,54.1822804526327],[-3.08862767957165,54.1822839174745],[-3.08863358519462,54.1825085604012],[-3.08825059857036,54.1825120240418],[-3.0878676118644,54.1825154864643],[-3.08748462507675,54.1825189476689],[-3.08710163820746,54.1825224076555],[-3.08709574102815,54.1822977646619],[-3.08747872578653,54.182294304692],[-3.08786171046326,54.1822908435042],[-3.08785580914374,54.1820662005355],[-3.0874728265779,54.1820696617067],[-3.08746692745085,54.1818450187129],[-3.08746102840538,54.1816203757105],[-3.08707804997958,54.1816238356303],[-3.08669507147216,54.1816272943322],[-3.08631209288315,54.1816307518161],[-3.08631798559612,54.1818553948685],[-3.08593500481472,54.1818588511511],[-3.08594089549833,54.1820834942116],[-3.08555791252453,54.182086949293],[-3.08556380117871,54.1823115923617],[-3.08518081601252,54.1823150462417],[-3.08517492946923,54.1820904031563],[-3.08516904300736,54.1818657600624],[-3.08478606198145,54.1818692126912],[-3.08478017771183,54.1816445695722],[-3.0843971986072,54.1816480208615],[-3.0843913164956,54.1814233777029],[-3.08438543446412,54.1811987345355],[-3.08476840941673,54.1811952833088],[-3.08476252539124,54.1809706401644],[-3.08514549797397,54.1809671876022],[-3.08513961191914,54.180742544466],[-3.08475664144714,54.1807459970115],[-3.08437367064154,54.1807494481736],[-3.08437955251277,54.180974091359],[-3.08399657951048,54.1809775413057],[-3.08361360642803,54.1809809900349],[-3.08323063326546,54.1809844375467],[-3.0832247576063,54.1807597942651],[-3.08321888202717,54.1805351509744],[-3.08360185104839,54.1805317035268],[-3.08398481998948,54.1805282548617],[-3.08397894034911,54.1803036116263],[-3.08397306078884,54.180078968382],[-3.08359009598898,54.1800824169828],[-3.08359597347866,54.1803070602593],[-3.08321300652808,54.1803105076748],[-3.08283003949741,54.1803139538729],[-3.08283591292586,54.1805385972046],[-3.08245294374449,54.1805420422173],[-3.08245881518228,54.1807666855722],[-3.08246468670005,54.180991328918],[-3.08208171329728,54.1809947727774],[-3.08169873981448,54.1809982154195],[-3.08131576625171,54.181001656844],[-3.08130990094603,54.180777013402],[-3.080926929374,54.1807804535771],[-3.08092106621889,54.1805558100941],[-3.08053809663761,54.1805592490197],[-3.08015512697644,54.1805626867279],[-3.08014926804248,54.1803380431719],[-3.08014340918833,54.180113399607],[-3.08013755041399,54.1798887560332],[-3.08052051386331,54.179885318421],[-3.0805146530982,54.1796606748702],[-3.08089761439706,54.1796572360727],[-3.08089175164125,54.1794325925449],[-3.08127471078967,54.179429152562],[-3.08126884604321,54.1792045090574],[-3.08165180304117,54.1792010678892],[-3.08164593630412,54.1789764244076],[-3.08164006964698,54.178751780917],[-3.08202302242406,54.1787483385955],[-3.0820171537764,54.1785236951281],[-3.08240010440307,54.1785202516213],[-3.08239423376497,54.178295608177],[-3.08238836320683,54.1780709647237],[-3.08277130961273,54.1780675200637],[-3.08276543706422,54.1778428766335],[-3.08314838131975,54.1778394307882],[-3.0835313254952,54.1778359837257],[-3.08353720218436,54.1780606270917],[-3.08392014835003,54.1780571787797],[-3.08392602718959,54.1782818221047],[-3.08430897534547,54.1782783725433],[-3.08469192342119,54.1782749217646],[-3.08469780648146,54.1784995650163],[-3.0850807558478,54.1784961126371],[-3.08508664108866,54.1787207558581],[-3.08546959248398,54.1787173022445],[-3.08585254379782,54.178713847413],[-3.08584665433609,54.1784892042252],[-3.08622960345798,54.1784857481925],[-3.08623549503014,54.1787103913636],[-3.08661844618093,54.1787069340965],[-3.08662433994503,54.1789315772424],[-3.08700729312471,54.1789281187408],[-3.08739024622279,54.1789246590213],[-3.08739614428937,54.1791493021254],[-3.08777909941631,54.1791458411714],[-3.08777319923924,54.178921198084],[-3.08776729914378,54.1786965549882],[-3.08815024996812,54.1786930928498],[-3.08814434784382,54.1784684497622],[-3.08852729647606,54.1784649864226],[-3.08891024502658,54.1784615218654],[-3.08891615137173,54.1786861649195],[-3.08929910195093,54.1786826991277],[-3.08930501048821,54.1789073421566],[-3.08968796309609,54.1789038751302],[-3.08969387382555,54.1791285181339],[-3.0900768284621,54.1791250498729],[-3.09007091562217,54.178900406886],[-3.090065002864,54.1786757638905],[-3.09044795319781,54.1786722944452],[-3.09083090344976,54.1786688237821],[-3.09082498655253,54.1784441808117],[-3.09120793461218,54.1784407089476],[-3.09159088258992,54.1784372358657],[-3.09197383048571,54.1784337615659],[-3.09196790733915,54.1782091186375],[-3.0923508530426,54.1782056431368],[-3.09273379866404,54.1782021664183],[-3.09311674420346,54.178198688482],[-3.09349968966082,54.1781952093279],[-3.09388263503609,54.178191728956],[-3.0938767014197,54.1779670861033],[-3.09425964460252,54.1779636045305],[-3.09464258770319,54.1779601217399],[-3.09502553072169,54.1779566377315],[-3.095408473658,54.1779531525054],[-3.09579141651207,54.1779496660615],[-3.09578547242617,54.1777250232847],[-3.09616841308768,54.1777215356399],[-3.09655135366691,54.1777180467774],[-3.09693429416382,54.1777145566971],[-3.09731723457839,54.177711065399],[-3.09770017491058,54.1777075728831],[-3.09770612954801,54.1779322155751],[-3.09771208426777,54.1781568582587],[-3.09732913971494,54.1781603508085],[-3.09733509240667,54.1783849935005],[-3.09734104518072,54.178609636184],[-3.09772399395429,54.1786061436003],[-3.09771803906986,54.1783815009337],[-3.09810098565064,54.1783780071492],[-3.09848393214898,54.1783745121468],[-3.09886687856487,54.1783710159267],[-3.09924982489826,54.1783675184888],[-3.09963277114913,54.1783640198331],[-3.10001571731745,54.1783605199595],[-3.10039866340319,54.1783570188682],[-3.10078160940632,54.1783535165591],[-3.10078758117379,54.1785781590896],[-3.10117052920466,54.1785746555457],[-3.1015534771953,54.178571150853],[-3.10193642514618,54.1785676450121],[-3.10231937301481,54.1785641379535],[-3.10270232080116,54.1785606296773],[-3.1030852685052,54.1785571201835],[-3.10346821612691,54.1785536094721],[-3.10346222966922,54.1783289670921],[-3.10345624329382,54.1781043247033],[-3.10307329986229,54.1781078353685],[-3.10306731566422,54.1778831929479],[-3.10306133154842,54.1776585505187],[-3.10305534751487,54.1774339080808],[-3.10343828466134,54.1774303974851],[-3.10382122172546,54.1774268856718],[-3.10420415870719,54.1774233726409],[-3.1045870956065,54.1774198583924],[-3.10497003242337,54.1774163429264],[-3.10497602693186,54.1776409852486],[-3.10498202152274,54.177865627562],[-3.10498801619603,54.1780902698668],[-3.10460507309412,54.1780937854023],[-3.10461106575474,54.1783184277216],[-3.10422812047531,54.1783219420627],[-3.10423411112321,54.1785465843965],[-3.10424010185346,54.1787712267215],[-3.10424609266606,54.1789958690379],[-3.10462904423088,54.1789923546274],[-3.10463503722102,54.1792169969119],[-3.10501799079857,54.1792134812605],[-3.10540094429363,54.1792099643915],[-3.10540694155658,54.1794346066211],[-3.1050239859663,54.1794381235133],[-3.10502998121645,54.1796627657573],[-3.10464702344845,54.179666281455],[-3.10465301668575,54.1798909237136],[-3.10465901000543,54.1801155659634],[-3.1042760479644,54.1801190804898],[-3.10428203927115,54.1803437227542],[-3.10389907505236,54.180347236086],[-3.10390506434611,54.1805718783648],[-3.10391105372219,54.180796520635],[-3.10352808523024,54.1808000327954],[-3.10353407259325,54.18102467508],[-3.1031511019235,54.1810281860459],[-3.10315708727337,54.181252828345],[-3.10316307270552,54.1814774706354],[-3.1027800977625,54.1814809804298],[-3.10278608118143,54.1817056227346],[-3.10240310406057,54.1817091313344],[-3.10240908546622,54.1819337736537],[-3.10202610616752,54.1819372810588],[-3.10203208555983,54.1821619233925],[-3.10203806503435,54.1823865657176],[-3.10165508146222,54.1823900719511],[-3.10166105892332,54.1826147142906],[-3.10127807313142,54.1826182193361],[-3.10128404857887,54.1828428616882],[-3.10129002410894,54.1830675040319],[-3.10090703386458,54.183071007917],[-3.1009130073663,54.1832956502692],[-3.10053001492829,54.1832991529533],[-3.10053598621483,54.1835237952519],[-3.10054195627104,54.1837484371047],[-3.10054792640853,54.1839730789486],[-3.1005538966273,54.1841977207836],[-3.10055986692734,54.1844223626095],[-3.10056583730867,54.1846470044266],[-3.10018283231289,54.1846505060632],[-3.10018880070608,54.1848751479031],[-3.09980579355958,54.184878648354],[-3.09942278633179,54.1848821475872],[-3.09942875066735,54.1851067894818],[-3.09904574128885,54.1851102875292],[-3.09905170363613,54.1853349294467],[-3.09866869210693,54.1853384263083],[-3.09828568049652,54.1853419219522],[-3.09829163878596,54.1855665639243],[-3.09829759715651,54.1857912058875],[-3.09791458132588,54.1857947003774],[-3.09792053770799,54.1860193423634],[-3.09753751972664,54.1860228356673],[-3.09715450166416,54.1860263277536],[-3.09714854942118,54.185801685704],[-3.09676553334718,54.1858051765409],[-3.09638251719211,54.18580866616],[-3.095999500956,54.1858121545615],[-3.09600544699026,54.1860367967063],[-3.09562242860356,54.1860402839219],[-3.09523941013588,54.1860437699198],[-3.09485639158725,54.1860472547],[-3.09447337295768,54.1860507382625],[-3.09409035424722,54.1860542206073],[-3.09409629001441,54.1862788629017],[-3.09371326915346,54.1862823440605],[-3.09371920293182,54.1865069863776],[-3.0933361799204,54.1865104663504],[-3.09334211170987,54.1867351086902],[-3.09334804358011,54.186959751021],[-3.0929650163485,54.1869632298394],[-3.09297094622976,54.187187872193],[-3.09297687619176,54.1874125145376],[-3.09259384473987,54.1874159922016],[-3.09259977271282,54.1876406345689],[-3.09221673911038,54.1876441110467],[-3.0918337054272,54.1876475863068],[-3.09183962934122,54.1878722287285],[-3.09145659350751,54.1878757028024],[-3.09107355759312,54.1878791756586],[-3.09107947744811,54.1881038181346],[-3.09069643938321,54.1881072898046],[-3.09070235724891,54.1883319323031],[-3.0903193170335,54.188335402787],[-3.09032523290987,54.1885600453082],[-3.09033114886678,54.1887846878205],[-3.09033706490423,54.1890093303238],[-3.09072011132944,54.1890058597453],[-3.09072602951743,54.1892305022081],[-3.091109077932,54.1892270303801],[-3.09110315767402,54.1890023879488],[-3.09109723749664,54.1887777455087],[-3.09148028169059,54.1887742725261],[-3.09147435952388,54.1885496301086],[-3.09185740156721,54.1885461559398],[-3.09224044352982,54.1885426805532],[-3.09262348541168,54.1885392039488],[-3.0926175571159,54.1883145616172],[-3.0930005968471,54.1883110838267],[-3.09299466656216,54.1880864415178],[-3.09337770414268,54.1880829625412],[-3.09337177186864,54.187858320255],[-3.0937548072985,54.1878548400922],[-3.09374887303541,54.1876301978288],[-3.09374293885312,54.1874055555565],[-3.09412597006254,54.1874020742393],[-3.09412003389128,54.1871774319896],[-3.09450306295007,54.1871739494864],[-3.09488609192795,54.1871704657654],[-3.09526912082489,54.1871669808267],[-3.09565214964087,54.1871634946703],[-3.09564620527156,54.1869388525385],[-3.09564026098317,54.1867142103977],[-3.09602328557876,54.186710723087],[-3.09640631009333,54.1867072345586],[-3.09641225852109,54.1869318766358],[-3.0967952850243,54.186928386858],[-3.09717831144643,54.1869248958624],[-3.0971842640946,54.1871495378672],[-3.09756729250534,54.1871460456221],[-3.09757324730429,54.1873706875863],[-3.09795627770363,54.1873671940917],[-3.09796223465342,54.1875918360151],[-3.09796819168431,54.1878164779296],[-3.09835122614204,54.1878129831537],[-3.09835718532385,54.1880376250274],[-3.09874022177021,54.188034129002],[-3.098746183103,54.188258770835],[-3.09912922153798,54.18825527356],[-3.09913518502181,54.1884799153522],[-3.09951822544541,54.1884764168277],[-3.09952419108033,54.1887010585791],[-3.09953015679647,54.1889257003217],[-3.09991320127861,54.1889222005157],[-3.09991916914594,54.1891468422174],[-3.10030221561671,54.1891433411618],[-3.10030818563527,54.1893679828228],[-3.10069123409469,54.1893644805175],[-3.10069720626454,54.1895891221377],[-3.10108025671259,54.1895856185827],[-3.10108623103379,54.1898102601621],[-3.10146928350489,54.1898067553779],[-3.10185233598378,54.1898032494292],[-3.10185831454558,54.1900278909402],[-3.10224136902595,54.1900243837441],[-3.10262442342442,54.1900208753302],[-3.10261844069592,54.1897962338782],[-3.1030014929291,54.1897927242758],[-3.10338454508032,54.1897892134555],[-3.10376759714955,54.1897857014173],[-3.10415064913676,54.1897821881611],[-3.10453370104192,54.1897786736871],[-3.10453969418716,54.1900033149915],[-3.10454568741442,54.1902279562869],[-3.10492874340422,54.1902244405359],[-3.10531179931192,54.1902209235669],[-3.10531779678799,54.1904455647943],[-3.10532379434614,54.1906702060129],[-3.10532979198637,54.1908948472226],[-3.10571285406221,54.190891328947],[-3.10609591605588,54.1908878094534],[-3.10647897796735,54.1908842887418],[-3.10686203979659,54.1908807668123],[-3.10686804585282,54.1911054078948],[-3.10725110968329,54.1911018847177],[-3.10763417343147,54.1910983603226],[-3.1076401837369,54.1913230013369],[-3.10764619412459,54.1915476423424],[-3.10765220459452,54.191772283339],[-3.10803527451098,54.191768757637],[-3.10802926195749,54.1915441166701],[-3.10841232970805,54.1915405897798],[-3.10879539737623,54.1915370616715],[-3.10878938073796,54.191312420755],[-3.10917244624022,54.1913088914584],[-3.10955551166005,54.1913053609439],[-3.10954949093712,54.1910807200778],[-3.109932554191,54.191077188375],[-3.1103156173624,54.1910736554542],[-3.11030959255493,54.1908490146386],[-3.11030356782992,54.1906243738142],[-3.1106866267519,54.1906208397348],[-3.11069265356035,54.1908454805296],[-3.11069868045128,54.1910701213154],[-3.11108174345762,54.1910665859587],[-3.11108777251452,54.1912912267059],[-3.11109380165392,54.1915158674443],[-3.11109983087584,54.1917405081738],[-3.11071676161894,54.1917440436196],[-3.1103336922795,54.1917475778475],[-3.10995062285754,54.1917511108574],[-3.1099566458908,54.1919757517884],[-3.11033971738775,54.1919722187469],[-3.11034574256194,54.192196859704],[-3.11035176781814,54.1924215006522],[-3.10996869218217,54.19242503375],[-3.10958561646416,54.1924285656296],[-3.10959163766328,54.1926532066253],[-3.10920855979369,54.192656737315],[-3.1088254818421,54.1926602667866],[-3.10883149898402,54.1928849078297],[-3.10883751620785,54.1931095488639],[-3.10845443403511,54.1931130771736],[-3.10844841888089,54.1928884361113],[-3.10806533869582,54.1928919631748],[-3.10768225842883,54.1928954890203]]],[[[-3.08314144870186,54.1922200410521],[-3.08314732639949,54.1924446838525],[-3.08276424711232,54.192448130272],[-3.08277012281715,54.1926727730917],[-3.08238704137694,54.1926762183212],[-3.08200395985661,54.1926796623326],[-3.08199808829761,54.1924550194566],[-3.08238116774502,54.1924515754733],[-3.08237529419315,54.1922269326166],[-3.08275837148757,54.1922234874434],[-3.08314144870186,54.1922200410521]]],[[[-3.0847031875033,54.1933294566541],[-3.08470907389174,54.1935540992943],[-3.08432598456405,54.1935575507334],[-3.08433186896148,54.1937821933964],[-3.08394877747705,54.193785643639],[-3.08394289515267,54.1935610009478],[-3.08393701290846,54.1933363582478],[-3.08393113074442,54.1931117155389],[-3.08431421600979,54.1931082653808],[-3.08432010024682,54.1933329080615],[-3.0847031875033,54.1933294566541]]],[[[-3.05701745427934,54.1895312434565],[-3.05663439884603,54.1895346068128],[-3.05662866534132,54.1893099619687],[-3.05624561189993,54.1893133240794],[-3.05623988054329,54.1890886791989],[-3.05585682909383,54.189092040064],[-3.05547377756631,54.1890953997112],[-3.05546805042766,54.1888707547667],[-3.0550850008921,54.1888741131684],[-3.05507927590137,54.1886494681875],[-3.05507355098857,54.1884248231979],[-3.05545659638425,54.1884214648514],[-3.05546232336697,54.1886461098135],[-3.05584537075455,54.1886427502215],[-3.05585109988519,54.1888673951472],[-3.05623414926467,54.1888640343097],[-3.05661719856607,54.1888606722542],[-3.05662293191467,54.1890853171159],[-3.05700598320794,54.1890819538149],[-3.0570117187046,54.1893065986401],[-3.05701745427934,54.1895312434565]]],[[[-3.05549095945006,54.1897693344917],[-3.05510790163438,54.1897726930036],[-3.0551136270148,54.1899973379404],[-3.05511935247316,54.1902219828683],[-3.05473629043925,54.1902253402174],[-3.05435322832735,54.1902286963485],[-3.05434750700925,54.1900040513654],[-3.05396444688954,54.1900074062509],[-3.05397016613751,54.1902320512616],[-3.05358710386974,54.1902354049566],[-3.0535813866919,54.1900107599185],[-3.0535756695919,54.1897861148715],[-3.05356995256972,54.1895614698157],[-3.05356423562537,54.1893368247511],[-3.05355851875884,54.1891121796776],[-3.05317546676357,54.1891155320171],[-3.05316975204487,54.1888908869073],[-3.05355280197014,54.1888875345954],[-3.05354708525926,54.1886628895044],[-3.0535413686262,54.1884382444045],[-3.05353565207096,54.1882135992958],[-3.05391869570855,54.1882102458486],[-3.05430173926822,54.1882068911834],[-3.05430745996327,54.188431536237],[-3.0543131807362,54.1886561812818],[-3.05393013303669,54.1886595360021],[-3.05393585181753,54.1888841810656],[-3.05394157067622,54.1891088261203],[-3.05394728961277,54.1893334711662],[-3.05433034352225,54.1893301163633],[-3.05471339735379,54.1893267603424],[-3.05509645110736,54.1893234031036],[-3.05547950478292,54.1893200446468],[-3.05548523207751,54.1895446895737],[-3.05549095945006,54.1897693344917]]],[[[-3.06339090798255,54.1840824133274],[-3.06339667694117,54.1843070578757],[-3.06340244597832,54.1845317024151],[-3.063408215094,54.1847563469458],[-3.06341398428821,54.1849809914676],[-3.06341975356096,54.1852056359806],[-3.06303673878536,54.1852090195143],[-3.06303097158209,54.1849843749736],[-3.06302520445732,54.184759730424],[-3.06301943741106,54.1845350858655],[-3.0630136704433,54.1843104412983],[-3.06300790355405,54.1840857967223],[-3.06300213674329,54.1838611521374],[-3.06299637001103,54.1836365075437],[-3.06299060334526,54.1834118628585],[-3.06298483673831,54.1831872180277],[-3.06297907021011,54.1829625731881],[-3.06336206427095,54.1829591899293],[-3.06336783287707,54.1831838347409],[-3.06337360156197,54.1834084795437],[-3.0633793703009,54.1836331242044],[-3.06338513910246,54.1838577687703],[-3.06339090798255,54.1840824133274]]],[[[-3.08149763347661,54.1879656000905],[-3.0815035014989,54.188190243298],[-3.0815093696014,54.1884148864967],[-3.08151523778411,54.1886395296867],[-3.08152110604702,54.188864172868],[-3.08113805970822,54.1888676140156],[-3.081143925971,54.1890922572127],[-3.08152697439014,54.1890888160406],[-3.081910022729,54.1890853736505],[-3.0819158932327,54.1893100167899],[-3.08153284281347,54.1893134592044],[-3.08153871131702,54.1895381023596],[-3.08154457990078,54.189762745506],[-3.08116152524045,54.1897661867514],[-3.08116739182397,54.1899908299136],[-3.08078433500294,54.1899942699654],[-3.0804012781017,54.1899977087991],[-3.08001822112025,54.1900011464147],[-3.08002408154251,54.1902257896414],[-3.07964102240041,54.1902292260634],[-3.07925796317818,54.1902326612672],[-3.07926381951951,54.190457304534],[-3.07888075813665,54.1904607385442],[-3.07888661247748,54.1906853818267],[-3.07850354893399,54.1906888146431],[-3.07812048531044,54.1906922462414],[-3.0781146351307,54.1904676029102],[-3.07773157350767,54.190471033266],[-3.07772572548843,54.1902463899016],[-3.07734266586593,54.190249819015],[-3.07695960616346,54.1902532469103],[-3.07657654638105,54.1902566735874],[-3.07619348651873,54.1902600990465],[-3.07618764690141,54.1900354555761],[-3.0761818073639,54.189810812097],[-3.07617596790621,54.1895861686091],[-3.07655902152712,54.189582743223],[-3.07694207506811,54.1895793166189],[-3.07693623152941,54.189354673171],[-3.07655318006883,54.1893580997508],[-3.07654733869038,54.1891334562699],[-3.07654149739178,54.1889088127802],[-3.07653565617302,54.1886841692818],[-3.07652981503409,54.1884595257747],[-3.07691285817331,54.1884560992922],[-3.07690701503395,54.1882314558007],[-3.07729005601296,54.1882280281245],[-3.07767309691203,54.1882245992303],[-3.07766724969205,54.1879999557788],[-3.07766140255199,54.1877753123186],[-3.07727836581338,54.1877787411641],[-3.07727252083342,54.1875540976708],[-3.07726667593335,54.1873294541688],[-3.07764970851162,54.187326025372],[-3.07803274100992,54.1873225953572],[-3.07841577342821,54.1873191641245],[-3.07879880576647,54.1873157316737],[-3.07879295262579,54.1870910882605],[-3.07917598280387,54.1870876546162],[-3.07918183802467,54.1873122980051],[-3.07956487020277,54.1873088631184],[-3.07957072758375,54.1875335064742],[-3.07957658504478,54.1877581498213],[-3.07995962130309,54.1877547136678],[-3.07996548092438,54.1879793569817],[-3.07997134062577,54.188204000287],[-3.07997720040725,54.1884286435834],[-3.08036024282609,54.1884252061388],[-3.08035438096435,54.1882005628667],[-3.08034851918274,54.1879759195859],[-3.08034265748124,54.1877512762964],[-3.08072569357922,54.187747837707],[-3.08110872959699,54.1877443978997],[-3.08149176553452,54.1877409568743],[-3.08149763347661,54.1879656000905]]],[[[-3.08952491601369,54.2018243448185],[-3.08914175079923,54.2018278120406],[-3.08913583845731,54.2016031700117],[-3.08912992619597,54.201378527974],[-3.08951308726334,54.2013750608095],[-3.08989624825005,54.2013715924265],[-3.08990216465845,54.2015962344067],[-3.08990808114748,54.2018208763779],[-3.08952491601369,54.2018243448185]]],[[[-3.10144485064064,54.2032887440362],[-3.10106167344012,54.2032922492382],[-3.10105569624845,54.2030676081688],[-3.10104971913825,54.2028429670907],[-3.10104374210951,54.2026183260037],[-3.10066057103311,54.2026218298962],[-3.10065459615945,54.2023971887712],[-3.10103776516223,54.2023936849078],[-3.10103178829641,54.202169043803],[-3.10141495512799,54.2021655387479],[-3.10142093406695,54.2023901798233],[-3.1014269130877,54.2026148208898],[-3.10143289219022,54.2028394619474],[-3.10143887137454,54.2030641029963],[-3.10144485064064,54.2032887440362]]],[[[-3.10667114836012,54.1980728046744],[-3.1066771550466,54.1982974456739],[-3.10668316181485,54.1985220866647],[-3.10668916866487,54.1987467276466],[-3.10630603425122,54.1987502493485],[-3.10592289975575,54.1987537698322],[-3.10553976517851,54.1987572890974],[-3.10553376453947,54.1985326480314],[-3.10552776398212,54.1983080069566],[-3.10552176350646,54.198083365873],[-3.10513863505837,54.1980868838358],[-3.10513263673464,54.1978622427153],[-3.10551576311248,54.1978587247805],[-3.10550976280019,54.1976340836792],[-3.10550376256958,54.1974094425691],[-3.10549776242065,54.1971848014501],[-3.10588088250618,54.197181282381],[-3.10588688472527,54.1974059234719],[-3.10627000679918,54.1974024031565],[-3.10627601117017,54.1976270442105],[-3.1062820156229,54.1978516852558],[-3.10628802015736,54.1980763262922],[-3.10667114836012,54.1980728046744]]]]}}