{"type":"Feature","properties":{"code":"E63002877","name":"Great Bowden"},"geometry":{"type":"MultiPolygon","coordinates":[[[[-0.914384942852673,52.4952919537058],[-0.914016775676903,52.4952885761213],[-0.91402230617383,52.4950638690272],[-0.914027836597519,52.4948391619243],[-0.914033366947969,52.4946144548125],[-0.914038897225182,52.4943897476918],[-0.914407056893554,52.4943931251778],[-0.914412585220744,52.4941684180235],[-0.914780743085466,52.4941717943394],[-0.914786269462683,52.4939470871517],[-0.914791795766715,52.4937223799551],[-0.914423641655496,52.4937190036884],[-0.914055487617413,52.4937156262764],[-0.914061017601692,52.4934909191201],[-0.913692865513482,52.4934875405873],[-0.913698397301217,52.4932628334468],[-0.913330247162877,52.4932594537931],[-0.912962097097745,52.4932560729941],[-0.912956561556639,52.4934807800852],[-0.912588409688055,52.4934773981161],[-0.91222025789273,52.4934740150015],[-0.912214718524904,52.4936987220345],[-0.912209179083723,52.4939234290585],[-0.912203639569184,52.4941481360737],[-0.911835482216951,52.4941447517397],[-0.911829940752275,52.4943694587213],[-0.911461781596575,52.4943660732171],[-0.911456238181711,52.4945907801651],[-0.911088077222547,52.4945873934907],[-0.910719916336748,52.4945840056709],[-0.910725463505215,52.4943592987723],[-0.910731010600224,52.4941345918648],[-0.911099167732446,52.4941379796352],[-0.911104712877246,52.4939132726941],[-0.910736557621775,52.4939098849484],[-0.91074210456987,52.4936851780231],[-0.910373951264509,52.4936817891567],[-0.910368402439688,52.4939064960572],[-0.910362853541387,52.4941312029489],[-0.910357304569604,52.4943559098317],[-0.909989145707404,52.4943525197456],[-0.909620986918642,52.4943491285141],[-0.909252828203342,52.4943457361371],[-0.908884669561529,52.4943423426147],[-0.908890226040398,52.4941176358309],[-0.908895782445686,52.4938929290382],[-0.908901338777395,52.4936682222367],[-0.908533185839323,52.4936648276431],[-0.908538743974148,52.4934401208574],[-0.908906895035525,52.4934435154262],[-0.909275046170409,52.4934469088496],[-0.909280600478291,52.4932222020055],[-0.908912451220078,52.4932188086069],[-0.90854430203537,52.4932154140628],[-0.908549860022991,52.4929907072594],[-0.908555417937014,52.492766000447],[-0.908187272579096,52.4927626048071],[-0.908181712788456,52.4929873115947],[-0.907813565627473,52.4929839147846],[-0.907808003886567,52.4932086215385],[-0.907439854922522,52.4932052235582],[-0.9074342912313,52.4934299302784],[-0.907066140464195,52.4934265311279],[-0.907060574822607,52.4936512378144],[-0.906692422252445,52.4936478374937],[-0.906686854660443,52.4938725441465],[-0.906681286994713,52.4940972507904],[-0.90631313074476,52.4940938492746],[-0.906307561128539,52.4943185558848],[-0.905939403075511,52.4943151531987],[-0.905933831508751,52.4945398597752],[-0.906301991438564,52.4945432624861],[-0.90629642167483,52.4947679690785],[-0.906664583555139,52.4947713706688],[-0.906659015594483,52.4949960772772],[-0.906653447560091,52.4952207838766],[-0.906285281926088,52.4952173822367],[-0.906279711941076,52.4954420888024],[-0.906274141882302,52.4956667953593],[-0.906642311270099,52.4956701970489],[-0.906636743014495,52.4958949036217],[-0.906268571749764,52.4958915019073],[-0.906263001543461,52.4961162084463],[-0.905894828475467,52.4961128055615],[-0.905889256318416,52.4963375120669],[-0.905521081447161,52.4963341080117],[-0.905515507339312,52.4965588144833],[-0.905147330664799,52.4965554092578],[-0.905141754606102,52.4967801156956],[-0.904773576128333,52.4967767092997],[-0.90476799811874,52.4970014157038],[-0.904399817837718,52.4969980081374],[-0.904405397724362,52.4967733017582],[-0.904037219394214,52.4967698930711],[-0.904042801083989,52.4965451867079],[-0.903674624704713,52.4965417769002],[-0.903669041137913,52.4967664832385],[-0.903300862955485,52.4967630722603],[-0.902932684846954,52.4967596601366],[-0.902564506812346,52.4967562468673],[-0.902570096010209,52.4965315406037],[-0.902575685134057,52.4963068343312],[-0.90294385941465,52.4963102475506],[-0.902949446587511,52.4960855412443],[-0.902955033686383,52.4958608349291],[-0.902960620711268,52.495636128605],[-0.902966207662166,52.495411422272],[-0.902971794539078,52.4951867159302],[-0.902603629643089,52.4951833028353],[-0.902235464821038,52.495179888595],[-0.902241055377659,52.494955182294],[-0.901872892506415,52.4949517669332],[-0.90186730007295,52.4951764732092],[-0.901499135365714,52.4951730568969],[-0.901130970501282,52.4951696409671],[-0.900762805710702,52.4951662238918],[-0.900394640993997,52.495162805671],[-0.90040024091996,52.4949380994687],[-0.900405840771951,52.4947133932575],[-0.900411440549974,52.4944886870374],[-0.900043281519388,52.4944852677465],[-0.899675122562724,52.4944818473102],[-0.899669519043274,52.4947065534801],[-0.899301358289845,52.4947031318732],[-0.899295752825639,52.4949278380089],[-0.898927590275447,52.4949244152314],[-0.898921982866437,52.4951491213331],[-0.898916375383356,52.4953738274259],[-0.899284541675093,52.4953772502538],[-0.899278935988749,52.4956019563629],[-0.898910767826203,52.4955985335099],[-0.898542599737659,52.4955951095113],[-0.898174431723142,52.4955916843673],[-0.89818004302191,52.4953669783338],[-0.898185654246557,52.4951422722913],[-0.898191265397082,52.4949175662399],[-0.898559427799253,52.4949209913084],[-0.898565037004928,52.4946962852229],[-0.89857064613651,52.4944715791286],[-0.89893880487126,52.4944750030013],[-0.898944412058066,52.4942502968728],[-0.898576255193999,52.4942468730253],[-0.898208098403952,52.4942434480324],[-0.89783994168795,52.494240021894],[-0.897845554412665,52.4940153158322],[-0.897477399641386,52.4940118885736],[-0.897483014162595,52.4937871825281],[-0.897488628609641,52.4935624764737],[-0.897856779639682,52.4935659036819],[-0.897862392141985,52.4933411975934],[-0.898230541375508,52.4933446236311],[-0.898598690683069,52.4933480485233],[-0.898593081921932,52.4935727546621],[-0.898961233174093,52.4935761784341],[-0.898966840064644,52.4933514722701],[-0.899334989520208,52.4933548948715],[-0.899340594466136,52.4931301886735],[-0.899708742125102,52.4931336101043],[-0.899703139049737,52.4933583163276],[-0.900071288653206,52.4933617366382],[-0.90043943833059,52.4933651558034],[-0.900807588081865,52.4933685738232],[-0.900813185545531,52.4931438675246],[-0.900445037664824,52.4931404495299],[-0.900450636925097,52.4929157432475],[-0.90008249098882,52.4929123241325],[-0.899714345126456,52.4929089038722],[-0.89934619933803,52.4929054824665],[-0.898978053623566,52.4929020599153],[-0.898983660291939,52.4926773537246],[-0.898989266886255,52.492452647525],[-0.899357408859719,52.4924560700258],[-0.899363013509517,52.4922313637921],[-0.89936861809811,52.4920066575202],[-0.899736756402475,52.4920100788271],[-0.899742359075502,52.4917853724427],[-0.900110495577951,52.4917887925798],[-0.900104894780942,52.4920134989887],[-0.900099293937366,52.4922382053073],[-0.900467434262166,52.4922416243468],[-0.900835574660851,52.492245042241],[-0.900841171760089,52.4920203358758],[-0.900846768805058,52.491795629418],[-0.90085236577593,52.4915709229513],[-0.90122050062454,52.4915743396279],[-0.901226095645341,52.4913496331279],[-0.901231690592071,52.4911249266191],[-0.901599821708506,52.4911283423612],[-0.901967952588562,52.4911317584444],[-0.901973543699229,52.4909070519036],[-0.901979134735757,52.4906823453539],[-0.901611007615412,52.4906789293209],[-0.90161660045762,52.4904542227875],[-0.901622193225667,52.4902295162451],[-0.901990316586401,52.4902329322278],[-0.901995907400519,52.4900082256514],[-0.902001498140504,52.489783519066],[-0.901633378539283,52.4897801031336],[-0.901638971084854,52.4895553965645],[-0.901644563556268,52.4893306899865],[-0.901650155953529,52.4891059833996],[-0.902018269915667,52.4891093992567],[-0.902386383951862,52.4891128139686],[-0.902754498062092,52.4891162275352],[-0.90276008474626,52.4888915208641],[-0.903128197050848,52.4888949332604],[-0.903496309429419,52.4888983445115],[-0.90350189228026,52.4886736377813],[-0.903870002853162,52.4886770478621],[-0.903875583750374,52.4884523410979],[-0.903881164573587,52.4882276343249],[-0.904249271461238,52.4882310432103],[-0.904254850330897,52.4880063364033],[-0.904260429126583,52.4877816295874],[-0.904628532329053,52.4877850372776],[-0.904634109171262,52.4875603304277],[-0.904639685939525,52.4873356235689],[-0.905007785456883,52.4873390300638],[-0.905013360271744,52.4871143231711],[-0.905381457983494,52.4871177284958],[-0.905387030845002,52.4868930215692],[-0.90575512675114,52.4868964257237],[-0.905749555769066,52.4871211326754],[-0.906117653628436,52.4871245357097],[-0.90648575156158,52.487127937599],[-0.906491318784781,52.4869032305973],[-0.906859414912234,52.4869066313164],[-0.906864980182203,52.4866819242808],[-0.907233074503964,52.4866853238298],[-0.90760116889942,52.4866887222336],[-0.907595607388282,52.4869134293191],[-0.907590045803401,52.4871381363957],[-0.907584484144774,52.4873628434635],[-0.907952584252229,52.487366240797],[-0.907947024399348,52.4875909478808],[-0.907941464472744,52.4878156549557],[-0.907935904472416,52.4880403620218],[-0.907930344398362,52.4882650690789],[-0.907924784250582,52.4884897761271],[-0.907919224029073,52.4887144831664],[-0.907913663733835,52.4889391901968],[-0.907908103364867,52.4891638972183],[-0.907902542922166,52.489388604231],[-0.90753442589839,52.4893852066727],[-0.907539988220781,52.489160499685],[-0.907171873150381,52.4891571010064],[-0.906803758153691,52.4891537011827],[-0.906435643230737,52.4891503002136],[-0.906430075269283,52.4893750071263],[-0.906424507233996,52.4895997140301],[-0.906418939124875,52.489824420925],[-0.90641337094192,52.490049127811],[-0.906407802685128,52.4902738346881],[-0.906402234354498,52.4904985415563],[-0.906396665950029,52.4907232484156],[-0.90676479403131,52.4907266495597],[-0.907132922186334,52.4907300495584],[-0.907127357467746,52.4909547564588],[-0.907121792675367,52.4911794633503],[-0.907489924663861,52.4911828622537],[-0.907858056726053,52.4911862600117],[-0.907852495619706,52.4914109669443],[-0.907846934439614,52.491635673868],[-0.907841373185776,52.4918603807827],[-0.907835811854624,52.4920850876801],[-0.908203951509286,52.492088484391],[-0.90819839193951,52.4923131912053],[-0.908566533544265,52.4923165867956],[-0.908572091237497,52.4920918799566],[-0.908577648810793,52.4918671730126],[-0.908583206304701,52.4916424660479],[-0.908951342347695,52.4916458604199],[-0.90931947846429,52.4916492536465],[-0.909313924730317,52.4918739606611],[-0.909682062800457,52.4918773527673],[-0.910050200944149,52.4918807437282],[-0.910044650885323,52.4921054507652],[-0.910412790980903,52.492108840604],[-0.910407242670411,52.4923335475667],[-0.910401694286447,52.4925582545206],[-0.910769838208554,52.4925616432634],[-0.910775384715941,52.4923369362848],[-0.911143526834847,52.4923403238575],[-0.911511669027103,52.4923437102849],[-0.911517211707936,52.492119003248],[-0.911885352096964,52.4921223885052],[-0.911879811292687,52.4923470955668],[-0.912247953631572,52.4923504797034],[-0.912253492559292,52.4921257726171],[-0.912621633094895,52.4921291555837],[-0.91298977370375,52.4921325374048],[-0.91335791438583,52.4921359180806],[-0.913363447543138,52.4919112108349],[-0.913368980597374,52.4916865035467],[-0.91373711759524,52.4916898830292],[-0.914105254666384,52.4916932613663],[-0.914110783887326,52.4914685540195],[-0.914478919151761,52.4914719311865],[-0.914847054489424,52.4914753072081],[-0.915215189900288,52.4914786820844],[-0.915209666319235,52.4917033895056],[-0.915204142664932,52.4919280969178],[-0.915198618893754,52.4921528042789],[-0.914830477845916,52.49214942933],[-0.914824952054131,52.4923741365888],[-0.914819426189172,52.4925988438387],[-0.914451281461279,52.4925954676952],[-0.914083136806515,52.4925920904063],[-0.91407760711515,52.4928167975981],[-0.914445753646528,52.4928201749116],[-0.914440225758577,52.4930448821192],[-0.914808374239726,52.4930482583119],[-0.915176522793983,52.4930516333593],[-0.915170998586159,52.4932763406072],[-0.915539149090165,52.4932797145337],[-0.915533626685879,52.4935044217973],[-0.915901779139639,52.493507794603],[-0.91589625853894,52.4937325018823],[-0.916264412942455,52.4937358735672],[-0.916258894145393,52.4939605808622],[-0.916627050498665,52.4939639514262],[-0.916995206924927,52.4939673208448],[-0.916989691808322,52.49419202818],[-0.917357850184321,52.4941953964777],[-0.91772600863326,52.4941987636299],[-0.918094167155114,52.4942021296367],[-0.918088657595871,52.4944268370367],[-0.917720497197216,52.4944234710054],[-0.917714985688185,52.494648178372],[-0.917709474106166,52.4948728857297],[-0.917703962451155,52.4950975930785],[-0.917698450723152,52.4953223004185],[-0.917692938922157,52.4955470077496],[-0.917687427048168,52.4957717150717],[-0.917319255461114,52.4957683477477],[-0.91695108394701,52.4957649792781],[-0.91658291250588,52.495761609663],[-0.916588430010709,52.4955369024145],[-0.916220260519522,52.4955335316785],[-0.915852091101357,52.4955301597969],[-0.915483921756239,52.4955267867699],[-0.915115752484193,52.4955234125973],[-0.915121277423623,52.4952987054383],[-0.914753110101588,52.4952953301448],[-0.914384942852673,52.4952919537058]]],[[[-0.901119777910651,52.4956190534455],[-0.901487946516693,52.4956224694255],[-0.901493540978153,52.4953977631657],[-0.901861707565427,52.4954011794763],[-0.902229874190385,52.495404594887],[-0.902224283485695,52.4956293011702],[-0.90221869270697,52.4958540074444],[-0.902213101854208,52.4960787137098],[-0.901844929598496,52.4960752982242],[-0.901839336794727,52.4963000044557],[-0.901833743916893,52.4965247106784],[-0.901465567931834,52.4965212943759],[-0.901097391842277,52.4965178782955],[-0.901102988470263,52.4962931720963],[-0.900734814325479,52.4962897548955],[-0.900729215826578,52.4965144610695],[-0.900361039884764,52.496511042698],[-0.90035543944097,52.496735748838],[-0.899987261702128,52.4967323292958],[-0.899992864016859,52.4965076231809],[-0.899624688222887,52.4965042025183],[-0.899630292334524,52.4962794964197],[-0.899998466257585,52.4962829170571],[-0.900004068424308,52.4960582109245],[-0.900009670517029,52.4958335047829],[-0.900377840772272,52.4958369242245],[-0.90074601110142,52.4958403425207],[-0.900740412750426,52.4960650487125],[-0.901108585024319,52.4960684658883],[-0.901114181504448,52.4958437596713],[-0.901119777910651,52.4956190534455]]]]}}