{"type":"Feature","properties":{"code":"E63004165","name":"Great Dunmow"},"geometry":{"type":"MultiPolygon","coordinates":[[[[0.377982676424362,51.8729780349417],[0.377619863347297,51.8729853669666],[0.377631710352016,51.8732099472344],[0.377268895365649,51.8732172781947],[0.377257050118698,51.872992697873],[0.376894236738589,51.873000027661],[0.376531423206994,51.8730073563306],[0.376543264938402,51.8732319367602],[0.376555106821334,51.8734565171796],[0.376566948855795,51.8736810975888],[0.376929767660779,51.8736737687574],[0.376941611604609,51.8738983491025],[0.377304432015938,51.8738910190988],[0.377316277869188,51.8741155993797],[0.377679099886856,51.8741082682036],[0.378041921752978,51.8741009359091],[0.378030072384011,51.873876355736],[0.378018223166669,51.8736517755527],[0.378006374100947,51.8734271953593],[0.377994525186847,51.8732026151556],[0.377982676424362,51.8729780349417]]],[[[0.346686570840358,51.8718079547071],[0.346323757240785,51.8718151934751],[0.346335449408377,51.87203977807],[0.346698264811262,51.8720325392415],[0.346709958934723,51.8722571237653],[0.347072775988435,51.8722498837583],[0.34708447206781,51.8724744682109],[0.346721653210742,51.8724817082785],[0.346358834201164,51.872488947228],[0.345996015039097,51.8724961850596],[0.345633195724566,51.8725034217732],[0.345270376257594,51.8725106573688],[0.344907556638205,51.8725178918464],[0.344919242049851,51.8727424766515],[0.344556420474673,51.8727497100717],[0.344193598747122,51.8727569423738],[0.344205280704374,51.8729815272892],[0.344216962814029,51.8732061121939],[0.344579788148446,51.8731988797708],[0.344568104235347,51.8729742949266],[0.344930927613944,51.8729670614459],[0.344942613330485,51.8731916462297],[0.344954299199479,51.8734162310029],[0.345317126032579,51.8734089962833],[0.345328813857515,51.8736335809854],[0.344965985220929,51.8736408157655],[0.344603156431935,51.8736480494275],[0.34461484080233,51.87387263424],[0.344252010057438,51.8738798668445],[0.34426369277673,51.8741044517067],[0.343900860075934,51.8741116832537],[0.343912541144079,51.8743362681658],[0.343549706487373,51.8743434986551],[0.343561385904321,51.874568083617],[0.343573065473644,51.8747926685684],[0.343584745195344,51.875017253509],[0.343596425069423,51.8752418384391],[0.343233583045883,51.8752490680522],[0.343245261268657,51.8754736530321],[0.343608105095885,51.8754664233586],[0.343619785556634,51.8756910073434],[0.343631466192179,51.8759155912449],[0.343643146980269,51.8761401751362],[0.343654827920907,51.8763647590171],[0.343666509014095,51.8765893428877],[0.344029361709748,51.8765821118489],[0.344041044761722,51.8768066956535],[0.344052727966276,51.8770312794477],[0.343689871658134,51.8770385105979],[0.343701553208991,51.8772630944375],[0.343713234912408,51.8774876782668],[0.344076094833132,51.8774804470051],[0.344064411323412,51.8772558632316],[0.344427269285297,51.8772486309071],[0.344438954601318,51.877473214625],[0.344450640069951,51.8776977983325],[0.344462325691195,51.8779223820296],[0.344825188919486,51.8779151484195],[0.344836876499715,51.8781397320505],[0.344848564232587,51.8783643156713],[0.345211430921042,51.8783570808311],[0.345223120612971,51.8785816643858],[0.345234810457572,51.8788062479301],[0.34559768060625,51.8787990118598],[0.345609372409981,51.8790235953381],[0.345972244212467,51.8790163580934],[0.345983937975375,51.8792409415056],[0.346346811431661,51.8792337030866],[0.346358507153795,51.8794582864326],[0.34637020302868,51.8796828697683],[0.34638189905632,51.8799074530937],[0.346393595236717,51.8801320364087],[0.346756475766428,51.8801247966479],[0.346768173906175,51.8803493798968],[0.346779872198708,51.8805739631354],[0.346791570644029,51.8807985463637],[0.346428684694479,51.8808057862919],[0.346440381485931,51.8810303695656],[0.346452078430155,51.8812549528291],[0.346814967993052,51.8812477127892],[0.346826666896755,51.8814722959865],[0.346838365953259,51.8816968791735],[0.346850065162564,51.8819214623501],[0.346861764524674,51.8821460455164],[0.346873464039591,51.8823706286724],[0.346885163707317,51.8825952118181],[0.347248063958048,51.8825879703246],[0.347610964055991,51.8825807277125],[0.347599260774622,51.8823561446785],[0.347962158912938,51.8823489010036],[0.347950453977632,51.8821243180151],[0.347938749195203,51.8818997350163],[0.34792704456565,51.8816751520072],[0.348289937130833,51.8816679073811],[0.348278230847431,51.8814433244175],[0.348266524716923,51.8812187414436],[0.348629412705983,51.8812114970913],[0.348617704972673,51.8809869140908],[0.348605997390791,51.8807623310815],[0.348968881412672,51.8807550860637],[0.348957172198511,51.8805305030768],[0.349320054285286,51.88052325697],[0.349308343438892,51.8802986740054],[0.349671223590567,51.8802914268095],[0.349659511111985,51.8800668438673],[0.349647798784894,51.8798422609164],[0.350010675217844,51.8798350126625],[0.349998961258633,51.879610429734],[0.350361835756518,51.8796031803911],[0.350724710102923,51.879595929928],[0.350736427629338,51.8798205127943],[0.351099303607836,51.8798132611799],[0.351462179434805,51.8798060084454],[0.351473900680017,51.8800305912407],[0.351836778139048,51.8800233373548],[0.3521996554465,51.8800160823489],[0.352562532602349,51.8800088262227],[0.352574259350078,51.8802334089157],[0.352937138137935,51.8802261516382],[0.35330001677414,51.8802188932405],[0.353311747240855,51.8804434758624],[0.353323477859296,51.8806680584756],[0.352960595655764,51.8806753169357],[0.352597713300573,51.8806825742756],[0.352234830793751,51.8806898304953],[0.351871948135318,51.8806970855948],[0.351509065325298,51.8807043395741],[0.351146182363714,51.8807115924332],[0.35078329925059,51.8807188441721],[0.350795017534814,51.8809434269947],[0.350432132486455,51.8809506776446],[0.350443849138509,51.8811752604897],[0.350080962154911,51.8811825100504],[0.3500692472866,51.8809579271743],[0.349706361935271,51.8809651755837],[0.349694649002205,51.8807405926677],[0.349331765283151,51.8807478399258],[0.349343476432491,51.8809724228729],[0.348980590778284,51.8809796690419],[0.348992300295349,51.8812042520114],[0.34900400996387,51.8814288349722],[0.348641120590728,51.8814360800832],[0.348652828626908,51.8816606630664],[0.34901571978385,51.8816534179243],[0.34937861078938,51.881646171662],[0.349390322544641,51.8818707545742],[0.349753215182554,51.8818635071605],[0.350116107669006,51.8818562586266],[0.350479000003974,51.8818490089725],[0.350490717262238,51.8820735917826],[0.350502434672063,51.882298174584],[0.350865330423214,51.8822909237474],[0.350877049768481,51.8825155065089],[0.350888769265336,51.8827400892618],[0.350900488913781,51.8829646720059],[0.35053758781092,51.8829719229359],[0.350549305827009,51.8831965057025],[0.350561023994669,51.8834210884603],[0.350572742313907,51.8836456712093],[0.350935648768688,51.8836384201858],[0.351298555071917,51.883631168042],[0.351310277075945,51.8838557507566],[0.351321999072964,51.8840803336289],[0.351333721221889,51.8843049164922],[0.351345443522724,51.8845294993463],[0.350982530063304,51.8845367516386],[0.350994250727668,51.8847613345202],[0.351005971543923,51.8849859173928],[0.35101769251207,51.8852105002563],[0.35065477353559,51.8852177515382],[0.350291854407288,51.8852250017001],[0.349928935127187,51.8852322507419],[0.349917219524341,51.8850076677689],[0.349554301880903,51.8850149156542],[0.349191384085717,51.8850221624195],[0.349179672211529,51.8847975793643],[0.349167960489115,51.8845729963001],[0.34880504611902,51.8845802418724],[0.348793336336752,51.8843556587626],[0.348781626706228,51.8841310756438],[0.348418715761167,51.8841383200231],[0.348055803572606,51.8841455649003],[0.347692890983609,51.8841528090262],[0.347329978242285,51.8841600520333],[0.34734168073236,51.884384635281],[0.347704595272925,51.8843773922206],[0.34771629971462,51.8846019754048],[0.347728004308697,51.8848265585788],[0.347739709055157,51.8850511417426],[0.34810262884125,51.8850438974032],[0.348114335539429,51.8852684805034],[0.348126042390022,51.8854930635936],[0.348488965090069,51.8854858188191],[0.34850067384261,51.88571040192],[0.348863597306637,51.8857031572853],[0.348875307999433,51.8859277403406],[0.348887018843993,51.8861523233869],[0.349249945733361,51.8861450775592],[0.349261658518249,51.8863696605599],[0.349624587044436,51.8863624135756],[0.349636301769697,51.8865869965307],[0.349999231932698,51.8865797483898],[0.350010948598379,51.8868043312993],[0.350373880398189,51.8867970820018],[0.350385599004339,51.8870216648658],[0.350748532440951,51.8870144144116],[0.350760252987615,51.88723899723],[0.351123188061026,51.8872317456192],[0.351486122982568,51.8872244928883],[0.351497847258454,51.8874490756245],[0.351860783816764,51.8874418217369],[0.351872510033277,51.8876664044275],[0.352235448228349,51.8876591493832],[0.352598386271478,51.8876518932188],[0.352961324162639,51.8876446359343],[0.352973055897226,51.8878692185061],[0.353335995425093,51.8878619600649],[0.353698934800943,51.8878547005035],[0.353687199488967,51.887630118005],[0.354050136924088,51.8876228573601],[0.354061874024754,51.887847439822],[0.354424813096502,51.8878401780204],[0.354413074207149,51.8876155955951],[0.35440133546993,51.8873910131607],[0.354389596884844,51.8871664307173],[0.354377858451886,51.8869418482648],[0.354366120171056,51.8867172658032],[0.35435438204235,51.8864926833325],[0.354342644065765,51.8862681008527],[0.353979717514339,51.886275362398],[0.353967981478398,51.8860507798725],[0.353605056563455,51.8860580402611],[0.353242131496493,51.8860652995296],[0.353230399189655,51.8858407169219],[0.35321866703486,51.8856161343051],[0.353581588524832,51.8856088751097],[0.35359332246811,51.88583345769],[0.353956245594549,51.885826197338],[0.354319168568949,51.885818935866],[0.354330906241298,51.8860435183639],[0.354693830852136,51.8860362557352],[0.354682091391287,51.8858116732739],[0.355045014061541,51.8858044095618],[0.355033272964357,51.8855798271281],[0.355396193694031,51.8855725623326],[0.355384450960559,51.8853479799264],[0.355372708379265,51.8851233975112],[0.355735625379946,51.885116131669],[0.355723881162431,51.8848915492813],[0.355712137097112,51.8846669668846],[0.355700393183987,51.8844423844787],[0.355688649423053,51.8842178020638],[0.355676905814307,51.8839932196399],[0.355665162328086,51.8837686372357],[0.355653418881232,51.8835440549321],[0.356016323212185,51.8835367882242],[0.356004578133275,51.8833122059432],[0.35599283320629,51.8830876236534],[0.355981088431226,51.8828630413549],[0.356343987258501,51.8828557736206],[0.356332240851469,51.8826311913446],[0.356320494596376,51.8824066090599],[0.355957599336853,51.8824138767317],[0.355945855017538,51.882189294407],[0.355934110850135,51.8819647120735],[0.355922366834641,51.8817401297314],[0.356285256742711,51.8817328621534],[0.356273511095352,51.8815082798338],[0.356261765599918,51.8812836975054],[0.356624651788598,51.8812764288698],[0.356987537825381,51.8812691591139],[0.35697578891443,51.8810445768394],[0.356964040155447,51.8808199945562],[0.35660115768608,51.8808272642495],[0.35623827506482,51.8808345328225],[0.356226530025152,51.880609950468],[0.355863649035704,51.8806172178896],[0.355851905931605,51.8803926354951],[0.355489026573973,51.8803999017652],[0.355126147064524,51.8804071669152],[0.354763267403283,51.880414430945],[0.354400387590273,51.8804216938546],[0.354388651772617,51.8801971113264],[0.354025773591504,51.8802043730846],[0.35366289525867,51.8802116337226],[0.353651163160055,51.8799870511232],[0.353639431213184,51.8797624685151],[0.354002305978792,51.8797552079394],[0.354365180592686,51.8797479462437],[0.354728055054841,51.8797406834277],[0.355090929365234,51.8797334194917],[0.355102668446491,51.8799580019749],[0.355465544388689,51.8799507368874],[0.355828420179077,51.8799434706798],[0.35619129581763,51.879936203352],[0.356203040401559,51.8801607857327],[0.356565917671862,51.8801535172535],[0.35657766419133,51.8803780995942],[0.356940543093376,51.8803708299635],[0.357303421843513,51.8803635592126],[0.357666300441719,51.8803562873416],[0.35765454857138,51.8801317050947],[0.358017425234012,51.8801244321348],[0.358380301744669,51.8801171580548],[0.358368546459146,51.8798925758618],[0.358731421034214,51.8798853006929],[0.358719664117173,51.8796607185226],[0.359082536756658,51.8796534422648],[0.359070778208144,51.8794288601171],[0.359059019811719,51.8792042779607],[0.359421888732112,51.8791970006455],[0.359784757500447,51.8791897222102],[0.359796519463899,51.8794143043039],[0.359808281579487,51.879638886389],[0.359820043847212,51.8798634684653],[0.360182917814065,51.8798561888157],[0.360194682017511,51.8800807708519],[0.360206446373124,51.8803053528794],[0.359843568839089,51.8803126325916],[0.35948069115296,51.8803199111837],[0.359492452093488,51.8805444932652],[0.359129572471657,51.8805517707684],[0.358766692697777,51.8805590471515],[0.358403812771868,51.8805663224144],[0.358040932693957,51.8805735965571],[0.358052686651977,51.8807981787552],[0.35768980463842,51.8808054518091],[0.357326922472902,51.8808127237427],[0.357338673015578,51.8810373059947],[0.357701556964787,51.8810300340297],[0.358064440762032,51.8810227609445],[0.358427324407291,51.8810154867392],[0.358790207900542,51.8810082114136],[0.35880196573005,51.8812327935315],[0.358439080453093,51.8812400688884],[0.358450836650958,51.881464651029],[0.358087949438258,51.881471925297],[0.357725062073566,51.8814791984448],[0.357736814855984,51.8817037806392],[0.357748567790424,51.881928362825],[0.357385676706221,51.8819356349152],[0.357397428008879,51.8821602171234],[0.357409179463541,51.882384799323],[0.357420931070211,51.8826093815138],[0.357058034482557,51.8826166525777],[0.357069784457356,51.8828412347911],[0.357081534584145,51.8830658169958],[0.356718634276769,51.8830730870019],[0.35673038277162,51.8832976692292],[0.356742131418442,51.8835222514477],[0.356753880217237,51.8837468336574],[0.356765629078195,51.8839714159432],[0.357128536528448,51.8839641458043],[0.357491443826474,51.8839568745455],[0.357479691383753,51.883732292337],[0.35746793901701,51.8835077101899],[0.357830842588353,51.8835004378805],[0.357819088589683,51.8832758557559],[0.35818199022509,51.8832685823576],[0.35817023459454,51.8830440002556],[0.358533134294017,51.8830367257683],[0.358896033841461,51.8830294501607],[0.358907793039845,51.8832540322],[0.359270694219147,51.8832467554408],[0.359633595246367,51.8832394775613],[0.359996496121482,51.8832321985616],[0.360008260823778,51.8834567804981],[0.360020025678257,51.883681362426],[0.360382929969124,51.8836740822431],[0.360745834107836,51.88366680094],[0.360757602654657,51.8838913828175],[0.361120508429135,51.883884100359],[0.36148341405113,51.8838768167805],[0.361495186272381,51.8841013986168],[0.36185809353013,51.8840941138816],[0.362221000635347,51.8840868280264],[0.362209224837581,51.8838622462637],[0.362197449140653,51.8836376645245],[0.362560352518236,51.8836303776198],[0.362548575176149,51.8834057959118],[0.362536797986409,51.8831812141951],[0.362525020949012,51.8829566324696],[0.362513244063956,51.8827320507353],[0.362150347821978,51.8827393375143],[0.361787451427739,51.8827466231729],[0.361775678262709,51.8825220413671],[0.36141278350008,51.8825293258741],[0.361401012271163,51.8823047440282],[0.361038119140149,51.8823120273835],[0.360675225856947,51.8823193096186],[0.360312332421581,51.8823265907334],[0.360324098299007,51.8825511726736],[0.360335864328629,51.8827757546049],[0.359972967173428,51.8827830346623],[0.359961202927665,51.8825584526995],[0.359949438834075,51.882333870728],[0.359586545094451,51.8823411496023],[0.359574782936845,51.8821165675908],[0.359563020931384,51.8818919855705],[0.359925911103401,51.8818847067588],[0.360288801123306,51.881877426827],[0.360277035702452,51.8816528448607],[0.360265270433783,51.8814282628856],[0.36062815673405,51.8814209818963],[0.360616389833847,51.8811963999439],[0.360979274198248,51.8811891178658],[0.360967505666557,51.880964535936],[0.361330388095095,51.880957252769],[0.361318617931965,51.880732670862],[0.361681498424647,51.8807253866062],[0.361669726630122,51.8805008047218],[0.362032605186953,51.8804935193773],[0.36202083176108,51.8802689375155],[0.362009058487494,51.880044355645],[0.36199728536619,51.8798197737658],[0.362360158420025,51.8798124873954],[0.362348383667461,51.8795879055389],[0.3623366090672,51.8793633236736],[0.362699478401732,51.8793560362459],[0.362711254785508,51.8795806180797],[0.363074125751283,51.8795733295004],[0.363062347583994,51.879348747698],[0.363050569569052,51.8791241658869],[0.363413436815537,51.8791168762504],[0.363401657169474,51.8788922944619],[0.36303879170645,51.878899584067],[0.363027013996189,51.8786750022384],[0.362664150164321,51.8786822906919],[0.362301286180194,51.8786895780254],[0.36228951218911,51.8784649961252],[0.362277738350314,51.8782404142162],[0.362265964663804,51.8780158322986],[0.362628823297738,51.8780085450594],[0.362640598767623,51.8782331269457],[0.363003459032676,51.878225838555],[0.362991681779418,51.8780012567002],[0.363354540108823,51.8779939672209],[0.363342761224549,51.8777693853888],[0.363330982492624,51.8775448035479],[0.363319203913047,51.8773202216984],[0.363307425485815,51.87709563984],[0.363670276529685,51.8770883493665],[0.363658496471544,51.8768637675309],[0.364021345579854,51.8768564759687],[0.364009563890851,51.8766318941559],[0.364372411063607,51.8766246015052],[0.364360627743787,51.876400019715],[0.364723472980994,51.8763927259758],[0.364711688030406,51.8761681442084],[0.365074531048511,51.876160849761],[0.365437372418465,51.8761535561998],[0.365425584093298,51.8759289744306],[0.365788423510171,51.8759216798012],[0.365776633538973,51.8756970980725],[0.365764843688407,51.8754725163242],[0.366127679333576,51.8754652206708],[0.366115887220912,51.8752406387732],[0.366104095259125,51.8750160568655],[0.366092303448214,51.8747914749476],[0.366080511788176,51.8745668930195],[0.366068720279008,51.8743423110812],[0.366056928920708,51.8741177291327],[0.36641975386706,51.8741104326828],[0.366782578662574,51.8741031351144],[0.367145403307229,51.8740958364275],[0.367133606826049,51.8738712546298],[0.367496429561911,51.8738639548782],[0.36785925214687,51.873856654008],[0.368222074580904,51.8738493520194],[0.368584896863988,51.8738420489124],[0.368573093502209,51.8736174673193],[0.368935913876446,51.8736101631475],[0.368924108907835,51.873385581598],[0.368561290291451,51.8733928857161],[0.36854948723171,51.8731683041027],[0.368912304090264,51.8731610000383],[0.368900499423732,51.8729364184684],[0.369263314373494,51.8729291133393],[0.369251508100217,51.872704531813],[0.369239701977996,51.8724799502764],[0.369602513261217,51.8724726441364],[0.369965324393414,51.872465336878],[0.369953514906783,51.8722407554388],[0.370316324130205,51.8722334471157],[0.370304513036967,51.87200886572],[0.37066732035162,51.8720015563323],[0.370655507651821,51.8717769749802],[0.37064369510316,51.8715523936179],[0.370280891303842,51.8715597028981],[0.370269080663949,51.8713351214718],[0.369906278471209,51.8713424295799],[0.36989446974004,51.8711178480897],[0.369531669153881,51.8711251550257],[0.369168868416713,51.8711324608433],[0.369157063351816,51.8709078792355],[0.36879426422126,51.8709151838811],[0.368782461064973,51.8706906022093],[0.368770658059696,51.8704660205274],[0.369133453675124,51.8704587159893],[0.369121649063326,51.8702341343509],[0.369109844602555,51.8700095527023],[0.369472636551977,51.8700022471533],[0.369460830484752,51.8697776655483],[0.369823620525701,51.8697703589347],[0.369811812852067,51.8695457773733],[0.370174600984549,51.8695384696952],[0.370162791704552,51.8693138881772],[0.370525577928572,51.8693065794346],[0.370513767042258,51.8690819979602],[0.37087655135782,51.8690746881531],[0.370864738865237,51.8688501067223],[0.371227521272348,51.8688427958507],[0.371215707173539,51.8686182144634],[0.371203893225879,51.8683936330661],[0.371192079429362,51.8681690516585],[0.370829302294238,51.8681763623688],[0.370817490406147,51.8679517808973],[0.370805678669174,51.8677271994155],[0.370442904897532,51.8677345089001],[0.370431095068913,51.8675099273544],[0.370068322903476,51.8675172356671],[0.370056514983164,51.8672926540575],[0.370419285391383,51.8672853457986],[0.370782055648567,51.8672780364215],[0.371144825754697,51.8672707259263],[0.371133011590693,51.8670461441712],[0.371495779699206,51.8670388325864],[0.371858547655186,51.8670315198829],[0.371846728801939,51.8668069378693],[0.372209494826388,51.866799624092],[0.372572260698259,51.866792309196],[0.372560438439709,51.8665677272628],[0.372923202380035,51.866560411293],[0.372911378495202,51.8663358293952],[0.373274140503988,51.8663285123518],[0.37363690236013,51.8663211941897],[0.37362507507017,51.8660966123724],[0.373613247932915,51.8658720305454],[0.373976006078634,51.8658647113547],[0.373964177315236,51.8656401295632],[0.373952348704561,51.8654155477621],[0.374315103139937,51.8654082275428],[0.374303272903186,51.8651836457772],[0.374291442819176,51.8649590640019],[0.374654193544289,51.8649517427541],[0.374642361834271,51.8647271610142],[0.374630530277011,51.8645025792648],[0.374618698872507,51.8642779975058],[0.374981444108741,51.8642706752745],[0.374969611078315,51.8640460935509],[0.374957778200665,51.8638215118177],[0.374945945475787,51.8635969300749],[0.37530868522334,51.8635896068603],[0.375296850872628,51.8633650251529],[0.375285016674705,51.863140443436],[0.375273182629568,51.8629158617093],[0.375635916888645,51.8629085375114],[0.375624081217762,51.8626839558203],[0.375612245699685,51.8624593741196],[0.375600410334409,51.8622347924092],[0.375963139105211,51.8622274672281],[0.375951302114277,51.8620028855532],[0.375939465276162,51.8617783038687],[0.375927628590865,51.8615537221746],[0.376290351873593,51.8615463960102],[0.376278513562725,51.8613218143516],[0.375915792058383,51.8613291404708],[0.375903955678713,51.8611045587575],[0.375541235799967,51.8611118837131],[0.375178515768478,51.8611192075502],[0.375166683098302,51.860894625737],[0.375529401351447,51.860887301945],[0.37551756705571,51.8606627201673],[0.375154850580887,51.8606700439142],[0.374792133953349,51.8606773665426],[0.37442941717312,51.8606846880525],[0.374066700240221,51.8606920084439],[0.374054873210473,51.8604674264763],[0.373692157903239,51.8604747457041],[0.373329442443384,51.8604820638135],[0.372966726830933,51.8604893808044],[0.372604011065909,51.8604966966767],[0.372592191302002,51.8602721145193],[0.372229477162723,51.8602794292281],[0.37186676287092,51.8602867428185],[0.371878579078233,51.860511325066],[0.371890395438094,51.8607359073039],[0.371902211950502,51.8609604895322],[0.371914028615462,51.8611850717509],[0.372276750020597,51.8611777579804],[0.372288568616503,51.8614023401445],[0.372651291647491,51.8613950252105],[0.373014014525919,51.861387709158],[0.373025836831224,51.8616122912223],[0.373037659289158,51.8618368732771],[0.373049481899725,51.8620614553222],[0.373412209960857,51.862054138016],[0.373774937869375,51.8620468195912],[0.373786764189525,51.8622714015366],[0.374149493723875,51.8622640819483],[0.374512223105561,51.8622567612414],[0.374524053135379,51.862481343087],[0.374161321975201,51.862488663839],[0.374173150379237,51.8627132457201],[0.373810417287876,51.8627205653986],[0.373822244066083,51.8629451473151],[0.373459509043533,51.8629524659201],[0.373471334195865,51.863177047872],[0.373108597242122,51.8631843654035],[0.373120420768532,51.8634089473909],[0.372757681883589,51.8634162638487],[0.372769503784033,51.8636408458716],[0.372406762967884,51.8636481612558],[0.372418583242314,51.8638727433141],[0.372055840494956,51.8638800576248],[0.372067659143324,51.8641046397184],[0.37170491446475,51.8641119529555],[0.371716731487012,51.8643365350845],[0.371353984877217,51.864343847248],[0.370991238114919,51.8643511582927],[0.370628491200142,51.8643584682189],[0.370616679513982,51.8641338859549],[0.370253934225454,51.8641411947174],[0.369891188784496,51.8641485023612],[0.36952844319113,51.8641558088864],[0.369516636993521,51.8639312264779],[0.369504830948335,51.8637066440597],[0.369142088759941,51.8637139493764],[0.368779346419193,51.8637212535744],[0.368767544083718,51.8634966710568],[0.368404803369285,51.8635039740912],[0.368393002964808,51.863279391519],[0.368381202712677,51.8630548089372],[0.36836940261289,51.8628302263457],[0.368732137991513,51.8628229234461],[0.368720336265509,51.8625983408899],[0.368708534691866,51.8623737583242],[0.368696733270582,51.8621491757488],[0.368684932001653,51.8619245931639],[0.368673130885078,51.8617000105693],[0.368310404399004,51.8617073132443],[0.368298605213219,51.8614827305952],[0.367935880353301,51.8614900321068],[0.367573155341122,51.8614973324998],[0.367561359864505,51.8612727497512],[0.367549564540163,51.8610481669931],[0.367186842932574,51.8610554661777],[0.366824121172776,51.8610627642439],[0.366461399260791,51.8610700611916],[0.366473189249919,51.8612946440844],[0.366484979391254,51.8615192269676],[0.366122253770263,51.8615265228865],[0.365759527997127,51.8615338176868],[0.365396802071869,51.8615411113686],[0.365034075994512,51.8615484039318],[0.365045859174214,51.8617729869849],[0.36468313252281,51.8617802804752],[0.36469491397345,51.8620048635117],[0.364332185442047,51.8620121561219],[0.3639694567546,51.862019447615],[0.363606727911133,51.8620267379908],[0.363618503997446,51.8622513212143],[0.363630280239799,51.8624759044268],[0.363267547560011,51.8624831938174],[0.362904814724245,51.8624904820908],[0.362916587442241,51.8627150654242],[0.362553852610319,51.8627223526464],[0.362565623644084,51.8629469360348],[0.362577394833826,51.8631715194122],[0.362940133346227,51.8631642320582],[0.362951906532221,51.8633888153587],[0.363314646728932,51.8633815268215],[0.363677386769654,51.8633742371671],[0.364040126654365,51.8633669463953],[0.364028347947561,51.8631423632927],[0.364391085835971,51.8631350714698],[0.364402866383038,51.8633596545064],[0.364765605955652,51.8633523615002],[0.364777388499104,51.8635769444598],[0.364414647086206,51.863584237532],[0.364051905517244,51.863591529487],[0.363689163792243,51.8635988203246],[0.363700940970888,51.8638234034713],[0.363712718305591,51.8640479866069],[0.363724495796353,51.8642725697315],[0.363361748394316,51.8642798596499],[0.363373524200755,51.8645044428295],[0.363010774802325,51.8645117316965],[0.362999000836278,51.8642871484509],[0.362987227026247,51.8640625651944],[0.363349972743916,51.8640552764593],[0.363338197249555,51.8638306932577],[0.363326421911228,51.8636061100451],[0.362963679874221,51.8636133986483],[0.362600937681247,51.8636206861342],[0.362589166179546,51.8633961027787],[0.362226425670931,51.8634033890814],[0.362214656165488,51.863178805649],[0.361851917341237,51.8631860907685],[0.361863685006399,51.8634106742669],[0.361500944185975,51.8634179583351],[0.361512710166764,51.8636425418884],[0.361149967350162,51.8636498249052],[0.360787224377713,51.8636571068049],[0.360798986833745,51.863881690479],[0.360810749445645,51.8641062741422],[0.360822512213416,51.8643308577943],[0.360834275137059,51.8645554414355],[0.360846038216578,51.8647800250657],[0.361208790390945,51.8647727428366],[0.361220555466797,51.8649973263899],[0.361583309325756,51.8649900429775],[0.361946063028827,51.8649827584478],[0.361957831941534,51.8652073418583],[0.361969601010196,51.8654319252578],[0.362332358238323,51.8654246394789],[0.362344129303461,51.8656492228015],[0.362706888216162,51.8656419358393],[0.362718661277825,51.865866519085],[0.362730434495498,51.8660911023197],[0.363093196933329,51.8660838141082],[0.363104972147601,51.8663083972659],[0.363116747517913,51.8665329804127],[0.363128523044268,51.8667575635485],[0.363140298726669,51.8669821466732],[0.363503068370973,51.8669748570805],[0.363514845639268,51.867199440006],[0.363526621576867,51.8674240224786],[0.363538397668312,51.8676486049415],[0.363550173913606,51.8678731873946],[0.363187396956348,51.867880477172],[0.363199171549034,51.8681050596626],[0.362836392631539,51.8681123483685],[0.362473613560287,51.8681196359558],[0.362110834335303,51.8681269224245],[0.361748054956608,51.8681342077745],[0.361385275424228,51.8681414920059],[0.361397041138297,51.8683660747228],[0.361034259645756,51.8683733578827],[0.361022495738185,51.8681487751186],[0.360659715898503,51.8681560571126],[0.360671477999574,51.8683806399239],[0.360308696199774,51.8683879208464],[0.359945914246379,51.8683952006503],[0.359957672888065,51.8686197835462],[0.359594888974567,51.8686270622786],[0.359232104907519,51.8686343398923],[0.358869320686944,51.8686416163873],[0.35888107406258,51.8688661994148],[0.358518287881939,51.8688734748383],[0.358155501547816,51.868880749143],[0.357792715060232,51.8688880223291],[0.357804463169658,51.8691126054883],[0.357441674722045,51.8691198776028],[0.357078886121018,51.8691271485986],[0.357090630770694,51.8693517318422],[0.356727840209652,51.8693590017663],[0.35636504949524,51.8693662705718],[0.356376790685064,51.8695908538998],[0.356013998010653,51.8695981216336],[0.356025737547202,51.8698227049989],[0.355662942912787,51.8698299716611],[0.355300148125067,51.8698372372045],[0.355311884201589,51.8700618206542],[0.354949087453881,51.8700690851259],[0.354586290552911,51.8700763484789],[0.354598023169304,51.8703009320129],[0.354235224308362,51.8703081942941],[0.354246955271286,51.8705327778654],[0.353884154450366,51.8705400390749],[0.353895883759775,51.8707646226835],[0.353533080978871,51.8707718828212],[0.353544808634717,51.870996466467],[0.353182003893823,51.871003725533],[0.35319372989606,51.871228309216],[0.352830923195173,51.8712355672102],[0.352842647543752,51.8714601509305],[0.352479838882866,51.8714674078529],[0.352491561577742,51.8716919916104],[0.352503284425783,51.8719165753582],[0.352866096700473,51.8719093183418],[0.353228908822021,51.8719020602067],[0.3532406354371,51.8721266438507],[0.353603449212416,51.8721193845497],[0.353615177787668,51.872343968137],[0.353252362205397,51.872351227485],[0.353264089126915,51.8725758111096],[0.352901271584493,51.8725830693857],[0.352538453888923,51.872590326543],[0.352175636040228,51.8725975825814],[0.351812818038431,51.872604837501],[0.351449999883555,51.8726120913018],[0.351087181575624,51.8726193439837],[0.351075465496034,51.8723947600773],[0.350712648842068,51.8724020115934],[0.350349832035098,51.8724092619906],[0.349987015075147,51.872416511269],[0.349624197962237,51.8724237594286],[0.349261380696392,51.8724310064693],[0.348898563277636,51.8724382523911],[0.348535745705994,51.8724454971941],[0.348524042428352,51.8722209129496],[0.348512339303623,51.8719963286954],[0.348500636331803,51.8717717444313],[0.34848893351289,51.8715471601576],[0.348126122681908,51.8715544041528],[0.348114421803077,51.8713298198393],[0.347751612420189,51.871337062958],[0.347739913497231,51.8711124785733],[0.347728214726889,51.870887894178],[0.34771651610916,51.870663309772],[0.347353711983334,51.8706705515911],[0.347365408797875,51.8708951360576],[0.347002602716323,51.8709023768193],[0.347014297880242,51.8711269613357],[0.346651489842958,51.8711342010401],[0.346663183356209,51.8713587856064],[0.346674877022008,51.871583370162],[0.346686570840358,51.8718079547071]]],[[[0.361851917341237,51.8631860907685],[0.361840149832006,51.8629615072592],[0.362202886816001,51.8629542222056],[0.362191117622466,51.8627296387512],[0.361828382478703,51.8627369237389],[0.361465647179056,51.8627442076093],[0.361477412692124,51.8629687911956],[0.361114675396379,51.8629760740147],[0.361126439225089,51.8632006576559],[0.361489178361096,51.8631933747708],[0.361851917341237,51.8631860907685]]],[[[0.37551756705571,51.8606627201673],[0.375880283377797,51.8606553953019],[0.376242999547122,51.860648069318],[0.376254837399493,51.8608726510055],[0.376617555194348,51.8608653238579],[0.376605715563664,51.8606407422156],[0.376593876085832,51.8604161605636],[0.376582036760846,51.860191578902],[0.376944749068031,51.8601842507713],[0.376932908117651,51.8599596691452],[0.376570197588707,51.8599669972307],[0.37655835856941,51.8597424155499],[0.376195649665888,51.8597497424718],[0.375832940609593,51.8597570682752],[0.375821105299532,51.8595324864945],[0.37545839786869,51.8595398111344],[0.375095690285123,51.8595471346558],[0.374732982548854,51.8595544570588],[0.374370274659907,51.8595617783433],[0.374007566618306,51.8595690985094],[0.374019393037329,51.8597936805155],[0.374031219609029,51.8600182625121],[0.37404304633341,51.860242844499],[0.37440575970972,51.8602355241977],[0.374768472933366,51.8602282027779],[0.374780303366991,51.8604527846651],[0.375143018216229,51.8604454620817],[0.375505732912755,51.8604381383799],[0.37551756705571,51.8606627201673]]],[[[0.37363690236013,51.8663211941897],[0.373648729802799,51.8665457759974],[0.373660557398176,51.8667703577954],[0.373297791984177,51.8667776760477],[0.373309617953304,51.8670022578812],[0.373672385146267,51.8669949395839],[0.374035152186557,51.8669876201678],[0.374023322659506,51.8667630384244],[0.374386087768143,51.8667557179347],[0.374397919074152,51.866980299633],[0.374760685809028,51.8669729779795],[0.375123452391162,51.8669656552071],[0.375111617527245,51.866741073599],[0.375474382177664,51.866733749753],[0.375837146675297,51.8667264247883],[0.375825308406334,51.8665018432608],[0.375462545687624,51.8665091681804],[0.375450709350412,51.8662845865981],[0.375087948257824,51.8662919103539],[0.375076113852315,51.8660673287169],[0.375438873166023,51.8660600050062],[0.375427037134454,51.8658354234047],[0.375064279599604,51.8658427470702],[0.374701521912002,51.8658500696171],[0.374338764071671,51.8658573910453],[0.374350594766659,51.866081972782],[0.373987834994757,51.8660892931366],[0.373999664063609,51.8663138749088],[0.37363690236013,51.8663211941897]]],[[[0.366528680546107,51.8831009924832],[0.366891577254405,51.8830936939977],[0.366879778767244,51.8828691126895],[0.366867980433777,51.8826445313714],[0.367230873387832,51.882637231868],[0.367219073407788,51.8824126505905],[0.367207273581454,51.882188069303],[0.367195473908827,51.8819634880055],[0.367183674389906,51.881738906698],[0.367171875024686,51.8815143253806],[0.367534758824002,51.8815070250112],[0.367897642469649,51.8814997235229],[0.367909445435204,51.8817243047392],[0.367921248554509,51.8819488859454],[0.367933051827565,51.8821734671417],[0.368295940720081,51.8821661643825],[0.368658829458875,51.8821588605044],[0.36867063648615,51.8823834415894],[0.369033526871426,51.8823761365416],[0.36902171804392,51.8821515555073],[0.369384606475196,51.8821442493911],[0.369372796001312,51.8819196683974],[0.369735682478593,51.881912361213],[0.369723870358377,51.8816877802599],[0.369360985681273,51.8816950873937],[0.369349175515077,51.88147050638],[0.369337365502722,51.8812459253564],[0.368974484272118,51.8812532312699],[0.368962676213709,51.8810286501856],[0.369325555644203,51.8810213443227],[0.369688434920918,51.8810140373409],[0.370051314043829,51.8810067292401],[0.370039500738981,51.8807821482978],[0.370402377907986,51.8807748391288],[0.370390562956964,51.8805502582272],[0.37075343817207,51.8805429479899],[0.370741621574918,51.8803183671289],[0.370729805131688,51.880093786258],[0.371092676592897,51.8800864750032],[0.371080858503606,51.879861894173],[0.371443728010952,51.87985458185],[0.371431908275645,51.8796300010605],[0.3714200886943,51.879405420261],[0.371782954447861,51.8793981069205],[0.371771133220569,51.8791735261617],[0.371759312147254,51.878948945393],[0.371747491227914,51.8787243646142],[0.371384630873993,51.8787316778026],[0.371021770366176,51.8787389898721],[0.371009953200477,51.878514408982],[0.371372811908457,51.8785070969632],[0.371360993096869,51.8782825161138],[0.371723849851149,51.8782752030268],[0.371712029393717,51.8780506222181],[0.37170020909025,51.8778260413994],[0.371688388940746,51.8776014605707],[0.372051240141832,51.877594146517],[0.372039418346573,51.8773695657291],[0.372402267594022,51.8773622506073],[0.372390444153055,51.8771376698601],[0.372753291446871,51.8771303536703],[0.372741466360243,51.8769057729639],[0.372729641427637,51.8766811922474],[0.37309248496819,51.8766738750403],[0.373080658389991,51.8764492943645],[0.373443499976948,51.8764419760894],[0.373431671753203,51.8762173954544],[0.37379451138657,51.8762100761113],[0.374157350865906,51.8762027556494],[0.374145519197106,51.875978175106],[0.374508356722837,51.8759708535761],[0.374496523408609,51.8757462730735],[0.374484690248507,51.8755216925608],[0.374472857497311,51.8752971119317],[0.374461024950025,51.8750725312706],[0.374449192554146,51.8748479505993],[0.374437360309672,51.8746233699177],[0.37407453341328,51.8746306911354],[0.374062703078137,51.8744061103899],[0.374050872894371,51.8741815296341],[0.374039042861978,51.8739569488681],[0.37440186448465,51.873949627812],[0.37439003284577,51.8737250470897],[0.374752852559245,51.873717724969],[0.375115672121363,51.8737104017298],[0.375478491532099,51.8737030773722],[0.375841310791432,51.8736957518962],[0.375829472272619,51.8734711713792],[0.375817633905286,51.873246590852],[0.376180449497567,51.8732392643653],[0.376168609523935,51.8730146838818],[0.375805795689433,51.8730220103146],[0.375793957625055,51.8727974297671],[0.37578211971215,51.8725728492093],[0.375419309241723,51.8725801744159],[0.375407473238001,51.8723555937941],[0.375044664373897,51.8723629178284],[0.374681855358427,51.8723702407444],[0.374693687846717,51.8725948214739],[0.374330876922186,51.8726021433254],[0.374342707804134,51.8728267240986],[0.373979894970534,51.8728340448855],[0.373617081985631,51.872841364554],[0.373254268849449,51.872848683104],[0.373266094609466,51.8730732640286],[0.373277920520798,51.873297844943],[0.373289746583448,51.8735224258472],[0.372926928022611,51.8735297434403],[0.372564109310533,51.873537059915],[0.372201290447234,51.8735443752713],[0.37183847143274,51.8735516895091],[0.371826652401395,51.8733271083896],[0.371463834993559,51.8733344214552],[0.371452017871248,51.8731098402718],[0.371089202070077,51.8731171521651],[0.370726386117782,51.87312446294],[0.370363570014388,51.8731317725965],[0.370375381863253,51.8733563539413],[0.370012563850962,51.8733636625331],[0.370024374093118,51.8735882439214],[0.370036184486388,51.8738128252996],[0.370047995030773,51.8740374066675],[0.369685171593818,51.8740447143021],[0.369322348005821,51.8740520208183],[0.368959524266805,51.874059326216],[0.368971329688556,51.874283907735],[0.368608504040622,51.8742912120679],[0.368620307855479,51.8745157936304],[0.368632111821369,51.8747403751827],[0.368994940985218,51.8747330707423],[0.369006746860133,51.8749576522308],[0.369369577630967,51.8749503466181],[0.36973240825077,51.874943039887],[0.369744217792766,51.8751676212578],[0.370107050019523,51.8751603133544],[0.370469882095203,51.8751530043325],[0.370481695304364,51.8753775855856],[0.370493508586302,51.8756021667427],[0.370505321951679,51.8758267478133],[0.370142484532248,51.8758340569863],[0.370154296251933,51.8760586380977],[0.370166108125466,51.876283219199],[0.370177920152847,51.8765078002904],[0.37018973233408,51.8767323813717],[0.370552576951891,51.876725071996],[0.370564391086632,51.8769496530167],[0.370927237350269,51.8769423424715],[0.371290083460058,51.8769350308075],[0.371652929415972,51.8769277180248],[0.371664749103609,51.8771522988834],[0.371676568945199,51.8773768797321],[0.371313719389922,51.8773841926162],[0.370950869680768,51.8773915043816],[0.370939053438565,51.8771669234315],[0.370576205375253,51.8771742340274],[0.370213357158112,51.8771815435045],[0.369850508787166,51.8771888518628],[0.369487660262437,51.8771961591023],[0.369124811583949,51.877203465223],[0.368761962751726,51.8772107702249],[0.368773768195703,51.877435351479],[0.368410917410055,51.8774426554127],[0.368399113765791,51.8772180741081],[0.368036264626167,51.8772253768724],[0.368048066470714,51.8774499582277],[0.368059868468984,51.877674539573],[0.368071670620978,51.8778991209083],[0.367708815928461,51.8779064227057],[0.367720616434394,51.8781310040816],[0.367732417094032,51.8783555854476],[0.36774421790738,51.8785801668036],[0.36775601887444,51.8788047481495],[0.367767819995215,51.8790293294856],[0.367779621269706,51.8792539108116],[0.367416755624438,51.8792612117938],[0.367428555252716,51.8794857931605],[0.367065687653871,51.8794930930744],[0.366702819901404,51.8795003918694],[0.366714616083462,51.8797249733273],[0.366726412419175,51.8799495547752],[0.366738208908546,51.8801741362131],[0.366375335602519,51.880181434041],[0.366363540913159,51.8799568525525],[0.366000669253562,51.8799641492109],[0.365988876517827,51.8797395676618],[0.365977083935699,51.8795149861028],[0.365965291507176,51.8792904045338],[0.36560242509393,51.8792976999216],[0.365614215722507,51.8795222815412],[0.365251347355789,51.8795295758606],[0.365239558527159,51.8793049941905],[0.364876691210472,51.8793122881569],[0.364513822789899,51.8793195823053],[0.364525608091209,51.8795441639819],[0.36453739354496,51.8797687456497],[0.364174521404976,51.879776038741],[0.364186305227622,51.8800006204316],[0.364198089202691,51.8802252021134],[0.364209873330186,51.8804497837865],[0.364221657610107,51.8806743654508],[0.364233442042461,51.8808989471064],[0.364245226627248,51.8811235287533],[0.364608109468867,51.8811162354731],[0.364619895989778,51.8813408170798],[0.364631682663149,51.8815653986777],[0.364643469488986,51.8817899802669],[0.364655256467289,51.8820145618473],[0.364667043598063,51.882239143419],[0.364678830881307,51.882463724982],[0.364690618317029,51.8826883065362],[0.364327722989107,51.8826956000367],[0.364339508793455,51.8829201816137],[0.364702405905227,51.8829128880817],[0.365065302691422,51.8829055936739],[0.365077092176978,51.8831301752349],[0.365439989499604,51.8831228812256],[0.365802886668684,51.8831155860971],[0.366165783684192,51.8831082898497],[0.366528680546107,51.8831009924832]]],[[[0.372504998088207,51.8724141547539],[0.372867808011392,51.8724068385483],[0.372879631711057,51.872631419547],[0.373242443240744,51.8726241021692],[0.373605254619175,51.872616783673],[0.373593427404052,51.8723922027819],[0.37358160034026,51.8721676218805],[0.37321879247726,51.8721749402691],[0.372855984463011,51.8721822575393],[0.372493176297535,51.8721895736911],[0.372130367980857,51.8721968887245],[0.371767559512997,51.8722042026395],[0.371779377788241,51.8724287838099],[0.371791196214701,51.8726533649701],[0.372154008198013,51.8726460509475],[0.372516820030139,51.8726387358065],[0.372504998088207,51.8724141547539]]],[[[0.360704891549554,51.8620850207785],[0.361067621640318,51.8620777393402],[0.361055858590984,51.8618531556442],[0.361044095697518,51.8616285719371],[0.361032332959915,51.8614039882191],[0.361020570378174,51.8611794044901],[0.360657847647849,51.8611866856647],[0.360295124761732,51.8611939657222],[0.359932401719844,51.8612012446625],[0.359920644814122,51.8609766607249],[0.359557923456548,51.8609839384822],[0.359195201943255,51.8609912151223],[0.358832480274267,51.8609984906452],[0.358844231659807,51.8612230747805],[0.358855983201062,51.8614476589047],[0.358493257696248,51.8614549334422],[0.358505007553108,51.8616795176214],[0.358516757565667,51.8619041017895],[0.358879486750734,51.8618968271204],[0.359242215780119,51.861889551334],[0.359604944653798,51.8618822744304],[0.359967673371749,51.8618749964097],[0.359979430900638,51.8620995803034],[0.359616700342534,51.86210685839],[0.359628456187045,51.8623314423387],[0.359640212187332,51.8625560262764],[0.3596519683434,51.8627806102031],[0.360014704422107,51.8627733319188],[0.360377440345051,51.8627660525173],[0.360740176112207,51.8627587719985],[0.361102911723549,51.8627514903625],[0.361091148206598,51.8625269066994],[0.360728414435471,51.8625341882695],[0.360716652914589,51.8623096045295],[0.360353920827848,51.8623168849164],[0.360342161302986,51.8620923010996],[0.360704891549554,51.8620850207785]]],[[[0.334760180424672,51.8729445898124],[0.335123006105691,51.8729373865783],[0.335134642976558,51.8731619730026],[0.3354974703093,51.8731547685902],[0.335860297490254,51.8731475630599],[0.336223124519394,51.8731403564115],[0.336234766952601,51.8733649426443],[0.336597595633407,51.8733577348176],[0.336960424162352,51.8733505258729],[0.336972070354496,51.8735751119746],[0.337334900535076,51.8735679018516],[0.337346548682703,51.8737924878823],[0.337358196982297,51.8740170739025],[0.337369845433856,51.874241659912],[0.337381494037387,51.8744662459109],[0.337744331280362,51.8744590344286],[0.337755981839501,51.8746836203567],[0.338118820734162,51.874676407696],[0.338130473248956,51.8749009935531],[0.338142125915775,51.8751255793995],[0.337779283413777,51.8751327921808],[0.33779093442892,51.875357378077],[0.337428089971263,51.8753645898005],[0.337065245361673,51.8753718004059],[0.336702400600173,51.8753790098932],[0.336339555686788,51.8753862182623],[0.33597671062154,51.8753934255134],[0.335613865404453,51.8754006316463],[0.335625505908471,51.8756252171951],[0.335637146656273,51.875849802331],[0.3356487875561,51.8760743874566],[0.335285936777534,51.8760815926043],[0.335297576023167,51.8763061777751],[0.335309215420808,51.8765307629356],[0.33532085497046,51.8767553480858],[0.335332494672125,51.8769799332257],[0.335344134525805,51.8772045183554],[0.335706994335721,51.87719731293],[0.336069853993644,51.8771901063862],[0.336432713499552,51.8771828987239],[0.336795572853419,51.8771756899431],[0.337158432055224,51.8771684800438],[0.337521291104942,51.8771612690261],[0.337509640413402,51.8769366842298],[0.337872497504708,51.8769294721492],[0.33788415000255,51.8771540568898],[0.338247008748025,51.8771468436351],[0.338609867341342,51.8771396292619],[0.338621523604007,51.8773642138811],[0.33898438385146,51.8773569983338],[0.338996042072698,51.877581582887],[0.339358903974281,51.8775743661656],[0.339370564154139,51.8777989506528],[0.339382224486279,51.8780235351298],[0.339745089848371,51.8780163171786],[0.3401079550582,51.8780090981089],[0.340470820115744,51.8780018779208],[0.340459154364466,51.8777772936108],[0.340447488765543,51.8775527092905],[0.340810350058054,51.8775454880951],[0.340798682805157,51.8773209038201],[0.340787015704633,51.8770963195349],[0.341149873232192,51.8770890973324],[0.341138204477761,51.8768645130925],[0.341126535875721,51.8766399288422],[0.341489389638411,51.8766327056326],[0.341477719382532,51.8764081214278],[0.341466049279064,51.8761835372126],[0.341828899276963,51.8761763129959],[0.341817227519724,51.8759517288261],[0.341805555914912,51.875727144646],[0.342168402148103,51.8757199194223],[0.342156728889589,51.8754953352876],[0.342145056061504,51.8752707501829],[0.3425078985419,51.8752635239241],[0.342870740870034,51.8752562965472],[0.342859064603284,51.8750317114962],[0.342496224078819,51.8750389388127],[0.342484549768049,51.8748143536907],[0.342121710894974,51.8748215798287],[0.342110038540134,51.8745969946357],[0.342472875609584,51.8745897685581],[0.342461201603425,51.8743651834148],[0.342449527749565,51.874140598261],[0.342437854048004,51.8739160130965],[0.342800685554477,51.8739087860822],[0.342789010201683,51.8736842009675],[0.342777335001208,51.8734596158422],[0.343140162748382,51.8734523878307],[0.343128485896742,51.8732278027552],[0.343116809197437,51.8730032176691],[0.343479633185395,51.8729959886604],[0.343467954834994,51.8727714036241],[0.343456276636945,51.8725468185772],[0.343819096865769,51.8725395885715],[0.343807417016691,51.8723150035744],[0.343795737319985,51.8720904185667],[0.343784057775648,51.8718658335484],[0.343772378383677,51.8716412485194],[0.343409565368231,51.8716484782834],[0.343046752200494,51.8716557069293],[0.342683938880492,51.8716629344574],[0.34267226505075,51.8714383492365],[0.342309453381799,51.8714455755861],[0.341946641560632,51.8714528008179],[0.341583829587271,51.8714600249317],[0.341595498007124,51.8716846103338],[0.341607166579201,51.8719091957253],[0.341244350847044,51.8719164188419],[0.340881534962735,51.8719236408406],[0.340869869997311,51.8716990553283],[0.340858205184064,51.8714744698054],[0.340846540522988,51.8712498842719],[0.340483729896473,51.8712571049714],[0.34012091911786,51.8712643245531],[0.340109258215478,51.8710397388882],[0.339746449088057,51.8710469572915],[0.339383639808589,51.8710541745769],[0.339020830377098,51.8710613907444],[0.338658020793605,51.8710686057939],[0.338295211058137,51.8710758197255],[0.338306862944166,51.8713004056921],[0.338318514982202,51.8715249916481],[0.3379557014882,51.8715322045824],[0.33796735187492,51.8717567905881],[0.337604536425654,51.8717640024647],[0.337592887842263,51.8715394163987],[0.337230074044413,51.8715466270971],[0.33721842741629,51.8713220409602],[0.337206780940104,51.8710974548127],[0.33719513461585,51.8708728686546],[0.337557943003849,51.8708656581371],[0.337546295028289,51.8706410720287],[0.337183488443528,51.8706482824859],[0.336820681706888,51.8706554918252],[0.336457874818393,51.8706627000466],[0.336446232404433,51.8704381137467],[0.336083427167329,51.8704453207898],[0.33572062177842,51.8704525267151],[0.335708983122736,51.8702279402841],[0.33534617938525,51.8702351450312],[0.334983375496007,51.8702423486604],[0.334620571455033,51.8702495511717],[0.334608938360724,51.8700249645493],[0.334246135971229,51.8700321658824],[0.334257767262351,51.870256752565],[0.333894962917983,51.8702639528405],[0.333906592557627,51.8704885395727],[0.333918222348986,51.8707131262942],[0.333555414246502,51.8707203255722],[0.333567042386314,51.8709449123433],[0.333578670677823,51.8711694991039],[0.333215858817141,51.8711766973843],[0.333227485457036,51.8714012841944],[0.332864671641415,51.8714084814171],[0.33287629662965,51.8716330682768],[0.332887921769541,51.8718576551259],[0.33252510419561,51.871864851351],[0.332536727683774,51.8720894382497],[0.332548351323577,51.8723140251378],[0.332185529991254,51.8723212203652],[0.332197151979261,51.8725458073029],[0.331834328691931,51.8725530014724],[0.331845949028095,51.8727775884596],[0.331857569515859,51.8730021754363],[0.331869190155225,51.8732267624023],[0.332232018853016,51.8732195680522],[0.332243641447521,51.8734441549475],[0.332606471797266,51.8734369594192],[0.332969301995405,51.8734297627729],[0.333332132041918,51.8734225650085],[0.333694961936778,51.8734153661261],[0.333683332128163,51.8731907794716],[0.334046160067829,51.8731835795314],[0.334034528607438,51.8729589929265],[0.334397354591913,51.8729517919285],[0.334760180424672,51.8729445898124]]]]}}
