{"type":"Feature","properties":{"code":"E63004318","name":"Tolleshunt Knights"},"geometry":{"type":"MultiPolygon","coordinates":[[[[0.786579106292912,51.8021772451408],[0.786565254169849,51.8019527314441],[0.786551402227156,51.8017282177361],[0.786537550464831,51.8015037040168],[0.78617542453249,51.8015122884632],[0.786161574744161,51.8012877746627],[0.786147725136169,51.8010632608508],[0.786509847481273,51.8010546765442],[0.786495996260034,51.800830162791],[0.78685811663124,51.8008215774402],[0.7868442637968,51.8005970637455],[0.787206382194114,51.8005884773506],[0.787568500411071,51.8005798898415],[0.787930618447646,51.8005713012182],[0.788292736303818,51.8005627114808],[0.788306596312456,51.8007872248956],[0.788668715781741,51.8007786339741],[0.789030835070572,51.8007700419385],[0.789392954178926,51.8007614487887],[0.789755073106778,51.8007528545248],[0.789741205923993,51.80052834139],[0.790103322877793,51.800519746082],[0.79046543965105,51.8005111496598],[0.790451569193892,51.8002866364945],[0.790089454203081,51.8002952328548],[0.790075585719785,51.8000707196022],[0.790437698923389,51.80006212331],[0.790423828833007,51.7998376101145],[0.79078594006935,51.7998290127762],[0.790772068371928,51.7996044996375],[0.790758196854644,51.7993799864877],[0.790744325517494,51.7991554733267],[0.791106431212344,51.7991468750785],[0.79109255826824,51.7989223619744],[0.790730454360475,51.7989309601545],[0.790368350272624,51.7989395572203],[0.79000624600471,51.7989481531719],[0.789644141556755,51.7989567480094],[0.789658007352499,51.7991812613859],[0.78929590093743,51.7991898551772],[0.789309765126116,51.7994143686106],[0.788947656743926,51.7994229613557],[0.788585548181759,51.7994315529867],[0.78859940897619,51.7996560665451],[0.788237298446917,51.7996646571298],[0.788251157634169,51.7998891707451],[0.787889045137782,51.7998977602837],[0.787526932461481,51.799906348708],[0.787540788254303,51.8001308624482],[0.787178673610904,51.8001394498263],[0.786816558787634,51.8001480360901],[0.786454443784517,51.8001566212397],[0.786092328601576,51.800165205275],[0.786106177425386,51.8003897192762],[0.78612002646119,51.8006142331931],[0.786133875708514,51.8008387470276],[0.785771754976701,51.8008473301501],[0.785785602610771,51.8010718440432],[0.785799450425153,51.801296357925],[0.78543732592587,51.8013049400732],[0.785451172126931,51.8015294540136],[0.785089045653758,51.8015380351175],[0.785102890241451,51.8017625491164],[0.784740761794383,51.8017711291761],[0.784754604768661,51.8019956432336],[0.785116735009419,51.8019870631041],[0.785130579957666,51.8022115770805],[0.785492711811895,51.8022029957669],[0.785854843485862,51.802194413339],[0.786216974979542,51.802185829797],[0.786579106292912,51.8021772451408]]],[[[0.765744853205807,51.799521547048],[0.765758600616138,51.7997460648445],[0.76577234820574,51.7999705826301],[0.76541022818541,51.7999791030195],[0.765423974157184,51.8002036208603],[0.765437720308212,51.8004281386901],[0.765075596514431,51.8004366580977],[0.76471347256932,51.8004451764294],[0.764699730027064,51.8002206584631],[0.764685987665324,51.7999961404851],[0.764323867179433,51.8000046575697],[0.764337607726868,51.8002291756217],[0.763975485246221,51.8002376916666],[0.763989224159817,51.8004622097811],[0.763627099684406,51.8004707247863],[0.763640837121648,51.8006952429957],[0.763654574761601,51.8009197611987],[0.763292446520426,51.8009282752275],[0.762930318100313,51.800936788142],[0.762568189501287,51.8009452999421],[0.762581921934393,51.8011698183372],[0.762219791361186,51.8011783290907],[0.762206060723371,51.8009538106278],[0.762192330264464,51.8007292921538],[0.762178599984461,51.8005047736687],[0.762164870137042,51.8002802551834],[0.762151140475506,51.8000557366866],[0.761789018726974,51.8000642459744],[0.761775291060091,51.799839727392],[0.761761563573531,51.799615208798],[0.761399445273306,51.7996237168238],[0.761413170945583,51.7998482354919],[0.761426896798159,51.8000727541484],[0.761440622831036,51.8002972727933],[0.761454349073088,51.8005217914264],[0.761092223349169,51.8005302986337],[0.761078498907628,51.8003057799275],[0.76071637480398,51.8003142859479],[0.760354250520117,51.8003227908544],[0.760367971364982,51.8005473097055],[0.760381692668722,51.8007718285291],[0.760019564613238,51.8007803324611],[0.759657436379031,51.8007888352788],[0.759643718665816,51.8005643163199],[0.759281592048175,51.8005728179556],[0.758919465251861,51.800581318477],[0.758933179374535,51.8008058375712],[0.758571050604295,51.8008143370459],[0.758584763110369,51.8010388561965],[0.758222632366197,51.8010473546245],[0.758236343255622,51.8012718738316],[0.758598475795118,51.8012633753361],[0.758612188658544,51.8014878944644],[0.758974322814746,51.8014793947869],[0.759336456792285,51.8014708939949],[0.759350173425124,51.8016954129769],[0.758988037652221,51.8017039138365],[0.759001752668404,51.801928432875],[0.758639614921444,51.8019369326878],[0.758653328320924,51.8021614517827],[0.758667041899093,51.8023859708666],[0.759029183236903,51.8023774709185],[0.759042898789228,51.8026019899235],[0.759056614520272,51.8028265089174],[0.759070330430039,51.8030510279002],[0.759084046518532,51.8032755468718],[0.759097762785753,51.8035000658323],[0.759111479231708,51.8037245847816],[0.759473631163934,51.8037160833133],[0.759459912922407,51.8034915644316],[0.759446194859635,51.8032670455388],[0.759808343022026,51.8032585430913],[0.760170491005682,51.8032500395293],[0.760532638810582,51.803241534853],[0.760518915539999,51.803017016152],[0.760505192448235,51.8027924974398],[0.760867336483346,51.8027839917844],[0.760853611774931,51.8025594731288],[0.76121575383578,51.8025509664266],[0.761577895717808,51.80254245861],[0.761564167597349,51.8023179400786],[0.7619263075051,51.8023094312153],[0.76228844723399,51.8023009212377],[0.762650586783994,51.8022924101456],[0.763012726155089,51.8022838979391],[0.763026461457273,51.8025084161996],[0.763040196938432,51.802732934449],[0.762678053976461,51.8027414467909],[0.762691787841127,51.8029659650968],[0.762329642904765,51.8029744763921],[0.76234337515289,51.8031989947546],[0.762705521884752,51.8031904833916],[0.763067668437692,51.8031819709142],[0.763081404455799,51.8034064891302],[0.763443552625312,51.8033979754706],[0.763457290617946,51.8036224936076],[0.763819440404025,51.8036139787659],[0.764181590011106,51.8036054628097],[0.764195331773872,51.8038299808001],[0.764557482997487,51.8038214636617],[0.764919634042055,51.8038129454088],[0.764905888688184,51.803588427554],[0.764892143513421,51.803363909688],[0.765254290806961,51.803355390475],[0.765616437927028,51.8033468701531],[0.76560268934078,51.8031223524149],[0.765964834487076,51.8031138310491],[0.7663269794543,51.803105308569],[0.76631322745775,51.80288079096],[0.766675370451188,51.802872267436],[0.767037513265511,51.8028637427977],[0.767023757858761,51.8026392253179],[0.767385898699284,51.8026306996357],[0.767372141677071,51.8024061822149],[0.7677342805438,51.8023976554889],[0.76809641923135,51.8023891276486],[0.768082658799114,51.8021646103571],[0.768068898546118,51.8019400930542],[0.768055138472359,51.80171557574],[0.768417271596958,51.8017070469965],[0.768403509907897,51.8014825297412],[0.768765641058748,51.8014739999539],[0.769127772030363,51.8014654690524],[0.76911400693154,51.8012409519264],[0.769476135929391,51.8012324199811],[0.769838264747963,51.8012238869217],[0.770200393387231,51.8012153527481],[0.770562521847172,51.8012068174604],[0.770576294123991,51.8014313343049],[0.770938424199074,51.8014227978326],[0.770924650127765,51.8011982810585],[0.770910876235869,51.800973764273],[0.771273002542624,51.8009652268274],[0.771635128669986,51.8009566882676],[0.771997254617931,51.8009481485937],[0.771983475522132,51.8007236320081],[0.772345599496205,51.8007150912905],[0.772707723290817,51.8007065494588],[0.773069846905947,51.800698006513],[0.773431970341571,51.8006894624531],[0.773418184255069,51.8004649461329],[0.77378030571804,51.8004564010274],[0.774142427001254,51.8004478548074],[0.774504548104689,51.800439307473],[0.774866669028321,51.8004307590243],[0.774880462288534,51.8006552750722],[0.775242584826276,51.8006467254417],[0.775604707184371,51.8006381746971],[0.775590910336081,51.8004136587836],[0.775953030720163,51.8004051069916],[0.776315150924348,51.8003965540853],[0.776301350680858,51.8001720382601],[0.776663468908065,51.800163484306],[0.776649667047498,51.7999389685364],[0.777011783297733,51.7999304135345],[0.777373899368007,51.7999218574182],[0.777387704822636,51.8001463730545],[0.777749822509954,51.8001378157573],[0.778111940017261,51.8001292573456],[0.778098130968583,51.7999047418424],[0.778460246498837,51.799896182383],[0.778474057344536,51.8001206978195],[0.778836174491753,51.8001121371791],[0.779198291458891,51.8001035754243],[0.779560408245926,51.8000950125551],[0.779922524852835,51.8000864485715],[0.779936343066772,51.8003109637304],[0.780298461290559,51.8003023985658],[0.78031228148123,51.8005269136343],[0.77995016146065,51.8005354788621],[0.779963980033242,51.8007599938965],[0.779601858038347,51.8007685580809],[0.779615674996541,51.8009930731746],[0.779629492134707,51.8012175882568],[0.779643309452848,51.8014421033278],[0.780005436830983,51.8014335389316],[0.780019256123564,51.8016580539205],[0.780381385116194,51.8016494883396],[0.780395206383261,51.8018740032465],[0.780757336990381,51.8018654364808],[0.780771160231979,51.8020899513058],[0.781133292453583,51.8020813833553],[0.781495424495147,51.8020728142908],[0.781481597664557,51.8018482996071],[0.781467771014069,51.801623784912],[0.781829899287615,51.8016152149143],[0.782192027382027,51.8016066438381],[0.782554155296394,51.8015980716477],[0.782916283030692,51.8015894983431],[0.782902449385172,51.8013649839135],[0.783264575145722,51.8013564095645],[0.783250739886696,51.8011318951935],[0.783236904807819,51.8009073808112],[0.783223069909088,51.8006828664176],[0.783585190108702,51.800674291164],[0.783571353600895,51.8004497767994],[0.783933471829219,51.8004412004961],[0.783919633728922,51.8002166860871],[0.783905795808328,51.7999921716668],[0.78426791028249,51.7999835943851],[0.784281749990321,51.8002081087374],[0.784643866072034,51.8001995302735],[0.78500598197404,51.8001909506953],[0.785368097696314,51.8001823700028],[0.785730213238833,51.800173788196],[0.785716366382086,51.7999492741157],[0.785702519705156,51.7997247600242],[0.785340407737062,51.7997333416949],[0.785326563027121,51.7995088275243],[0.785688673208038,51.7995002459215],[0.78567482689073,51.7992757318077],[0.785660980753228,51.7990512176827],[0.785298874146599,51.7990597991495],[0.785285029976008,51.7988352849453],[0.784922924976751,51.7988438652299],[0.784909082773027,51.7986193509466],[0.784546979381148,51.7986279300489],[0.784184875809583,51.7986365080371],[0.784198714439121,51.7988610224564],[0.783836608900795,51.7988695993983],[0.783474503182826,51.798878175226],[0.783488338417827,51.79910268977],[0.783126230733111,51.7991112645514],[0.783140064360626,51.7993357791521],[0.783153898167787,51.7995602937417],[0.782791786729141,51.7995688675448],[0.782429675110912,51.7995774402335],[0.782443505523316,51.7998019549478],[0.782081391938322,51.7998105265903],[0.781719278173788,51.7998190971184],[0.781357164256991,51.7998276665905],[0.780995050167817,51.7998362349648],[0.780981226923323,51.799611719984],[0.780619114450908,51.7996202871772],[0.780257001798301,51.7996288532562],[0.780243182327968,51.7994043381308],[0.780229363037841,51.7991798229944],[0.78059147209656,51.7991712570489],[0.780577651189726,51.7989467419681],[0.780563830463114,51.7987222268762],[0.780925935747863,51.7987136599497],[0.780912113404612,51.7984891449135],[0.781274216712305,51.7984805769394],[0.781636319839777,51.798472007851],[0.781622494083102,51.7982474929371],[0.781984595332951,51.7982389228805],[0.781970767964731,51.7980144080201],[0.782332867252729,51.798005836921],[0.782319038277044,51.7977813221174],[0.782681135598487,51.797772749972],[0.782667305015384,51.7975482352251],[0.782305209480935,51.7975568073027],[0.781943113766955,51.797565378266],[0.781956940776066,51.7977898931486],[0.781594843110598,51.7977984630761],[0.781581017894762,51.797573948129],[0.781218921954467,51.7975825169506],[0.781205098715639,51.7973580019257],[0.780843004391873,51.7973665695663],[0.780480909887924,51.7973751360926],[0.780467090422778,51.7971506209233],[0.780453271137828,51.7969261057429],[0.780091180047141,51.7969346710216],[0.779729088776323,51.7969432351861],[0.779742904467872,51.7971677504998],[0.779756720339574,51.7973922658025],[0.779770536391426,51.7976167810942],[0.780132633052418,51.7976082167297],[0.780146451081199,51.7978327319435],[0.780160269290165,51.7980572471464],[0.780522369364577,51.7980486815342],[0.780536189550543,51.7982731966593],[0.780174087679315,51.7982817623381],[0.780187906248655,51.7985062775188],[0.779825802400438,51.79851484215],[0.779839619353106,51.7987393573863],[0.779477513527892,51.7987479209698],[0.779115407522572,51.798756483439],[0.779101594163642,51.7985319680694],[0.778739489775111,51.7985405293577],[0.778725678393155,51.7983160139103],[0.778363575621419,51.7983245740176],[0.778001472669652,51.7983331330106],[0.777639369537876,51.7983416908893],[0.777277266226115,51.7983502476537],[0.777291070420638,51.7985747633675],[0.777304874795167,51.7987992790703],[0.776942767709688,51.7988078348535],[0.776580660444266,51.7988163895225],[0.776218552998922,51.7988249430771],[0.77620475401507,51.7986004271745],[0.776190955211156,51.7983759112609],[0.775828851179688,51.7983844635681],[0.775466746968352,51.7983930147609],[0.775480542178512,51.7986175308076],[0.775118435990449,51.7986260809527],[0.775132229583594,51.7988505970549],[0.775146023356609,51.7990751131461],[0.775159817309497,51.7992996292263],[0.774797705550814,51.7993081784567],[0.774783913394881,51.79908366231],[0.774770121418798,51.7988591461522],[0.774408013074197,51.7988676941352],[0.774045904549814,51.7988762410038],[0.774059692932025,51.7991007572946],[0.77407348149404,51.7993252735744],[0.77408727023586,51.7995497898431],[0.774101059157488,51.7997743061008],[0.773738943265444,51.7997828521211],[0.77375273056985,51.8000073684343],[0.773390612701023,51.8000159134068],[0.773376827193654,51.7997913970271],[0.77336304186605,51.7995668806364],[0.773000927411552,51.7995754243615],[0.772638812777358,51.7995839669723],[0.772276697963489,51.7995925084687],[0.772262918206637,51.7993679918674],[0.772249138629473,51.7991434752551],[0.772611249849366,51.7991349338917],[0.772973360889591,51.7991263914139],[0.772959577898211,51.7989018749236],[0.773321686961798,51.798893331398],[0.773683795845674,51.798884786758],[0.773670009440178,51.7986602703896],[0.774032116347403,51.7986517247019],[0.774394223074871,51.7986431778998],[0.774380433255364,51.7984186616534],[0.774742538006166,51.7984101138035],[0.774728746569611,51.7981855976126],[0.775090849343753,51.798177048715],[0.775452951938076,51.7981684987031],[0.775439157087685,51.7979439826342],[0.775801257705335,51.7979354315745],[0.776163358143121,51.7979268794005],[0.776149559878996,51.7977023634537],[0.775787461238015,51.7977109155611],[0.775773664950595,51.7974863995367],[0.775759868843073,51.7972618835012],[0.77539777361578,51.7972704343612],[0.775383979484891,51.7970459182481],[0.775021885874508,51.7970544679272],[0.775008093720206,51.7968299517365],[0.774994301745744,51.7966054355347],[0.77498050995112,51.7963809193219],[0.774966718336332,51.796156403098],[0.774952926901375,51.795931886863],[0.774939135646249,51.795707370617],[0.774577052636044,51.7957159187826],[0.774590842094567,51.7959404350952],[0.774228757107993,51.7959489822131],[0.774242544949689,51.7961734985812],[0.77388045798674,51.7961820446514],[0.773894244211564,51.7964065610749],[0.773532155272231,51.7964151060974],[0.773545939880137,51.7966396225764],[0.773183848964417,51.7966481665512],[0.773197631955356,51.7968726830856],[0.772835539063242,51.7968812260127],[0.772849320437168,51.7971057426026],[0.772863101990799,51.7973302591814],[0.772501005325522,51.7973388011272],[0.7721389084806,51.7973473419587],[0.771776811456059,51.7973558816759],[0.771790587799028,51.7975803984431],[0.771804364321639,51.7978049151992],[0.772166464939789,51.7977963753491],[0.772528565378314,51.7977878343846],[0.772542345674244,51.7980123509968],[0.772904447729954,51.7980038088515],[0.772918230002434,51.7982283253861],[0.772932012454635,51.7984528419096],[0.772569906805191,51.7984613841879],[0.772583687640212,51.7986859007669],[0.772221580014202,51.7986944419973],[0.771859472208552,51.7987029821134],[0.771497364223289,51.7987115211151],[0.771511139847214,51.7989360378825],[0.771524915650775,51.7991605546388],[0.771887027229935,51.7991520155041],[0.771900805010119,51.7993765321829],[0.771538691633977,51.7993850713841],[0.771176578078235,51.7993936094709],[0.771190352444069,51.7996181262715],[0.770828236911737,51.7996266633104],[0.770842009660158,51.7998511801665],[0.77047989215123,51.7998597161574],[0.770117774462764,51.799868251034],[0.770131543796661,51.8000927680119],[0.769769424131613,51.8001013018405],[0.76940730428707,51.8001098345547],[0.769045184263058,51.8001183661545],[0.769058948385231,51.8003428833207],[0.768696826384671,51.8003514138725],[0.768334704204684,51.8003599433099],[0.767972581845293,51.8003684716328],[0.767958823114431,51.8001439542675],[0.76759670237277,51.8001524814097],[0.767234581451753,51.8001610074375],[0.766872460351408,51.8001695323509],[0.766858707191233,51.7999450147754],[0.767220826494486,51.7999364899284],[0.767582945618413,51.799927963967],[0.767569189043447,51.7997034465132],[0.767555432647871,51.7994789290484],[0.767541676431682,51.7992544115725],[0.767903789985138,51.7992458846958],[0.767917547998344,51.7994704021053],[0.768279663169447,51.7994618740479],[0.76864177816116,51.799453344876],[0.76862801655393,51.7992288275993],[0.768614255126154,51.7990043103115],[0.768600493877827,51.7987797930127],[0.768962603299173,51.7987712629257],[0.768948840433355,51.7985467456823],[0.768935077747004,51.7983222284277],[0.769297183395076,51.7983136973592],[0.769283419091302,51.7980891801601],[0.769645522763044,51.7980806480436],[0.769631756841891,51.7978561308998],[0.769617991100244,51.797631613745],[0.769255891022201,51.7976401457286],[0.76924212725687,51.7974156284963],[0.768880028796209,51.7974241592992],[0.768893790764722,51.7976486765979],[0.76853169032783,51.7976572063529],[0.768545450678955,51.797881723707],[0.768183348265825,51.7978902524141],[0.768197106999513,51.7981147698234],[0.76783500261014,51.7981232974826],[0.767821245673325,51.7978987800068],[0.76745914290148,51.7979073064853],[0.767445387940907,51.7976827889321],[0.767083286786594,51.7976913142299],[0.766721185452986,51.7976998384134],[0.766359083940104,51.7977083614825],[0.765996982247972,51.7977168834374],[0.765983234654111,51.7974923656077],[0.765621134579598,51.7975008863819],[0.765634880376613,51.7977254042779],[0.765648626352873,51.7979499221628],[0.765662372508381,51.7981744400367],[0.7660244779735,51.7981659190635],[0.766038226105175,51.79839043686],[0.766400333187974,51.7983819147061],[0.766414083295861,51.7986064324252],[0.766427833583053,51.7988309501333],[0.766441584049551,51.7990554678303],[0.766455334695359,51.7992799855163],[0.76646908552048,51.7995045031913],[0.76610696945277,51.7995130256768],[0.765744853205807,51.799521547048]]],[[[0.769617991100244,51.797631613745],[0.769980090998827,51.7976230806471],[0.769993858537309,51.7978475977355],[0.770355960053241,51.7978390634569],[0.770718061389663,51.7978305280639],[0.771080162546552,51.7978219915567],[0.771066389617583,51.7975974746676],[0.771428488798094,51.7975889371125],[0.771414714251921,51.7973644202788],[0.771400939885362,51.7971399034341],[0.771387165698415,51.7969153865783],[0.771025071908231,51.796923923934],[0.770662977938505,51.7969324601754],[0.770649207524628,51.7967079431757],[0.770287115172117,51.7967164782365],[0.769925022640111,51.7967250121829],[0.769938789460514,51.7969495293155],[0.769576694952296,51.7969580622142],[0.769590460155449,51.7971825794022],[0.769604225538097,51.7974070965791],[0.769617991100244,51.797631613745]]],[[[0.768155831336679,51.7974412175621],[0.768142073141214,51.7972167001196],[0.768128315125152,51.796992182666],[0.768490410351033,51.7969836542245],[0.768476650717614,51.7967591368262],[0.768114557288488,51.7967676652014],[0.767752463680007,51.7967761924623],[0.767390369892196,51.7967847186089],[0.767028275925077,51.7967932436412],[0.767042028371461,51.797017761305],[0.767055780997173,51.7972422789576],[0.76741787855784,51.7972337537926],[0.767431633159695,51.7974582713679],[0.767793732337856,51.7974497450221],[0.768155831336679,51.7974412175621]]]]}}