{"type":"Feature","properties":{"code":"E63005052","name":"Minster (Swale)"},"geometry":{"type":"MultiPolygon","coordinates":[[[[0.788061827579838,51.4138318992773],[0.788420864262949,51.4138233511123],[0.788407211102526,51.4135988261619],[0.788766245893931,51.4135902769699],[0.788752591189636,51.4133657520797],[0.788393558116067,51.4133743012],[0.788034524868654,51.4133828492217],[0.78767549144742,51.4133913961447],[0.787316457852387,51.413399941969],[0.787330105685323,51.4136244671459],[0.7876891409982,51.4136159212499],[0.787702790722899,51.4138404463437],[0.788061827579838,51.4138318992773]]],[[[0.788752591189636,51.4133657520797],[0.789111624089342,51.4133572018607],[0.789125280511469,51.4135817266792],[0.789138937107606,51.4138062514863],[0.789497973269105,51.4137977000252],[0.789511631757128,51.4140222247491],[0.789152593877755,51.4140307762818],[0.788793555824485,51.4140393267159],[0.788807211050749,51.4142638515716],[0.788448171105703,51.4142724009787],[0.788461824788039,51.4144969258946],[0.78882086645101,51.4144883764159],[0.7891799079401,51.4144798258385],[0.789538949255288,51.4144712741623],[0.789552608265432,51.4146957988517],[0.789193565232302,51.4147043505995],[0.788834522025268,51.4147129012487],[0.788475478644351,51.4147214507991],[0.788489132674642,51.4149459756921],[0.788130087401893,51.4149545242155],[0.787771041955302,51.4149630716402],[0.787784692723584,51.415187596665],[0.787425645385173,51.4151961430626],[0.787439294609374,51.4154206681476],[0.787452944007496,51.4156451932212],[0.787093893059212,51.4156537386633],[0.786734841937144,51.4156622830067],[0.786748488073048,51.4158868082121],[0.786762134382836,51.416111333406],[0.786403079650833,51.4161198767939],[0.786416724416386,51.4163444020479],[0.786430369355805,51.4165689272904],[0.786071311013787,51.4165774697229],[0.78571225249804,51.4165860110565],[0.785353193808584,51.4165945512913],[0.784994134945442,51.4166030904274],[0.784635075908638,51.4166116284646],[0.784648712431059,51.4168361540537],[0.784662349127242,51.4170606796313],[0.784675986718564,51.4172852058973],[0.784316922349766,51.4172937430873],[0.783957857791668,51.417302279171],[0.783598793044294,51.4173108141485],[0.783612426357485,51.4175353416018],[0.783253359497027,51.4175438754478],[0.782894292447341,51.4175524081875],[0.782535225208452,51.417560939821],[0.782176157780384,51.4175694703482],[0.781817090163164,51.4175779997692],[0.78145801600626,51.4175865279681],[0.78144439360531,51.4173620005878],[0.781085315803697,51.4173705275005],[0.780726237838184,51.417379053316],[0.78036715970879,51.4173875780345],[0.780380777330715,51.4176121056983],[0.780394395116613,51.4178366333489],[0.780408013066489,51.4180611609862],[0.780421631180344,51.4182856886104],[0.78043524945818,51.4185102162213],[0.780448867900001,51.418734743819],[0.780462486505809,51.4189592714034],[0.78082157578672,51.4189507460234],[0.780835196149676,51.4191752735001],[0.780848816676647,51.4193998009636],[0.780862437367634,51.4196243284139],[0.780876058222641,51.419848855851],[0.781235153712401,51.4198403289957],[0.781594249038231,51.4198318010432],[0.781607873243736,51.420056328278],[0.781966963287633,51.4200478000891],[0.782326052068782,51.4200392709476],[0.782339679958016,51.4202637982502],[0.782698770474111,51.4202552680278],[0.78271240047681,51.4204797953518],[0.783071492727844,51.4204712640484],[0.783085124844055,51.4206957913936],[0.783444218830022,51.4206872590093],[0.783457853059795,51.4209117863759],[0.783471487478955,51.4211363137383],[0.783485122087507,51.4213608410967],[0.783844221656867,51.4213523076821],[0.783857858379083,51.4215768350618],[0.783871495290721,51.4218013624374],[0.783885132391783,51.4220258898089],[0.783898769682273,51.4222504171763],[0.78425787675954,51.4222418827568],[0.784616983647461,51.4222333472309],[0.784603342508294,51.4220088198128],[0.784962447282507,51.4220002831551],[0.784976090346009,51.4222248105986],[0.784989733599015,51.422449338038],[0.785348842032521,51.4224408003246],[0.7857079502766,51.4224322615048],[0.785694303174888,51.4222077340148],[0.785680656262728,51.4219832065206],[0.785667009540116,51.4217586790224],[0.786026111821772,51.4217501390202],[0.786385213913962,51.4217415979116],[0.78674431581666,51.4217330556966],[0.786757968312161,51.4219575832708],[0.786771620997285,51.4221821108409],[0.786785273872034,51.4224066384069],[0.786798926936411,51.4226311659688],[0.786812580190418,51.4228556935266],[0.78682623363406,51.4230802210804],[0.786467120185238,51.4230887631435],[0.78648077189408,51.4233132906679],[0.78649442379254,51.4235378181881],[0.786135306305297,51.4235463590942],[0.785776188628562,51.4235548988938],[0.785789836867657,51.4237794263593],[0.785430717076957,51.4237879650271],[0.785071597096811,51.4237965025884],[0.785085241676435,51.4240210299992],[0.785444363581105,51.4240124924632],[0.785458010274807,51.4242370198952],[0.785471657158067,51.4244615473231],[0.785830782722404,51.4244530087313],[0.786189908097262,51.424444469033],[0.786176257364865,51.4242199415545],[0.786535380625652,51.4242114007244],[0.786894503696912,51.4242028587877],[0.786880849305046,51.4239783312545],[0.787239970262221,51.423969788186],[0.787599091029822,51.4239612440112],[0.787585432978593,51.4237367164232],[0.787944551632092,51.4237281711165],[0.788303670095969,51.4237196247034],[0.788290008385485,51.4234950970608],[0.788649124735246,51.4234865495159],[0.788635461290057,51.4232620218439],[0.788994575525705,51.4232534731673],[0.789353689571664,51.4232449233843],[0.789340022467402,51.4230203956577],[0.789699134399233,51.423011844743],[0.790058246141328,51.4230032927218],[0.7900445753781,51.4227787649407],[0.790403685006051,51.4227702117878],[0.79039001250832,51.4225456839774],[0.790749120022131,51.4225371296929],[0.791108227346139,51.4225285743019],[0.791121903692575,51.4227531021627],[0.790762794444217,51.4227616575285],[0.790776469056204,51.42298618536],[0.790790143858096,51.4232107131875],[0.790803818849896,51.4234352410108],[0.790817494031608,51.4236597688301],[0.790831169403233,51.4238842966453],[0.79119028827371,51.4238757414055],[0.79120396575975,51.4241002692418],[0.791217643435735,51.424324797074],[0.791576765965371,51.4243162407782],[0.791935888305125,51.4243076833758],[0.792295010454972,51.4242991248669],[0.792654132414887,51.4242905652516],[0.793013254184843,51.4242820045297],[0.793372375764818,51.4242734427013],[0.793731497154785,51.4242648797664],[0.794090618354719,51.424256315725],[0.794104311616894,51.4244808437544],[0.793745188492441,51.4244894077707],[0.793758880020219,51.4247139357709],[0.794118005069215,51.4247053717798],[0.794477129928146,51.4246968066821],[0.79449082549518,51.4249213347285],[0.794849952088583,51.4249127685494],[0.794863649770376,51.4251372966169],[0.795222778098243,51.4251287293564],[0.795236477894848,51.4253532574448],[0.794877347642376,51.4253618246802],[0.79451821719978,51.425370390809],[0.794531915589299,51.4255949193246],[0.794545620824123,51.4258194492578],[0.794904754792135,51.4258108830777],[0.794891047619294,51.4255863531431],[0.795250179458095,51.4255777858568],[0.795263888568952,51.4258023157929],[0.795623022154546,51.4257937474033],[0.7956367333947,51.4260182773349],[0.795650444826142,51.4262428072606],[0.795664156448875,51.4264673371805],[0.795677868262902,51.4266918670944],[0.795691580268227,51.4269163970025],[0.795332436992207,51.4269249653849],[0.794973293524948,51.4269335326625],[0.794614149866475,51.4269420988352],[0.794627856248615,51.4271666287331],[0.794987001845254,51.4271580625618],[0.795346147250675,51.4271494952856],[0.795705292464854,51.4271409269046],[0.795719004852785,51.4273654568009],[0.796078151813876,51.4273568873165],[0.796091866331319,51.4275814172083],[0.796105581040096,51.4278059470943],[0.795746430202573,51.4278145165758],[0.795760143164437,51.4280390464544],[0.796119295940213,51.4280304769743],[0.796478448524683,51.4280219063894],[0.796837600917821,51.4280133346996],[0.797196753119603,51.428004761905],[0.797210474025873,51.4282292917833],[0.79722419512356,51.4284538216558],[0.79723791641267,51.4286783515224],[0.797251637893206,51.4289028813831],[0.796892477938209,51.4289114541722],[0.796533317791843,51.4289200258563],[0.796547035587074,51.4291445557083],[0.796560753573687,51.4293690855544],[0.796574471751687,51.4295936153946],[0.79693363771323,51.4295850437148],[0.796947358021061,51.4298095735505],[0.796961078520308,51.4300341033804],[0.797320248167372,51.4300255305984],[0.797679417623023,51.4300169567114],[0.797693142190661,51.4302414865382],[0.797706866949771,51.4304660163591],[0.79806604009097,51.43045744137],[0.798079766980084,51.4306819711864],[0.798093494060703,51.4309065009969],[0.797734317042422,51.4309150759832],[0.797748042375969,51.4311396057864],[0.798107221332828,51.4311310308015],[0.798120948796463,51.4313555606002],[0.79813467645161,51.431580090393],[0.798148404298276,51.4318046201799],[0.797789219525539,51.4318131951607],[0.797802945625048,51.4320377249404],[0.797443758722169,51.4320462988147],[0.797457483074475,51.4322708285871],[0.797471207618259,51.4324953583536],[0.797112016646502,51.4325039311201],[0.797098294041448,51.4322794013551],[0.797084571627848,51.4320548715841],[0.796725384342111,51.4320634432484],[0.796711664058646,51.431838913473],[0.796352478520206,51.4318474840337],[0.796338760366827,51.4316229542538],[0.795979576575691,51.431631523711],[0.795993292790402,51.4318560534895],[0.795634106869261,51.4318646218402],[0.795647821336651,51.4320891516114],[0.795288633285501,51.4320977188557],[0.795302346005519,51.4323222486195],[0.794943155824352,51.4323308147573],[0.794583965451917,51.4323393797901],[0.794597674485763,51.4325639095451],[0.794238481983328,51.4325724734713],[0.793879289289671,51.4325810362926],[0.793892994637237,51.4328055660387],[0.793906700176043,51.433030095779],[0.793920405906093,51.4332546255134],[0.793934111827389,51.4334791552418],[0.793947817939937,51.4337036849645],[0.794307020327761,51.4336951221506],[0.794320728757204,51.4339196506989],[0.794334438038369,51.4341441750267],[0.793975232108372,51.4341527378019],[0.793988939864562,51.4343772622472],[0.794348147492377,51.4343686993383],[0.794707354947383,51.4343601353346],[0.795066562229561,51.4343515702361],[0.795425769338886,51.434343004043],[0.795784976275337,51.4343344367551],[0.795771260030088,51.4341099129783],[0.796130465095842,51.4341013447294],[0.796144183038894,51.4343258683724],[0.796503389629534,51.4343172988951],[0.796517109443363,51.4345418223882],[0.796876317558882,51.4345332516823],[0.796890039243533,51.4347577750255],[0.797249248883927,51.4347492030912],[0.797262972439443,51.4349737262843],[0.797622183604708,51.4349651531215],[0.79798139459696,51.4349565788639],[0.798340605322886,51.4349480034211],[0.798699814255344,51.4349394253115],[0.799059023010053,51.4349308461031],[0.799072755290165,51.4351553686588],[0.799431965625952,51.435146788271],[0.799445699842754,51.4353713107339],[0.799804911759614,51.4353627291666],[0.799791175783942,51.4351382067843],[0.800150385764108,51.4351296241988],[0.800136648207451,51.4349051018851],[0.800495856250932,51.4348965182814],[0.800855064116551,51.434887933579],[0.800841323220137,51.4346634114144],[0.800482117113335,51.4346719960362],[0.800468378153638,51.4344474737787],[0.800827582501646,51.4344388892377],[0.800813841961074,51.4342143670488],[0.801173044372433,51.4342057814896],[0.801186786671774,51.4344303035978],[0.801545990663998,51.4344217168592],[0.801905194478298,51.4344131290218],[0.80189144866143,51.434188607075],[0.801532246605893,51.4341971948317],[0.80151850272575,51.433972672792],[0.801877703022548,51.433964085116],[0.801863956656317,51.4337395597379],[0.802223154975239,51.4337309708885],[0.802209406414295,51.4335064432679],[0.802568602827576,51.4334978535166],[0.80255485271256,51.4332733260643],[0.802914047220207,51.4332647354112],[0.802900295551164,51.4330402081271],[0.803259488153182,51.4330316165722],[0.803618680579383,51.4330230239269],[0.803604925626554,51.4327984969997],[0.803964116147112,51.4327899034526],[0.803950359640371,51.4325653766936],[0.804309548255293,51.4325567822448],[0.804295790194685,51.432332255654],[0.804654976903978,51.4323236603035],[0.805014163437372,51.4323150638625],[0.805000402093217,51.4320905376287],[0.805359586720969,51.4320819402861],[0.805345823823061,51.4318574142206],[0.805705006545176,51.4318488159762],[0.806064189091333,51.4318402166414],[0.806050422910045,51.4316156909329],[0.806409603550551,51.4316070906965],[0.806395835815626,51.4313825651563],[0.806755014550489,51.4313739640183],[0.807114193109334,51.4313653617898],[0.807127964303545,51.4315898869525],[0.807487144415986,51.4315812834449],[0.807473371492137,51.431356758471],[0.807832549698876,51.4313481540619],[0.808191727729532,51.4313395485623],[0.808177951522556,51.4311150239455],[0.808537127647495,51.4311064175444],[0.808896303596308,51.431097810053],[0.809255479368972,51.4310892014712],[0.809241698149389,51.4308646774003],[0.809600872016306,51.430856067917],[0.809587089243373,51.4306315440145],[0.809946261204549,51.4306229336296],[0.810305432989515,51.4306143221545],[0.810291646933749,51.4303897986091],[0.810650816812961,51.4303811862325],[0.810637029203961,51.4301566628555],[0.810996197177425,51.4301480495774],[0.811355364974618,51.430139435209],[0.811341574082955,51.4299149121892],[0.811700739974387,51.4299062969194],[0.811686947529603,51.429681774068],[0.811327783367617,51.4296903891489],[0.810968619029345,51.4296990031396],[0.810982408015233,51.4299235263687],[0.810623241771244,51.429932139458],[0.810264075351009,51.4299407514569],[0.810277861054249,51.4301652750433],[0.809918692728312,51.4301738861407],[0.80955952422617,51.4301824961479],[0.809573306646662,51.4304070200914],[0.80921413623883,51.4304156291971],[0.80922791710601,51.430640153309],[0.808868744792482,51.4306487615131],[0.808882524106304,51.4308732857933],[0.808523349887074,51.430881893096],[0.80850957230281,51.430657368627],[0.808495794894701,51.4304328441375],[0.808854965654835,51.4304242372125],[0.808841186693364,51.4301997128913],[0.808827407908064,51.4299751885497],[0.809186575033058,51.4299665809119],[0.809172794694458,51.4297420567386],[0.809531959913831,51.4297334481994],[0.809518178021979,51.4295089241944],[0.809504396306334,51.4292844001689],[0.809863557890676,51.429275790917],[0.809849774621841,51.4290512670599],[0.8102089343006,51.4290426569065],[0.810568093803148,51.429034045663],[0.810554307251803,51.428809522163],[0.810913464848755,51.428800910018],[0.810899676744334,51.4285763866863],[0.811258832435696,51.4285677736399],[0.811245042778246,51.4283432504766],[0.811604196564025,51.4283346365289],[0.811963350173513,51.4283260214909],[0.81194955723379,51.4281014986848],[0.81230870893768,51.4280928827454],[0.812294914445042,51.4278683601077],[0.812654064243343,51.427859743267],[0.813013213865292,51.4278511253362],[0.813372363310867,51.4278425063151],[0.813358563806894,51.4276179842235],[0.813717711346847,51.4276093643012],[0.813703910290099,51.427384842378],[0.813690109409799,51.4271603204343],[0.813676308705945,51.4269357984701],[0.814035450881945,51.4269271780243],[0.814394592881516,51.4269185564883],[0.814753734704636,51.4269099338622],[0.81473992898983,51.4266854124443],[0.814726123451532,51.4264608910058],[0.814712318089736,51.4262363695468],[0.81507145522983,51.4262277457912],[0.815430594367677,51.4262191190025],[0.815444403385765,51.4264436401026],[0.815803544139916,51.4264350121193],[0.815789733323694,51.4262104911166],[0.816148872097859,51.4262018621336],[0.816508010690145,51.4261932320534],[0.816494196459602,51.4259687112321],[0.816480382410993,51.4257441903975],[0.816121247414891,51.4257528202827],[0.816107435611801,51.4255282992465],[0.816093629366733,51.4253037763601],[0.816079823303411,51.4250792534576],[0.815720693298469,51.4250878819566],[0.815706889212889,51.4248633589052],[0.815693085309026,51.4246388358375],[0.816052211721998,51.4246302076039],[0.816411337953295,51.4246215782759],[0.816425145449103,51.4248461010781],[0.816438953126674,51.4250706238641],[0.816798082768233,51.4250619931763],[0.817157212228066,51.425053361394],[0.817143400958516,51.4248288388735],[0.816784273294671,51.424837470523],[0.816770464002896,51.4246129478536],[0.817129589870775,51.4246043163368],[0.817115778964842,51.4243797937839],[0.81747490285504,51.4243711613055],[0.817834026563476,51.4243625277327],[0.817820212247518,51.4241380054292],[0.817806398113405,51.4239134831094],[0.817792584161136,51.4236889607734],[0.81743346584037,51.4236975939479],[0.817419653865784,51.4234730714629],[0.817405842073014,51.4232485489618],[0.817392030462054,51.4230240264445],[0.817032917347004,51.4230326581264],[0.817019107713628,51.4228081354601],[0.817378219032901,51.4227995039109],[0.817364407785553,51.4225749813612],[0.817350596720007,51.4223504587953],[0.816991488992221,51.422359090079],[0.816977679904181,51.4221345673642],[0.816963870997915,51.4219100446331],[0.817322975134307,51.4219014136149],[0.817309164614147,51.4216768910004],[0.817295354275776,51.4214523683697],[0.817281544119191,51.4212278457228],[0.817267734144389,51.4210033230598],[0.817626830916553,51.4209946914783],[0.817640642686945,51.4212192140086],[0.817999741072956,51.4212105812001],[0.818013554820765,51.4214351035815],[0.818372654820616,51.421426469546],[0.818386470545887,51.4216509917784],[0.818400286453016,51.4218755139946],[0.818414102542007,51.4221000361947],[0.818427918812862,51.4223245583785],[0.818787025813568,51.4223159227177],[0.818800844062008,51.4225404447525],[0.818814662492343,51.4227649667712],[0.818828481104575,51.4229894887736],[0.819187593310669,51.4229808516201],[0.819201413900586,51.4232053734736],[0.819215234672427,51.4234298953109],[0.819574350288249,51.4234212567975],[0.819933465722179,51.4234126171898],[0.81991964135873,51.4231880956181],[0.820278754814949,51.4231794550489],[0.820637868089233,51.4231708133853],[0.820624040316209,51.4229462920631],[0.820983151612767,51.422937649438],[0.82134226272735,51.4229290057187],[0.821701373659932,51.4229203609051],[0.821687540681692,51.4226958399652],[0.822046649636514,51.4226871941901],[0.822060484410491,51.4229117149972],[0.822074319366576,51.423136235788],[0.822433431730845,51.423127588653],[0.822447268664819,51.4233521092947],[0.82246110578093,51.4235766299203],[0.822474943079179,51.4238011505297],[0.822834060648776,51.4237925019017],[0.822847899925012,51.4240170223619],[0.823207019108348,51.4240083725067],[0.823566138109549,51.4239997215572],[0.823579981159683,51.4242242417354],[0.823939101774591,51.4242155895586],[0.824298222207317,51.4242069362875],[0.82431206903143,51.4244314561838],[0.824671191077829,51.4244228016854],[0.825030312941997,51.4244141460927],[0.825016462526134,51.4241896264623],[0.825002612292581,51.4239651068157],[0.824643494020137,51.4239737621426],[0.824629645764717,51.4237492423468],[0.824615797691579,51.4235247225349],[0.824974912372391,51.4235160674739],[0.825334026870964,51.4235074113186],[0.825347878535709,51.4237319308647],[0.825361730382779,51.4239564503946],[0.825375582412179,51.4241809699082],[0.825389434623911,51.4244054894056],[0.825748556123549,51.4243968316243],[0.826107677440885,51.4243881727485],[0.826466798575899,51.4243795127785],[0.826825919528566,51.4243708517141],[0.827185040298864,51.4243621895554],[0.82719890167235,51.4245867083718],[0.827558024056129,51.4245780449858],[0.827917146257488,51.4245693805054],[0.827903281292257,51.4243448619551],[0.827889416509522,51.4241203433885],[0.827875551909281,51.4238958248057],[0.82786168749153,51.4236713062066],[0.827847823256267,51.4234467875913],[0.828206936296073,51.4234381226817],[0.828220802327114,51.423662641164],[0.828579916980244,51.4236539750271],[0.828593784989589,51.4238784933601],[0.828952901256035,51.4238698259959],[0.828966771243733,51.4240943441796],[0.829325889123489,51.4240856755881],[0.829685006820717,51.4240770059022],[0.830044124335392,51.4240683351221],[0.830030248960266,51.4238438173374],[0.830389364496562,51.423835145596],[0.830748479850263,51.4238264727603],[0.830734601066207,51.4236019552256],[0.831093714441516,51.4235932814287],[0.831079834044382,51.4233687640108],[0.831438945441302,51.4233600892527],[0.831798059634645,51.423351413261],[0.832157177930819,51.4233427359711],[0.832143292004196,51.423118218873],[0.83250240828749,51.423109540562],[0.83248852071843,51.4228850235294],[0.832474633334627,51.4226605064849],[0.832460746136078,51.4224359894284],[0.832819856751225,51.4224273102511],[0.833178967181152,51.4224186299753],[0.833165076512656,51.4221941130617],[0.833151186029454,51.4219695961362],[0.832792079254698,51.4219782762572],[0.832432972294728,51.4219869552796],[0.832073865149567,51.4219956332035],[0.831714757819242,51.4220043100289],[0.831700874831552,51.4217797927818],[0.831341775206944,51.4217884678041],[0.831327894475687,51.4215639503893],[0.831314013927118,51.4213394329583],[0.830954918690891,51.4213481065187],[0.83096879744392,51.4215726240828],[0.830609700229543,51.421581296682],[0.830250602832578,51.4215899681871],[0.830264478177134,51.4218144860011],[0.830278353704314,51.4220390037988],[0.829919252533615,51.4220476744757],[0.829933126447802,51.4222721923903],[0.829574023298933,51.4222808621061],[0.829587895600082,51.4225053801374],[0.829601768083815,51.4227298981525],[0.829242661161101,51.4227385670401],[0.829228790473037,51.422514048892],[0.828869685163487,51.4225227165523],[0.828510579671451,51.4225313831184],[0.828151473996955,51.4225400485903],[0.827792368140022,51.4225487129679],[0.827778504817148,51.4223241942714],[0.827764641676743,51.4220996755587],[0.827750778718803,51.4218751568298],[0.828109879188822,51.4218664928512],[0.828096014617752,51.4216419742391],[0.827736915943325,51.4216506380847],[0.827723053350306,51.4214261193233],[0.828082150229164,51.4214174556107],[0.828068286023055,51.4211929369661],[0.827709190939743,51.4212016005457],[0.827695328711633,51.4209770817519],[0.827681466665974,51.4207525629418],[0.82766760480276,51.4205280441155],[0.827653743121991,51.420303525273],[0.828012831023349,51.4202948622253],[0.827998967729589,51.4200703434995],[0.827985104618288,51.4198458247575],[0.828344188746408,51.4198371608817],[0.828330324022184,51.4196126422565],[0.828316459480436,51.419388123615],[0.828675539835397,51.419379458911],[0.828661673680791,51.4191549403863],[0.828647807708679,51.4189304218454],[0.829006884290563,51.4189217563133],[0.82936596068999,51.4189130896872],[0.829725036906938,51.4189044219669],[0.829711165731476,51.4186799038088],[0.830070239970645,51.4186712351274],[0.830056367182486,51.4184467170861],[0.830042494576905,51.4182221990285],[0.829683423928215,51.4182308674438],[0.829669553300412,51.4180063492369],[0.829655682855157,51.4177818310138],[0.829641812592446,51.4175573127745],[0.829282747146817,51.4175659796967],[0.82892368151873,51.4175746455248],[0.828564615708202,51.4175833102588],[0.828578480585416,51.4178078288971],[0.828219412797302,51.4178164926701],[0.828205549715259,51.4175919738988],[0.828191686815666,51.4173674551112],[0.82855075101346,51.4173587916042],[0.828536890201918,51.4171342729927],[0.828177827343401,51.4171429363727],[0.827818764306041,51.4171515986551],[0.827832622435484,51.4173761175242],[0.827473557872936,51.4173847788431],[0.827459701089863,51.4171602598399],[0.827100637694889,51.4171689199271],[0.827114493128045,51.4173934390679],[0.827128350642173,51.4176179582544],[0.827487417182222,51.4176092978966],[0.827501276673911,51.4178338169339],[0.827515136348007,51.418058335955],[0.827528996204512,51.4182828549598],[0.82716992427885,51.4182915157165],[0.826810852170857,51.4183001753791],[0.826451779880556,51.4183088339477],[0.826437925409742,51.418084314544],[0.826424071121267,51.417859795124],[0.82606500223913,51.4178684523326],[0.825705933174737,51.4178771084471],[0.825692082658985,51.417652588745],[0.825333015207556,51.4176612436325],[0.824973947573921,51.417669897426],[0.824960100830808,51.4174453774419],[0.824601034810169,51.4174540300083],[0.824241968607373,51.4174626814807],[0.823882902222443,51.417471331859],[0.823523835655403,51.4174799811432],[0.823164768906276,51.4174886293334],[0.823178606673456,51.4177131499819],[0.823537675217777,51.4177045016589],[0.823551514962301,51.4179290221583],[0.823192444622765,51.4179376706142],[0.822833374101159,51.417946317976],[0.822474303397505,51.4179549642437],[0.822488137938458,51.4181794851255],[0.822129065257533,51.418188130432],[0.822142898185302,51.4184126514304],[0.822501972661498,51.4184040059911],[0.822515807566628,51.4186285268405],[0.822874883656085,51.4186198801742],[0.822888720538623,51.4188444008745],[0.822529642653852,51.4188530476737],[0.822543477923173,51.4190775684906],[0.822184398061025,51.4190862143285],[0.822198231717084,51.4193107352621],[0.821839149877554,51.4193193801386],[0.821825318016862,51.4190948590722],[0.821466237790705,51.4191035027217],[0.821452407907413,51.4188789815062],[0.82143857820615,51.4186544602745],[0.82142474868691,51.4184299390267],[0.821410919349692,51.4182054177625],[0.821051846122825,51.4182140597866],[0.820692772714022,51.4182227007166],[0.820333699123309,51.4182313405525],[0.819974625350707,51.4182399792943],[0.819988447506785,51.4184645010896],[0.819629371757026,51.4184731388701],[0.819270295825421,51.4184817755563],[0.819256477259932,51.4182572534954],[0.818897402941804,51.4182658889548],[0.818538328441883,51.4182745233201],[0.818179253760189,51.4182831565912],[0.817820178896745,51.4182917887682],[0.81783399028102,51.4185163113601],[0.817847801847087,51.4187408339359],[0.817861613594947,51.4189653564954],[0.818220693844385,51.4189567239202],[0.818234507569422,51.4191812463308],[0.818248321476281,51.4194057687252],[0.818607405134732,51.4193971347903],[0.818621221018839,51.4196216570357],[0.818262135564969,51.4196302911034],[0.818275949835487,51.4198548134654],[0.817916862404402,51.4198634465716],[0.817930675061284,51.4200879690502],[0.81757158565298,51.420096601195],[0.817212496062949,51.4201052322455],[0.81722630531065,51.4203297549734],[0.816867213743413,51.4203383850625],[0.816853406291213,51.4201138622019],[0.816494316337797,51.420122491064],[0.816135226202722,51.4201311188319],[0.816149030063909,51.4203556419579],[0.815789937951689,51.4203642687644],[0.815803740199044,51.4205887920069],[0.815444646109672,51.4205974178518],[0.815085551838705,51.4206060426024],[0.815099350676619,51.4208305660941],[0.81511314969617,51.4210550895697],[0.815126948897364,51.421279613029],[0.81476785074026,51.4212882356325],[0.814754053445207,51.4210637119637],[0.814394957992612,51.4210723324266],[0.814035862357995,51.4210809517935],[0.813676766541382,51.4210895700644],[0.813662974834305,51.4208650460527],[0.813303880637679,51.4208736631181],[0.813290090914578,51.4206491389826],[0.813276301373486,51.4204246148327],[0.813635391966257,51.4204159979863],[0.81362160080528,51.4201914739315],[0.813262512014403,51.4202000906684],[0.812903423041586,51.4202087063093],[0.812889635666378,51.4199841820212],[0.812875848473147,51.4197596577187],[0.812516762922145,51.4197682720448],[0.812502977712719,51.4195437476184],[0.812143893781664,51.419552360739],[0.812130110555996,51.4193278361889],[0.81211632751225,51.4191033116243],[0.812475407839709,51.4190946987226],[0.812461623176118,51.4188701742531],[0.812447838694468,51.4186456497692],[0.812088761970513,51.4186542624521],[0.812102544650424,51.4188787870454],[0.81174346594288,51.4188873987417],[0.811729685064713,51.418662874039],[0.811715904368436,51.4184383493218],[0.812074979472515,51.4184297378443],[0.812434054394752,51.4184211252709],[0.81242027027697,51.4181966007582],[0.812779343215647,51.4181879871982],[0.813138415972437,51.4181793725422],[0.813124628433251,51.417954848234],[0.81348369920647,51.4179462325916],[0.813842769797758,51.4179376158533],[0.813828978837269,51.4177130917496],[0.814188047444971,51.4177044740247],[0.814547115870698,51.417695855204],[0.814533321489008,51.4174713313048],[0.814892387931136,51.4174627114977],[0.815251456313749,51.4174540891258],[0.815237658404827,51.417229565524],[0.815596725563556,51.4172209416694],[0.815955792540716,51.4172123167207],[0.815942000839926,51.41698779512],[0.816301066266161,51.4169791692325],[0.816660131514305,51.4169705422474],[0.816646336756079,51.4167460208556],[0.817005400076022,51.4167373928596],[0.816991603745955,51.4165128715418],[0.817350665137702,51.4165042425349],[0.817709726351295,51.4164956124303],[0.818068787386713,51.4164869812281],[0.818054985984783,51.4162624601579],[0.818414045091971,51.4162538279448],[0.818773104020943,51.4162451946342],[0.819132162771674,51.4162365602259],[0.819491221344141,51.4162279247201],[0.819477413120508,51.4160034039841],[0.819836469764695,51.4159947674675],[0.819822659969485,51.4157702468056],[0.819463605075271,51.4157788832355],[0.819449797208426,51.4155543624743],[0.819435989519971,51.4153298417004],[0.819422182009902,51.4151053209138],[0.819063132187199,51.4151139559859],[0.819049326605399,51.4148894351],[0.819035521201957,51.4146649142014],[0.819021715976869,51.4144403932901],[0.819007910930134,51.4142158723662],[0.818648867928601,51.4142245059938],[0.818635064810011,51.4139999849705],[0.818276023380068,51.4140086174139],[0.81826222218958,51.4137840962912],[0.817903182331231,51.4137927275503],[0.817916981771936,51.4140172487597],[0.817557939985639,51.414025879008],[0.817571737854816,51.4142504002915],[0.81758553590225,51.4144749215622],[0.817599334127946,51.4146994428204],[0.817958381163733,51.4146908123119],[0.817944581188185,51.4144662911405],[0.818303626295948,51.4144576596212],[0.818317428021345,51.4146821807059],[0.818331229925053,51.414906701778],[0.817972181317569,51.4149153334707],[0.817613132531907,51.4149239640659],[0.81725408356809,51.4149325935635],[0.816895034426143,51.4149412219636],[0.816535985106085,51.4149498492661],[0.816176935607939,51.4149584754711],[0.816190727190547,51.4151829970507],[0.816204518951335,51.4154075186176],[0.815845465775278,51.4154161438984],[0.815486412421172,51.4154247680816],[0.815500200860224,51.4156492898093],[0.815141145578129,51.4156579129815],[0.814782091968662,51.4156665341626],[0.814423039576768,51.4156751535672],[0.814436822737184,51.4158996755144],[0.814077768359794,51.415908293846],[0.813718713800348,51.4159169110757],[0.813732493536063,51.4161414330728],[0.813373436991135,51.4161500492295],[0.813359659058871,51.4159255272033],[0.813000604135385,51.4159341422288],[0.812986828188674,51.4157096201654],[0.812627774886638,51.4157182340598],[0.812614000925435,51.4154937119591],[0.812600227146299,51.4152691898502],[0.812241177269111,51.4152778025845],[0.811882127209992,51.4152864142169],[0.811523076968969,51.4152950247473],[0.811536845337921,51.4155195469433],[0.811550613888873,51.4157440691312],[0.811909667736714,51.4157354585428],[0.812268721402644,51.4157268468523],[0.812282493742483,51.4159513689739],[0.812296266264375,51.4161758910873],[0.811937208991542,51.4161845028358],[0.811923438273113,51.4159599806934],[0.811564382621828,51.4159685913108],[0.811205326788652,51.4159772008263],[0.811219093900144,51.4162017230267],[0.81157815153679,51.4161931134823],[0.811591920633763,51.4164176356455],[0.811232861193624,51.416426245219],[0.811246628669093,51.416650767403],[0.811260396326554,51.4168752895789],[0.81090133309748,51.4168838981083],[0.810542269686547,51.4168925055357],[0.810183206093781,51.416901111861],[0.810196968522534,51.4171256341157],[0.809837902944382,51.4171342393679],[0.809824142319204,51.4169097170842],[0.80946507836284,51.4169183212054],[0.809106014224711,51.4169269242245],[0.808746949904841,51.4169355261415],[0.808387885403254,51.4169441269565],[0.808374132174215,51.4167196045488],[0.808360379126986,51.4164950821329],[0.808001318050815,51.4165036817879],[0.807987566988912,51.4162791593348],[0.807973816108787,51.4160546368736],[0.807614758457976,51.4160632353686],[0.807601009563105,51.4158387128703],[0.80724195353414,51.4158473102344],[0.80725570062553,51.4160718327617],[0.806896642611472,51.4160804290527],[0.806910388081086,51.4163049516007],[0.806924133732408,51.4165294741405],[0.807283195353503,51.4165208777917],[0.807296942990092,51.4167454002944],[0.80731069080842,51.4169699227889],[0.80766975585502,51.4169613252802],[0.807683505658686,51.4171858477375],[0.807697264567273,51.4174103734247],[0.807338196291333,51.4174189712041],[0.806979127833869,51.4174275678876],[0.806620059194902,51.4174361634751],[0.806260990374456,51.4174447579666],[0.805901921372555,51.4174533513623],[0.805888170593295,51.4172288248094],[0.805874428806008,51.417004301803],[0.80551536285152,51.4170128938014],[0.805501624051104,51.4167883711624],[0.8051425597187,51.4167969620298],[0.805128822903478,51.4165724393537],[0.804769760193163,51.4165810290902],[0.804756025363087,51.4163565063771],[0.805115086269852,51.4163479166695],[0.805101349817821,51.416123393977],[0.805087613547383,51.4158988712764],[0.804728556247645,51.4159074609262],[0.804714821962273,51.4156829381885],[0.805073877458531,51.4156743485675],[0.805432932773322,51.4156657578445],[0.805791987906624,51.4156571660194],[0.805778248392454,51.4154326433601],[0.806137301540798,51.4154240504619],[0.806496354507607,51.4154154564616],[0.806855407292861,51.4154068613594],[0.806841662550057,51.4151823387786],[0.806827917988946,51.4149578161896],[0.806468868810504,51.414966411234],[0.806455126234457,51.4147418886079],[0.80609607867784,51.4147504825214],[0.806082338086809,51.4145259598582],[0.805723292152025,51.4145345526408],[0.805709553545965,51.4143100299405],[0.805350509233019,51.4143186215923],[0.805336772611884,51.414094098855],[0.804977729920781,51.4141026893759],[0.804963995284524,51.4138781666015],[0.804604954215274,51.4138867559916],[0.804591221563849,51.4136622331801],[0.804232182116455,51.4136708214394],[0.804218451449817,51.4134462985909],[0.804204720964686,51.4132217757341],[0.80384568494239,51.4132303628339],[0.80348664873873,51.4132389488316],[0.803472922041526,51.413014425909],[0.803459195525776,51.4127899029782],[0.803100162747187,51.4127984878164],[0.802741129787288,51.4128070715527],[0.80275485269665,51.4130315945411],[0.802395817752269,51.4130401772043],[0.802382096646104,51.412815654187],[0.802368375721324,51.4125911311616],[0.802727407059333,51.412582548556],[0.802713684512782,51.4123580255511],[0.802354654977925,51.4123666081279],[0.802340934415902,51.4121420850861],[0.802327214035253,51.411917562036],[0.802686239963874,51.4119089795169],[0.802672517961513,51.4116844564874],[0.802313493835976,51.4116930389778],[0.802299773818066,51.4114685159113],[0.801940751314344,51.411477097271],[0.801954469529191,51.4117016203662],[0.801595445041183,51.4117102006528],[0.801236420371976,51.4117187798376],[0.801222705763264,51.4114942566848],[0.801208991335848,51.4112697335238],[0.801195277089725,51.4110452103546],[0.80118156302489,51.4108206871772],[0.801167849141342,51.4105961639916],[0.80080883330609,51.4106047419306],[0.800449817289699,51.4106133187678],[0.800090801092193,51.4106218945032],[0.800104509566791,51.410846417775],[0.799745491385206,51.4108549924373],[0.799759198238008,51.4110795157297],[0.799400178072335,51.4110880893189],[0.799041157725611,51.4110966618062],[0.798682137197859,51.4111052331917],[0.798323116489103,51.4111138034753],[0.798336816310929,51.4113383268743],[0.797977801359475,51.4113469047241],[0.797991499330044,51.4115714278396],[0.797632482807819,51.4115800050213],[0.797646179235327,51.4118045281972],[0.7972871608211,51.4118131043522],[0.797300855705502,51.4120376275885],[0.796941835399267,51.4120462027168],[0.796955528740518,51.4122707260135],[0.79659650654227,51.4122793001151],[0.796610198340326,51.4125038234721],[0.796251174250057,51.412512396547],[0.796237484169683,51.4122878731181],[0.795878461622779,51.4122964450225],[0.795519438901582,51.4123050158283],[0.795160416006113,51.4123135855356],[0.794801392936393,51.4123221541442],[0.794815076146011,51.4125466778605],[0.794828759529982,51.4127712015653],[0.79484244308831,51.4129957252587],[0.795201471311177,51.4129871564345],[0.795560499359784,51.4129785865118],[0.795919527234111,51.4129700154904],[0.795933216120069,51.4131945389567],[0.795946905180455,51.4134190624114],[0.795960594415274,51.4136435858547],[0.795974283824527,51.4138681092865],[0.795615249079049,51.4138766805953],[0.795601561387618,51.4136521570917],[0.795587873870598,51.4134276335766],[0.795574186527987,51.4132031100499],[0.795215156761622,51.4132116800445],[0.795228842386453,51.413436203643],[0.794869810728044,51.4134447726108],[0.794883494809458,51.4136692962696],[0.795242528185671,51.41366072723],[0.795256214159279,51.4138852508055],[0.794897179065238,51.413893819917],[0.794538143796948,51.4139023879298],[0.794551826509248,51.4141269116374],[0.794192789348876,51.4141354786234],[0.794206470517651,51.4143600023914],[0.794220151860757,51.4145845261479],[0.794579192456905,51.4145759590183],[0.794592875692268,51.4148004826914],[0.794951917832099,51.4147919143913],[0.794965602959765,51.4150164379811],[0.795324646643273,51.4150078685104],[0.795338333663284,51.4152323920169],[0.795352020857705,51.4154569155119],[0.795711067802866,51.4154483447988],[0.795724756889703,51.4156728682105],[0.79608380537855,51.4156642963268],[0.796097496357847,51.4158888196551],[0.796456546390373,51.4158802466008],[0.796470239262175,51.4161047698457],[0.796483932308466,51.4163292930791],[0.796842985602724,51.4163207187824],[0.796856680541591,51.4165452419324],[0.797215735379537,51.416536666465],[0.797229432211021,51.4167611895316],[0.79758848859265,51.4167526128935],[0.797602187316799,51.4169771358768],[0.797961245242102,51.416968558068],[0.797974945858958,51.4171930809678],[0.797615886215514,51.4172016588485],[0.797629594580543,51.4174261871845],[0.797270533195813,51.4174347641484],[0.79728423999286,51.4176592925511],[0.796925176494161,51.4176678683836],[0.796911471620874,51.417443340006],[0.79655240985575,51.4174519147573],[0.796193347900465,51.4174604884024],[0.795834285755048,51.4174690609413],[0.795820586843245,51.4172445326347],[0.795461526431465,51.4172531040924],[0.795447836102411,51.4170285796549],[0.795088776956459,51.4170371497722],[0.794729717636215,51.4170457187908],[0.794716032657115,51.4168211952326],[0.794356974880748,51.4168297630805],[0.794343291794156,51.4166052394389],[0.7947023478524,51.4165966716629],[0.795061403736383,51.416588102788],[0.795047717387956,51.4163635792787],[0.795034031213932,51.4161390557578],[0.79502034521431,51.4159145322255],[0.795006659389085,51.4156900086817],[0.794647610377356,51.4156985772691],[0.794633926444533,51.415474053642],[0.794620242686079,51.4152495300033],[0.794261196936099,51.4152580973484],[0.794247515069978,51.4150335736264],[0.794233833378199,51.4148090498929],[0.793874790889912,51.4148176159956],[0.793861111090396,51.4145930921788],[0.793847431465192,51.4143685683505],[0.793488392238544,51.414377133211],[0.79312935283773,51.4143856969727],[0.793143029027121,51.4146102209446],[0.79278398773425,51.4146187836795],[0.792424946267255,51.4146273453156],[0.792438619195044,51.4148518694196],[0.792079575836006,51.4148604300289],[0.791720532302884,51.4148689895394],[0.7913614885957,51.4148775479512],[0.791347820821739,51.4146530236319],[0.791334153221936,51.4144284993012],[0.790975112776587,51.4144370564708],[0.79096144706884,51.4142125320568],[0.791320485796286,51.4142039749589],[0.791679524349701,51.4141954167624],[0.792038562729062,51.4141868574671],[0.792024892041809,51.4139623332569],[0.792383928529223,51.4139537729347],[0.792742964842542,51.4139452115139],[0.793102000981745,51.4139366489944],[0.793088325315142,51.413712124988],[0.793447359562364,51.4137035614417],[0.7934336823522,51.4134790374956],[0.793792714707447,51.4134704729223],[0.794151746888519,51.4134619072505],[0.794138066417045,51.4132373834365],[0.794124386119888,51.413012859611],[0.794110705997045,51.4127883357741],[0.794097026048515,51.4125638119256],[0.794083346274292,51.4123392880656],[0.794069666674376,51.4121147641942],[0.794055987248761,51.4118902403112],[0.794042307997447,51.4116657164168],[0.794028628920429,51.4114411925109],[0.794014950017705,51.4112166685934],[0.793655935013545,51.4112252335472],[0.793642258002681,51.4110007095465],[0.793283244541946,51.4110092733299],[0.793269569422898,51.4107847492459],[0.793255894478089,51.4105602251504],[0.793614904503746,51.4105516615105],[0.79360122801567,51.4103271374753],[0.793242219707518,51.4103357010433],[0.792883211225252,51.4103442635129],[0.792896884278314,51.4105687876917],[0.792537873904446,51.4105773491344],[0.792178863356506,51.4105859094787],[0.791819852634516,51.4105944687244],[0.791460841738499,51.4106030268715],[0.791101830668475,51.4106115839201],[0.791088166202996,51.4103870593825],[0.790729156676514,51.4103956152609],[0.790715494102641,51.4101710906401],[0.790701831702843,51.4099465660078],[0.790688169477118,51.409722041364],[0.790674507425463,51.4094975167087],[0.790660845547875,51.4092729920419],[0.790647183844352,51.4090484673636],[0.790633522301984,51.4088239427821],[0.790619860882199,51.4085994185724],[0.790606199627582,51.4083748943467],[0.79059253853813,51.408150370105],[0.79057887761384,51.4079258458473],[0.790219886320358,51.4079343995729],[0.789860894861857,51.4079429522046],[0.789501903238355,51.4079515037423],[0.789142911449875,51.4079600541861],[0.788783919496436,51.4079686035359],[0.788424927378059,51.4079771517918],[0.788065935094763,51.4079856989537],[0.788079584812744,51.4082102241258],[0.788093234695738,51.408434749282],[0.78810688474375,51.4086592744221],[0.788120534914888,51.4088837995501],[0.788479533636416,51.4088752518633],[0.788493184861595,51.4090997769832],[0.788506836260703,51.4093243020916],[0.78852048783374,51.4095488271886],[0.788534139580712,51.4097733522741],[0.788547791501619,51.4099978773481],[0.788561443596467,51.4102224024106],[0.788575095865257,51.4104469274616],[0.788216085121526,51.4104554756502],[0.78785707420399,51.4104640227402],[0.787498063112673,51.4104725687316],[0.787139051847595,51.4104811136245],[0.787125406448919,51.4102565882869],[0.787111761224097,51.4100320629378],[0.787098116173126,51.4098075375772],[0.787084471296002,51.4095830122051],[0.787070826592724,51.4093584868215],[0.786711823741365,51.4093670302577],[0.786698180929352,51.409142504791],[0.786339179621721,51.4091510470571],[0.786352820716305,51.4093755725954],[0.786366461984687,51.4096000981222],[0.786380103426869,51.4098246236376],[0.786393745042853,51.4100491491414],[0.78675275322033,51.4100406065889],[0.786766396727638,51.4102651320096],[0.786780040408778,51.4104896574189],[0.786793684263751,51.4107141828167],[0.787152697420126,51.4107056389507],[0.787166343166517,51.4109301642654],[0.786807328292561,51.410938708203],[0.786820972495212,51.4111632335779],[0.78717998908677,51.4111546895686],[0.787539005504581,51.4111461444607],[0.787552653316323,51.4113706696808],[0.787566301301954,51.4115951948894],[0.787579949461479,51.4118197200865],[0.7875935977949,51.4120442452721],[0.787952620909552,51.4120356987791],[0.787966271134581,51.4122602238815],[0.787979921533535,51.4124847489725],[0.788338947909816,51.4124762012375],[0.788352600200446,51.4127007262454],[0.788366252665029,51.4129252512417],[0.788725282302995,51.4129167022648],[0.788738936659325,51.413141227178],[0.788752591189636,51.4133657520797]]],[[[0.823164768906276,51.4174886293334],[0.823150931321218,51.4172641086686],[0.822791866185199,51.4172727556318],[0.822432800867143,51.417281401501],[0.822418974183561,51.4170568812002],[0.822059910037889,51.417065525834],[0.82204608885011,51.4168410057562],[0.821687026276049,51.4168496492055],[0.821673207016881,51.4166251290283],[0.821314146014437,51.4166337712932],[0.820955084833589,51.4166424124606],[0.820941269253014,51.416417892097],[0.820582209643815,51.41642653208],[0.820596023474359,51.4166510525304],[0.820609837483377,51.416875572968],[0.820623651670869,51.4171000933931],[0.8206374715471,51.4173246144356],[0.820651296565883,51.4175491360302],[0.821010364588972,51.4175404954986],[0.821369432430137,51.4175318538729],[0.821355603820976,51.417307332544],[0.821714669685007,51.4172986899571],[0.821728500089355,51.4175232111532],[0.8220875675666,51.4175145673394],[0.822101399948186,51.4177390883864],[0.822460469038637,51.4177304433457],[0.82281953794707,51.4177217972108],[0.822805701975083,51.4174972764294],[0.823164768906276,51.4174886293334]]],[[[0.833178967181152,51.4224186299753],[0.833192858034944,51.4226431468769],[0.833206749074038,51.4228676637666],[0.83356586297398,51.4228589822374],[0.833579756026041,51.4230834990377],[0.833593649263432,51.4233080158261],[0.833952766633443,51.4232993330435],[0.833966661883875,51.4235238497425],[0.834325780896288,51.4235151657838],[0.83468489972337,51.4235064807265],[0.834671000817533,51.4232819641824],[0.835030117631565,51.423273278104],[0.83538923426022,51.4232645909271],[0.835403136821448,51.4234891073162],[0.83541703956813,51.4237136236934],[0.835776159666794,51.4237049352629],[0.835790064426668,51.4239294515506],[0.836149186167638,51.423920761944],[0.836508307723153,51.4239120712389],[0.836494399307812,51.4236875551062],[0.836853518850119,51.4236788633799],[0.837212638206928,51.4236701705551],[0.837198726321706,51.4234456545656],[0.837557843665293,51.4234369607197],[0.837543930137964,51.4232124447957],[0.837903045468336,51.4232037499289],[0.838262160613143,51.4231950539635],[0.838621275572363,51.4231863568996],[0.838980390345971,51.4231776587371],[0.838994311183968,51.4234021743508],[0.839353427599602,51.4233934750122],[0.839712543829573,51.423384774575],[0.840071659873859,51.4233760730393],[0.840085586380581,51.4236005884083],[0.840444704066831,51.4235918856964],[0.840430775732436,51.423367370405],[0.84041684758382,51.4231428551017],[0.840775961429017,51.4231341514465],[0.840762031638554,51.4229096362088],[0.841121143470377,51.4229009315327],[0.841480255116427,51.422892225758],[0.84183936657668,51.4228835188849],[0.841825431489232,51.4226590038681],[0.842184540936077,51.4226502959741],[0.84254365019708,51.4226415869815],[0.842902759272217,51.4226328768904],[0.843261868161467,51.4226241657008],[0.843275810559245,51.4228486804069],[0.843634921090156,51.4228399680411],[0.843994031435129,51.4228312545767],[0.844353141594136,51.4228225400139],[0.844712251567158,51.4228138243525],[0.84507136135417,51.4228051075926],[0.845430470955148,51.4227963897342],[0.845416517591971,51.4225718754944],[0.845775625179336,51.4225631566153],[0.846134732580622,51.4225544366376],[0.84612077574848,51.4223299225414],[0.84647988113614,51.4223212015429],[0.846838986337677,51.422312479446],[0.847198091353068,51.4223037562506],[0.84755719618229,51.4222950319568],[0.847543232226297,51.4220705181596],[0.847902335041836,51.422061792845],[0.848261437671161,51.422053066432],[0.84862054011315,51.4220443388886],[0.848979642371049,51.4220356102407],[0.849338744445226,51.4220268804939],[0.849697846335658,51.4220181496482],[0.850056948042322,51.4220094177036],[0.850416049565195,51.4220006846601],[0.850775150904252,51.4219919505177],[0.850761170911283,51.4217674373732],[0.851120270271932,51.4217587022043],[0.851106288668284,51.4215341891207],[0.851465386050527,51.4215254529254],[0.851451402836248,51.4213009399026],[0.851810498240092,51.4212922026808],[0.851796513415227,51.4210676897189],[0.852155606840679,51.4210589514706],[0.852514700082214,51.4210502121235],[0.85250071185234,51.4208256992949],[0.852141620405274,51.4208344385696],[0.85212763415382,51.4206099256571],[0.852113648086313,51.4203854127329],[0.851754560044206,51.4203941507639],[0.851740575955048,51.4201696377559],[0.851726592049808,51.4199451247362],[0.851367507412605,51.4199538615236],[0.85135352548564,51.41972934842],[0.850994442458943,51.4197380840361],[0.850635359248418,51.4197468185535],[0.850276275854086,51.419755551972],[0.850290252397952,51.4199800652928],[0.849931167025466,51.4199887976849],[0.849572081469215,51.4199975289781],[0.849212995729224,51.4200062591726],[0.84922696707372,51.4202307726989],[0.848867879355608,51.4202395018669],[0.848508791453799,51.4202482299361],[0.848149703489087,51.4202569568688],[0.848163669609936,51.4204814706061],[0.847804579772362,51.4204901964746],[0.847445489748598,51.4204989212446],[0.847086399538664,51.4205076449163],[0.847100360363788,51.4207321588749],[0.847114321375099,51.4209566728216],[0.846755227324334,51.4209653955504],[0.846396133087442,51.4209741171807],[0.84641009063018,51.421198631271],[0.846050994379799,51.4212073518806],[0.845691897943336,51.4212160713918],[0.8457058520174,51.4214405856256],[0.845346753567462,51.4214493041161],[0.845360706000191,51.4216738184157],[0.845001605536773,51.4216825358855],[0.844642504887337,51.4216912522567],[0.844656453851215,51.4219157666998],[0.844297351188313,51.4219244820503],[0.843938248339436,51.4219331963023],[0.84357914530461,51.4219419094559],[0.843565201823156,51.4217173947797],[0.843551258527669,51.4214928800916],[0.843192158961855,51.4215015919913],[0.842833059210145,51.4215103027925],[0.842473959272562,51.4215190124952],[0.842487897085665,51.4217435274164],[0.842128795134765,51.4217522360983],[0.842142731306275,51.4219767510852],[0.841783627342051,51.4219854587463],[0.841797561871922,51.4222099737989],[0.84143845589437,51.4222186804391],[0.841452388782552,51.4224431955574],[0.84146632185657,51.4226677106637],[0.841107212038114,51.4226764163607],[0.840748102033886,51.4226851209592],[0.840734172615011,51.4224606056976],[0.841093280791665,51.4224519011768],[0.841079349731031,51.4222273859809],[0.841065418856206,51.422002870773],[0.841051488167188,51.4217783555532],[0.841037557663973,51.4215538403215],[0.84067845679738,51.4215625445318],[0.840319355745057,51.4215712476438],[0.839960254507027,51.4215799496572],[0.839601153083312,51.4215886505721],[0.839242051473938,51.4215973503885],[0.839255972839719,51.4218218660083],[0.838896869217212,51.4218305648038],[0.83853776540909,51.4218392625009],[0.838178661415376,51.4218479590995],[0.837819557236093,51.4218566545995],[0.837460452871265,51.4218653490011],[0.837474365285104,51.4220898649967],[0.83711525890722,51.4220985583773],[0.836756152343834,51.4221072506594],[0.83674224358507,51.4218827345087],[0.837101348320916,51.4218740423041],[0.837087437920161,51.421649526219],[0.83672833501183,51.421658218346],[0.836369231918029,51.4216669093746],[0.836355325357804,51.4214423931224],[0.835996223906054,51.421451082975],[0.835637122268883,51.421459771729],[0.835651025174108,51.4216842881361],[0.835664928264783,51.4219088045313],[0.835678831540912,51.4221333209145],[0.835319724235762,51.4221420088025],[0.835305822787184,51.4219174923418],[0.835291921524038,51.4216929758691],[0.835278020446318,51.4214684593845],[0.834918918438378,51.4214771459416],[0.834932817688589,51.4217016625037],[0.83457371366779,51.4217103480397],[0.834587611275871,51.4219348646673],[0.834946717124206,51.4219261790538],[0.834960616745229,51.422150695592],[0.834601509069337,51.422159381283],[0.83424240120811,51.4221680658755],[0.833883293161572,51.4221767493694],[0.833897187485253,51.4224012661281],[0.833538077425836,51.422409948601],[0.833178967181152,51.4224186299753]]],[[[0.849502218531336,51.4188749615353],[0.849861295115939,51.4188662306038],[0.849875269130262,51.4190907440431],[0.850234347325397,51.4190820119405],[0.850248323317812,51.4193065252959],[0.850607403123474,51.4192977920221],[0.850593425336759,51.4190732787391],[0.850952503164325,51.419064544439],[0.850938523767171,51.4188400312168],[0.85092454455387,51.4186155179831],[0.85091056552442,51.4183910047379],[0.850551493079608,51.4183997388209],[0.850192420451009,51.4184084718051],[0.850178445193821,51.4181839584036],[0.850164470120431,51.4179594449905],[0.849805400896467,51.4179681767312],[0.84944633148877,51.4179769073732],[0.849460302973778,51.418201420931],[0.849474274642542,51.4184259344773],[0.849488246495059,51.4186504480121],[0.849502218531336,51.4188749615353]]],[[[0.832569885958872,51.4183860025874],[0.832928963495618,51.4183773237053],[0.832915076161929,51.4181528065769],[0.832901189013476,51.4179282894367],[0.832887302050258,51.4177037722844],[0.833246373920364,51.4176950925362],[0.83360544560527,51.4176864116896],[0.833619336222741,51.417910928687],[0.833260262710711,51.417919609611],[0.833274151686314,51.4181441266739],[0.833633227025492,51.4181354456724],[0.83399230217944,51.4181267635726],[0.834006194994643,51.4183512804686],[0.833647118013527,51.4183599626459],[0.833661009186848,51.4185844796075],[0.834020087995155,51.4185757973528],[0.834033981180982,51.418800314225],[0.834047874552124,51.4190248310852],[0.834061768108586,51.4192493479335],[0.834075661850371,51.4194738647699],[0.834434747782404,51.419465181107],[0.83444864353682,51.419689697854],[0.834807731110857,51.4196810130152],[0.834821628877949,51.4199055296728],[0.834462539476587,51.419914214589],[0.834476435601709,51.4201387313122],[0.834117344187693,51.4201474152074],[0.833758252588393,51.4201560980043],[0.833772145244123,51.4203806148704],[0.833413051632184,51.4203892966462],[0.833399160803836,51.4201647797027],[0.833040068834042,51.4201734603026],[0.833026180018343,51.4199489432697],[0.833012291387906,51.4197244262249],[0.832653202887606,51.4197331055716],[0.832667089690701,51.4199576226938],[0.832680976679036,51.4201821398042],[0.832694863852613,51.4204066569025],[0.833053957835006,51.4203979773236],[0.833067847021239,51.4206224943326],[0.833426942645824,51.4206138135778],[0.833786038085167,51.4206051317245],[0.834145133339245,51.4205964487728],[0.834159028193033,51.4208209655375],[0.83379993111153,51.4208296485667],[0.833813824323215,51.421054165397],[0.834172923232165,51.4210454822904],[0.834532021955819,51.4210367980852],[0.834891120494155,51.4210281127816],[0.835250218847149,51.4210194263795],[0.835609317014775,51.421010738879],[0.835968414997011,51.4210020502799],[0.835954510820689,51.4207775339145],[0.835940606829827,51.4205530175371],[0.835926703024424,51.4203285011478],[0.836285795339032,51.4203198116828],[0.836299700971816,51.4205443279946],[0.836658794928375,51.4205356373537],[0.836644887468211,51.4203111211194],[0.837003979411939,51.4203024294575],[0.837017888699478,51.4205269456143],[0.837376982285103,51.4205182527764],[0.837390893585566,51.4207427688437],[0.837404805071585,51.4209672848991],[0.83741871674316,51.4211918009425],[0.83777781562553,51.4211831067736],[0.83779172931013,51.4214076227275],[0.838150829834424,51.4213989273825],[0.838164745532093,51.421623443247],[0.838523847698305,51.421614746726],[0.838509930173156,51.4213902309391],[0.838869030326303,51.4213815333972],[0.838855111159336,51.421157017676],[0.838841192178023,51.4209325019428],[0.839200288490684,51.4209238034575],[0.83918636786762,51.42069928779],[0.839545462167255,51.4206905882839],[0.839904556281242,51.4206818876793],[0.839890632189099,51.420457372155],[0.83987670828267,51.4202328566187],[0.839862784561952,51.4200083410705],[0.839848861026942,51.4197838255103],[0.839834937677637,51.4195593099382],[0.839821014514035,51.4193347943542],[0.839807091536131,51.4191102787582],[0.839793168743922,51.4188857631502],[0.839434089248268,51.418894463134],[0.839420168468939,51.4186699474365],[0.839061090614854,51.4186786462444],[0.839047171848359,51.4184541304574],[0.838688095635849,51.4184628280893],[0.838674178882138,51.4182383122128],[0.83831510431121,51.4182470086688],[0.838329019237771,51.4184715246229],[0.837969942654149,51.4184802200581],[0.837610865885007,51.4184889143949],[0.837251788930368,51.4184976076334],[0.836892711790255,51.4185062997735],[0.836533634464693,51.4185149908152],[0.83651972867393,51.4182904744735],[0.83650582306864,51.4180659581198],[0.83649191764882,51.4178414417541],[0.836478012414466,51.4176169253765],[0.836464107365576,51.417392408987],[0.83645020448359,51.4171678925419],[0.836809271279749,51.417159201955],[0.836795376116661,51.416934685366],[0.837154440861777,51.4169259937555],[0.837513505418715,51.4169173010465],[0.837872569787448,51.416908607239],[0.838231633967956,51.416899912333],[0.838590697960208,51.4168912163284],[0.838949761764186,51.4168825192254],[0.839308825379863,51.4168738210238],[0.839667888807216,51.4168651217238],[0.839653978929602,51.4166406057228],[0.839640069240435,51.41641608971],[0.839999128753795,51.4164073894614],[0.840358188078788,51.4163986881144],[0.840372101493572,51.4166232039772],[0.840731162492978,51.4166145014566],[0.840745077959083,51.4168390172327],[0.841104140632895,51.4168303135386],[0.841118058150369,51.4170548292279],[0.84147712249858,51.4170461243603],[0.841463203118261,51.4168216087461],[0.841449283926512,51.4165970931201],[0.841808344360591,51.4165883873041],[0.841822265415158,51.416812902855],[0.841836186658318,51.4170374183942],[0.842195250629558,51.4170287113296],[0.842554314412277,51.4170200031665],[0.842568241359928,51.4172445184948],[0.842927306394305,51.4172358091693],[0.842941244330014,51.4174603241623],[0.842955182451608,51.4176848391433],[0.842969120759087,51.4179093541123],[0.842983059252455,51.4181338690694],[0.843342131409196,51.4181251583349],[0.843701203380065,51.418116446502],[0.843687261232529,51.4178919317003],[0.844046331190424,51.4178832188468],[0.844032387401769,51.4176587041108],[0.844018443799071,51.4174341893628],[0.844377509916967,51.4174254755664],[0.84473657584893,51.4174167606717],[0.845095641594936,51.4174080446786],[0.845081693808071,51.4171835301187],[0.845067755610681,51.4169590152671],[0.845053817602099,51.4167345004037],[0.844694757002518,51.4167432161811],[0.844335696214251,51.4167519308601],[0.843976635237319,51.4167606444405],[0.843617574071749,51.4167693569225],[0.843603643703143,51.4165448417469],[0.843589713523246,51.4163203265596],[0.843575783532053,51.4160958113605],[0.843561853729561,51.4158712961496],[0.843920907444082,51.415862583968],[0.844279960969978,51.415853870688],[0.844639014307222,51.4158451563095],[0.844625079105329,51.4156206413122],[0.844984130391205,51.4156119259103],[0.844970193515406,51.4153874109764],[0.845329242749921,51.4153786945513],[0.845315304200267,51.4151541796807],[0.845301365839417,51.4149296647984],[0.845287427667372,51.4147051499043],[0.844928384020714,51.4147138661041],[0.844914447900039,51.4144893511231],[0.844555405927276,51.4144980661493],[0.844541471857927,51.4142735510815],[0.844527537977323,51.4140490360019],[0.844168499540989,51.4140577497796],[0.844154567711637,51.4138332346131],[0.844140636071,51.4136087194349],[0.844126704619075,51.413384204245],[0.84376767158158,51.413392916699],[0.843753742180806,51.4131684014222],[0.843739812968712,51.4129438861336],[0.84338078346749,51.4129525973391],[0.843366856306473,51.4127280819637],[0.843007828479091,51.4127367919958],[0.842993903369102,51.4125122765336],[0.842634877215566,51.4125209853922],[0.842275850873525,51.4125296931526],[0.842289772258753,51.4127542087649],[0.841930743865845,51.412762915502],[0.841916824343003,51.4125383998146],[0.841557797624025,51.4125471053783],[0.841571715284479,51.4127716211407],[0.841212686514678,51.4127803256811],[0.84122660250125,51.4130048415068],[0.840867571680619,51.4130135450239],[0.840881485993264,51.4132380609129],[0.840895400494401,51.4134625767901],[0.840536365760464,51.4134712793589],[0.840550278587606,51.4136957952993],[0.840191241802802,51.4137044968447],[0.8402051529559,51.4139290128485],[0.83984611412022,51.4139377133705],[0.839860023599228,51.4141622294375],[0.839873933266671,51.4143867454927],[0.839514890517537,51.4143954450664],[0.83915584758009,51.4144041435416],[0.839141941637796,51.4141796273364],[0.839128035883891,51.4139551111194],[0.839487075096209,51.4139464127941],[0.839473167668159,51.4137218966404],[0.839114130318372,51.4137305948907],[0.838755092780304,51.4137392920425],[0.838396055053983,51.4137479880961],[0.838037017139429,51.4137566830512],[0.83767797903667,51.4137653769079],[0.837318940745727,51.4137740696663],[0.836959902266627,51.4137827613263],[0.836600863599392,51.4137914518878],[0.836241824744048,51.413800141351],[0.835882785700618,51.4138088297158],[0.835868897086179,51.413584312801],[0.835855008659905,51.4133597958743],[0.835495973153467,51.413368482991],[0.835482086777848,51.4131439659777],[0.835123052945872,51.4131526519211],[0.835136937458997,51.4133771690092],[0.834777901576521,51.4133858539291],[0.834418865506061,51.4133945377505],[0.834432746482256,51.4136190549767],[0.834446627646522,51.4138435721911],[0.834805667442053,51.4138348882198],[0.834819550656966,51.4140594053476],[0.834833434059979,51.4142839224637],[0.834847317651098,51.414508439568],[0.834861201430324,51.4147329566606],[0.834875085397661,51.4149574737414],[0.834888969553113,51.4151819908105],[0.834529918581796,51.4151906752309],[0.834543801062651,51.4154151923632],[0.834184748040633,51.41542387576],[0.834198628846845,51.4156483929554],[0.83383957377412,51.4156570753286],[0.833853452905642,51.4158815925871],[0.833867332225219,51.4161061098338],[0.833508273238987,51.4161147912583],[0.833522150883806,51.4163393085681],[0.833163089846827,51.4163479889689],[0.832804028621946,51.4163566682712],[0.832790154702772,51.4161321508117],[0.832431095152837,51.4161408289407],[0.832417223284457,51.4159163113946],[0.832403351604036,51.4156917938368],[0.832044295591841,51.4157004707176],[0.831685239391824,51.4157091465],[0.831699107346673,51.4159336642074],[0.831340054082541,51.4159423372885],[0.831353920233547,51.416166855144],[0.831712975489436,51.4161581819031],[0.831726843820118,51.4163826995871],[0.83174071233872,51.4166072172594],[0.832099775990026,51.4165985411778],[0.832113646559433,51.4168230587635],[0.831754581045246,51.4168317349199],[0.831395519761455,51.4168404086345],[0.831409386629063,51.4170649264394],[0.831050325202088,51.4170735986001],[0.830691263596092,51.4170822696632],[0.830705132368756,51.4173067875874],[0.830346069265783,51.4173154576586],[0.829987005980281,51.4173241266358],[0.830000877855588,51.4175486447583],[0.830359942936222,51.4175399756481],[0.830719007834326,51.4175313054438],[0.830732883482507,51.4177558232841],[0.831091949993205,51.4177471518527],[0.831105827619172,51.4179716695436],[0.831119705427777,51.4181961872183],[0.831478775346259,51.4181875144268],[0.831837848477771,51.418178839696],[0.831851730329917,51.4184033570566],[0.832210808236964,51.4183946803712],[0.832569885958872,51.4183860025874]]],[[[0.830290617495651,51.416417385393],[0.830304478755047,51.4166419034842],[0.830318340193528,51.4168664215629],[0.830677400228507,51.4168577516843],[0.83103646008449,51.4168490807082],[0.831022595146024,51.4166245628037],[0.831008730386689,51.4164000448865],[0.830649674030665,51.4164087156885],[0.830290617495651,51.416417385393]]],[[[0.827390464792272,51.416037665904],[0.827031410147291,51.4160463255565],[0.8270175651744,51.4158218066444],[0.826658512100595,51.4158304651124],[0.826299458848057,51.4158391224828],[0.826285617553863,51.4156146033841],[0.826644669056485,51.4156059461006],[0.826630826191218,51.4153814270762],[0.826616983504792,51.4151569080392],[0.826603140997203,51.4149323889895],[0.826244094744189,51.4149410460122],[0.826257935501931,51.4151655651488],[0.826271776438487,51.4153900842728],[0.825912726507053,51.4153987403719],[0.825553676396935,51.4154073953734],[0.825567514012516,51.4156319146585],[0.825581351806872,51.415856433931],[0.825595189780008,51.4160809531908],[0.825609027931925,51.416305472438],[0.825249970643409,51.4163141266895],[0.82526380722412,51.4165386460109],[0.825277643983596,51.4167631653196],[0.825636704772119,51.4167545108943],[0.825650543460401,51.4169790301034],[0.825664382327477,51.4172035492999],[0.826023446437411,51.4171948936031],[0.82600960582028,51.4169703744936],[0.826368668001456,51.4169617177861],[0.826727730003905,51.416953059981],[0.826713886065532,51.4167285410326],[0.827072946139209,51.4167198822169],[0.827432006034118,51.4167112223036],[0.827791065750237,51.4167025612927],[0.827777216740725,51.4164780425925],[0.827418158774603,51.4164867035164],[0.827404311693989,51.4162621847166],[0.827390464792272,51.416037665904]]],[[[0.798354334085286,51.4351725261381],[0.797995121721261,51.4351811017733],[0.797635909031132,51.4351896761646],[0.797276696167988,51.4351982494612],[0.796917483131849,51.435206821663],[0.796931205335522,51.4354313449574],[0.797290420069565,51.4354227726219],[0.797649634630612,51.4354141991915],[0.798008849018639,51.4354056246664],[0.798368063025456,51.435397048843],[0.798354334085286,51.4351725261381]]],[[[0.792842193111324,51.4096706909075],[0.792855865641759,51.4098952151208],[0.792869538346401,51.4101197393226],[0.79322854511118,51.4101111769248],[0.793587551701851,51.4101026134286],[0.793946558118388,51.4100940488338],[0.793960236149687,51.4103185728087],[0.794319244109547,51.4103100070436],[0.794678251895228,51.41030144018],[0.795037259506707,51.4102928722178],[0.795023576322985,51.4100683484584],[0.795009893313606,51.4098438246874],[0.794996210478566,51.4096193009049],[0.795355212763484,51.4096107320598],[0.79534152838538,51.4093862083377],[0.795327844181632,51.409161684604],[0.794968845331494,51.4091702533055],[0.794955163019456,51.4089457294886],[0.79459616571247,51.4089542970198],[0.794237168231301,51.4089628634525],[0.793878170575969,51.4089714287867],[0.793519172746499,51.4089799930225],[0.793505497935883,51.4087554694133],[0.793146501559681,51.4087640324132],[0.79316017474291,51.4089885561598],[0.792801176565227,51.4089971181987],[0.79281484857306,51.4092216424464],[0.792828520755092,51.4094461666827],[0.792842193111324,51.4096706909075]]],[[[0.78573028262845,51.4109643334245],[0.786089298023505,51.4109557927826],[0.786448313244884,51.4109472510421],[0.786434670933657,51.4107227255842],[0.786421028796245,51.4104982001147],[0.786062017010016,51.410506741712],[0.786048376763959,51.4102822161595],[0.785689366521604,51.4102907565866],[0.785703005050118,51.4105152822107],[0.785343992916568,51.4105238216109],[0.785357629901279,51.4107483472951],[0.785371267059737,51.4109728729679],[0.78573028262845,51.4109643334245]]]]}}