{"type":"Feature","properties":{"code":"E63002320","name":"Newport (Telford and Wrekin)"},"geometry":{"type":"MultiPolygon","coordinates":[[[[-2.3897147925903,52.7639242885381],[-2.38971680188096,52.7641490202892],[-2.3897188111979,52.7643737520316],[-2.38972082054112,52.7645984837654],[-2.38972282991064,52.7648232154906],[-2.38935233796878,52.7648244341862],[-2.3889818460006,52.7648256517249],[-2.38898385162936,52.7650503834707],[-2.38898585728436,52.7652751152079],[-2.3889878629656,52.7654998469364],[-2.3886173653205,52.7655010633619],[-2.38861936914438,52.7657257950964],[-2.38824886958941,52.7657270103795],[-2.3878783700082,52.7657282245055],[-2.38788037009105,52.7659529562606],[-2.3875098686,52.7659541692442],[-2.38751186682537,52.7661789010053],[-2.38714136342448,52.7661801128463],[-2.38714335979232,52.7664048446134],[-2.38751386507689,52.7664036327577],[-2.38751586335455,52.7666283645015],[-2.38788637049662,52.7666271514741],[-2.38825687761247,52.7666259372897],[-2.38862738470208,52.7666247219481],[-2.38899789176541,52.7666235054494],[-2.38899588595297,52.7663987737641],[-2.38862538077333,52.7663999902482],[-2.3886233768708,52.7661752585395],[-2.38899388016677,52.7661740420702],[-2.38899187440681,52.7659493103675],[-2.38936237579284,52.7659480927557],[-2.38936036817549,52.7657233610591],[-2.38973086765159,52.7657221423048],[-2.39010136710133,52.7657209223935],[-2.39047186652472,52.7657197013252],[-2.39046985328286,52.7654949696639],[-2.39046784006734,52.765270237994],[-2.39046582687816,52.7650455063154],[-2.39009533310548,52.7650467273398],[-2.39009332182616,52.7648219956379],[-2.39046381371531,52.7648207746282],[-2.39083430557808,52.7648195524614],[-2.39120479741443,52.7648183291377],[-2.39157528922434,52.7648171046569],[-2.39157730803773,52.7650418363001],[-2.39157932687754,52.7652665679346],[-2.39194982242804,52.7652653422674],[-2.39232031795205,52.7652641154431],[-2.39269081344954,52.7652628874619],[-2.39268878895911,52.7650381558715],[-2.39305928254652,52.7650369267479],[-2.39342977610736,52.7650356964673],[-2.39342774787639,52.7648109648978],[-2.39379823952713,52.7648097334749],[-2.3937962094392,52.7645850019114],[-2.39416669917984,52.7645837693463],[-2.39453718889383,52.7645825356241],[-2.39490767858116,52.764581300745],[-2.3952781682418,52.7645800647088],[-2.39528020586367,52.7648047962131],[-2.39528224351222,52.7650295277088],[-2.39491175008458,52.7650307637746],[-2.39454125663025,52.7650319986833],[-2.39454329053838,52.7652567301999],[-2.39417279517384,52.7652579639664],[-2.39417482722503,52.7654826954891],[-2.39380432995029,52.7654839281133],[-2.39343383264893,52.7654851595805],[-2.39343586095953,52.7657098911241],[-2.39343788929666,52.765934622659],[-2.39343991766034,52.7661593541854],[-2.39306941468154,52.7661605845397],[-2.39269891167618,52.7661618137369],[-2.39269688707978,52.7659370821811],[-2.39232638593152,52.7659383102066],[-2.39232840864427,52.7661630417771],[-2.39195790558585,52.7661642686602],[-2.39195588475673,52.7659395370749],[-2.39158538355546,52.7659407627863],[-2.3915833646364,52.7657160311777],[-2.39121286529227,52.7657172557172],[-2.39121488232771,52.7659419873405],[-2.39084438107352,52.7659432107377],[-2.39084639625171,52.766167942367],[-2.39084841145626,52.7663926739877],[-2.39085042668718,52.7666174055997],[-2.39122093359237,52.7666161821585],[-2.39122295073337,52.7668409137472],[-2.39085244194446,52.7668421372031],[-2.39048193312913,52.7668433595019],[-2.3901114242874,52.7668445806437],[-2.3897409154193,52.7668458006283],[-2.38974292499115,52.7670705322677],[-2.38974493442018,52.7672952639003],[-2.38937442174771,52.767296482757],[-2.38937241420976,52.7670717511098],[-2.38900190340197,52.7670729687948],[-2.38900390904884,52.7672977004565],[-2.3886333963236,52.7672989169989],[-2.38863540010569,52.7675236486665],[-2.38900591472203,52.7675224321095],[-2.38937642931201,52.7675212143955],[-2.38937843690265,52.7677459460254],[-2.38974895335735,52.7677447271397],[-2.39011946978563,52.7677435070968],[-2.39012148118493,52.767968238689],[-2.39049199947791,52.7679670174744],[-2.39049401279478,52.7681917490434],[-2.39049602613808,52.7684164806037],[-2.39012550406273,52.7684177018474],[-2.39012751554122,52.7686424334137],[-2.38975699154818,52.7686436535147],[-2.38975900116183,52.7688683850868],[-2.39012952704612,52.7688671649713],[-2.39013153857742,52.7690918965203],[-2.39050206632654,52.7690906752329],[-2.39050407977554,52.7693154067587],[-2.39087460938948,52.7693141842997],[-2.39087662475624,52.7695389158023],[-2.39050609325097,52.7695401382759],[-2.39050810675283,52.7697648697844],[-2.39013757332973,52.7697660911154],[-2.39013958496663,52.7699908226298],[-2.39014159662994,52.7702155541356],[-2.39051213383583,52.7702143327755],[-2.39051414741697,52.7704390642581],[-2.39051616102454,52.7706637957321],[-2.39088670198683,52.7706625731856],[-2.3908846864878,52.7704378417262],[-2.39125522553213,52.7704366180371],[-2.39162576454993,52.7704353931907],[-2.39199630354117,52.7704341671871],[-2.39199428239432,52.7702094357628],[-2.3916237452945,52.7702106617518],[-2.39162172606558,52.7699859303043],[-2.39199226127399,52.7699847043299],[-2.39236279645583,52.7699834771982],[-2.39236481946755,52.7702082086165],[-2.39273535651418,52.770206980313],[-2.39310589353418,52.7702057508522],[-2.39347643052752,52.7702045202342],[-2.39347845924008,52.7704292516],[-2.39310792035531,52.7704304822327],[-2.39310994720305,52.7706552136045],[-2.39273940640017,52.7706564430945],[-2.39274143138304,52.7708811744723],[-2.39237088866206,52.7708824028197],[-2.39200034591447,52.7708836300098],[-2.39200236714091,52.7711083614082],[-2.39163182247524,52.7711095874556],[-2.39126127778301,52.7711108123457],[-2.39089073306424,52.7711120360785],[-2.39052018831897,52.771113258654],[-2.39014964354722,52.7711144800723],[-2.39015165534255,52.7713392115349],[-2.38978110865281,52.7713404318104],[-2.38941056193664,52.7713416509286],[-2.38941256997527,52.7715663824117],[-2.38904202134113,52.7715676003871],[-2.38904402751453,52.771792331876],[-2.38867347696243,52.7717935487087],[-2.38830292638398,52.771794764384],[-2.38793237577919,52.7717959789021],[-2.38793037528053,52.7715712473696],[-2.38755982654102,52.7715724607159],[-2.38755782796018,52.7713477291603],[-2.38718728108594,52.7713489413348],[-2.38681673418544,52.7713501523519],[-2.3868147394139,52.7711254207588],[-2.3864441943787,52.7711266306042],[-2.38607364931731,52.7711278392923],[-2.38570310422973,52.7711290468231],[-2.38533255911599,52.7711302531967],[-2.38496201397612,52.7711314584129],[-2.38496399928999,52.7713561900782],[-2.38459345131912,52.7713573939646],[-2.38422290169868,52.7713585963614],[-2.38385235205208,52.7713597976008],[-2.38385037242395,52.771135065901],[-2.38347982465316,52.7711362659735],[-2.38310927685626,52.7711374648886],[-2.38273872903326,52.7711386626465],[-2.3823681811842,52.771139859247],[-2.38237015320449,52.7713645909849],[-2.38274070295551,52.7713633943749],[-2.38311125268047,52.7713621966075],[-2.38311322853072,52.7715869283178],[-2.38348378013156,52.7715857293836],[-2.38348575790986,52.7718104610758],[-2.38348773571422,52.7720351927594],[-2.38348971354465,52.7722599244344],[-2.3831191562377,52.7722611233972],[-2.38312113219211,52.7724858550732],[-2.38349169140114,52.7724846561009],[-2.3834936692837,52.7727093877587],[-2.38349564719232,52.772934119408],[-2.38386621017947,52.7729329192592],[-2.38423677314048,52.772931717953],[-2.38423875487948,52.7731564495746],[-2.38460931971648,52.7731552471014],[-2.3849798827389,52.7731540430899],[-2.3853504449035,52.7731528377439],[-2.38535243234363,52.7733775693171],[-2.38535441980984,52.7736023008816],[-2.38572498573185,52.7736010943493],[-2.3860955516277,52.7735998866597],[-2.38609754290362,52.7738246181867],[-2.38609953420568,52.7740493497051],[-2.38610152553387,52.7742740812148],[-2.3857309539625,52.7742752889478],[-2.38573294342494,52.7745000204634],[-2.38610351688819,52.774498812716],[-2.38610550826865,52.7747235442084],[-2.38647608359763,52.7747223352891],[-2.38647807689616,52.7749470667585],[-2.38648007022085,52.7751717982193],[-2.38685064930752,52.7751705881136],[-2.38685264454534,52.7753953195151],[-2.38685463979256,52.7756200507869],[-2.3864840569211,52.7756212609157],[-2.38648605030191,52.7758459921893],[-2.38611546551163,52.7758472011709],[-2.38611347402341,52.7756224698869],[-2.38574289109952,52.7756236777006],[-2.38537230814947,52.7756248843568],[-2.38537032047253,52.7754001530434],[-2.3849997393889,52.7754013585317],[-2.38462915755917,52.7754025627028],[-2.38425857369766,52.7754037652715],[-2.38425659170591,52.7751790337828],[-2.38388600972218,52.7751802351844],[-2.38388798980993,52.7754049666827],[-2.38351740589598,52.7754061669365],[-2.38314682195586,52.7754073660327],[-2.38314879822755,52.775632097423],[-2.38351938407535,52.7756308983137],[-2.38352136228085,52.7758556296823],[-2.38389195001018,52.7758544294025],[-2.38389393014954,52.7760791607495],[-2.38426451976039,52.7760779592991],[-2.38463510934501,52.7760767566912],[-2.38463709332603,52.7763014880035],[-2.38426650183366,52.7763026906244],[-2.3842684839331,52.7765274219411],[-2.38463907733326,52.7765262193071],[-2.38464106136669,52.7767509506021],[-2.38427046605873,52.7767521532491],[-2.38389987072453,52.7767533547386],[-2.38352927536413,52.7767545550705],[-2.38315867997754,52.776755754245],[-2.38278808456479,52.7767569522618],[-2.38241748912592,52.7767581491212],[-2.38204689366093,52.7767593448229],[-2.38204886436574,52.7769840762005],[-2.38167826696684,52.7769852707577],[-2.38168023578982,52.7772100021396],[-2.38168220463881,52.7774347335129],[-2.3816841735138,52.7776594648776],[-2.38168614241479,52.7778841962336],[-2.3816881113418,52.7781089275811],[-2.3816900802948,52.7783336589199],[-2.38169204927382,52.7785583902501],[-2.38169401827884,52.7787831215716],[-2.38206463094133,52.7787819269105],[-2.38243524357774,52.7787807310918],[-2.38280585618803,52.7787795341154],[-2.38280783094325,52.7790042653893],[-2.38280980572455,52.7792289966547],[-2.38243918929811,52.7792301936571],[-2.38244116219738,52.7794549249268],[-2.38207054383671,52.7794561207845],[-2.38206857284555,52.7792313895018],[-2.38169795636691,52.7792325841889],[-2.38169992544996,52.7794573154846],[-2.38132930703714,52.7794585090271],[-2.38133127423806,52.7796832403271],[-2.38133324146496,52.7799079716186],[-2.38096261920981,52.7799091640293],[-2.3809645845545,52.7801338953251],[-2.38096654992516,52.7803586266122],[-2.38059592382758,52.7803598178912],[-2.38059788731596,52.7805845491828],[-2.38022725928416,52.780585739317],[-2.3802292208902,52.7808104706128],[-2.37985859092416,52.7808116596023],[-2.37948796093219,52.7808128474341],[-2.3791173309143,52.7808140341081],[-2.37911537503307,52.7805893027735],[-2.37874474689756,52.7805904882769],[-2.3783741187362,52.7805916726227],[-2.37800349054899,52.7805928558107],[-2.37800154041832,52.7803681244288],[-2.37763091411355,52.7803693064462],[-2.377260287783,52.780370487306],[-2.37725834149453,52.7801457558896],[-2.37688771704644,52.7801469355788],[-2.37651709257261,52.7801481141104],[-2.37651515012624,52.7799233826597],[-2.3761445275349,52.7799245600207],[-2.37614646807308,52.7801492914842],[-2.37614840863689,52.7803740229391],[-2.37615034922633,52.7805987543854],[-2.37615228984141,52.7808234858231],[-2.37578165959145,52.7808246620778],[-2.37541102931583,52.7808258371748],[-2.37504039901458,52.780827011114],[-2.37503846412433,52.7806022796378],[-2.37466783570574,52.7806034524066],[-2.37466590274929,52.780378720909],[-2.37429527621337,52.7803798925072],[-2.3739246496519,52.7803810629477],[-2.37355402306489,52.7803822322306],[-2.37355595029659,52.7806069637666],[-2.37392657879185,52.7806057944709],[-2.37429720726157,52.7806046240176],[-2.37429913833528,52.7808293555194],[-2.37430106943449,52.7810540870125],[-2.3743030005592,52.7812788184971],[-2.37393236636458,52.7812799889888],[-2.37356173214442,52.7812811583228],[-2.37319109789875,52.781282326499],[-2.37319302332392,52.7815070580133],[-2.37319494877452,52.7817317895189],[-2.37319687425054,52.781956521016],[-2.373198799752,52.7821812525044],[-2.3732007252789,52.7824059839842],[-2.37283008146573,52.7824071510665],[-2.37282815784729,52.782182419574],[-2.37245751591712,52.7821835854858],[-2.37208687396152,52.7821847502398],[-2.3717162319805,52.782185913836],[-2.37171431411276,52.7819611822966],[-2.3713436740148,52.7819623447224],[-2.37097303389147,52.7819635059904],[-2.37097111986587,52.7817387744169],[-2.37096920586555,52.7815140428348],[-2.37059856953368,52.7815152029196],[-2.37022793317651,52.7815163618467],[-2.37022602301817,52.7812916302306],[-2.36985538854407,52.7812927879872],[-2.36948475404472,52.7812939445862],[-2.36948284772827,52.781069212936],[-2.36911221511202,52.7810703683646],[-2.36911031072906,52.7808456366932],[-2.36910840637125,52.7806209050132],[-2.36873777754638,52.7806220592586],[-2.36873587512197,52.7803973275574],[-2.36910650203858,52.7803961733245],[-2.36910459773107,52.7801714416273],[-2.3691026934487,52.7799467099214],[-2.36947331652367,52.7799455545563],[-2.36984393957342,52.7799443980334],[-2.36984584767219,52.7801691297139],[-2.37021647260489,52.7801679720207],[-2.37058709751231,52.7801668131698],[-2.37058900945275,52.7803915448163],[-2.37095963624309,52.7803903847951],[-2.37095772239443,52.7801656531613],[-2.37095580857104,52.7799409215188],[-2.37095389477293,52.7797161898678],[-2.3709519810001,52.7794914582082],[-2.37132260013236,52.77949029708],[-2.37132068447667,52.7792655654245],[-2.37131876884628,52.7790408337603],[-2.37131685324119,52.7788161020875],[-2.37131493766139,52.7785913704061],[-2.3713130221069,52.7783666387161],[-2.3713111065777,52.7781419070175],[-2.37168171423623,52.7781407448081],[-2.37205232186938,52.778139581441],[-2.37205040254953,52.7779148497592],[-2.37204848325503,52.7776901180688],[-2.37204656398588,52.7774653863698],[-2.37241716586979,52.7774642218834],[-2.37241524471808,52.7772394901885],[-2.37278584466867,52.7772383245573],[-2.37278392163447,52.7770135928665],[-2.37315451965174,52.7770124260905],[-2.37315259473508,52.7767876944039],[-2.37352319081903,52.7767865264831],[-2.37352126401998,52.7765617948006],[-2.37351933724637,52.7763370631095],[-2.37314874497803,52.7763382310048],[-2.37314682013763,52.7761134992923],[-2.37314489532266,52.7758887675712],[-2.37277430684436,52.7758899342834],[-2.37277238396253,52.7756652025409],[-2.37277046110608,52.7754404707899],[-2.37239987641775,52.7754416363191],[-2.37239795538167,52.7752169045104],[-2.37202737257368,52.7752180688717],[-2.372029291704,52.7754428006908],[-2.37165870696486,52.775443963905],[-2.37166062409822,52.7756686956943],[-2.37129003742601,52.7756698577638],[-2.37129195267697,52.7758945895572],[-2.3709213640717,52.7758957504819],[-2.3709232774402,52.7761204822794],[-2.37055268690186,52.7761216420593],[-2.37018209633822,52.7761228006817],[-2.36981150574932,52.7761239581465],[-2.36980959810406,52.7758992263109],[-2.36980769048398,52.7756744944667],[-2.36943710368531,52.7756756507487],[-2.36943519799812,52.7754509188832],[-2.3698057828891,52.7754497626139],[-2.36980387519447,52.7752250307314],[-2.36980196741378,52.7750002988217],[-2.36943138633133,52.7750014550712],[-2.36942948047816,52.7747767231438],[-2.36980005965822,52.7747755669035],[-2.36979815192781,52.7745508349766],[-2.37016872918033,52.774549677588],[-2.37016681957272,52.7743249456618],[-2.36979624422252,52.7743261030412],[-2.36942566884714,52.7743272592631],[-2.36942376306929,52.7741025273099],[-2.36905318957105,52.7741036823652],[-2.36905509344659,52.7743284143276],[-2.36868451802091,52.7743295682346],[-2.3686864200192,52.7745543001975],[-2.36831584266608,52.7745554529562],[-2.36831774278708,52.7747801849197],[-2.36794716343849,52.7747813365765],[-2.36794526522266,52.7745566046049],[-2.36757468761264,52.7745577551995],[-2.36720410997745,52.7745589046365],[-2.36720600436362,52.7747836366243],[-2.36683542478847,52.7747847849119],[-2.36683731728487,52.7750095168992],[-2.36646673576975,52.7750106640374],[-2.36609615422954,52.7750118100181],[-2.36609804292124,52.7752365420129],[-2.36572745944108,52.7752376868442],[-2.36535687593589,52.7752388305178],[-2.36535499107395,52.7750140985069],[-2.36498440945863,52.775015241015],[-2.36498252653651,52.7747905089875],[-2.36461194681105,52.7747916503301],[-2.3646100658287,52.7745669182859],[-2.36460818487125,52.7743421862332],[-2.36423760895047,52.7743433264022],[-2.36423572993271,52.7741185943329],[-2.36423385093983,52.7738938622551],[-2.36386327882366,52.7738950012506],[-2.36386140177039,52.7736702691561],[-2.36385952474197,52.7734455370531],[-2.36348895643033,52.7734466748752],[-2.36348708134145,52.7732219427556],[-2.36348520627739,52.7729972106274],[-2.36348333123816,52.7727724784907],[-2.36311276864561,52.7727736151314],[-2.36311089554581,52.7725488829781],[-2.36310902247082,52.7723241508162],[-2.36310714942062,52.7720994186458],[-2.36273659254696,52.7721005541051],[-2.36273472143609,52.7718758219181],[-2.36273285035,52.7716510897226],[-2.36273097928868,52.7714263575185],[-2.36272910825214,52.7712016253058],[-2.36272723724037,52.7709768930846],[-2.36309778454165,52.7709757576652],[-2.36309591164024,52.7707510254434],[-2.36272536625337,52.7707521608548],[-2.36235482084167,52.7707532951089],[-2.36198427540517,52.7707544282056],[-2.3619824082717,52.7705296959513],[-2.3616118647248,52.7705308278827],[-2.3616137299439,52.770755560145],[-2.36161559518769,52.7709802923986],[-2.36124504778726,52.7709814231886],[-2.36124318445787,52.770756690927],[-2.36087263894713,52.7707578205517],[-2.36050209341168,52.770758949019],[-2.36013154785156,52.770760076329],[-2.36012969028999,52.7705353440351],[-2.3597591466196,52.7705364701798],[-2.35938860292459,52.7705375951672],[-2.35901805920499,52.7705387189973],[-2.35864751546081,52.7705398416701],[-2.35827697169209,52.7705409631855],[-2.35790642789885,52.7705420835436],[-2.35753588408111,52.7705432027443],[-2.35753403994463,52.7703184703866],[-2.35716349801678,52.7703195884222],[-2.35716165581904,52.7700948560482],[-2.35753219583256,52.7700937380204],[-2.3575303517449,52.7698690056456],[-2.35715981364569,52.7698701236655],[-2.35715797149673,52.7696453912743],[-2.35752850768166,52.7696442732623],[-2.35752666364283,52.7694195408703],[-2.35789719788903,52.7694184217088],[-2.35789535196039,52.7691936893162],[-2.35826588426786,52.7691925690052],[-2.35863641655083,52.769191447537],[-2.35863826630793,52.7694161799139],[-2.35864011608952,52.7696409122823],[-2.35826957997808,52.7696420337663],[-2.35827142786988,52.7698667661339],[-2.35864196589561,52.7698656446421],[-2.35864381572619,52.7700903769933],[-2.35901435564167,52.7700892543363],[-2.35901250389679,52.769864521993],[-2.35901065217643,52.7696397896411],[-2.35900880048058,52.7694150572806],[-2.35900694880924,52.7691903249115],[-2.35937748104309,52.7691892011287],[-2.35937562748207,52.768964468759],[-2.35974615777712,52.7689633438269],[-2.35974430232646,52.7687386114564],[-2.36011483068272,52.7687374853749],[-2.36048535901433,52.7687363581361],[-2.36048349975994,52.768511625773],[-2.36085402615273,52.7685104973848],[-2.36085216500882,52.768285765021],[-2.36122268946279,52.7682846354836],[-2.36122455252083,52.7685093678394],[-2.36122641560353,52.7687341001868],[-2.36085588732128,52.7687352297401],[-2.36085774851447,52.7689599620867],[-2.36122827871089,52.7689588325255],[-2.36123014184293,52.7691835648557],[-2.36123200499963,52.7694082971773],[-2.36160253899976,52.7694071664429],[-2.36160440409538,52.769631898748],[-2.3616062692157,52.7698566310445],[-2.36160813436071,52.7700813633325],[-2.36160999953041,52.7703060956119],[-2.36198054116295,52.7703049636884],[-2.36197867407892,52.770080231417],[-2.36197680701961,52.769855499137],[-2.36197493998502,52.7696307668484],[-2.36234547584988,52.7696296337915],[-2.36234734479875,52.7698543660721],[-2.36271788255309,52.7698532318499],[-2.36308842028261,52.7698520964704],[-2.36308654750519,52.7696273642057],[-2.36345708329559,52.7696262276769],[-2.36345520862872,52.7694014954117],[-2.36345333398666,52.7691767631378],[-2.36345145936943,52.7689520308555],[-2.36344958477702,52.7687272985645],[-2.36307905664347,52.7687284350613],[-2.36270852848507,52.7687295704009],[-2.36270665774578,52.7685048380854],[-2.36270478703125,52.7682801057614],[-2.36307531136137,52.7682789704377],[-2.36307343875751,52.7680542381131],[-2.36270291634148,52.7680553734287],[-2.36270104567649,52.7678306410875],[-2.36233052514971,52.767831775238],[-2.36196000459814,52.7678329082313],[-2.36195813778601,52.7676081758656],[-2.36158761912372,52.7676093076936],[-2.36158575425032,52.7673845753114],[-2.36158388940161,52.7671598429206],[-2.36195440423588,52.7671587111084],[-2.36195253752267,52.7669339787755],[-2.36158202459825,52.766935110578],[-2.3615801598594,52.7667103783364],[-2.36120964881326,52.7667115089713],[-2.36121151164919,52.7669362412234],[-2.36084099867553,52.7669373707116],[-2.36084285965887,52.7671621030734],[-2.36047234475045,52.767163231414],[-2.36047048567729,52.7669384990426],[-2.36046862664717,52.7667137667696],[-2.36046676764155,52.766489034488],[-2.36009625842455,52.7664901616409],[-2.36009440134628,52.7662654293403],[-2.3600925442925,52.766040697031],[-2.36009068726319,52.7658159647131],[-2.36008883025835,52.7655912323867],[-2.3597183286281,52.7655923583408],[-2.35971647355049,52.7653676259953],[-2.35971461849733,52.7651428936412],[-2.35971276346863,52.7649181612785],[-2.35971090846436,52.7646934289072],[-2.35970905348455,52.7644686965273],[-2.36007954560127,52.7644675706255],[-2.36007768874327,52.7642428382475],[-2.36007583190974,52.7640181058609],[-2.35970534359826,52.7640192317418],[-2.35933485526227,52.7640203564658],[-2.35933300225838,52.7637956240497],[-2.3593311492789,52.763570891625],[-2.35896066472358,52.7635720151711],[-2.35895881367105,52.7633472827274],[-2.35895696264292,52.7631225502751],[-2.35895511163918,52.7628978178142],[-2.35895326065984,52.7626730853447],[-2.35858278369004,52.7626742076921],[-2.35858093463752,52.7624494752036],[-2.35857908560936,52.7622247427065],[-2.35857723660557,52.7620000102009],[-2.35894770786816,52.7619988878847],[-2.35894585698638,52.7617741553809],[-2.35931632632217,52.7617730319182],[-2.35968679563349,52.7617719072986],[-2.36005726492031,52.761770781522],[-2.36042773418261,52.7617696545885],[-2.36042587571592,52.7615449221178],[-2.36079634305135,52.7615437940379],[-2.36116681036221,52.7615426648009],[-2.3611649481154,52.7613179323426],[-2.36153541349937,52.7613168019592],[-2.36190587885871,52.7613156704189],[-2.36227634419342,52.7613145377217],[-2.36227821214712,52.7615392701486],[-2.36190774491012,52.7615404028563],[-2.36153727764848,52.7615415344071],[-2.36153914182215,52.7617662668464],[-2.36190961098612,52.7617651352851],[-2.36228008012544,52.7617640025669],[-2.3626505492401,52.7617628686917],[-2.36302101833005,52.7617617336596],[-2.36339148739529,52.7617605974706],[-2.36376195643577,52.7617594601246],[-2.36413242545149,52.7617583216217],[-2.3645028944424,52.7617571819619],[-2.36450477385944,52.7619819143084],[-2.36450665330124,52.7622066466463],[-2.3641361805056,52.7622077863273],[-2.36376570768517,52.7622089248513],[-2.36339523483996,52.7622100622183],[-2.36339710859934,52.7624347945793],[-2.36376758334695,52.7624336572017],[-2.36376945903344,52.7626583895436],[-2.36377133474466,52.7628831218768],[-2.3637732104806,52.7631078542015],[-2.36414369091078,52.7631067156353],[-2.36451417131616,52.7631055759121],[-2.36451605088182,52.7633303082071],[-2.36488653316488,52.7633291673163],[-2.36525701542308,52.7633280252686],[-2.36525513205242,52.7631032929948],[-2.36562561238324,52.7631021498006],[-2.36599609268917,52.7631010054494],[-2.36636657297017,52.7630998599413],[-2.36673705322621,52.7630987132761],[-2.36710753345728,52.7630975654539],[-2.36710942634042,52.7633222976748],[-2.36711131924852,52.763547029887],[-2.36711321218156,52.7637717620906],[-2.36748369809518,52.7637706130796],[-2.36748559295575,52.763995345264],[-2.36785608074692,52.7639941950853],[-2.36785418398378,52.7637694629115],[-2.36822466986749,52.7637683116288],[-2.36822277122157,52.7635435794539],[-2.36822087260079,52.7633188472705],[-2.36859135465689,52.7633176948937],[-2.36858945414725,52.7630929627063],[-2.36858755366278,52.7628682305103],[-2.36895803186567,52.7628670769854],[-2.3689561294924,52.7626423447853],[-2.36895422714433,52.7624176125767],[-2.36932470149408,52.7624164579038],[-2.36932279725729,52.7621917256912],[-2.36932089304572,52.76196699347],[-2.36931898885937,52.7617422612404],[-2.36931708469824,52.7615175290021],[-2.36931518056231,52.7612927967554],[-2.36931327645161,52.7610680645001],[-2.36968373929303,52.7610669086972],[-2.36968183329378,52.7608421764379],[-2.36967992731978,52.76061744417],[-2.36967802137101,52.7603927118937],[-2.36967611544749,52.7601679796087],[-2.37004657060875,52.760166822667],[-2.37004847844595,52.7603915549474],[-2.37041893549558,52.7603903968441],[-2.37042084527175,52.7606151291114],[-2.37042275507321,52.7608398613702],[-2.37079321592492,52.7608387021009],[-2.37079512766543,52.7610634343467],[-2.37116559040552,52.7610622739159],[-2.37116750408512,52.7612870061485],[-2.3715379687136,52.7612858445562],[-2.37153988433234,52.7615105767758],[-2.3719103508492,52.7615094140219],[-2.37191226840714,52.7617341462284],[-2.37228273681238,52.7617329823129],[-2.37228465630957,52.7619577145063],[-2.37265512660319,52.7619565494292],[-2.37265320519215,52.7617318172405],[-2.37302367354642,52.761730651011],[-2.37339414187516,52.7617294836246],[-2.37339221666191,52.7615047514365],[-2.37376268305129,52.7615035828977],[-2.37376075594973,52.7612788507057],[-2.37413122039973,52.7612776810145],[-2.37450168482413,52.7612765101663],[-2.37449975392054,52.761051777975],[-2.37487021640554,52.7610506059745],[-2.37486828361378,52.7608258737793],[-2.37523874415939,52.7608247006265],[-2.37560920467931,52.7608235263167],[-2.3756072680857,52.7605987941223],[-2.3752368094795,52.7605999684274],[-2.37523487482523,52.7603752362198],[-2.37560533151774,52.7603740619193],[-2.37560339497542,52.7601493297078],[-2.37597384972856,52.7601481542551],[-2.37597191129824,52.7599234220397],[-2.37634236411202,52.7599222454347],[-2.37671281690004,52.7599210676728],[-2.37671087466815,52.7596963354582],[-2.37708132551678,52.7596951565441],[-2.37707938139702,52.7594704243257],[-2.37744983030626,52.7594692442593],[-2.37744788429868,52.7592445120371],[-2.37744593831686,52.7590197798064],[-2.37781638337317,52.7590185985926],[-2.37781443550361,52.758793866358],[-2.37818487862055,52.758792683992],[-2.37818292889734,52.7585679517974],[-2.37781248768583,52.7585691341549],[-2.3778105399208,52.7583444019847],[-2.37744010058135,52.7583455831738],[-2.37706966121624,52.7583467632062],[-2.37706771727227,52.7581220310044],[-2.37669727977925,52.7581232098684],[-2.37632684226062,52.7581243875757],[-2.37595640471641,52.7581255641261],[-2.3759544664911,52.7579008318811],[-2.37558403081903,52.7579020072634],[-2.37521359512143,52.7579031814888],[-2.37521166071696,52.7576784492122],[-2.37520972633795,52.757453716927],[-2.37520779198438,52.7572289846332],[-2.37483736195421,52.7572301576675],[-2.37446693189855,52.757231329545],[-2.37446500136563,52.7570065972196],[-2.3744630708581,52.7567818648857],[-2.37446114037597,52.7565571325431],[-2.37445920991925,52.756332400192],[-2.37445727948792,52.7561076678322],[-2.37408685889453,52.7561088384956],[-2.37408493038607,52.7558841061158],[-2.37371451166472,52.7558852756111],[-2.37371258507908,52.7556605432112],[-2.37371065851877,52.7554358108028],[-2.37408107344525,52.7554346413303],[-2.37445148834631,52.7554334707013],[-2.37482190322191,52.7554322989155],[-2.37481997099477,52.7552075665328],[-2.37519038394751,52.7552063936019],[-2.37518844984843,52.754981661222],[-2.3755588608783,52.7549804871459],[-2.37592927188264,52.7549793119132],[-2.37593120977646,52.75520404427],[-2.37630162265262,52.7552028678691],[-2.37630356246932,52.7554276002059],[-2.3766739772173,52.7554264226368],[-2.37667591895694,52.7556511549534],[-2.37704633557673,52.7556499762162],[-2.37704827923936,52.7558747085127],[-2.37741869773097,52.7558735286072],[-2.37742064331663,52.7560982608836],[-2.37779106368005,52.7560970798099],[-2.37816148401779,52.7560958975795],[-2.37816343342404,52.7563206298241],[-2.37853385563356,52.7563194464255],[-2.37890427781736,52.7563182618701],[-2.37927469997541,52.7563170761581],[-2.37927665509984,52.7565418083594],[-2.37964707912962,52.7565406214791],[-2.38001750313359,52.756539433442],[-2.38001946207884,52.7567641656116],[-2.38002142104986,52.7569888977725],[-2.3803918488231,52.7569877085555],[-2.38076227657049,52.7569865181818],[-2.38076031380434,52.7567617860441],[-2.38075835106403,52.7565370538978],[-2.38075638834954,52.7563123217429],[-2.38112681037844,52.7563111302473],[-2.38112484579229,52.7560863980954],[-2.38149526589779,52.7560852054548],[-2.38149329944004,52.7558604733059],[-2.38186371762216,52.7558592795202],[-2.38186174929284,52.7556345473744],[-2.38223216555157,52.7556333524437],[-2.38223019535074,52.7554086203009],[-2.38260060968609,52.7554074242252],[-2.38297102399542,52.7554062269928],[-2.38334143827873,52.7554050286038],[-2.38371185253599,52.7554038290581],[-2.38408226676717,52.7554026283558],[-2.38445268097224,52.7554014264968],[-2.38482309486633,52.7554002234568],[-2.38519350793098,52.7553990191917],[-2.38556392096952,52.7553978137699],[-2.3855659082241,52.7556225458106],[-2.38593632312637,52.7556213392221],[-2.3859383122969,52.7558460712442],[-2.38556789550474,52.7558472778428],[-2.38556988281146,52.7560720098664],[-2.38557187014425,52.7562967418814],[-2.38594229071625,52.7562955352626],[-2.38631271126209,52.7562943274871],[-2.38668313178175,52.7562931185548],[-2.38705355227522,52.7562919084659],[-2.38742397274246,52.7562906972202],[-2.38742197596002,52.7560659652557],[-2.38779239451108,52.7560647528635],[-2.38816281303586,52.7560635393145],[-2.38816081249981,52.7558388073617],[-2.38853122910839,52.7558375926662],[-2.38852922670872,52.7556128607149],[-2.38889964140109,52.7556116448729],[-2.38889763713784,52.7553869129232],[-2.38926804991401,52.7553856959346],[-2.38926604378723,52.7551609639865],[-2.38926403768677,52.7549362320298],[-2.38963444665695,52.7549350139048],[-2.38963645464721,52.7551597458514],[-2.38963846266382,52.7553844777893],[-2.38964047070677,52.7556092097187],[-2.38964247877608,52.7558339416395],[-2.38964448687173,52.7560586735516],[-2.3892740684523,52.7560598917274],[-2.38927607468438,52.7562846236411],[-2.38927808094278,52.7565093555463],[-2.3889076587171,52.7565105725857],[-2.38890966311185,52.7567353044925],[-2.38891166753291,52.7569600363906],[-2.38891367198026,52.7571847682801],[-2.38854324405822,52.7571859841933],[-2.38817281610985,52.7571871989497],[-2.38780238813517,52.7571884125493],[-2.38743196013422,52.7571896249922],[-2.38742996324698,52.7569648930621],[-2.3870595371098,52.7569661043381],[-2.38706153210702,52.7571908362784],[-2.38669110405358,52.7571920464078],[-2.38669309718692,52.7574167783495],[-2.3866950903464,52.7576415102827],[-2.38669708353204,52.7578662422073],[-2.38632664978216,52.7578674512102],[-2.3859562160061,52.7578686590564],[-2.38595820543763,52.7580933909925],[-2.38596019489526,52.7583181229201],[-2.38596218437899,52.7585428548391],[-2.38596417401565,52.758767586826],[-2.38559373265743,52.7587687935585],[-2.38559572063232,52.7589935256689],[-2.3855977086332,52.7592182577706],[-2.38559969666009,52.7594429898638],[-2.38597014366693,52.7594417830876],[-2.38634059064769,52.7594405751546],[-2.38671103760235,52.7594393660648],[-2.38708148453087,52.7594381558182],[-2.38745193143324,52.7594369444149],[-2.38745392890074,52.7596616764265],[-2.38782437765984,52.7596604638517],[-2.38782637703641,52.7598851958401],[-2.38782837643914,52.7601099278198],[-2.38783037586801,52.7603346597909],[-2.38783237532304,52.7605593917534],[-2.387461919032,52.7605606043866],[-2.38746391663014,52.760785336355],[-2.38746591425441,52.7610100683148],[-2.38746791190481,52.7612348002659],[-2.38783837384506,52.761233587589],[-2.38784037340471,52.7614583195169],[-2.38784237299051,52.7616830514361],[-2.38784437260247,52.7619077833468],[-2.38784637224059,52.7621325152487],[-2.38784837190487,52.7623572471421],[-2.3878503715953,52.7625819790268],[-2.38785237131189,52.7628067109029],[-2.38785437105464,52.7630314427703],[-2.38785637082355,52.7632561746291],[-2.38785837061862,52.7634809064792],[-2.38822885136499,52.7634796924993],[-2.38859933208513,52.7634784773624],[-2.388969812779,52.7634772610686],[-2.38934029344659,52.7634760436178],[-2.38971077408786,52.76347482501],[-2.38971278332594,52.7636995567783],[-2.3897147925903,52.7639242885381]]],[[[-2.35716349801678,52.7703195884222],[-2.35716534023891,52.7705443207877],[-2.35753588408111,52.7705432027443],[-2.35753772824202,52.7707679350934],[-2.35716718248543,52.7707690531446],[-2.35716902475634,52.770993785493],[-2.3567984770609,52.7709949023947],[-2.3567966367044,52.7707701700385],[-2.35642609089895,52.7707712857751],[-2.35642792934104,52.7709960181391],[-2.35605738159678,52.7709971327261],[-2.3560555450691,52.7707724003543],[-2.35605370856574,52.7705476679739],[-2.3564242524812,52.7705465534025],[-2.35642241408778,52.7703218210214],[-2.35605187208668,52.770322935585],[-2.35568133006122,52.7703240489912],[-2.35567949552081,52.7700993165859],[-2.3556776610047,52.769874584172],[-2.35604819920152,52.7698734707814],[-2.35641873737398,52.7698723562334],[-2.35642057571871,52.7700970886317],[-2.35679111578109,52.7700959729186],[-2.35679295606449,52.7703207053005],[-2.35716349801678,52.7703195884222]]],[[[-2.36869402814053,52.7754532279493],[-2.36906461308193,52.775452073995],[-2.36906651686141,52.7756768058731],[-2.36906842066603,52.7759015377427],[-2.36869783190922,52.7759026917223],[-2.36869593001232,52.7756779598401],[-2.36832534313806,52.7756791126496],[-2.36795475616533,52.775680264344],[-2.36795285810814,52.7754555324288],[-2.36832344317398,52.7754543807461],[-2.36832154310419,52.775229648821],[-2.36869212616446,52.7752284960348],[-2.36869402814053,52.7754532279493]]],[[[-2.39111003578372,52.7542559340699],[-2.39073963258854,52.7542571567908],[-2.39073761903457,52.7540324248404],[-2.39036721770261,52.7540336463945],[-2.39036922936688,52.754258378355],[-2.39037124105755,52.754483110307],[-2.39037325277461,52.7547078422503],[-2.39000284574704,52.7547090626783],[-2.38963243869303,52.7547102819497],[-2.38963043075547,52.754485549986],[-2.38962842284425,52.7542608180137],[-2.38962641495938,52.7540360860328],[-2.38925601354815,52.754037304117],[-2.3892540075793,52.7538125721173],[-2.38925200163677,52.753587840109],[-2.38962239926867,52.7535866220452],[-2.38962039146283,52.7533618900385],[-2.38961838368334,52.7531371580232],[-2.38998877750962,52.7531359388231],[-2.38999078717871,52.7533606708282],[-2.39036118286817,52.7533594504613],[-2.39073157853119,52.7533582289379],[-2.39073359200589,52.753582960914],[-2.39110398953206,52.7535817382237],[-2.39110600492284,52.753806470181],[-2.39147640431215,52.753805246324],[-2.39184680367495,52.7538040213103],[-2.39184882287151,52.7540287532385],[-2.39185084209457,52.7542534851582],[-2.39148043895241,52.7542547101924],[-2.39111003578372,52.7542559340699]]],[[[-2.39198619807219,52.7693105099792],[-2.39235672757997,52.7693092828913],[-2.39272725706115,52.7693080546462],[-2.39272523226433,52.7690833232079],[-2.39309575982758,52.7690820938202],[-2.39309778651569,52.7693068252439],[-2.39346831594359,52.7693055946844],[-2.39347034454963,52.7695303260848],[-2.39309981323041,52.7695315566589],[-2.39310183997173,52.7697562880653],[-2.39310386673965,52.7699810194631],[-2.39273333161105,52.7699822489093],[-2.39273130673451,52.7697575174969],[-2.39236077347065,52.7697587457712],[-2.39235875051204,52.7695340143356],[-2.39198821911293,52.7695352414381],[-2.39198619807219,52.7693105099792]]],[[[-2.39527205553615,52.7639058701439],[-2.39527001802092,52.763681138605],[-2.39526798053236,52.7634564070575],[-2.39526594307046,52.7632316755013],[-2.39563642140399,52.7632304383969],[-2.39600689971078,52.7632292001355],[-2.39600894093935,52.7634539316621],[-2.39601098219464,52.7636786631801],[-2.39601302347663,52.7639033946894],[-2.39601506478534,52.76412812619],[-2.39601710612077,52.764352857682],[-2.39564661839704,52.7643540960174],[-2.39527613064658,52.7643553331958],[-2.39527409307803,52.7641306016742],[-2.39527205553615,52.7639058701439]]]]}}