{"type":"Feature","properties":{"code":"E63004286","name":"Peldon"},"geometry":{"type":"MultiPolygon","coordinates":[[[[0.884225786398033,51.809265151475],[0.884240125510439,51.8094896457866],[0.884254464809696,51.8097141400865],[0.883892304051084,51.8097230264337],[0.883530143105692,51.8097319116666],[0.883167981973542,51.8097407957854],[0.88280582065466,51.80974967879],[0.882791488536187,51.8095251841974],[0.882429328825798,51.8095340660147],[0.882067168928725,51.8095429467178],[0.881705008844993,51.8095518263067],[0.881342848578667,51.8095607048442],[0.880980688126868,51.8095695822843],[0.880618527488532,51.80957845861],[0.880632848837447,51.8098029536338],[0.880647170372926,51.810027448646],[0.88100933460033,51.8100185721773],[0.881371498641193,51.8100096945943],[0.881733662497387,51.8100008159193],[0.881747989603623,51.8102253107082],[0.881385823952378,51.8102341894523],[0.881400149450181,51.8104586842987],[0.881037981820162,51.8104675620247],[0.881052305709975,51.8106920569312],[0.880690136098791,51.8107009336143],[0.880675814003595,51.8104764386363],[0.880313646000503,51.8104853141335],[0.880299325886478,51.8102608190727],[0.879937159491485,51.8102696933842],[0.879574992910015,51.8102785665813],[0.879589309434838,51.810503061785],[0.879603626146166,51.8107275569773],[0.879965796316863,51.8107186836373],[0.879980115009349,51.8109431787468],[0.880342286788211,51.810934304221],[0.880356607461902,51.8111587992475],[0.880718780848922,51.8111499235359],[0.880733103503862,51.8113744184796],[0.880747426345392,51.8115989134118],[0.880761749373514,51.8118234083326],[0.880776072588229,51.8120479032419],[0.880413892022312,51.8120567792394],[0.880428213628843,51.8122812742088],[0.880442535421951,51.8125057691667],[0.880456857401642,51.8127302641132],[0.880094671264774,51.8127391392106],[0.880108991636192,51.8129636342171],[0.880123312194175,51.8131881292122],[0.880485501920777,51.8131792539719],[0.88049982446023,51.8134037488841],[0.880514147186276,51.8136282437849],[0.880876340316159,51.8136193672872],[0.881238533259471,51.8136104896751],[0.881224206943584,51.8133859949173],[0.881586397905389,51.8133771162622],[0.881948588695606,51.8133682365383],[0.881934258975315,51.8131437419114],[0.882296447785208,51.8131348611522],[0.882310779301081,51.8133593557061],[0.882672969719842,51.8133504737595],[0.882687303218084,51.8135749682286],[0.883049495245707,51.8135660850945],[0.883411687086564,51.8135572008461],[0.88342602436284,51.8137816951574],[0.883788217812526,51.8137728097214],[0.883802557071285,51.8139973039479],[0.884164752129793,51.8139884173245],[0.88417909337108,51.8142129114662],[0.884541290038403,51.8142040236552],[0.884555633262265,51.8144285177121],[0.884193434799262,51.8144374055963],[0.883831236149411,51.8144462923661],[0.883469037312735,51.8144551780215],[0.88310683828926,51.8144640625626],[0.88312117451721,51.8146885569007],[0.883135510931992,51.8149130512272],[0.882773308130282,51.8149219348002],[0.882787642936136,51.8151464291883],[0.882801977928805,51.8153709235648],[0.882816313108292,51.8155954179298],[0.88317852129736,51.8155865341373],[0.8831928584595,51.8158110284175],[0.883555068257603,51.8158021434374],[0.883569407402443,51.8160266376329],[0.883931618809577,51.8160177514652],[0.884293830029863,51.816008864183],[0.884656041063278,51.8159999757865],[0.8846416965309,51.8157754818106],[0.884627352185461,51.8155509878231],[0.884613008026959,51.8153264938241],[0.884598664055392,51.8151019998134],[0.884584320270757,51.8148775057913],[0.884569976673049,51.8146530117575],[0.88493217674488,51.8146441226858],[0.885294376629816,51.8146352324997],[0.885308723818967,51.814859726387],[0.885670925312699,51.8148508350134],[0.885685274484565,51.8150753288159],[0.885699623843432,51.8152998226069],[0.885713973389303,51.8155243163862],[0.885728323122183,51.8157488101541],[0.885366114445351,51.8157577018206],[0.885380462569407,51.8159821956501],[0.885394810880453,51.816206689468],[0.885757023148975,51.816197797655],[0.886119235230531,51.8161889047275],[0.886133587320327,51.8164133983873],[0.886147939597169,51.8166378920356],[0.886162292061056,51.8168623856723],[0.886524509343312,51.8168534914106],[0.886538863790193,51.8170779849625],[0.886901082681366,51.8170690895131],[0.887263301385491,51.8170601929493],[0.887248943346733,51.816835699544],[0.887234585495094,51.8166112061271],[0.887220227830574,51.8163867126986],[0.887205870353165,51.8161622192585],[0.887191513062867,51.8159377258069],[0.887177155959676,51.8157132323436],[0.88716279904359,51.8154887388689],[0.887525004989594,51.8154798417035],[0.887510646464837,51.8152553482904],[0.887872850428,51.815246450084],[0.88785849029462,51.8150219567326],[0.8874962881272,51.8150308548657],[0.887481929976681,51.8148063614294],[0.887467572013276,51.8145818679816],[0.887829770589277,51.814572969995],[0.887815411017309,51.8143484766088],[0.888177607610554,51.8143395775812],[0.888163246430069,51.8141150842567],[0.888525441040566,51.814106184188],[0.888511078251611,51.8138816909253],[0.888496715649826,51.813657197651],[0.888134524630548,51.8136660975731],[0.888120164011507,51.8134416042139],[0.887757974600712,51.8134505029484],[0.887743615964367,51.8132260095044],[0.888105803579606,51.8132171108432],[0.888091443334844,51.8129926174608],[0.888453628967468,51.8129837177586],[0.888467991007757,51.8132082110676],[0.888830178248799,51.8131993101778],[0.889192365302707,51.8131904081737],[0.889177999671369,51.8129659150112],[0.8895401847426,51.8129570119661],[0.889525817502972,51.8127325188654],[0.88951145045057,51.8125080257531],[0.889873631743662,51.8124991217404],[0.889859263083035,51.8122746286898],[0.889497083585388,51.8122835326292],[0.889482716907426,51.8120590394938],[0.889120539018036,51.8120679422456],[0.888758360941505,51.8120768438832],[0.888396182677856,51.8120857444065],[0.888381821573324,51.8118612510396],[0.888367460655935,51.811636757661],[0.88872963532879,51.8116278572843],[0.888715272803178,51.8114033639675],[0.889077445493563,51.8113944625498],[0.889091809814534,51.8116189557933],[0.889453984113143,51.8116100531881],[0.889468350416679,51.8118345463467],[0.889830526323504,51.811825642554],[0.890192702043146,51.811816737647],[0.890554877575579,51.8118078316257],[0.890917052920781,51.8117989244902],[0.890902679435763,51.811574431625],[0.890888306138046,51.8113499387481],[0.890526134383553,51.8113588457369],[0.890511763068454,51.8111343527751],[0.890873933027628,51.8111254458597],[0.891236102799557,51.81111653783],[0.891598272384218,51.8111076286862],[0.891960441781588,51.8110987184281],[0.891946063472597,51.8108742257482],[0.892308230887368,51.8108653144493],[0.892670398114805,51.8108564020363],[0.892656016402659,51.8106319094915],[0.892641634877918,51.8104074169352],[0.893003798327514,51.8103985035547],[0.89298941519497,51.8101740110602],[0.893351576661985,51.810165096639],[0.893337191921682,51.8099406042063],[0.893699351406127,51.8099316887443],[0.894061510703156,51.8099227721682],[0.894047122559991,51.8096982798707],[0.894032734604311,51.8094737875617],[0.893670578897559,51.8094827039909],[0.8933084230034,51.8094916193061],[0.893322807368821,51.809716111762],[0.892960649492142,51.8097250260364],[0.892598491428099,51.8097339391966],[0.892612872390641,51.8099584317877],[0.892250712344092,51.8099673439072],[0.892265091698844,51.8101918365601],[0.891902929669783,51.8102007476389],[0.891540767453419,51.8102096576034],[0.891178605049776,51.8102185664538],[0.890816442458878,51.81022747419],[0.890830814820135,51.8104519671248],[0.890468650246779,51.8104608738202],[0.890454279680749,51.8102363808121],[0.890439909301979,51.8100118877924],[0.890077748131846,51.8100207932269],[0.889715586774532,51.8100296975473],[0.889353425230058,51.8100386007535],[0.888991263498448,51.8100475028455],[0.889005626696375,51.8102719961585],[0.888643462982434,51.8102808972096],[0.888281299081401,51.8102897971466],[0.888295658876006,51.8105142905946],[0.887933492992655,51.8105231894907],[0.88794785117911,51.8107476830004],[0.887585683313436,51.8107565808556],[0.887571326922254,51.8105320872726],[0.887556970718151,51.810307593678],[0.88754261470112,51.8100831000718],[0.887180452034181,51.810091996593],[0.886818289180247,51.810100892],[0.88645612613934,51.8101097862928],[0.886093962911484,51.8101186794714],[0.885731799496701,51.8101275715358],[0.885717452642814,51.8099030775518],[0.885703105975879,51.8096785835563],[0.886065265800242,51.8096696916383],[0.886050917525078,51.8094451977044],[0.886036569436881,51.8092207037589],[0.885674413202845,51.8092295955305],[0.885312256781919,51.8092384861878],[0.884950100174125,51.809247375731],[0.88458794337949,51.8092562641601],[0.884573602658789,51.8090317699102],[0.884211447472473,51.8090406571519],[0.884225786398033,51.809265151475]]],[[[0.87767831580978,51.8089759422473],[0.877316158877192,51.8089848083302],[0.877301854355265,51.8087603126194],[0.877287549880444,51.8085358169001],[0.876925396350075,51.8085446817292],[0.876563242633969,51.8085535454439],[0.87620108873215,51.8085624080441],[0.875838934644638,51.8085712695298],[0.87547678037146,51.808580129901],[0.875462485021263,51.8083556338274],[0.875100332350213,51.8083644930155],[0.874738179493545,51.8083733510892],[0.874752471268192,51.8085978473],[0.874766763228488,51.8088223434996],[0.875128919660731,51.8088134852888],[0.875491075907349,51.8088046259635],[0.875505371420319,51.8090291220299],[0.875143213370321,51.809037981427],[0.875157507242372,51.8092624775558],[0.87517180130063,51.8094869736732],[0.875533962939653,51.8094781141335],[0.875896124392495,51.8094692534794],[0.87588182674519,51.8092447575047],[0.876243986217306,51.8092358958077],[0.876606145503196,51.8092270329964],[0.876620446739533,51.8094515288284],[0.876982607633685,51.8094426648315],[0.876996910850861,51.8096671605807],[0.877359073353269,51.809658295398],[0.877721235669374,51.8096494291011],[0.877706928863138,51.8094249334946],[0.878069089198391,51.8094160661547],[0.878054780784025,51.8091915706082],[0.878040472556052,51.8089670750502],[0.87767831580978,51.8089759422473]]],[[[0.878069089198391,51.8094160661547],[0.878083397799154,51.8096405616898],[0.878445559742585,51.8096316931642],[0.878459870324293,51.8098561886165],[0.878474181092425,51.8100806840573],[0.878836346438592,51.8100718142746],[0.879198511598356,51.8100629433775],[0.879560676571695,51.8100540713662],[0.879546360419874,51.8098295761395],[0.879532044454549,51.8096050809015],[0.879517728675716,51.8093805856521],[0.879503413083374,51.8091560903911],[0.879489097677515,51.8089315951188],[0.879126941676741,51.8089404667731],[0.878764785489557,51.8089493373131],[0.878779097306478,51.8091738327282],[0.878416939138435,51.8091827022254],[0.8784312493473,51.8094071977005],[0.878069089198391,51.8094160661547]]]]}}