{"type":"Feature","properties":{"code":"E63000498","name":"Dalton-in-Furness"},"geometry":{"type":"MultiPolygon","coordinates":[[[[-3.16549529099018,54.1640374512906],[-3.16511248637157,54.1640411587254],[-3.16511880844264,54.1642657983162],[-3.16512513059986,54.164490437898],[-3.16474232174958,54.1644941441797],[-3.16474864192021,54.1647187837844],[-3.16436583091096,54.1647224888811],[-3.16398301981552,54.1647261927612],[-3.1639767037904,54.1645015530929],[-3.16359389468154,54.1645052557245],[-3.16358758081522,54.1642806160156],[-3.16320477369296,54.1642843173987],[-3.16319846198537,54.164059677649],[-3.16358126703493,54.1640559762977],[-3.16357495334067,54.1638313365708],[-3.16356863973245,54.1636066968351],[-3.16395144055057,54.1636029943305],[-3.16433424128253,54.1635992906093],[-3.16432792361512,54.1633746509281],[-3.16471072218828,54.163370946022],[-3.16470440253437,54.1631463063636],[-3.16508719894875,54.1631426002727],[-3.1650808773084,54.1629179606371],[-3.16546367156399,54.1629142533613],[-3.16545734793726,54.1626896137486],[-3.16584014003406,54.162685905288],[-3.16583381442101,54.1624612656981],[-3.16621660435902,54.1624575560527],[-3.1662102767597,54.1622329164856],[-3.16659306453894,54.1622292056554],[-3.16659939421072,54.1624538451906],[-3.16660572396875,54.1626784847168],[-3.16661205381304,54.1629031242341],[-3.16661838374357,54.1631277637424],[-3.16623558767432,54.1631314747],[-3.16624191561854,54.1633561142311],[-3.16624824364899,54.1635807537534],[-3.16586544334824,54.1635844635579],[-3.16587176939228,54.163809103103],[-3.1654889669326,54.1638128117226],[-3.16549529099018,54.1640374512906]]],[[[-3.16616598597854,54.160660439266],[-3.16654875925135,54.1606567286585],[-3.16693153243783,54.1606530168345],[-3.16693786357816,54.1608776564005],[-3.16655508831943,54.1608813682563],[-3.16656141747374,54.1611060078452],[-3.16656774671429,54.1613306474252],[-3.16657407604109,54.1615552869962],[-3.16619129447906,54.1615589977309],[-3.16618496722461,54.1613343581281],[-3.16617864005638,54.1611097185164],[-3.1657958625527,54.1611134279709],[-3.16580218764862,54.1613380676145],[-3.16541940798634,54.1613417758843],[-3.16541308496275,54.1611171362089],[-3.16540676202532,54.1608924965246],[-3.16578953754297,54.1608887883184],[-3.16578321261943,54.1606641486569],[-3.16616598597854,54.160660439266]]],[[[-3.19111221969595,54.1494056745057],[-3.19111867912238,54.1496303125615],[-3.19073601094705,54.1496341007971],[-3.19035334268365,54.1496378878165],[-3.19034688739876,54.1494132496982],[-3.1899642211181,54.1494170354704],[-3.18958155474943,54.1494208200265],[-3.18919888829278,54.1494246033666],[-3.18919243930808,54.1491999651457],[-3.18957510369398,54.1491961818368],[-3.18956865272641,54.1489715436381],[-3.18918599041123,54.1489753269158],[-3.1888033280081,54.1489791089774],[-3.18842066551704,54.148982889823],[-3.18842711027244,54.1492075281153],[-3.18843355511564,54.1494321663987],[-3.18881622174817,54.1494283854907],[-3.18882266874995,54.149653023734],[-3.18920533736534,54.1496492415787],[-3.18958800589277,54.1496454582074],[-3.18959445712399,54.1498700963793],[-3.1896009084431,54.1500947345422],[-3.18960735985429,54.1503193726935],[-3.18961381135526,54.1505440108347],[-3.18923113454468,54.1505477943293],[-3.1892375840627,54.1507724324919],[-3.18885490509332,54.1507762148007],[-3.18847222603601,54.1507799958935],[-3.1880895468908,54.15078377577],[-3.1880831035853,54.1505591375165],[-3.18807666036757,54.150334499254],[-3.18769398527614,54.1503382778538],[-3.18768754421845,54.1501136395502],[-3.18730487110987,54.1501174169036],[-3.18692219791348,54.1501211930409],[-3.1865395246293,54.1501249679621],[-3.18615685125736,54.1501287416673],[-3.18577417779769,54.1501325141563],[-3.18539150425032,54.1501362854293],[-3.18500883061527,54.1501400554862],[-3.18501525717811,54.1503646940014],[-3.18463258138511,54.1503684628657],[-3.18463900596538,54.1505931014015],[-3.18425632801644,54.1505968690379],[-3.18426275061329,54.1508215075964],[-3.18426917329764,54.151046146146],[-3.18388649111919,54.1510499126294],[-3.18389291182004,54.1512745512016],[-3.18351022748302,54.1512783165006],[-3.18351664620032,54.1515029550954],[-3.18352306500507,54.1517275936814],[-3.18352948389726,54.1519522322584],[-3.1835359028769,54.1521768708264],[-3.18354232194399,54.1524015093855],[-3.18392501663644,54.1523977439286],[-3.18393143786216,54.1526223824471],[-3.18393785917535,54.1528470209567],[-3.18394428057604,54.1530716594574],[-3.18395070206421,54.1532962979491],[-3.18395712363986,54.1535209364318],[-3.18396354530301,54.1537455749056],[-3.18434625233531,54.153741808043],[-3.18435267615728,54.1539664464762],[-3.18435910006678,54.1541910849005],[-3.18397638889177,54.1541948518264],[-3.18359367762918,54.154198617536],[-3.1836000974834,54.1544232560146],[-3.18321738406185,54.1544270205396],[-3.18321096627902,54.1542023820294],[-3.18320454858363,54.1539777435103],[-3.18319813097567,54.1537531049823],[-3.18281542368069,54.1537568681963],[-3.18243271629821,54.1537606301941],[-3.18242630292032,54.1535359915939],[-3.18204359752168,54.1535397523439],[-3.18205000882826,54.1537643909756],[-3.18205642022218,54.1539890295983],[-3.18206283170346,54.1542136682121],[-3.18244554331613,54.1542099073675],[-3.18245195695616,54.1544345459408],[-3.18206924327208,54.154438306817],[-3.18207565492806,54.1546629454129],[-3.18245837068357,54.1546591845051],[-3.18246478449837,54.1548838230605],[-3.1820820666714,54.1548875839998],[-3.18208847850209,54.1551122225778],[-3.18170575851618,54.1551159823324],[-3.18171216836272,54.155340620933],[-3.18209489042014,54.1553368611469],[-3.18247761239012,54.1553331001444],[-3.1828603342726,54.1553293379257],[-3.18324305606757,54.1553255744907],[-3.183625777775,54.1553218098394],[-3.1836193575709,54.1550971713966],[-3.18323663793498,54.1551009360163],[-3.18323021988983,54.154876297533],[-3.18322380193212,54.1546516590408],[-3.1836065174251,54.1546478944842],[-3.18398923283051,54.1546441287114],[-3.1839828108174,54.1544194902734],[-3.18436552406379,54.1544157233159],[-3.18437194814834,54.1546403617223],[-3.1847546633788,54.1546365935125],[-3.18513737852276,54.1546328240673],[-3.18513095029545,54.1544081857229],[-3.1855136632804,54.1544044150916],[-3.18550723306936,54.1541797767685],[-3.1858899438953,54.1541760049512],[-3.18588351170059,54.1539513666495],[-3.18550080294592,54.1539551384366],[-3.18549437291009,54.1537305000957],[-3.1858770795935,54.1537267283388],[-3.18587064757405,54.1535020900193],[-3.18586421564223,54.1532774516909],[-3.18585778379803,54.1530528133536],[-3.18624048418014,54.1530490404712],[-3.18623405035243,54.1528244021552],[-3.18661674857566,54.1528206280869],[-3.18662318447451,54.1530452663727],[-3.18662962046103,54.1532699046494],[-3.18701232273877,54.1532661293044],[-3.18739502492871,54.153262352743],[-3.18738858479987,54.1530377145268],[-3.18738214475877,54.1528130763017],[-3.1873757048054,54.1525884380676],[-3.18775840069412,54.1525846603809],[-3.18775195875741,54.1523600221683],[-3.18774551690847,54.1521353839467],[-3.18812820856722,54.1521316051045],[-3.18851090013808,54.152127825046],[-3.1885173461291,54.1523524632069],[-3.18890003968309,54.1523486819019],[-3.188906487833,54.1525733200236],[-3.18891293607075,54.1527979581364],[-3.1885302383746,54.152801739502],[-3.18853668462909,54.1530263776362],[-3.18854313097139,54.1532510157615],[-3.18816042904505,54.1532547959716],[-3.18816687340399,54.1534794341183],[-3.18817331785074,54.1537040722561],[-3.18817976238528,54.153928710385],[-3.18818620700763,54.1541533485051],[-3.18856891721887,54.1541495681737],[-3.18857536400031,54.1543742062545],[-3.18858181086958,54.1545988443264],[-3.18858825782669,54.1548234823893],[-3.18897097416397,54.1548197007507],[-3.18897742328029,54.1550443387744],[-3.18936014160098,54.1550405558891],[-3.18974285983368,54.1550367717875],[-3.18974931318068,54.1552614097416],[-3.18936659287657,54.1552651938736],[-3.18898387248448,54.1552689767892],[-3.18860115200442,54.1552727584886],[-3.18821843143642,54.1552765389715],[-3.18783571078052,54.1552803182382],[-3.18745299003673,54.1552840962884],[-3.18745943104304,54.1555087344156],[-3.18784215385826,54.155504956335],[-3.1882248765856,54.1555011770381],[-3.1882313218226,54.1557258150958],[-3.18861404653349,54.1557220345522],[-3.1886204939298,54.1559466725706],[-3.18900322062425,54.1559428907803],[-3.18900967017991,54.1561675287595],[-3.18939239885791,54.1561637457225],[-3.18939885057299,54.1563883836625],[-3.18978158123453,54.1563845993787],[-3.18978803510909,54.1566092372794],[-3.18979448907159,54.1568338751712],[-3.18980094312202,54.1570585130541],[-3.18941820624567,54.1570622974289],[-3.18941175426687,54.1568376595157],[-3.18902901937415,54.1568414426437],[-3.18903546928132,54.1570660805873],[-3.18904191927637,54.157290718522],[-3.18942465831238,54.1572869353333],[-3.189431110467,54.1575115732287],[-3.18981385148669,54.1575077887932],[-3.19019659241834,54.1575040031413],[-3.19020304880429,54.1577286409671],[-3.19020950527822,54.157953278784],[-3.18982676020311,54.1579570644967],[-3.18983321469324,54.158181702335],[-3.18983966927132,54.1584063401645],[-3.18984612394519,54.1586309779809],[-3.18985257871234,54.1588556157855],[-3.19023533207434,54.1588518299471],[-3.19024178900123,54.1590764677095],[-3.19024824601609,54.159301105463],[-3.19025470311894,54.1595257432074],[-3.19063746260835,54.1595219560532],[-3.19064392187105,54.1597465937555],[-3.19065038122177,54.1599712314488],[-3.1906568406605,54.1601958691332],[-3.19066330018724,54.1604205068085],[-3.190669759802,54.1606451444748],[-3.19067621950478,54.1608697821321],[-3.19068267929557,54.1610944197805],[-3.19106545320064,54.1610906311777],[-3.19107191515153,54.1613152687839],[-3.19068913917438,54.1613190574198],[-3.19030636310911,54.1613228448392],[-3.19029990530238,54.1610982071667],[-3.19029344758364,54.1608735694852],[-3.18991067557442,54.1608773556219],[-3.1899042200157,54.1606527178983],[-3.18952144999045,54.1606565027853],[-3.18913867987717,54.1606602864558],[-3.18913222855041,54.160435648657],[-3.18912577731155,54.1602110108491],[-3.18950854328085,54.1602072272448],[-3.18950209005795,54.1599825894611],[-3.18949563692297,54.1597579516684],[-3.18911287509753,54.1597617352064],[-3.18873011318409,54.159765517528],[-3.18834735118269,54.1597692986332],[-3.18834090435131,54.1595446607322],[-3.18833445760776,54.1593200228221],[-3.18795169966218,54.1593238026447],[-3.18794525507831,54.1590991646926],[-3.18793881058225,54.1588745267315],[-3.18755605669241,54.1588783052715],[-3.1871733027147,54.158882082595],[-3.18717974306714,54.1591067206223],[-3.18756249911666,54.1591029432656],[-3.18756894162869,54.1593275812508],[-3.18757538422851,54.1595522192271],[-3.1875818269161,54.1597768571943],[-3.18758826969148,54.1600014951525],[-3.18797103394065,54.1599977164471],[-3.18797747887577,54.1602223543632],[-3.1879839238987,54.1604469922704],[-3.1876011555056,54.1604507710419],[-3.18721838702461,54.160454548597],[-3.18722482799134,54.1606791865612],[-3.18684205735049,54.1606829629329],[-3.18684849633294,54.1609076009212],[-3.18646572353221,54.1609113761095],[-3.18647216053033,54.1611360141219],[-3.18608938556973,54.1611397881266],[-3.18608295064368,54.1609151500812],[-3.18570017766738,54.1609189228364],[-3.18569374490105,54.1606942847489],[-3.18568731222238,54.1604696466524],[-3.18530454330239,54.1604734181251],[-3.18492177429468,54.1604771883813],[-3.18492820282932,54.1607018265438],[-3.18493463145155,54.1609264646973],[-3.18455185821148,54.1609302337916],[-3.18416908488258,54.1609340016474],[-3.18378631146603,54.1609377682867],[-3.18340353796188,54.1609415337094],[-3.18339711762838,54.1607168954339],[-3.18339069738236,54.1604922571494],[-3.18338427722382,54.1602676188561],[-3.18337785715277,54.1600429805539],[-3.18299509184974,54.1600467446405],[-3.18298867393827,54.1598221062996],[-3.18298225611426,54.1595974679497],[-3.18297583837769,54.159372829591],[-3.18259307920335,54.1593765923716],[-3.1822103199415,54.1593803539356],[-3.18182756059216,54.1593841142831],[-3.18183397211257,54.1596087527314],[-3.18221673353396,54.159604992354],[-3.18222314721382,54.1598296307635],[-3.18222956098107,54.1600542691642],[-3.18261232645917,54.1600505075106],[-3.18261874238595,54.1602751458725],[-3.18262515840016,54.1604997842256],[-3.18263157450179,54.1607244225697],[-3.1822488028072,54.1607281843127],[-3.18186603102511,54.1607319448391],[-3.18187244306972,54.160956583234],[-3.18148966912793,54.1609603425737],[-3.18110689509871,54.1609641006967],[-3.18111330308618,54.1611887391424],[-3.18111971116098,54.1614133775791],[-3.18073693289979,54.1614171345451],[-3.18035415455122,54.1614208902945],[-3.17997137611529,54.1614246448273],[-3.17958859759203,54.1614283981434],[-3.17958219780639,54.1612037595876],[-3.17957579810796,54.1609791210228],[-3.17956939849672,54.1607544824492],[-3.17956299897269,54.1605298438667],[-3.17918022865113,54.1605335958472],[-3.17918662610295,54.1607582344594],[-3.17880385362191,54.1607619852531],[-3.17881024908867,54.1609866238862],[-3.17881664464257,54.1612112625104],[-3.17843386792978,54.1612150121469],[-3.17844026149854,54.161439650792],[-3.17805748262624,54.1614433992416],[-3.17805109112978,54.1612187605668],[-3.17804469972041,54.1609941218831],[-3.17766192490549,54.1609978690567],[-3.17766831424258,54.1612225077701],[-3.17728553726823,54.1612262537567],[-3.17729192462009,54.1614508924909],[-3.17767470366675,54.1614471464746],[-3.17768109317797,54.1616717851702],[-3.17729831205899,54.1616755312163],[-3.17730469958492,54.1619001699327],[-3.17768748277626,54.161896423857],[-3.17769387246162,54.1621210625349],[-3.17770026223405,54.1623457012039],[-3.17731747489791,54.162349447339],[-3.17732386268497,54.1625740860288],[-3.17770665209355,54.162570339864],[-3.17771304204013,54.1627949785152],[-3.17733025055908,54.1627987247098],[-3.17694745899088,54.1628024696876],[-3.17695384487953,54.1630271083894],[-3.17657105115172,54.1630308521802],[-3.17618825733682,54.1630345947544],[-3.17618187559317,54.1628099559933],[-3.17617549393649,54.1625853172233],[-3.17579270417952,54.1625890585214],[-3.17578632468224,54.1623644197129],[-3.17540353691069,54.1623681597647],[-3.17539715957276,54.1621435209176],[-3.17501437378663,54.1621472597231],[-3.175007998608,54.1619226208375],[-3.1746252148073,54.1619263583966],[-3.17424243091966,54.1619300947391],[-3.17385964694511,54.161933829865],[-3.17386601590655,54.1621584688395],[-3.17348322977271,54.1621622027782],[-3.17310044355203,54.1621659355004],[-3.17271765724451,54.1621696670058],[-3.1723348708502,54.1621733972946],[-3.17232851017838,54.1619487582018],[-3.17232214959323,54.1617241191001],[-3.17270493184276,54.1617203888704],[-3.17269856927194,54.1614957497894],[-3.17231578909476,54.1614994799895],[-3.17193300883081,54.1615032089729],[-3.17192665049133,54.1612785698239],[-3.17154387221297,54.1612822975611],[-3.17153751603242,54.1610576583736],[-3.17153115993848,54.1608330191773],[-3.17114838571798,54.1608367456388],[-3.17076561141081,54.1608404708837],[-3.17038283701699,54.1608441949119],[-3.17038918689412,54.1610688341969],[-3.17000641034141,54.161072557038],[-3.1696236337021,54.1610762786626],[-3.16962997952115,54.1613009179977],[-3.16924720072297,54.1613046384351],[-3.16924085697623,54.1610799990705],[-3.16885808016383,54.1610837182618],[-3.16885173857581,54.1608590788588],[-3.16846896374918,54.160862796804],[-3.16847530326492,54.1610874362365],[-3.16809252627953,54.1610911529945],[-3.16809886380934,54.1613157924475],[-3.16771608466518,54.161319508017],[-3.16772242020901,54.1615441474925],[-3.16733963890609,54.1615478618769],[-3.16695685751677,54.1615515750448],[-3.16695052611763,54.1613269355057],[-3.16733330543461,54.1613232223696],[-3.16732697204942,54.1610985828534],[-3.16732063875053,54.1608739433281],[-3.16731430553794,54.160649303794],[-3.16769707855166,54.1606455895369],[-3.16769074335313,54.1604209500256],[-3.16807351420821,54.1604172345823],[-3.16806717702381,54.1601925950938],[-3.16844994572024,54.1601888784536],[-3.16844360655001,54.1599642389857],[-3.1688263730878,54.1599605211584],[-3.16883271433019,54.1601851605968],[-3.16921548285365,54.1601814415235],[-3.16959825129058,54.1601777212335],[-3.16959190590386,54.159953081854],[-3.16997467218206,54.159949360377],[-3.16996832480966,54.1597247210182],[-3.17035108892915,54.1597209983541],[-3.17034473957114,54.1594963590159],[-3.17072750153191,54.1594926351648],[-3.17072115018833,54.1592679958472],[-3.1711039099904,54.159264270809],[-3.17109755666131,54.1590396315121],[-3.17148031430467,54.159035905287],[-3.17147395899013,54.1588112660107],[-3.17185671447479,54.1588075385986],[-3.17185035717486,54.158582899343],[-3.17184399997039,54.1583582600614],[-3.17183764285799,54.1581336207602],[-3.17222039204029,54.1581298922226],[-3.17221403294261,54.1579052529438],[-3.1718312858322,54.1579089814502],[-3.17182492889302,54.1576843421311],[-3.17181857204046,54.1574597028032],[-3.17220131500715,54.1574559743595],[-3.17219495616939,54.1572313350539],[-3.17218859741826,54.1570066957393],[-3.17218223875377,54.1567820564159],[-3.17179950200243,54.1567857847657],[-3.17141676516439,54.1567895118992],[-3.17141041072999,54.1565648725043],[-3.171027675877,54.1565685983901],[-3.17102132360089,54.1563439589549],[-3.17140405638217,54.1563402331003],[-3.17139770212092,54.1561155936875],[-3.17139134794625,54.1558909542657],[-3.17177407649754,54.1558872272573],[-3.17176772033783,54.1556625878579],[-3.17176136426471,54.1554379484495],[-3.1721440885861,54.1554342202874],[-3.17213773052802,54.1552095809013],[-3.17213137255656,54.1549849415064],[-3.17251409264815,54.1549812121905],[-3.17250773269181,54.1547565728179],[-3.17250137282212,54.1545319334364],[-3.17249501303908,54.1543072940459],[-3.17211229916192,54.1543110232679],[-3.17210594153694,54.1540863838372],[-3.17248865334269,54.1540826546465],[-3.1728713650617,54.1540789242395],[-3.17286500338056,54.1538542848625],[-3.1728586417861,54.1536296454765],[-3.17324134927559,54.153625913916],[-3.17323498569647,54.1534012745524],[-3.17322862220404,54.1531766351798],[-3.17284591885717,54.1531803666778],[-3.17283955752271,54.152955727265],[-3.17245685616034,54.1529594575154],[-3.17245049698379,54.1527348180623],[-3.17244413789387,54.1525101786004],[-3.17282683511377,54.1525064484126],[-3.17282047403929,54.1522818089729],[-3.17320316910125,54.1522780776003],[-3.17319680604227,54.152053438183],[-3.17357949894629,54.1520497056255],[-3.17357313390287,54.1518250662307],[-3.17356676894617,54.1516004268269],[-3.17318408018438,54.1516041593218],[-3.17317771738546,54.1513795198777],[-3.17279503060797,54.1513832511252],[-3.17241234374372,54.1513869811564],[-3.17240598517358,54.1511623416408],[-3.17239962669005,54.1509377021163],[-3.17239326829315,54.1507130625829],[-3.17201058755525,54.1507167913041],[-3.17200423131593,54.1504921517305],[-3.1719978751632,54.1502675121478],[-3.17199151909798,54.1500428725637],[-3.17198516312012,54.1498182329769],[-3.17197880722885,54.1495935933813],[-3.17197245142415,54.1493689537767],[-3.17196609570603,54.1491443141632],[-3.17158342937683,54.1491480414532],[-3.17158978302432,54.1493726810971],[-3.17120711453784,54.1493764072013],[-3.17120076296099,54.149151767527],[-3.17119441147065,54.1489271278438],[-3.17157707581589,54.1489234018003],[-3.17157072234149,54.1486987621386],[-3.17195338452951,54.1486950349095],[-3.17195974007448,54.1489196745408],[-3.17234240424641,54.1489159460652],[-3.17234876194855,54.1491405856572],[-3.17273142810438,54.1491368559351],[-3.17311409417348,54.1491331249969],[-3.17312045610349,54.1493577645192],[-3.17350312415645,54.1493540323345],[-3.17350948824377,54.1495786718174],[-3.17351585241779,54.1498033112913],[-3.17352221667849,54.1500279507563],[-3.17352858102682,54.1502525902165],[-3.17353494546328,54.1504772296739],[-3.17354130998644,54.1507018691223],[-3.17392399037731,54.1506981355366],[-3.17430667068134,54.1506944007348],[-3.17430030201627,54.150469761349],[-3.17429393343795,54.1502451219543],[-3.1739112572758,54.1502488566934],[-3.17390489085671,54.1500242172642],[-3.1738985245253,54.1497995778297],[-3.17389215828061,54.1495749383862],[-3.17427482823062,54.1495712037389],[-3.1746574980938,54.1495674678756],[-3.1750401678701,54.1495637307961],[-3.17503379550018,54.1493390914352],[-3.17541646311893,54.1493353531702],[-3.17579913065075,54.1493316136891],[-3.17618179809562,54.1493278729919],[-3.17656446545351,54.1493241310787],[-3.17694713272438,54.1493203879495],[-3.17732979990821,54.1493166436041],[-3.17771246700497,54.1493128980427],[-3.17809513401464,54.1493091512652],[-3.17847780093718,54.1493054032717],[-3.17886046777256,54.1493016540621],[-3.17885407478335,54.1490770149976],[-3.17884768188122,54.1488523759242],[-3.17884128906617,54.148627736842],[-3.1788348963382,54.1484030977508],[-3.17882850369731,54.1481784586506],[-3.17844584721465,54.1481822077073],[-3.1784394567313,54.1479575685677],[-3.17805680223196,54.1479613163778],[-3.17805041390609,54.1477366771987],[-3.17766776139008,54.1477404237622],[-3.17766137522163,54.1475157845436],[-3.17727872468894,54.1475195298606],[-3.17727234067787,54.1472948906025],[-3.1768896921285,54.147298634673],[-3.17688331027474,54.1470739953755],[-3.1765006637087,54.1470777381994],[-3.1764942840122,54.1468530988625],[-3.17648790440259,54.1466284595166],[-3.17610526189019,54.1466322010635],[-3.17609888443775,54.1464075616782],[-3.17609250707218,54.146182922284],[-3.17647514544406,54.1461791807981],[-3.17648152487988,54.1464038201618],[-3.17686416523501,54.1464000774295],[-3.17724680550313,54.1463963334812],[-3.1776294456842,54.146392588317],[-3.1780120857782,54.1463888419369],[-3.17839472578508,54.1463850943408],[-3.17877736570484,54.1463813455288],[-3.17916000553743,54.1463775955009],[-3.17954264528284,54.146373844257],[-3.17992528494103,54.1463700917972],[-3.18030792451197,54.1463663381215],[-3.18031432473732,54.1465909771705],[-3.18069696629124,54.1465872222482],[-3.18107960775786,54.1465834661099],[-3.18146224913715,54.1465797087557],[-3.18184489042907,54.1465759501856],[-3.18222753163361,54.1465721903996],[-3.18261017275073,54.1465684293976],[-3.1829928137804,54.1465646671796],[-3.1833754547226,54.1465609037458],[-3.1837580955773,54.146557139096],[-3.18414073634447,54.1465533732302],[-3.18452337702408,54.1465496061485],[-3.18490601761633,54.1465458378242],[-3.18491244277227,54.1467704764951],[-3.18491886801573,54.146995115157],[-3.1845362232827,54.1469988835448],[-3.18454264654325,54.1472235222295],[-3.18492529334672,54.14721975381],[-3.18530794006289,54.1472159841575],[-3.18530151266142,54.1469913455356],[-3.18568415721945,54.1469875746982],[-3.18569058669141,54.147212213289],[-3.18569701625095,54.1474368518708],[-3.18531436755192,54.1474406227704],[-3.18493171876524,54.1474443924541],[-3.18454906989129,54.1474481609053],[-3.18455549332683,54.1476727995722],[-3.18493814427128,54.1476690310892],[-3.18532079512851,54.1476652613745],[-3.18570344589808,54.1476614904437],[-3.18608609657996,54.1476577182971],[-3.18609252838525,54.1478823568299],[-3.18647518104999,54.1478785834361],[-3.18685783362698,54.1478748088263],[-3.18685139768057,54.1476501703557],[-3.18723404809923,54.1476463945611],[-3.18761669843009,54.1476426175506],[-3.18799934867312,54.147638839324],[-3.18838199882831,54.1476350598815],[-3.1887646488956,54.1476312792231],[-3.18914729887499,54.1476274973486],[-3.18915374724474,54.1478521356321],[-3.18916019570235,54.1480767739067],[-3.18877754158182,54.1480805558436],[-3.18839488737339,54.1480843365644],[-3.18801223307707,54.1480881160693],[-3.18801867541068,54.1483127544285],[-3.18802511783205,54.1485373927788],[-3.18840777626963,54.1485336132116],[-3.18879043461932,54.1485298324284],[-3.18917309288109,54.1485260504291],[-3.18955575105491,54.1485222672139],[-3.18993840914076,54.1485184827826],[-3.19032106713861,54.1485146971353],[-3.19070372504842,54.1485109102721],[-3.19071018205222,54.148735548395],[-3.19109284194463,54.1487317602844],[-3.19147550174896,54.1487279709579],[-3.19148196298209,54.1489526090093],[-3.19186462476898,54.1489488184355],[-3.19187108816084,54.1491734564467],[-3.19187755164076,54.1493980944489],[-3.19149488571242,54.1494018850853],[-3.19111221969595,54.1494056745057]]],[[[-3.17141676516439,54.1567895118992],[-3.17142311968536,54.1570141512853],[-3.17142947429292,54.1572387906624],[-3.17143582898705,54.1574634300305],[-3.17105308584697,54.1574671560415],[-3.17067034262023,54.157470880836],[-3.17028759930687,54.1574746044141],[-3.16990485590692,54.1574783267758],[-3.16989850950006,54.1572536872826],[-3.16951576808536,54.1572574083967],[-3.16950942383677,54.1570327688634],[-3.16989216317967,54.1570290477805],[-3.16988581694575,54.1568044082695],[-3.17026855413032,54.1568006860015],[-3.1706512912283,54.1567969625171],[-3.17103402823967,54.1567932378164],[-3.17141676516439,54.1567895118992]]],[[[-3.16806717702381,54.1601925950938],[-3.16768440824093,54.1601963105054],[-3.16769074335313,54.1604209500256],[-3.16730797241164,54.1604246642508],[-3.16692520138376,54.1604283772595],[-3.16691887041596,54.1602037376756],[-3.16730163937164,54.1602000246987],[-3.16729530641792,54.1599753851377],[-3.1672889735505,54.1597507455677],[-3.16767173827547,54.159747031438],[-3.16767807321504,54.1599716709762],[-3.16806083992575,54.1599679555964],[-3.16806717702381,54.1601925950938]]],[[[-3.19215677923923,54.1458000939884],[-3.19177414652746,54.1458038853402],[-3.19178060868676,54.1460285234766],[-3.19139797381655,54.1460323136439],[-3.19140443399354,54.1462569518025],[-3.19102179696488,54.1462607407852],[-3.1910282551595,54.1464853789661],[-3.19064561597239,54.1464891667641],[-3.19063915984815,54.1462645285519],[-3.19025652264338,54.1462683151027],[-3.1898738853506,54.1462721004377],[-3.18988033733408,54.1464967387124],[-3.18988678940546,54.1467213769782],[-3.18989324156473,54.146946015235],[-3.18951059797273,54.1469497994477],[-3.18951704814943,54.1471744377268],[-3.189134402399,54.1471782207548],[-3.18875175656064,54.1471820025668],[-3.18836911063437,54.1471857831629],[-3.18798646462021,54.147189562543],[-3.18760381851821,54.1471933407072],[-3.18759737869386,54.1469687022722],[-3.18721473457451,54.1469724791892],[-3.18720829690833,54.1467478407141],[-3.18720185932985,54.14652320223],[-3.18719542183906,54.1462985637369],[-3.18757805974716,54.1462947869133],[-3.18796069756744,54.1462910088738],[-3.18795425602362,54.1460663704342],[-3.18794781456755,54.1458417319856],[-3.18794137319922,54.1456170935281],[-3.18793493191864,54.1453924550617],[-3.18831756136981,54.145388675931],[-3.18870019073311,54.1453848955844],[-3.18869374539978,54.1451602571714],[-3.18907637260494,54.1451564756402],[-3.18945899972218,54.1451526928931],[-3.18984162675148,54.1451489089302],[-3.18983517529531,54.1449242706018],[-3.19021780016641,54.1449204854543],[-3.19060042494951,54.1449166990909],[-3.19098304964458,54.1449129115116],[-3.19136567425159,54.1449091227165],[-3.19137213398858,54.1451337609199],[-3.19137859381358,54.1453583991143],[-3.19138505372657,54.1455830372997],[-3.19176768445618,54.145579247195],[-3.19215031509767,54.1455754558744],[-3.19214385104416,54.1453508177514],[-3.19252647952724,54.1453470252463],[-3.19252001349156,54.1451223871457],[-3.19251354754395,54.1448977490362],[-3.19289617179843,54.1448939553777],[-3.19290263981623,54.1451185934559],[-3.19328526605271,54.1451147985503],[-3.19329173622884,54.1453394365883],[-3.19329820649311,54.1455640746173],[-3.19291557611616,54.1455678695855],[-3.192532945651,54.1455716633379],[-3.19253941186285,54.1457963014206],[-3.19215677923923,54.1458000939884]]],[[[-3.19067789791286,54.1476123576912],[-3.19068435456481,54.1478369958499],[-3.1903017028668,54.1478407826194],[-3.18991905108077,54.147844568173],[-3.18992550367953,54.1480692063851],[-3.18954284973492,54.1480729907539],[-3.18953639920674,54.1478483525105],[-3.18952994876644,54.1476237142582],[-3.189523498414,54.147399075997],[-3.18990614614696,54.1473952917218],[-3.19028879379192,54.1473915062307],[-3.19067144134886,54.1473877195237],[-3.19067789791286,54.1476123576912]]]]}}