{"type":"Feature","properties":{"code":"E63005856","name":"Cranleigh"},"geometry":{"type":"MultiPolygon","coordinates":[[[[-0.463130855290801,51.1451074586076],[-0.462773591418794,51.1451027640155],[-0.462416327642859,51.1450980683324],[-0.462059063963018,51.1450933715583],[-0.461701800379294,51.1450886736932],[-0.461344536891708,51.1450839747371],[-0.460987273500282,51.1450792746901],[-0.460630010205041,51.145074573552],[-0.460637482312226,51.1448498534655],[-0.46064495432315,51.1446251333696],[-0.460652426237814,51.1444004132643],[-0.460659898056219,51.1441756931496],[-0.460302641784656,51.1441709910687],[-0.460310115238617,51.1439462709816],[-0.460317588596301,51.1437215508851],[-0.459960335884558,51.1437168477874],[-0.459967810877733,51.1434921277185],[-0.459610559993996,51.1434874235669],[-0.459253309206519,51.1434827183244],[-0.459260787566881,51.1432579983203],[-0.458903538607427,51.143253292024],[-0.458911018603166,51.1430285720475],[-0.459268265830903,51.1430332783067],[-0.459275743998588,51.1428085582837],[-0.459632989590908,51.1428132634149],[-0.459990235279484,51.1428179674553],[-0.459982760575194,51.1430426875525],[-0.460340008091704,51.143047390539],[-0.460347481064294,51.1428226704048],[-0.460704726945315,51.1428273722633],[-0.461061972922526,51.142832073031],[-0.46105450341334,51.1430567932393],[-0.461411751218422,51.143061492953],[-0.46176899911965,51.1430661915759],[-0.462126247117002,51.1430708891078],[-0.462483495210456,51.1430755855488],[-0.462840743399989,51.143080280899],[-0.463197991685579,51.1430849751581],[-0.463555240067205,51.1430896683264],[-0.463547782583914,51.1433143887843],[-0.46390503279329,51.1433190808987],[-0.464262283098659,51.1433237719221],[-0.464619533499996,51.1433284618545],[-0.464976783997282,51.1433331506961],[-0.464969333344971,51.1435578712924],[-0.464961882596675,51.1437825918793],[-0.464954431752393,51.1440073124568],[-0.465311687540972,51.1440120003183],[-0.465668943425458,51.1440166870887],[-0.465661495948857,51.1442414077307],[-0.465654048376311,51.1444661283632],[-0.465296789028132,51.1444614415189],[-0.464939529775864,51.1444567535836],[-0.464582270619529,51.1444520645573],[-0.464574817755402,51.1446767850697],[-0.464217556963147,51.1446720949155],[-0.464210102271108,51.1448968153814],[-0.463852839842937,51.1448921240993],[-0.46349557751077,51.1448874317261],[-0.463488119258857,51.1451121521087],[-0.463130855290801,51.1451074586076]]],[[[-0.51609338301481,51.1430935288255],[-0.516450640203492,51.1430980604743],[-0.516807897484941,51.1431025910321],[-0.516800698534961,51.1433273170348],[-0.517157957642443,51.1433318465391],[-0.517515216842649,51.1433363749526],[-0.517508021266486,51.1435611010207],[-0.517865282292707,51.1435656283806],[-0.517858088357118,51.1437903544766],[-0.517850894328789,51.1440150805633],[-0.517843700207719,51.1442398066405],[-0.517486433981425,51.1442352791683],[-0.51747923803421,51.1444600051986],[-0.517472041994226,51.1446847312195],[-0.517114772393817,51.1446802025815],[-0.517121970167223,51.1444554765981],[-0.51712916784784,51.1442307506051],[-0.517136365435669,51.1440060246028],[-0.516779101128191,51.1440014949861],[-0.516771901806986,51.144226220951],[-0.51676470239297,51.1444509469065],[-0.516757502886142,51.1446756728526],[-0.516750303286501,51.1449003987892],[-0.516393032138139,51.1448958679317],[-0.516035761082558,51.1448913359833],[-0.515678490119778,51.1448868029439],[-0.515321219249823,51.1448822688135],[-0.514963948472715,51.1448777335922],[-0.514971156739551,51.1446530078429],[-0.514978364913461,51.1444282820842],[-0.514621097696068,51.1444237458468],[-0.514628307510444,51.1441990201161],[-0.514985572994448,51.144203556316],[-0.515342838571317,51.1442080914249],[-0.515350044826013,51.1439833656099],[-0.515357250987812,51.1437586397854],[-0.515714513190804,51.1437631737284],[-0.51572171752638,51.143538447857],[-0.516078978088861,51.1435429806716],[-0.516086180598259,51.1433182547533],[-0.51609338301481,51.1430935288255]]],[[[-0.514963948472715,51.1448777335922],[-0.514956740112953,51.145102459332],[-0.514949531660263,51.1453271850624],[-0.514942323114642,51.1455519107834],[-0.514935114476092,51.1457766364949],[-0.514927905744608,51.146001362197],[-0.514570626392863,51.1459968256972],[-0.514563415834877,51.1462215513524],[-0.514206134842465,51.146217013724],[-0.514198922457932,51.1464417393322],[-0.514191709980416,51.146666464931],[-0.513834425613731,51.1466619261366],[-0.513841639824856,51.1464372005753],[-0.513484357284726,51.1464326607274],[-0.513127074837566,51.1464281197884],[-0.512769792483397,51.1464235777584],[-0.512777011802269,51.1461988523002],[-0.512419731274695,51.1461943092167],[-0.512426952234056,51.1459695837867],[-0.512434173100326,51.1457448583472],[-0.512791450160806,51.1457494013556],[-0.512798669200473,51.1455246758692],[-0.512805888147075,51.1452999503733],[-0.512813107000615,51.145075224868],[-0.512820325761092,51.1448504993532],[-0.512463055634534,51.1448459564949],[-0.512470276035376,51.1446212310083],[-0.512113007735266,51.1446166870965],[-0.512120229776427,51.144391961638],[-0.512127451724487,51.14416723617],[-0.5117701869842,51.1441626912424],[-0.511412922336977,51.1441581452239],[-0.511405696922164,51.1443828706168],[-0.511048430634655,51.1443783234697],[-0.510691164440256,51.1443737752317],[-0.510698393321814,51.144149049914],[-0.510705622110184,51.1439243245868],[-0.510712850805365,51.1436995992502],[-0.51072007940736,51.1434748739042],[-0.510362820239444,51.1434703247256],[-0.510005561164676,51.1434657744561],[-0.509648302183081,51.1434612230956],[-0.509291043294679,51.1434566706442],[-0.508933784499493,51.1434521171019],[-0.508576525797546,51.1434475624687],[-0.508219267188858,51.1434430067445],[-0.50821202645377,51.1436677318272],[-0.507854766205074,51.1436631749745],[-0.507497506049684,51.1436586170308],[-0.507140245987623,51.1436540579962],[-0.506782986018914,51.1436494978707],[-0.506425726143579,51.1436449366543],[-0.506418476648589,51.1438696615392],[-0.506061215133342,51.1438650991941],[-0.505703953711515,51.1438605357581],[-0.505711206673118,51.1436358109486],[-0.505353947078037,51.1436312464593],[-0.505361201679424,51.1434065216781],[-0.505368456187292,51.1431817968874],[-0.505011200152211,51.1431772313827],[-0.504653944210614,51.1431726647871],[-0.504646686236232,51.1433973895023],[-0.504289428654884,51.143392821778],[-0.503932171167064,51.1433882529628],[-0.503574913772794,51.1433836830567],[-0.503217656472097,51.1433791120597],[-0.502860399264995,51.1433745399718],[-0.50250314215151,51.1433699667929],[-0.502145885131665,51.1433653925232],[-0.501788628205481,51.1433608171625],[-0.501431371453353,51.143356240703],[-0.50107411501644,51.1433516631308],[-0.501066839621463,51.143576387461],[-0.501059564132681,51.1438011117819],[-0.500702304322206,51.1437965330474],[-0.500695027005933,51.1440212573234],[-0.500337765555542,51.1440166774623],[-0.499980504198944,51.1440120965102],[-0.499623242936163,51.1440075144671],[-0.49926598176722,51.1440029313329],[-0.498908720692137,51.1439983471078],[-0.498901434613513,51.1442230711963],[-0.498544171898613,51.1442184858444],[-0.498551459710938,51.1439937617916],[-0.498194198823643,51.1439891753844],[-0.497836938030275,51.1439845878861],[-0.497844229215987,51.1437598638952],[-0.497486970250242,51.1437552753416],[-0.497479677330858,51.1439799992969],[-0.497122416725412,51.1439754096166],[-0.497115121978306,51.1442001335268],[-0.496757859733162,51.1441955427198],[-0.496400597582037,51.1441909508218],[-0.49639329927345,51.1444156746513],[-0.496386000870763,51.1446403984714],[-0.496378702373975,51.1448651222821],[-0.496735969726304,51.1448697142872],[-0.496728672869193,51.1450944381243],[-0.496721375917999,51.145319161952],[-0.496714078872722,51.1455438857703],[-0.496706781733359,51.1457686095793],[-0.496699484499908,51.1459933333789],[-0.497056760615388,51.1459979244714],[-0.497064056114968,51.1457732006361],[-0.497421330590584,51.1457777906018],[-0.49742862426225,51.1455530667214],[-0.497785897098,51.1455576555604],[-0.497793188941797,51.145332931635],[-0.498150460137677,51.1453375193472],[-0.498507731427495,51.1453421059683],[-0.498515019709657,51.1451173819623],[-0.498872289359578,51.1451219674567],[-0.498879575813981,51.1448972434056],[-0.499236843824002,51.1449018277733],[-0.49959411192789,51.14490641105],[-0.499601394820807,51.1446816869183],[-0.499958661284769,51.1446862690683],[-0.500315927842551,51.1446908501272],[-0.500308648417178,51.1449155743301],[-0.500665916802533,51.1449201543336],[-0.501023185281666,51.144924733246],[-0.501030461239489,51.1447000089719],[-0.501387728078599,51.1447045867577],[-0.501380453854554,51.1449293110673],[-0.501373179536718,51.1451540353677],[-0.50173045010765,51.1451586121268],[-0.501723177423543,51.1453833364548],[-0.502080449949921,51.1453879121557],[-0.502437722569976,51.1453924867656],[-0.502794995283683,51.1453970602845],[-0.502787727706224,51.1456217847164],[-0.503145002247035,51.1456263571821],[-0.503502276881457,51.1456309285568],[-0.503859551609467,51.1456354988405],[-0.503852289138802,51.1458602233763],[-0.504209565693877,51.1458647926068],[-0.504566842342498,51.1458693607462],[-0.50455958324525,51.1460940853481],[-0.504552324054419,51.1463188099405],[-0.504545064770006,51.1465435345234],[-0.504902346712787,51.146548101685],[-0.504895089068378,51.1467728262963],[-0.504887831330404,51.1469975508981],[-0.504530545920419,51.146992983661],[-0.504523286355242,51.1472177082156],[-0.504516026696476,51.1474424327607],[-0.504158737912733,51.1474378643571],[-0.503801449222546,51.1474332948623],[-0.503444160625938,51.1474287242766],[-0.50343689567255,51.147653448699],[-0.50307960543587,51.1476488769843],[-0.502722315292815,51.1476443041786],[-0.502715046778376,51.1478690285161],[-0.502707778170231,51.1480937528441],[-0.503065071780696,51.1480983257253],[-0.503057804812582,51.1483230500817],[-0.502700509468378,51.1483184771626],[-0.502693240672815,51.1485432014717],[-0.502335943688503,51.1485386274237],[-0.502328673065447,51.1487633516856],[-0.50197137444103,51.1487587765087],[-0.501614075910315,51.1487542002407],[-0.501256777694512,51.1487496228997],[-0.500899479643992,51.1487450444734],[-0.500542181687254,51.1487404649559],[-0.500534902306376,51.1489651890259],[-0.500177602709267,51.1489606083816],[-0.500170321500328,51.1491853324066],[-0.49981302026285,51.1491807506355],[-0.499455719119225,51.1491761677731],[-0.499448434347961,51.1494008917176],[-0.499441149482764,51.1496256156526],[-0.499433864523631,51.1498503395784],[-0.49942657947056,51.1500750634947],[-0.499069271483813,51.1500704793986],[-0.49871196359097,51.1500658942112],[-0.498704674975352,51.1502906180469],[-0.498347365442133,51.1502860317326],[-0.497990056002863,51.1502814443271],[-0.497632746657566,51.1502768558302],[-0.497625452744996,51.1505015795496],[-0.497618158760133,51.1507263032908],[-0.49761086468593,51.1509510270296],[-0.49796817923635,51.1509556156303],[-0.497960886803285,51.1511803393934],[-0.49795359427615,51.1514050631471],[-0.498310912391066,51.1514096507237],[-0.498303621505136,51.1516343745017],[-0.497946301654943,51.1516297868916],[-0.497939008939662,51.1518545106268],[-0.497581687448188,51.1518499218917],[-0.497574392903513,51.1520746455841],[-0.497217069770761,51.152070055724],[-0.497209773396647,51.1522947793735],[-0.497567098264738,51.1522993692672],[-0.497559803531864,51.1525240929409],[-0.497552508704886,51.1527488166055],[-0.497195180366048,51.1527442266446],[-0.49718788370956,51.1529689502662],[-0.496830553729385,51.1529643591803],[-0.496473223843301,51.1529597670029],[-0.496115894051332,51.152955173734],[-0.495758564353501,51.1529505793737],[-0.495751260661185,51.1531753028516],[-0.495393929322091,51.1531707073662],[-0.495401234749829,51.152945983922],[-0.495408540083328,51.1527212604684],[-0.495765867951601,51.1527258558866],[-0.496123195914032,51.1527304502132],[-0.496130497682538,51.1525057266831],[-0.496487824003725,51.1525103198847],[-0.496495123942682,51.1522855963118],[-0.49685244862262,51.1522901883883],[-0.496859746732073,51.1520654647724],[-0.496867044747382,51.1518407411473],[-0.496509723538094,51.151836149138],[-0.496152402422913,51.1518315560372],[-0.496145100936977,51.1520562795951],[-0.495787778180614,51.1520516853694],[-0.495780474865155,51.1522764088844],[-0.495423150467613,51.1522718135335],[-0.495065826164247,51.1522672170913],[-0.494708501955081,51.1522626195576],[-0.494701193339353,51.1524873429624],[-0.494693884629343,51.1527120663579],[-0.494336557043677,51.1527074676655],[-0.494329246503992,51.152932191018],[-0.49397191727718,51.1529275912005],[-0.493964604907773,51.1531523145101],[-0.493607274039819,51.1531477135674],[-0.493599959840646,51.1533724368341],[-0.493242627331553,51.1533678347663],[-0.492885294916779,51.153363231607],[-0.492892612586818,51.1531385084077],[-0.492899930162459,51.1529137851992],[-0.492542601312865,51.1529091810158],[-0.492549920529497,51.1526844578317],[-0.492557239651714,51.1524597346383],[-0.492199914367226,51.152455129431],[-0.492207235130368,51.152230406262],[-0.492214555799074,51.1520056830838],[-0.492221876373345,51.1517809598962],[-0.491864556389185,51.1517763536987],[-0.491871878604297,51.1515516305356],[-0.492229196853185,51.1515562366994],[-0.492236517238594,51.1513315134933],[-0.492243837529575,51.1511067902779],[-0.491886522751162,51.1511021841815],[-0.491529208067141,51.1510975769937],[-0.491536531734101,51.1508728538365],[-0.491893844682919,51.1508774609906],[-0.491901166520228,51.1506527377904],[-0.492258477828255,51.1506573438193],[-0.49226579784271,51.1504326206098],[-0.492623107510049,51.1504372255113],[-0.492630425702943,51.1502125022922],[-0.492987733730292,51.1502171060667],[-0.492995050094546,51.1499923828024],[-0.492637743801474,51.1499877790638],[-0.492645061805642,51.1497630558259],[-0.492652379715449,51.1495383325787],[-0.492295076985164,51.1495337278204],[-0.491937774349203,51.1495291219709],[-0.491930452970938,51.1497538451464],[-0.491923131498266,51.1499785683127],[-0.491565825488175,51.1499739613003],[-0.491208519572456,51.1499693531966],[-0.491201194536837,51.1501940762818],[-0.491193869406764,51.1504187993577],[-0.490836560116881,51.1504141900911],[-0.490479250921417,51.1504095797333],[-0.490486579520069,51.1501848567291],[-0.490129272153334,51.1501802453159],[-0.489771964881062,51.1501756328114],[-0.489414657703276,51.1501710192156],[-0.489407323901766,51.1503957421122],[-0.489050015084204,51.1503911273894],[-0.48904267945589,51.1506158502697],[-0.489035343737182,51.1508405731998],[-0.489028007923846,51.1510652961207],[-0.488670693995765,51.1510606802019],[-0.488663356352589,51.1512854030796],[-0.488306040783891,51.1512807860357],[-0.488313380162277,51.1510560631917],[-0.487956066423404,51.1510514450902],[-0.487963407442304,51.1508267222708],[-0.48797074836651,51.1506019994421],[-0.488328058635032,51.150606617476],[-0.488335397732694,51.1503818946699],[-0.488342736737047,51.1501571718809],[-0.488700043631245,51.1501617887504],[-0.488707380806709,51.1499370659162],[-0.488350075646767,51.1499324490826],[-0.487992770581399,51.1499278311578],[-0.488000111130722,51.149703108386],[-0.487642807894179,51.1496984894059],[-0.487650150083061,51.1494737666607],[-0.487292848675342,51.1494691466252],[-0.487300192503737,51.1492444239065],[-0.487307536237441,51.1490197011784],[-0.487664834176812,51.1490243211421],[-0.487657492177271,51.1492490439061],[-0.488014791945418,51.1492536628144],[-0.488022132210793,51.1490289400145],[-0.488379430339364,51.1490335577957],[-0.4887367285625,51.1490381744857],[-0.488744065264941,51.1488134516046],[-0.488751401872781,51.1485887287142],[-0.489108696722189,51.1485933442413],[-0.489116031501329,51.1483686213056],[-0.488758738386023,51.1483640058144],[-0.488401445365256,51.1483593892321],[-0.488044152439051,51.1483547715586],[-0.487686859607429,51.1483501527939],[-0.487679517891889,51.148574875586],[-0.487322223420777,51.1485702556942],[-0.486964929044295,51.1485656347112],[-0.486972274228026,51.148340911991],[-0.486614981680288,51.1483362899528],[-0.486622328503382,51.1481115672591],[-0.486265037784386,51.1481069441656],[-0.485907747160085,51.148102319981],[-0.485550456630498,51.1480976947052],[-0.485543104605203,51.1483224172911],[-0.485185812436291,51.1483177908882],[-0.484828520334751,51.1483131633906],[-0.484821164740428,51.1485378858942],[-0.484813809051273,51.1487626083883],[-0.484456513308788,51.1487579796905],[-0.484449155790977,51.1489827021376],[-0.484441798178311,51.1492074245752],[-0.484799097388465,51.1492120533482],[-0.484806453267287,51.148987330873],[-0.485163750589288,51.1489919584815],[-0.485521047960526,51.1489965849923],[-0.485513695556032,51.1492213075407],[-0.48587099475617,51.1492259329963],[-0.485863643991049,51.1494506555712],[-0.485856293131146,51.1496753781367],[-0.485848942176457,51.1499001006929],[-0.48549163777372,51.1498954751294],[-0.485484284990001,51.1501201976403],[-0.485841591126982,51.1501248232397],[-0.485834239982719,51.1503495457771],[-0.48582688874348,51.1505742683205],[-0.486184198443862,51.1505788929025],[-0.486191547948698,51.1503541703213],[-0.486548856009387,51.1503587937742],[-0.48654150823899,51.1505835163931],[-0.48689881812884,51.1505881387924],[-0.48689147199915,51.1508128615196],[-0.486884125774698,51.1510375842375],[-0.486876779455485,51.1512623069461],[-0.486869433041509,51.1514870296454],[-0.486512116210892,51.1514824071107],[-0.486504767966902,51.1517071297669],[-0.486147449495769,51.151702506107],[-0.486154799475005,51.1514777834847],[-0.48579748283387,51.1514731587672],[-0.485790131119391,51.1516978813557],[-0.485432812837788,51.151693255513],[-0.48542545929321,51.1519179780582],[-0.485068139371143,51.1519133510903],[-0.485060783996422,51.1521380735924],[-0.485053428526819,51.1523627960852],[-0.485410751919479,51.1523674231209],[-0.485403398090323,51.1525921456384],[-0.485046072962332,51.1525875185687],[-0.484688747793519,51.1525828903549],[-0.484331422575161,51.1525782609939],[-0.483974097451619,51.1525736305417],[-0.483966736583875,51.1527983528967],[-0.4836094098212,51.1527937213132],[-0.483252083153387,51.1527890886386],[-0.482894756580458,51.1527844548729],[-0.482537430102434,51.1527798200159],[-0.482544797906045,51.1525550978211],[-0.482552165614672,51.1523303756168],[-0.482909488624789,51.1523350103936],[-0.482916854504514,51.1521102881397],[-0.483274175875612,51.1521149217853],[-0.483281539926478,51.1518901994818],[-0.48328890388241,51.1516654771687],[-0.482931585979088,51.1516608436032],[-0.482938951573941,51.1514361213206],[-0.482581635499369,51.151431486704],[-0.482589002733099,51.1512067644519],[-0.482596369871854,51.1509820421903],[-0.482239057359837,51.1509774065628],[-0.482231688487275,51.1512021287843],[-0.482224319519717,51.1514268509963],[-0.482216950457159,51.1516515731987],[-0.482209581299602,51.1518762953916],[-0.482202212047042,51.152101017575],[-0.48219484269948,51.1523257397488],[-0.482187473256913,51.1525504619131],[-0.482180103719338,51.1527751840678],[-0.481822777431193,51.1527705470285],[-0.481465451238021,51.152765908898],[-0.481108125139845,51.1527612696764],[-0.480750799136685,51.1527566293636],[-0.480758175610094,51.1525319073692],[-0.48040085143593,51.1525272660053],[-0.480393473228565,51.1527519879596],[-0.480036147415507,51.1527473454644],[-0.480028767379048,51.152972067369],[-0.479671439927101,51.1529674237426],[-0.479664058061501,51.1531921455975],[-0.479656676100735,51.1534168674429],[-0.479299345275884,51.153412222645],[-0.479291961485909,51.1536369444407],[-0.479284577600741,51.1538616662268],[-0.478927243402927,51.1538570202574],[-0.478919857688482,51.1540817419938],[-0.478912471878819,51.1543064637207],[-0.47855513430798,51.1543018165798],[-0.478547746668971,51.154526538257],[-0.478190407459194,51.1545218899847],[-0.478183017990796,51.1547466116122],[-0.478175628427129,51.1549713332301],[-0.47781828584425,51.1549666837862],[-0.477810894451124,51.1551914053544],[-0.477803502962706,51.1554161269131],[-0.478160849013985,51.1554207764373],[-0.478168238768193,51.1551960548385],[-0.478525583180474,51.1552007032313],[-0.478518195160479,51.1554254248703],[-0.478875541402167,51.155430072212],[-0.478868155021158,51.1556547938816],[-0.479225503092255,51.1556594401722],[-0.479218118350277,51.1558841618724],[-0.47921073351309,51.1561088835631],[-0.479203348580692,51.1563336052442],[-0.479195963553082,51.1565583269158],[-0.479188578430257,51.1567830485778],[-0.479181193212218,51.1570077702302],[-0.478823834735223,51.1570031236988],[-0.478816447687572,51.1572278453015],[-0.478459087571366,51.1572231976385],[-0.478101727550366,51.1572185488842],[-0.477744367624595,51.1572138990385],[-0.477387007794073,51.1572092481015],[-0.477394401779287,51.1569845266595],[-0.477037043778425,51.1569798746713],[-0.477029648058825,51.1572045960732],[-0.476672288418871,51.1571999429535],[-0.476664890869512,51.1574246643056],[-0.476657493224776,51.1576493856482],[-0.477014856333566,51.1576540388483],[-0.477007460327903,51.1578787602215],[-0.477000064226884,51.1581034815852],[-0.476642697649168,51.1580988283047],[-0.476285331166776,51.1580941739328],[-0.47592796477973,51.1580895184696],[-0.475570598488052,51.1580848619149],[-0.475213232291765,51.1580802042689],[-0.475220637065139,51.1578554831064],[-0.474863272698731,51.1578508244093],[-0.47487067911108,51.1576261032774],[-0.474878085427938,51.157401382136],[-0.474885491649309,51.157176660985],[-0.474892897775193,51.1569519398245],[-0.474535540441853,51.1569472801971],[-0.474178183203962,51.1569426194783],[-0.473820826061543,51.1569379576682],[-0.473828237294995,51.156713236619],[-0.473470881982419,51.1567085737578],[-0.473113526765357,51.1567039098054],[-0.473120941371909,51.1564791888271],[-0.472763587984706,51.1564745238237],[-0.472406234693061,51.1564698577289],[-0.472048881496997,51.1564651905429],[-0.471691528396535,51.1564605222655],[-0.471334175391698,51.1564558528968],[-0.470976822482507,51.1564511824369],[-0.470969397470046,51.1566759031732],[-0.470612042922212,51.1566712315816],[-0.470619469668986,51.1564465108856],[-0.470262116951157,51.156441838243],[-0.469904764329041,51.1564371645092],[-0.469897334113646,51.1566618851244],[-0.469539979852959,51.1566572102589],[-0.469532547807439,51.1568819308242],[-0.469175191908183,51.156877254827],[-0.469182625688032,51.1566525343021],[-0.469190059372041,51.1564278137676],[-0.469197492960211,51.1562030932235],[-0.469554843656548,51.1562077690996],[-0.469912194448642,51.1562124438844],[-0.469919624472451,51.15598772325],[-0.470276973626014,51.1559923969031],[-0.470634322875289,51.155997069465],[-0.470991672220251,51.1560017409356],[-0.470999096945537,51.1557770201706],[-0.471356444651918,51.1557816905095],[-0.471363867547257,51.1555569696946],[-0.471371290346896,51.1553322488702],[-0.471378713050839,51.1551075280361],[-0.47173605565025,51.1551121971628],[-0.472093398345276,51.1551168651982],[-0.472085979109698,51.1553415861129],[-0.472443323634502,51.1553462530974],[-0.472800668254877,51.1553509189906],[-0.472808084022082,51.1551261979953],[-0.473165427003819,51.155130862757],[-0.473522770081082,51.1551355264274],[-0.473880113253848,51.1551401890065],[-0.474237456522095,51.1551448504945],[-0.474230047691653,51.1553695716509],[-0.474222638765694,51.1555942927977],[-0.473865292029037,51.1555896312293],[-0.473857881273319,51.1558143523263],[-0.473850470422058,51.1560390734138],[-0.473493120312391,51.1560344106735],[-0.473485707631304,51.1562591317112],[-0.473843059475252,51.1562637944917],[-0.474200411414689,51.156268456181],[-0.474557763449593,51.156273116779],[-0.474565170927833,51.1560483956205],[-0.474922521323896,51.1560530550869],[-0.474929926972371,51.1558283338786],[-0.47528727572959,51.1558329922135],[-0.475294679548346,51.1556082709555],[-0.475302083271648,51.1553835496878],[-0.475659428655797,51.1553882068509],[-0.475666830549449,51.1551634855335],[-0.475674232347673,51.1549387642066],[-0.475681634050472,51.15471404287],[-0.475689035657846,51.154489321524],[-0.476046374200694,51.1544939774349],[-0.476403712838885,51.1544986322546],[-0.476761051572395,51.1545032859831],[-0.477118390401204,51.1545079386204],[-0.477125784976697,51.1542832171039],[-0.477483122166663,51.1542878686097],[-0.477490514912728,51.1540631470435],[-0.477847850463847,51.1540677974179],[-0.47784045945188,51.1542925190243],[-0.478197796832326,51.1542971683477],[-0.478205186110194,51.1540724467011],[-0.478562521851747,51.1540770948931],[-0.478569909300272,51.1538523731968],[-0.478577296653558,51.153627651491],[-0.478934629022155,51.1536322985114],[-0.478942014546167,51.1534075767559],[-0.478949399974966,51.1531828549908],[-0.479306728970668,51.1531875008397],[-0.479314112570262,51.152962779025],[-0.479321496074667,51.1527380572006],[-0.479328879483886,51.1525133353667],[-0.479686203372803,51.1525179800041],[-0.479693584952909,51.1522932581205],[-0.480050907203002,51.1522979016266],[-0.480408229548176,51.1523025440415],[-0.480765551988408,51.1523071853653],[-0.480772928271627,51.1520824633518],[-0.480780304459754,51.1518577413288],[-0.48078768055279,51.1516330192963],[-0.481144997886391,51.1516376594086],[-0.481152372150492,51.1514129373264],[-0.480795056550737,51.1514082972542],[-0.480437741046011,51.1514036560908],[-0.480445118682691,51.1511789340793],[-0.480087805006837,51.151174291865],[-0.480095184282206,51.150949569884],[-0.480452496224263,51.1509542120582],[-0.480459873670728,51.1507294900276],[-0.480467251021963,51.1505047680011],[-0.480824559591521,51.1505094090026],[-0.481181868256111,51.150514048913],[-0.481189242043691,51.1502893268706],[-0.481196615736203,51.1500646048188],[-0.481553921027898,51.1500692435626],[-0.481561292891425,51.1498445214637],[-0.481568664659911,51.1496197993553],[-0.481576036333357,51.1493950772375],[-0.481933336518338,51.1493997147772],[-0.481940706362891,51.1491749926123],[-0.481583407911765,51.1491703551102],[-0.481590779395137,51.1489456329735],[-0.48123348277282,51.1489409944179],[-0.481226109555618,51.149165716517],[-0.480868811294471,51.1491610768326],[-0.480861436248358,51.1493857988846],[-0.480504136348386,51.1493811580714],[-0.48014683654346,51.1493765161671],[-0.480139457934521,51.1496012381342],[-0.480132079230454,51.1498259600919],[-0.480124700431255,51.1500506820402],[-0.480117321536925,51.150275403979],[-0.480109942547461,51.1505001259084],[-0.479752634168037,51.1504954827245],[-0.479745253349234,51.1507202046683],[-0.479387943331114,51.150715560352],[-0.479395325883713,51.1504908384494],[-0.479038017694511,51.1504861930831],[-0.478680709600454,51.1504815466256],[-0.478673323580239,51.1507062684461],[-0.479030633408108,51.1507109149446],[-0.479023249026554,51.1509356368147],[-0.479015864549804,51.1511603586753],[-0.479008479977855,51.1513850805263],[-0.478651164948615,51.1513804339074],[-0.478293850014538,51.1513757861974],[-0.477936535175647,51.1513711373962],[-0.477929145306999,51.1515958591172],[-0.477921755343084,51.1518205808287],[-0.477564437131718,51.1518159308561],[-0.477207119015586,51.1518112797923],[-0.476849800994711,51.1518066276374],[-0.476492483069114,51.1518019743914],[-0.476135165238818,51.1517973200543],[-0.476142563871981,51.1515725985439],[-0.476149962409765,51.1513478770238],[-0.476157360852171,51.1511231554943],[-0.476164759199201,51.1508984339551],[-0.476172157450857,51.1506737124065],[-0.476179555607974,51.1504489908704],[-0.47618695367089,51.1502242693561],[-0.475829648072733,51.150219614207],[-0.475822248275876,51.1504443356835],[-0.475814848384885,51.1506690571793],[-0.475457539414249,51.1506644008611],[-0.475450137695084,51.1508891223293],[-0.475442735880501,51.151113843788],[-0.475435333970495,51.1513385652371],[-0.475427931965068,51.1515632866766],[-0.475420529864218,51.1517880081067],[-0.475413127667942,51.1520127295271],[-0.475405725376238,51.152237450938],[-0.475048404364229,51.1522327932471],[-0.474691083447613,51.1522281344649],[-0.474333762626412,51.1522234745916],[-0.47397644190065,51.1522188136272],[-0.473619121270347,51.1522141515717],[-0.473626532231464,51.1519894303621],[-0.473269213430522,51.1519847672556],[-0.473276626029956,51.1517600460767],[-0.473284038533831,51.1515353248883],[-0.473641353867084,51.1515399879141],[-0.473998669295815,51.1515446498489],[-0.474355984820001,51.1515493106925],[-0.47436339202688,51.1513245893737],[-0.474006078236508,51.1513199285703],[-0.47364876454159,51.1513152666759],[-0.473656175120563,51.151090545428],[-0.473663585604003,51.1508658241706],[-0.473670995991914,51.1506411029037],[-0.473313687593771,51.150636440039],[-0.473321099622108,51.1504117188225],[-0.472963793053397,51.1504070549062],[-0.472606486580209,51.1504023898988],[-0.472613901982458,51.1501776687628],[-0.472621317289105,51.1499529476174],[-0.472628732500151,51.1497282264624],[-0.472636147615598,51.1495035052981],[-0.472643562635448,51.1492787841243],[-0.472650977559703,51.149054062941],[-0.472658392388364,51.1488293417483],[-0.472665807121432,51.1486046205462],[-0.473023099723836,51.1486092852507],[-0.473030512627566,51.1483845640012],[-0.473387803591732,51.1483892275767],[-0.473395214666168,51.1481645062799],[-0.473402625645062,51.1479397849737],[-0.473759913237279,51.1479444473825],[-0.473767322386948,51.1477197260289],[-0.473410036528414,51.147715063658],[-0.473052750765362,51.147710400196],[-0.472695465097814,51.147705735643],[-0.472702879352945,51.1474810143935],[-0.472345595514581,51.1474763487873],[-0.472353011407764,51.1472516275663],[-0.472360427205343,51.1470269063358],[-0.472367842907321,51.1468021850959],[-0.472010564365336,51.1467975185122],[-0.471653285918915,51.1467928508375],[-0.471296007568081,51.1467881820718],[-0.471288586665344,51.147012903198],[-0.471281165666937,51.1472376243148],[-0.470923883944523,51.1472329543823],[-0.470931306676536,51.1470082333034],[-0.470574026783361,51.1470035623177],[-0.470581451153264,51.1467788412673],[-0.470224173089324,51.1467741692285],[-0.469866895121061,51.1467694960986],[-0.469509617248496,51.1467648218778],[-0.469517046723357,51.1465401009317],[-0.469159770680066,51.1465354256578],[-0.468802494732516,51.1465307492928],[-0.46844521888073,51.1465260718369],[-0.468087943140965,51.1465213933199],[-0.467730667534208,51.1465167137805],[-0.46737339202322,51.1465120331502],[-0.467016116608025,51.1465073514288],[-0.466658841288644,51.1465026686163],[-0.466651397952811,51.1467273892654],[-0.466643954521081,51.1469521099051],[-0.466286675833344,51.1469474259278],[-0.465929397241469,51.1469427408594],[-0.465921950249584,51.1471674614158],[-0.465564670021466,51.1471627752194],[-0.465207389889257,51.1471580879319],[-0.465214840345394,51.1469333674493],[-0.464857562041238,51.1469286791076],[-0.464500283833035,51.1469239896749],[-0.464143005720804,51.1469192991511],[-0.464150461277252,51.1466945787699],[-0.463793184993114,51.1466898871921],[-0.463800642185585,51.1464651668384],[-0.464157916737649,51.1464698583793],[-0.464165372101995,51.1462451379793],[-0.464522645017999,51.1462498283922],[-0.464530098554266,51.1460251079458],[-0.464887369834205,51.1460297972307],[-0.464894821542437,51.145805076738],[-0.464902273154667,51.1455803562358],[-0.46525954106655,51.1455850443558],[-0.465616809074352,51.1455897313847],[-0.465624257126647,51.1453650107993],[-0.465631705082989,51.1451402902044],[-0.465639152943379,51.1449155696001],[-0.465996415851232,51.1449202554273],[-0.466003861883769,51.1446955347766],[-0.466011307820379,51.1444708141166],[-0.466368567360314,51.144475498779],[-0.46637601146914,51.1442507780726],[-0.466383455482064,51.1440260573568],[-0.466740711654141,51.1440307408544],[-0.467097967922035,51.144035423261],[-0.467105408375424,51.143810702462],[-0.467462663007294,51.1438153837408],[-0.467470101633031,51.1435906628955],[-0.46711284873296,51.1435859816536],[-0.466755595928682,51.1435812993207],[-0.466763037922142,51.1433565785398],[-0.46677047981973,51.1431318577495],[-0.466413230574793,51.1431271743995],[-0.46605598142569,51.1431224899586],[-0.466063426690864,51.1428977692326],[-0.46642067410824,51.1429024536366],[-0.466428117545796,51.1426777328643],[-0.466435560887464,51.1424530120826],[-0.466792804937282,51.1424576953219],[-0.4668002464514,51.1422329744939],[-0.46680768787553,51.1420082536598],[-0.466815129204441,51.1417835328168],[-0.46682257043746,51.1415588119643],[-0.466465333316528,51.1415541288695],[-0.466472776185994,51.1413294080435],[-0.466480218959549,51.1411046872081],[-0.466122985399124,51.1411000030939],[-0.466130429809062,51.140875282285],[-0.466137874123069,51.1406505614666],[-0.466145318341148,51.140425840639],[-0.4661527624633,51.1402011198019],[-0.466160206489526,51.1399763989555],[-0.465802981686205,51.1399717139294],[-0.465810427348686,51.1397469931094],[-0.465817872915224,51.1395222722801],[-0.466175094254209,51.1395269572345],[-0.466532315689057,51.1395316410981],[-0.466889537219745,51.1395363238708],[-0.466882096849683,51.1397610448076],[-0.467239320208352,51.1397657265253],[-0.467231881474597,51.1399904474884],[-0.467589106661249,51.139995128151],[-0.467581669563845,51.1402198491406],[-0.467224442644985,51.1402151684422],[-0.467217003719514,51.1404398893866],[-0.467574232370604,51.1404445701208],[-0.467931461117475,51.1404492497641],[-0.468288689965176,51.1404539283337],[-0.46864591892313,51.1404586058616],[-0.468653350919098,51.1402338847737],[-0.468660782819264,51.1400091636764],[-0.469018008406981,51.1400138400392],[-0.469375234090419,51.1400185153112],[-0.469732459869553,51.1400231894924],[-0.469725033168332,51.1402479107011],[-0.469717606371376,51.1404726319004],[-0.470074835712178,51.140477305065],[-0.470082260776127,51.1402525838286],[-0.470439488479576,51.1402572558653],[-0.470446911714826,51.1400325345824],[-0.470804137780919,51.1400372054912],[-0.471161363942622,51.1400418753092],[-0.47116878361625,51.1398171539426],[-0.471176203194237,51.1395924325665],[-0.471533425985609,51.1395971012196],[-0.471890648872542,51.1396017687818],[-0.472247871855013,51.1396064352532],[-0.47225528613858,51.1393817137566],[-0.472612507483638,51.1393863791002],[-0.472619919938727,51.139161657557],[-0.472262700326576,51.1391569922504],[-0.472270114419001,51.1389322707349],[-0.471912896635246,51.1389276043747],[-0.471920312364963,51.1387028828868],[-0.471563096409601,51.1386982154729],[-0.471570513776565,51.1384734940126],[-0.471213299649592,51.1384688255451],[-0.47122071865376,51.1382441041125],[-0.470863506355173,51.1382394345913],[-0.470870926996499,51.1380147131864],[-0.470513716526296,51.1380100426115],[-0.470521138804735,51.1377853212343],[-0.470163930162911,51.1377806496059],[-0.47017135407842,51.1375559282564],[-0.469814147264973,51.1375512555743],[-0.469821572817506,51.1373265342525],[-0.469828998274326,51.1371018129213],[-0.469836423635434,51.1368770915806],[-0.469479222115725,51.1368724179192],[-0.469486649113772,51.1366476966063],[-0.469494076016088,51.1364229752839],[-0.469501502822674,51.1361982539521],[-0.469508929533533,51.1359735326108],[-0.46986612412278,51.1359782061237],[-0.469873549005352,51.1357534847359],[-0.470230741957683,51.135758157121],[-0.470238165012015,51.1355334356867],[-0.470595356327427,51.135538106944],[-0.470952547738437,51.1355427771107],[-0.470959967232052,51.1353180555928],[-0.471317157006116,51.1353227246318],[-0.471674346875733,51.1353273925802],[-0.471681762808715,51.1351026709786],[-0.472038951041358,51.1351073377993],[-0.472046365146273,51.1348826161512],[-0.47168917864611,51.1348779493676],[-0.471696594387921,51.1346532277472],[-0.472053779155627,51.1346578944938],[-0.472061193069419,51.1344331728269],[-0.47170401003415,51.1344285061174],[-0.471711425584798,51.1342037844781],[-0.471718841039866,51.1339790628295],[-0.47207602061033,51.1339837294648],[-0.472083434240211,51.133759007752],[-0.472090847777022,51.1335342860137],[-0.472448023978386,51.1335389514805],[-0.472455435687478,51.1333142296925],[-0.472462847301048,51.1330895078951],[-0.472470258819097,51.132864786088],[-0.472477670241628,51.1326400642715],[-0.472485081568641,51.1324153424454],[-0.472127914027921,51.1324106771794],[-0.47213532699148,51.1321859553839],[-0.4717781612783,51.1321812890676],[-0.471420995660621,51.132176621661],[-0.471428411992719,51.1319518999363],[-0.471435828229237,51.131727178202],[-0.471078666171129,51.1317225097853],[-0.47108608404406,51.1314977880816],[-0.471093501821393,51.1312730663684],[-0.47110091950313,51.1310483446456],[-0.471108337089272,51.1308236229132],[-0.470751182054525,51.1308189535669],[-0.470758601276973,51.1305942318652],[-0.470766020403807,51.1303695101539],[-0.471123171974776,51.1303741794199],[-0.471480323641278,51.1303788475955],[-0.47183747540329,51.1303835146808],[-0.471830061472092,51.1306082365126],[-0.472187215061474,51.1306129025478],[-0.472544368746324,51.1306175674927],[-0.472901522526617,51.1306222313473],[-0.472894113695591,51.1308469532899],[-0.473251269303217,51.1308516160943],[-0.47324386210864,51.1310763380675],[-0.473601019543602,51.1310809998217],[-0.473608425006245,51.1308562778083],[-0.473615830373452,51.1306315557855],[-0.473972984439947,51.1306362163691],[-0.474330138601799,51.1306408758625],[-0.474322736698419,51.1308655979655],[-0.47467989268752,51.1308702564086],[-0.474672492420685,51.1310949785423],[-0.474665092058479,51.1313197006663],[-0.474657691600897,51.1315444227808],[-0.475014852881197,51.1315490802538],[-0.475022251606794,51.1313243580993],[-0.475029650237039,51.1310996359351],[-0.475037048771934,51.1308749137614],[-0.475394204951639,51.1308795700239],[-0.475401601659267,51.1306548478006],[-0.47575875620232,51.1306595029327],[-0.475766151082725,51.1304347806598],[-0.47577354586783,51.1302100583773],[-0.476130697042349,51.130214712339],[-0.476487848312089,51.1302193652104],[-0.476480456990741,51.1304440875729],[-0.476837610087558,51.130448739394],[-0.477194763279551,51.1304533901248],[-0.477187375326755,51.1306781125579],[-0.477179987278746,51.1309028349814],[-0.477172599135522,51.1311275573954],[-0.477529757618456,51.1311322071559],[-0.477886916196525,51.1311368558261],[-0.477879531422032,51.1313615783105],[-0.478236691827192,51.1313662259304],[-0.478244074869709,51.131141503406],[-0.478601233637985,51.1311461498955],[-0.47895839250133,51.1311507952947],[-0.478965771984784,51.1309260726807],[-0.479322929211217,51.1309307169496],[-0.479330306867631,51.1307059942861],[-0.479337684428965,51.1304812716131],[-0.479694838286569,51.1304859147118],[-0.48005199223917,51.1304905567201],[-0.480059366241637,51.1302658339576],[-0.480066740149072,51.1300411111856],[-0.480423890732878,51.1300457520237],[-0.48043126281343,51.1298210292022],[-0.480438634798976,51.1295963063711],[-0.480795782014047,51.1296009460391],[-0.480803152172778,51.1293762231585],[-0.481160297750963,51.1293808616963],[-0.481517443424048,51.1293854991437],[-0.48152481002422,51.1291607761738],[-0.481881954060392,51.1291654124911],[-0.482239098191419,51.1291700477181],[-0.48259624241728,51.1291746818548],[-0.48295338673795,51.1291793149013],[-0.483310531153408,51.1291839468575],[-0.483667675663632,51.1291885777235],[-0.483675031778226,51.1289638545047],[-0.48368238779802,51.1287391312764],[-0.484039528939452,51.1287437609723],[-0.484032174651415,51.1289684842405],[-0.4840248202686,51.1291932074991],[-0.484381964968289,51.1291978361845],[-0.484374612222499,51.1294225594735],[-0.484367259381951,51.1296472827529],[-0.484359906446643,51.1298720060228],[-0.484352553416573,51.1300967292831],[-0.484709705138314,51.1301013570376],[-0.484702353745375,51.1303260803282],[-0.484695002257694,51.1305508036093],[-0.484687650675268,51.1307755268809],[-0.484680298998098,51.1310002501429],[-0.48467294722618,51.1312249733954],[-0.484315786844745,51.1312203454417],[-0.483958626558026,51.1312157163976],[-0.48395127122735,51.1314404395609],[-0.483943915801879,51.1316651627146],[-0.484301079552628,51.1316697918384],[-0.484293725764409,51.1318945150224],[-0.484650891341926,51.1318991430956],[-0.485008056899512,51.1319037700986],[-0.485365222388309,51.1319083960398],[-0.485357873701831,51.132133119325],[-0.485350524920804,51.1323578426008],[-0.485343176045224,51.1325825658673],[-0.485700346813097,51.1325871908204],[-0.485692999571205,51.1328119141119],[-0.485685652234779,51.133036637394],[-0.485678304803821,51.1332613606668],[-0.486035480850956,51.1332659846317],[-0.486028135053769,51.1334907079294],[-0.486020789162068,51.1337154312178],[-0.486013443182729,51.133940154459],[-0.48637062451111,51.1339447774339],[-0.486363280187474,51.1341695006055],[-0.486355935769166,51.1343942237677],[-0.486348591256181,51.1346189469205],[-0.486341246648518,51.1348436700639],[-0.486698435002301,51.1348482920957],[-0.486691092032712,51.1350730152666],[-0.487048282213847,51.1350776362446],[-0.48740547248956,51.1350822561321],[-0.48741281199364,51.1348575328875],[-0.487770000631152,51.1348621516474],[-0.488127189363196,51.1348667693168],[-0.48848437818975,51.1348713858955],[-0.488841567110792,51.1348760013836],[-0.488848899589309,51.1346512779822],[-0.489206086872075,51.1346558923429],[-0.489213417523352,51.1344311688952],[-0.489570603167839,51.1344357821285],[-0.489927788906742,51.1344403942711],[-0.489920461720907,51.1346651177924],[-0.490277649286931,51.1346697288813],[-0.490270323739387,51.13489445243],[-0.490262998097411,51.1351191759692],[-0.490620189223326,51.1351237860411],[-0.490977380443597,51.1351283950222],[-0.490970058172771,51.1353531186257],[-0.490962735807553,51.1355778422197],[-0.491319930587769,51.1355824501839],[-0.4916771254623,51.1355870570573],[-0.492034320431123,51.1355916628402],[-0.492027003170036,51.1358163865351],[-0.492384199965973,51.135820991264],[-0.492376884343424,51.1360457149863],[-0.492369568626566,51.1362704386991],[-0.492362252815399,51.1364951624026],[-0.492005050820794,51.1364905575634],[-0.491997733182382,51.1367152812207],[-0.491640529549121,51.1367106752541],[-0.491633210083419,51.1369353988652],[-0.491276004811504,51.1369307917711],[-0.491283326010159,51.1367060681968],[-0.490926122565519,51.1367014600487],[-0.490933445402723,51.1364767365018],[-0.490940768145527,51.1362520129454],[-0.490948090793932,51.1360272893796],[-0.490590892642352,51.1360226802512],[-0.490233694585135,51.1360180700322],[-0.489876496622301,51.1360134587226],[-0.489883824374887,51.1357887352577],[-0.489526628239315,51.1357841228942],[-0.48916943219817,51.1357795094401],[-0.488812236251476,51.1357748948952],[-0.488455040399253,51.1357702792598],[-0.4884623749887,51.1355455559328],[-0.488105180963798,51.1355409392436],[-0.488112517191501,51.1353162159441],[-0.487755324993917,51.135311598201],[-0.487398132890868,51.1353069793673],[-0.487040940882377,51.135302359443],[-0.486683748968466,51.135297738428],[-0.486676405809559,51.1355224615801],[-0.487033599456269,51.1355270826319],[-0.487026257935522,51.1357518058114],[-0.487018916320134,51.1359765289815],[-0.48666171920776,51.1359719078559],[-0.486304522189994,51.1359672856397],[-0.485947325266856,51.1359626623327],[-0.48559012843837,51.1359580379352],[-0.485582779796888,51.1361827609483],[-0.485939978358235,51.1361873853828],[-0.485932631354903,51.1364121084233],[-0.485925284256859,51.1366368314545],[-0.485917937064101,51.1368615544763],[-0.485910589776627,51.1370862774886],[-0.485903242394436,51.1373110004915],[-0.486260449715081,51.1373156240199],[-0.486253103971168,51.1375403470503],[-0.486245758132556,51.1377650700713],[-0.486602969013857,51.1377696925827],[-0.486960179989777,51.1377743140033],[-0.486967522362348,51.1375495909085],[-0.487324731699843,51.1375542112016],[-0.48733207224476,51.1373294880605],[-0.487689279943827,51.137334107226],[-0.487681941131912,51.1375588304039],[-0.487674602225389,51.1377835535725],[-0.488031813485035,51.1377881717209],[-0.48802447621695,51.1380128949169],[-0.488017138854275,51.1382376181035],[-0.48765992412851,51.1382329998813],[-0.48765258493815,51.1384577230215],[-0.488009801397009,51.1384623412806],[-0.488002463845149,51.1386870644483],[-0.48835968213166,51.1386916816535],[-0.488352346218345,51.1389164048487],[-0.488709566332511,51.1389210209999],[-0.488702232057785,51.1391457442225],[-0.48905945399961,51.1391503593198],[-0.489052121363518,51.1393750825698],[-0.489409345133004,51.1393796966131],[-0.48940201413559,51.1396044198906],[-0.489759239732742,51.1396090328799],[-0.489751910374051,51.1398337561848],[-0.489744580920868,51.1400584794802],[-0.490101810078947,51.1400630914524],[-0.490094482264553,51.1402878147752],[-0.490451713250327,51.1402924256934],[-0.490808944330493,51.1402970355207],[-0.490816268678321,51.1400723121243],[-0.490823592931723,51.1398475887185],[-0.49118082063971,51.1398521973814],[-0.491188143065447,51.1396274739294],[-0.491195465396783,51.1394027504679],[-0.490838241155255,51.1393981418786],[-0.490845565125389,51.1391734184445],[-0.490852889001103,51.138948695001],[-0.49121010977626,51.1389533035168],[-0.49120278763372,51.1391780269971],[-0.491560010236391,51.1391826344589],[-0.491917232933378,51.1391872408299],[-0.491909914162839,51.1394119643743],[-0.492267138687324,51.1394165696913],[-0.492259821555654,51.139641293263],[-0.492617047907637,51.139645897526],[-0.492974274353875,51.1396505006981],[-0.492966960594368,51.1398752243339],[-0.493324188868088,51.139879826452],[-0.493681417236018,51.1398844274792],[-0.494038645698137,51.1398890274157],[-0.494031337044163,51.1401137511522],[-0.494388567333726,51.1401183500345],[-0.494745797717435,51.140122947826],[-0.495103028195266,51.1401275445267],[-0.495460258767199,51.1401321401365],[-0.49581748943321,51.1401367346555],[-0.496174720193277,51.1401413280837],[-0.496531951047379,51.140145920421],[-0.496889181995492,51.1401505116675],[-0.497246413037595,51.1401551018232],[-0.497603644173665,51.1401596908881],[-0.49796087540368,51.1401642788621],[-0.498318106727617,51.1401688657453],[-0.498675338145455,51.1401734515376],[-0.49903256965717,51.1401780362391],[-0.499389801262742,51.1401826198498],[-0.499747032962147,51.1401872023696],[-0.499754313883486,51.1399624780468],[-0.500111543943399,51.1399670594393],[-0.500118823037589,51.1397423350705],[-0.500126102037937,51.1395176106923],[-0.499768875444563,51.139513029373],[-0.499776156084305,51.139288305022],[-0.499783436630185,51.1390635806616],[-0.499790717082203,51.1388388562917],[-0.499797997440363,51.1386141319125],[-0.499805277704664,51.1383894075239],[-0.49981255787511,51.1381646831259],[-0.500169774069399,51.1381692642258],[-0.500526990357463,51.1381738442349],[-0.50088420673928,51.1381784231533],[-0.501241423214826,51.138183000981],[-0.501248696358997,51.1379582764274],[-0.501605911263572,51.1379628531218],[-0.501963126500081,51.1379674287051],[-0.502320341830244,51.1379720031975],[-0.502677557254041,51.1379765765992],[-0.503034772771449,51.1379811489101],[-0.503042037163303,51.1377564241673],[-0.503399251041356,51.1377609953517],[-0.503756465012974,51.1377655654453],[-0.504113679078134,51.1377701344481],[-0.504470893236815,51.1377747023602],[-0.504828107488993,51.1377792691814],[-0.505185321834647,51.1377838349119],[-0.505542536273754,51.1377883995516],[-0.505899750806293,51.1377929631005],[-0.50625696543224,51.1377975255587],[-0.506264214134105,51.1375728004855],[-0.506621427120504,51.1375773618173],[-0.506978640200265,51.1375819220582],[-0.506971394964271,51.1378066472026],[-0.506964149634877,51.1380313723376],[-0.507321366273878,51.138035931559],[-0.507314122584066,51.1382606567202],[-0.507671341049372,51.1382652148864],[-0.508028559607978,51.1382697719618],[-0.508385778259862,51.1382743279463],[-0.508742997005002,51.1382788828401],[-0.509100215843376,51.1382834366431],[-0.509457434774962,51.1382879893552],[-0.509814653799736,51.1382925409765],[-0.510171872917677,51.138297091507],[-0.510529092128763,51.1383016409468],[-0.510886311432971,51.1383061892957],[-0.510893537792868,51.1380814637789],[-0.511250755457175,51.1380860110015],[-0.511607973214559,51.1380905571332],[-0.511600750320664,51.1383152827211],[-0.511593527333656,51.1385400082995],[-0.511586304253533,51.1387647338686],[-0.511579081080294,51.1389894594284],[-0.511571857813938,51.1392141849788],[-0.511564634454462,51.1394389105198],[-0.511921862703253,51.1394434557737],[-0.511914640983793,51.1396681813409],[-0.511557411001864,51.1396636360515],[-0.511550187456145,51.1398883615738],[-0.511192955834124,51.139883815158],[-0.510835724305191,51.1398792676513],[-0.51047849286937,51.1398747190538],[-0.510121261526681,51.1398701693654],[-0.510114030955127,51.1400948947363],[-0.509756797972421,51.1400903439215],[-0.509764030277149,51.1398656185861],[-0.509406799120793,51.139861066716],[-0.509399565082894,51.1400857920158],[-0.509042332286568,51.1400812390192],[-0.509049568057638,51.1398565137549],[-0.508692337087706,51.139851959703],[-0.508335106211018,51.1398474045603],[-0.507977875427597,51.1398428483267],[-0.507620644737465,51.1398382910022],[-0.507613402033729,51.1400630161241],[-0.507256169703747,51.1400584576732],[-0.507248925173455,51.1402831827501],[-0.506891691203624,51.1402786231727],[-0.506534457327153,51.1402740625044],[-0.506177223544063,51.1402695007452],[-0.505819989854378,51.1402649378951],[-0.505812738297878,51.1404896628202],[-0.505805486647893,51.140714387736],[-0.506162723804003,51.1407189506574],[-0.50651996105352,51.1407235124878],[-0.506877198396421,51.1407280732274],[-0.507234435832685,51.1407326328761],[-0.507591673362289,51.1407371914338],[-0.507948910985211,51.1407417489007],[-0.507956152235833,51.1405170237712],[-0.508313388218819,51.1405215801116],[-0.508670624295075,51.140526135361],[-0.509027860464581,51.1405306895196],[-0.509385096727315,51.1405352425873],[-0.509742333083253,51.1405397945641],[-0.509749565574456,51.1403150692475],[-0.510106800290358,51.1403196200978],[-0.51046403509942,51.1403241698573],[-0.510456806074655,51.140548895245],[-0.510449576956694,51.1407736206234],[-0.510806815325357,51.140778169363],[-0.511164053787137,51.1407827170117],[-0.511521292342012,51.1407872635695],[-0.51187853098996,51.1407918090364],[-0.511871308711875,51.1410165345474],[-0.512228549186146,51.1410210789589],[-0.512585789753446,51.1410256222795],[-0.512578570848843,51.1412503478521],[-0.512935813242448,51.1412548901172],[-0.512928595978098,51.141479615716],[-0.513285840198012,51.1414841569256],[-0.513643084510892,51.1414886970443],[-0.513635870620185,51.1417134227046],[-0.513628656636476,51.1419381483556],[-0.513271408856883,51.141933608166],[-0.512914161170259,51.1419290668854],[-0.512906943626766,51.1421537924561],[-0.512549694299747,51.1421492500491],[-0.512192445065743,51.1421447065511],[-0.511835195924777,51.1421401619622],[-0.511477946876871,51.1421356162823],[-0.511120697922046,51.1421310695115],[-0.510763449060326,51.1421265216497],[-0.5107562210196,51.1423512470324],[-0.511113471614451,51.1423557949321],[-0.511470722302399,51.142360341741],[-0.511827973083421,51.142364887459],[-0.511820750146919,51.142589612965],[-0.512178002754192,51.1425941576296],[-0.5121707814578,51.1428188831637],[-0.512528035891327,51.1428234267751],[-0.512535255454497,51.1425987012034],[-0.512892508247811,51.1426032436863],[-0.513249761134111,51.1426077850783],[-0.513607014113376,51.1426123253793],[-0.513964267185584,51.1426168645895],[-0.514321520350712,51.1426214027088],[-0.514314309453678,51.142846128468],[-0.514307098463687,51.1430708542178],[-0.514299887380739,51.1432955799582],[-0.513942629015853,51.1432910417264],[-0.513935416106647,51.1435157674198],[-0.51357815610139,51.1435112280596],[-0.513570941365882,51.1437359537061],[-0.513563726537366,51.1439606793431],[-0.513920990009281,51.1439652187783],[-0.513913776821119,51.1441899444434],[-0.513906563539967,51.1444146700991],[-0.514263830571562,51.1444192085184],[-0.514256618930829,51.1446439342022],[-0.514613887788745,51.144648471568],[-0.514606677788475,51.1448731972798],[-0.514963948472715,51.1448777335922]]],[[[-0.472901522526617,51.1306222313473],[-0.472908931262163,51.1303975093951],[-0.472551779213755,51.1303928455806],[-0.472194627260789,51.1303881806759],[-0.472202039364581,51.1301634587944],[-0.471844889238941,51.1301587928395],[-0.471487739208787,51.1301541257943],[-0.471495154680731,51.1299294039836],[-0.47150257005711,51.1297046821633],[-0.471859716623614,51.1297093491282],[-0.472216863285601,51.1297140150028],[-0.472209451372851,51.1299387369034],[-0.472566599862116,51.1299434017278],[-0.472923748446821,51.129948065462],[-0.473280897126944,51.1299527281059],[-0.473273490314196,51.1301774501173],[-0.473630640821558,51.1301821117111],[-0.473623235645222,51.1304068337531],[-0.473615830373452,51.1306315557855],[-0.473258676402334,51.1306268941115],[-0.472901522526617,51.1306222313473]]],[[[-0.469888398483394,51.135304041932],[-0.469880973792223,51.1355287633387],[-0.469523782668075,51.1355240899001],[-0.469166591639591,51.1355194153709],[-0.469159163387646,51.1357441366938],[-0.468801970722316,51.1357394610369],[-0.468444778152696,51.1357347842893],[-0.468087585679864,51.1357301064621],[-0.468095019129118,51.1355053852494],[-0.467737828486205,51.1355007063928],[-0.467380637939036,51.1354960264455],[-0.467388074755993,51.135271305295],[-0.46703088603633,51.1352666242928],[-0.46703832448918,51.1350419031687],[-0.467045762846187,51.1348171820352],[-0.467053201107352,51.1345924608924],[-0.467060639272677,51.1343677397402],[-0.467068077342162,51.1341430185786],[-0.467425257403466,51.134147699402],[-0.46743269364551,51.1339229781953],[-0.46744012979601,51.1336982569808],[-0.467797306489114,51.1337029366412],[-0.468154483277984,51.1337076152111],[-0.468511660160238,51.1337122927101],[-0.468504229206773,51.1339370140361],[-0.468861407916753,51.1339416904865],[-0.468868837137895,51.1337169691212],[-0.469226014211244,51.1337216444418],[-0.469218586722431,51.1339463658463],[-0.469211159140669,51.1341710872353],[-0.469568339774404,51.1341757615417],[-0.469560913829308,51.1344004829583],[-0.469553487788497,51.1346252043655],[-0.469910671982718,51.1346298776556],[-0.469903247578639,51.1348545990905],[-0.469895823078865,51.135079320516],[-0.470253010833645,51.1350839927897],[-0.470245587970668,51.1353087142429],[-0.469888398483394,51.135304041932]]]]}}