{"type":"Feature","properties":{"code":"E63001018","name":"Wardle (Rochdale)"},"geometry":{"type":"MultiPolygon","coordinates":[[[[-2.13686718431167,53.6476424043032],[-2.13686791991296,53.6478671047062],[-2.13648972877663,53.647867536858],[-2.13649046237721,53.6480922372565],[-2.13686865552397,53.6480918051007],[-2.13686939114472,53.6483165054867],[-2.1368701267752,53.6485412058643],[-2.1372483239331,53.6485407725057],[-2.13724906158383,53.6487654728707],[-2.13724979924432,53.6489901732273],[-2.13762800041345,53.6489897386659],[-2.13762874009426,53.64921443901],[-2.13762947978487,53.6494391393456],[-2.1380076849653,53.6494387035814],[-2.13800842667632,53.6496634039044],[-2.13838663385748,53.6496629669414],[-2.13838737758896,53.6498876672519],[-2.13838812133029,53.650112367554],[-2.1380099101278,53.6501128045252],[-2.13801065197402,53.6503375048172],[-2.13763243875102,53.6503379405972],[-2.1376316989154,53.6501132403017],[-2.13725348769314,53.6501136748833],[-2.13725274998386,53.6498889745691],[-2.13725201228433,53.6496642742463],[-2.13725127459457,53.6494395739151],[-2.13687306939442,53.6494400072899],[-2.13687380507356,53.6496647076251],[-2.13687454076243,53.6498894079519],[-2.13687527646103,53.6501141082702],[-2.1368760122754,53.650338808573],[-2.13687674824887,53.6505635088573],[-2.13725496350331,53.6505630754638],[-2.13725570149826,53.6507877757367],[-2.13763391875458,53.6507873411454],[-2.13763465877105,53.6510120414067],[-2.13763539879732,53.6512367416596],[-2.13725717751743,53.651237176257],[-2.1368789562277,53.6512376096595],[-2.13650073492815,53.6512380418671],[-2.13650000093726,53.6510133416052],[-2.1361217816397,53.6510137726151],[-2.13612251361879,53.65123847288],[-2.13612324560758,53.6514631731364],[-2.13574502227664,53.6514636029574],[-2.13574575226326,53.6516883032084],[-2.13536752691073,53.6516887318375],[-2.13536825489513,53.651913432083],[-2.13574648225953,53.6519130034509],[-2.13574721226546,53.652137703685],[-2.13574794228105,53.6523624039106],[-2.13574867230629,53.6525871041277],[-2.13537043890611,53.6525875327687],[-2.13499220549622,53.6525879602148],[-2.13499147949488,53.6523632599917],[-2.13499075350315,53.6521385597602],[-2.13461252392605,53.6521389860787],[-2.13423429413765,53.6521394112834],[-2.13385606433961,53.6521398352934],[-2.13347783453196,53.6521402581085],[-2.13347711660715,53.6519155578581],[-2.13347639869184,53.6516908575994],[-2.13347568078603,53.6514661573322],[-2.13347496288973,53.6512414570565],[-2.13309674113194,53.6512418786663],[-2.13309745701341,53.6514665789446],[-2.13271923323123,53.6514669993622],[-2.13271994710734,53.6516916996346],[-2.13309817290437,53.6516912792144],[-2.1330988888048,53.6519159794758],[-2.1327206609929,53.6519163998985],[-2.1327213748879,53.652141100154],[-2.13234314505156,53.6521415193844],[-2.13234243317146,53.6519168191264],[-2.13196420534051,53.6519172371594],[-2.13196349548471,53.6516925368904],[-2.1319627856383,53.6514678366129],[-2.13196207580128,53.6512431363269],[-2.13234029758768,53.6512427183015],[-2.13233958574527,53.6510180180096],[-2.13196136597366,53.6510184360324],[-2.13196065615544,53.6507937357296],[-2.1319599463466,53.6505690354182],[-2.13195923654717,53.6503443350984],[-2.1315810228103,53.6503447519187],[-2.13158031516041,53.6501200515576],[-2.1312021034267,53.6501204671786],[-2.13120139789693,53.6498957667787],[-2.13120069237649,53.6496710663703],[-2.13082248465666,53.6496714807841],[-2.13082178115715,53.649446780361],[-2.13082107766694,53.6492220799294],[-2.13082037418604,53.6489973794894],[-2.13081967071443,53.6487726790409],[-2.13044147103147,53.648773092235],[-2.13006327133915,53.6487735042343],[-2.13006257189984,53.6485488037649],[-2.12968437420969,53.6485492145633],[-2.12930617651023,53.6485496241671],[-2.1289279788015,53.6485500325761],[-2.12854978108353,53.6485504397904],[-2.12854908969934,53.6483257392877],[-2.12854839832429,53.6481010387765],[-2.12817020462,53.6481014447838],[-2.1281695152655,53.6478767442579],[-2.12779132356344,53.6478771490643],[-2.12779063622944,53.6476524485239],[-2.1274124465296,53.6476528521294],[-2.12703425682062,53.6476532545404],[-2.12703357351842,53.6474285539791],[-2.12703289022525,53.6472038534094],[-2.12665470452986,53.6472042546133],[-2.12665402325703,53.646979554029],[-2.12665334199319,53.6467548534362],[-2.12665266073836,53.6465301528349],[-2.12665197949252,53.6463054522251],[-2.12665129825569,53.6460807516068],[-2.12702947389481,53.6460803504336],[-2.12740764952483,53.6460799480657],[-2.12740696427465,53.6458552474512],[-2.12778513788436,53.6458548438949],[-2.1281633114849,53.645854439144],[-2.12854148507625,53.6458540331985],[-2.12891965865838,53.6458536260584],[-2.12929783223127,53.6458532177238],[-2.12929713693442,53.6456285171318],[-2.12967530848689,53.6456281076087],[-2.12967461118812,53.6454034070144],[-2.12967391389856,53.6451787064117],[-2.13005208141952,53.6451782957065],[-2.13005278072017,53.645402996303],[-2.13043095024289,53.6454025843971],[-2.13080911975626,53.6454021712966],[-2.13080841643344,53.6451774707125],[-2.13080771311991,53.6449527701199],[-2.13118587860175,53.6449523558374],[-2.13118517328649,53.6447276552426],[-2.13156333674789,53.6447272397717],[-2.13156262943094,53.6445025391747],[-2.13194079087189,53.6445021225156],[-2.13194008155332,53.6442774219163],[-2.13231824097383,53.644277004069],[-2.13231752965368,53.6440523034675],[-2.13269568705375,53.6440518844319],[-2.13269640038485,53.644276585027],[-2.13307455978636,53.6442761647906],[-2.13345271917832,53.6442757433597],[-2.13383087856071,53.6442753207342],[-2.1342090379335,53.6442748969142],[-2.13458719729667,53.6442744718997],[-2.13458792069209,53.6444991724548],[-2.1349660819026,53.6444987462842],[-2.13496680731752,53.6447234468257],[-2.13534497034956,53.6447230195085],[-2.13572313337189,53.6447225909968],[-2.13572386281652,53.6449472915219],[-2.13610202783918,53.6449468618116],[-2.13648019285208,53.6449464309067],[-2.13648092632652,53.6451711314153],[-2.13648165981067,53.6453958319154],[-2.13610349077757,53.6453962628283],[-2.13572532173472,53.6453966925466],[-2.13572605120829,53.6456213930463],[-2.13534788014556,53.645621821574],[-2.13534860761862,53.6458465220693],[-2.13497043453602,53.6458469494064],[-2.1349711600085,53.6460716498972],[-2.13497188549057,53.6462963503794],[-2.13535006259358,53.6462959230343],[-2.13572823968689,53.6462954944946],[-2.13610641677046,53.6462950647602],[-2.13648459384427,53.6462946338312],[-2.13648532737693,53.646519334289],[-2.13648606091929,53.6467440347383],[-2.13686424200384,53.6467436026067],[-2.1368649775662,53.6469683030435],[-2.13648679447135,53.6469687351792],[-2.13648752803312,53.6471934356116],[-2.13648826160458,53.6474181360355],[-2.13686644872012,53.6474177038918],[-2.13686718431167,53.6476424043032]]],[[[-2.13574867230629,53.6525871041277],[-2.13612690569673,53.6525866742918],[-2.13612763774361,53.6528113744975],[-2.13650587313626,53.6528109434637],[-2.13650660720484,53.653035643658],[-2.13650734128312,53.6532603438437],[-2.13650807537112,53.6534850440211],[-2.13612983394236,53.6534854750638],[-2.13613056602798,53.6537101752356],[-2.13575232257736,53.6537106050864],[-2.13575159250383,53.6534859049116],[-2.13575086243996,53.6532612047283],[-2.13575013238575,53.6530365045366],[-2.13574940234119,53.6528118043363],[-2.13574867230629,53.6525871041277]]]]}}