{"type":"Feature","properties":{"code":"E63002491","name":"Thurcaston"},"geometry":{"type":"MultiPolygon","coordinates":[[[[-1.15303040195398,52.6858086822915],[-1.15303475104776,52.6855839660066],[-1.15266495212347,52.6855813241714],[-1.15229515325456,52.6855786811824],[-1.1522908005642,52.6858033974479],[-1.15228644781841,52.6860281137048],[-1.15191664540831,52.6860254695426],[-1.15191229080873,52.6862501857812],[-1.15190793615368,52.6864749020114],[-1.15190358144316,52.686699618233],[-1.15189922667717,52.6869243344461],[-1.15152941713054,52.6869216890911],[-1.15152506062675,52.6871464052982],[-1.15115525917686,52.6871437598232],[-1.15115090078023,52.6873684760113],[-1.15078109755028,52.687365829372],[-1.15041129437673,52.6873631815788],[-1.15041565644626,52.6871384654115],[-1.15042001845931,52.6869137492357],[-1.15042438041589,52.6866890330514],[-1.15042874231602,52.6864643168585],[-1.15005894654454,52.6864616679533],[-1.15006331022454,52.6862369517624],[-1.15006767384805,52.6860122355629],[-1.14969788180568,52.6860095855248],[-1.149702247209,52.6857848693273],[-1.14970661255582,52.6855601531212],[-1.14971097784612,52.6853354369066],[-1.14934119136904,52.6853327857462],[-1.14934555843905,52.6851080695335],[-1.14934992545253,52.6848833533123],[-1.14971970825718,52.6848860044517],[-1.14972407337796,52.6846612882115],[-1.14935429240948,52.6846586370825],[-1.1489845114975,52.6846559847999],[-1.14898888023406,52.6844312685721],[-1.14899324891407,52.6842065523357],[-1.14862347173087,52.6842038989203],[-1.14862784219042,52.6839791826859],[-1.1486322125934,52.683754466443],[-1.14863658624432,52.6835297500434],[-1.14826681454637,52.6835270954617],[-1.14827119063427,52.6833023789774],[-1.14827556666929,52.6830776624857],[-1.14790579838143,52.6830750066675],[-1.14791017604217,52.6828502901277],[-1.14791455365002,52.6826255735806],[-1.14791893120498,52.6824008570261],[-1.14754916800568,52.6823981999306],[-1.14755354718626,52.6821734833281],[-1.14755792631393,52.6819487667182],[-1.14756230538869,52.681724050101],[-1.14719254727776,52.6817213917282],[-1.14719692797806,52.6814966750629],[-1.14720130862542,52.6812719583903],[-1.14683155392427,52.6812692987811],[-1.1468359361971,52.6810445820604],[-1.14684031841698,52.6808198653323],[-1.14684470058392,52.6805951485969],[-1.1468490826979,52.6803704318542],[-1.1472188306856,52.6803730916265],[-1.14758857872621,52.6803757502441],[-1.14759295743063,52.6801510335756],[-1.14796270384581,52.6801536910792],[-1.14796708081904,52.6799289744442],[-1.14833682560879,52.6799316308338],[-1.14833245031385,52.680156347428],[-1.14870219683473,52.680159002622],[-1.14907194340842,52.6801616566613],[-1.14906757141724,52.6803863731665],[-1.14943731972204,52.6803890260102],[-1.14980706807962,52.6803916776991],[-1.15017681648994,52.6803943282332],[-1.15017244948096,52.6806190446085],[-1.15016808241923,52.6808437609765],[-1.15016371530476,52.6810684773371],[-1.15015934813754,52.6812931936904],[-1.15015498091758,52.6815179100364],[-1.15052473777256,52.6815205592114],[-1.15089449468025,52.6815232072316],[-1.15126425164062,52.681525854097],[-1.15125988940327,52.6817505703131],[-1.15125552711324,52.6819752865218],[-1.15125116477053,52.6822000027232],[-1.15162092886989,52.6822026484284],[-1.15161656813054,52.6824273645964],[-1.15161220733099,52.6826520807549],[-1.15198198171365,52.6826547257542],[-1.15235175615647,52.6826573696006],[-1.15235611296102,52.682432653351],[-1.15272588546647,52.6824352959991],[-1.15309565803201,52.6824379374944],[-1.15310001078149,52.6822132211445],[-1.15346978140963,52.6822158614416],[-1.15383955209782,52.6822185005858],[-1.15420932284602,52.6822211385772],[-1.15421366954307,52.6819964220816],[-1.15458343835381,52.6819990588748],[-1.15495320722452,52.6820016945152],[-1.15532297615515,52.6820043290028],[-1.15532731679994,52.6817796123616],[-1.15569708379306,52.681782245651],[-1.15606685084606,52.6817848777876],[-1.15643661795891,52.6817875087714],[-1.15644095255156,52.6815627919847],[-1.15681071772685,52.6815654217704],[-1.15718048296193,52.6815680504032],[-1.15718481349998,52.6813433335165],[-1.15755457679746,52.6813459609512],[-1.15755024825678,52.6815706778833],[-1.15792001361138,52.6815733042106],[-1.15791568700834,52.6817980211788],[-1.15791136034557,52.6820227381375],[-1.15790703362306,52.6822474550869],[-1.15827680502968,52.6822500803975],[-1.15827248024491,52.6824747973829],[-1.15826815540043,52.6826995143589],[-1.15863793086175,52.6827021386073],[-1.15863360795509,52.6829268556193],[-1.15900338547362,52.6829294787601],[-1.15899906450483,52.6831541958081],[-1.15936884408058,52.6831568178414],[-1.15936452504972,52.6833815349253],[-1.15936020595922,52.6836062519999],[-1.15972998958981,52.683608872971],[-1.15972567294542,52.6838335897653],[-1.15972135666068,52.6840583062922],[-1.15935156933099,52.6840556852923],[-1.15898178205625,52.6840530631386],[-1.15897746212028,52.6842777796378],[-1.15860767310238,52.6842751563208],[-1.15860335131325,52.6844998728019],[-1.15823356055219,52.6844972483216],[-1.15786376984615,52.6844946226875],[-1.15785944440563,52.6847193391409],[-1.15748965195646,52.6847167123435],[-1.15711985956237,52.6847140843922],[-1.15711553047036,52.6849388008179],[-1.15674573633315,52.6849361717033],[-1.15637594225107,52.6849335414349],[-1.15637160950748,52.6851582578327],[-1.15600181368232,52.6851556264009],[-1.15563201791232,52.6851529938154],[-1.15562768151706,52.6853777101854],[-1.15525788400401,52.6853750764364],[-1.15525354575525,52.6855997927881],[-1.15488374649915,52.6855971578757],[-1.15451394729829,52.6855945218094],[-1.1541441481527,52.6855918845894],[-1.1541398044538,52.6858166009035],[-1.1537700035652,52.68581396252],[-1.15340020273192,52.6858113229827],[-1.15303040195398,52.6858086822915]]],[[[-1.16479967440323,52.6892633599814],[-1.16479538198114,52.6894880764371],[-1.16479108950441,52.6897127928842],[-1.16478679697303,52.6899375093229],[-1.16478250438702,52.690162225753],[-1.16477821174636,52.6903869421746],[-1.1651480502549,52.690389546133],[-1.16551788881804,52.6903921489374],[-1.16588772743575,52.6903947505878],[-1.16589201468,52.6901700341379],[-1.16626185155346,52.6901726346249],[-1.16663168848145,52.6901752339579],[-1.16662740483483,52.6903999504266],[-1.16662312113368,52.6906246668868],[-1.16661883737801,52.6908493833385],[-1.16624899505352,52.6908467839773],[-1.16624470944444,52.6910715004111],[-1.16624042378081,52.6912962168363],[-1.16623613806264,52.6915209332531],[-1.16660598578384,52.6915235326425],[-1.16660170181006,52.6917482490602],[-1.16659741778176,52.6919729654693],[-1.1665931323891,52.692197681813],[-1.16622327936642,52.6921950824046],[-1.1662189916469,52.6924197987174],[-1.16584913698528,52.6924171981574],[-1.16585342639579,52.6921924818418],[-1.16548357347721,52.6921898801247],[-1.165487863988,52.6919651637824],[-1.16511801283254,52.691962560912],[-1.1647481617317,52.6919599568876],[-1.16437831068549,52.691957351709],[-1.16437401503408,52.6921820680473],[-1.16436971885965,52.6924067843737],[-1.16399986445857,52.6924041780419],[-1.16363001010967,52.6924015705557],[-1.16362571050108,52.6926262868793],[-1.16399556654098,52.6926288943628],[-1.16399126857121,52.6928536106754],[-1.16398697054925,52.6930783269799],[-1.16361711112728,52.6930757195017],[-1.16361281136206,52.6933004358006],[-1.16324295030122,52.6932978271708],[-1.1632386487927,52.6935225434641],[-1.16323434723193,52.6937472597491],[-1.16323004561893,52.693971976026],[-1.16359991175311,52.6939745846478],[-1.16396977793949,52.6939771921152],[-1.16396547965657,52.6942019083785],[-1.16396118132146,52.6944266246335],[-1.16433105094236,52.6944292309411],[-1.16432675424625,52.6946539471852],[-1.16395688293414,52.6946513408803],[-1.16395258449464,52.6948760571189],[-1.16394828600293,52.6951007733492],[-1.16394398745903,52.6953254895713],[-1.16393968886293,52.6955502057852],[-1.1643095669401,52.6955528120793],[-1.16430526998312,52.6957775282823],[-1.16430097297396,52.696002244477],[-1.16393109151413,52.6959996381882],[-1.16392679276142,52.6962243543774],[-1.16355690966241,52.6962217469368],[-1.16355260916611,52.6964464631204],[-1.16318272442792,52.6964438545279],[-1.16281283974196,52.6964412447809],[-1.16244295510826,52.6964386338794],[-1.16244726067872,52.6962139176878],[-1.16207737778868,52.6962113056292],[-1.16170749495094,52.696208692416],[-1.16170318599771,52.6964334086129],[-1.16133330152091,52.6964307942478],[-1.16132899082392,52.6966555104391],[-1.16095910470806,52.6966528949221],[-1.16058921864456,52.6966502782506],[-1.16059353272435,52.6964255620541],[-1.16059784675174,52.6962008458494],[-1.16022796412342,52.6961982280181],[-1.1598580815475,52.6961956090324],[-1.15948819902401,52.6961929888922],[-1.15911831655298,52.6961903675974],[-1.15912263729339,52.6959656513741],[-1.15912695798129,52.6957409351426],[-1.15949683706964,52.6957435564425],[-1.15950115601373,52.6955188402053],[-1.15987103346321,52.6955214603533],[-1.15987535066354,52.6952967441105],[-1.15987966781142,52.6950720278594],[-1.15988398490684,52.6948473116001],[-1.15951411253116,52.6948446914444],[-1.15951843126535,52.6946199751743],[-1.15952274994707,52.694395258896],[-1.15915288100624,52.6943926375807],[-1.15915720132666,52.6941679212915],[-1.15878733412947,52.6941652988193],[-1.15879165608855,52.6939405825193],[-1.15842179063499,52.69393795889],[-1.15805192523395,52.6939353341063],[-1.15805625052275,52.6937106177931],[-1.15768638686536,52.6937079918525],[-1.15731652326053,52.6937053647574],[-1.15732085187897,52.6934806484309],[-1.1569509900178,52.6934780201789],[-1.15658112820923,52.6934753907725],[-1.15658546015721,52.6932506744328],[-1.15658979205254,52.6930259580848],[-1.15659412389522,52.6928012417286],[-1.15659845568525,52.6925765253641],[-1.15696831072967,52.6925791547805],[-1.15697264077607,52.6923544384103],[-1.15660278742263,52.6923518089914],[-1.15623293412181,52.6923491784182],[-1.15586308087363,52.6923465466906],[-1.15586741594027,52.6921218303047],[-1.1554975644357,52.6921191974203],[-1.1551277129838,52.6921165633815],[-1.15512337453525,52.6923412797723],[-1.1547535214451,52.6923386445817],[-1.15438366840767,52.6923360082367],[-1.15401381542299,52.6923333707373],[-1.1540181589444,52.6921086543391],[-1.15364830770344,52.692106015683],[-1.1536526542163,52.69188129952],[-1.15402250366791,52.691883938166],[-1.1540268488609,52.6916592220818],[-1.15439669656889,52.691661859564],[-1.1544010399076,52.6914371434616],[-1.15403119399853,52.6914345059891],[-1.15403553908082,52.6912097898879],[-1.15366569502596,52.6912071512711],[-1.15367004185177,52.6909824351711],[-1.15330019965113,52.69097979541],[-1.15293035750584,52.6909771544949],[-1.15292600708229,52.6912018705754],[-1.15292165660331,52.6914265866474],[-1.15255181091565,52.6914239445588],[-1.15254745858234,52.6916486606126],[-1.15217761115116,52.6916460173602],[-1.15218196528339,52.6914213013162],[-1.15181211970657,52.6914186569195],[-1.15144227633866,52.6914160116124],[-1.15144663391412,52.6911912955674],[-1.15145099143317,52.6909665795139],[-1.15182083140237,52.6909692248255],[-1.15182518716704,52.6907445087657],[-1.15219502734726,52.6907471531331],[-1.15219938125762,52.690522437055],[-1.15256921969445,52.6905250802586],[-1.15257357175054,52.6903003641623],[-1.15220373511251,52.6902977209684],[-1.1518338985299,52.6902950766206],[-1.1518382541281,52.6900703605353],[-1.15146842094524,52.6900677152144],[-1.15147277818224,52.6898429991182],[-1.15110295469335,52.689840353518],[-1.15110731371066,52.6896156374237],[-1.15111167267154,52.6893909213208],[-1.15074185291246,52.6893882745875],[-1.15074621365357,52.6891635584866],[-1.15075057433824,52.6889388423771],[-1.15038075830888,52.6889361945108],[-1.15038512077371,52.6887114784032],[-1.15075493496645,52.6887141262591],[-1.1511247492156,52.6887167729612],[-1.15149456352114,52.6887194185092],[-1.15149892041972,52.6884947023618],[-1.1518687417619,52.6884973476994],[-1.15223856395502,52.6884999919691],[-1.15224291731077,52.6882752758058],[-1.15261273776074,52.6882779189119],[-1.15260838620356,52.6885026350849],[-1.15260403459096,52.6887273512494],[-1.1529738586935,52.688729993221],[-1.15296950882409,52.6889547093867],[-1.15333933478064,52.6889573502142],[-1.15333498665447,52.6891820663811],[-1.15370481446502,52.6891847060644],[-1.15370046808214,52.6894094222325],[-1.1540702977467,52.6894120607715],[-1.15406595310716,52.6896367769409],[-1.15443578462573,52.6896394143357],[-1.15480561619958,52.6896420505766],[-1.15480127510216,52.6898667667568],[-1.15517110853,52.6898694018534],[-1.15516676917604,52.6900941180348],[-1.15553660445788,52.6900967519871],[-1.15553226684743,52.6903214681697],[-1.15590210398325,52.6903241009777],[-1.15589776811636,52.6905488171615],[-1.15626760710619,52.6905514488252],[-1.15663744615118,52.6905540793349],[-1.15663311382672,52.6907787955294],[-1.15700295472569,52.6907814248948],[-1.15699862414492,52.6910061410904],[-1.15699429350899,52.6912308572776],[-1.15698996281791,52.6914555734562],[-1.15735980916864,52.6914582016965],[-1.15772965557448,52.6914608287827],[-1.15773398266775,52.6912361125848],[-1.15810382732976,52.6912387385074],[-1.15847367204683,52.6912413632759],[-1.15847799548723,52.6910166470503],[-1.15810815256905,52.6910140222914],[-1.15811247775325,52.6907893060668],[-1.15848231887258,52.6907919308161],[-1.15885216004693,52.6907945544115],[-1.15884783846044,52.6910192706552],[-1.15921768148866,52.6910218931062],[-1.15922200127628,52.6907971768528],[-1.15959184256062,52.6907997981401],[-1.15996168389991,52.6908024182735],[-1.15996600003485,52.6905777019925],[-1.16033583963024,52.6905803209622],[-1.16070567928053,52.690582938778],[-1.16107551898571,52.6905855554398],[-1.16107982966925,52.6903608391216],[-1.16108414029789,52.6901361227949],[-1.16108845087166,52.6899114064596],[-1.16145828523532,52.6899140219388],[-1.16146259395545,52.6896893055855],[-1.16146690262073,52.6894645892238],[-1.16183673344175,52.6894672035299],[-1.16184104025347,52.6892424871501],[-1.16184534701036,52.6890177707618],[-1.16221517428882,52.689020383895],[-1.16221947919223,52.6887956674886],[-1.16222378404083,52.6885709510737],[-1.1625936077768,52.6885735630339],[-1.16259791077199,52.688348846601],[-1.16296773276411,52.6883514573979],[-1.16296343156752,52.6885761738403],[-1.16333325541298,52.6885787834927],[-1.16332895596026,52.6888034999361],[-1.16369878165906,52.688806108444],[-1.16406860741255,52.6888087157981],[-1.164072903268,52.6885839993358],[-1.16407719906877,52.688359282865],[-1.16444702127968,52.6883618890462],[-1.16481684354523,52.6883644940735],[-1.16481255134169,52.6885892105633],[-1.16518237546047,52.6885918144461],[-1.16517808500092,52.6888165309368],[-1.16517379448676,52.6890412474189],[-1.16516950391799,52.6892659638926],[-1.16479967440323,52.6892633599814]]],[[[-1.15149892041972,52.6884947023618],[-1.15112910795077,52.6884920568242],[-1.15113346662951,52.6882673406787],[-1.15113782525182,52.6880426245246],[-1.15114218381772,52.6878179083621],[-1.1507723769148,52.6878152617019],[-1.15077673726076,52.6875905455412],[-1.15114654232719,52.687593192191],[-1.15151634745,52.6875958376869],[-1.15188616204634,52.6875984830343],[-1.15188180705845,52.6878231992134],[-1.15151199077703,52.6878205538684],[-1.15150763404766,52.6880452700414],[-1.15187745201508,52.6880479153839],[-1.15187309691623,52.6882726315459],[-1.15150327726188,52.6882699862059],[-1.15149892041972,52.6884947023618]]]]}}