{"type":"Feature","properties":{"code":"E63005031","name":"Stone (Dartford)"},"geometry":{"type":"MultiPolygon","coordinates":[[[[0.268837939950651,51.4423456220845],[0.269197352416497,51.4423386619525],[0.26918622503287,51.4421140500334],[0.269545636022987,51.4421070890193],[0.269905046877839,51.4421001269067],[0.269916176950675,51.4423247383973],[0.270275589018966,51.442317774974],[0.270635000954699,51.4423108104537],[0.270994412757852,51.4423038448362],[0.271353824428409,51.4422968781216],[0.271713235966346,51.44228991031],[0.272072647371646,51.4422829414013],[0.272061509165184,51.4420583311615],[0.27242091907259,51.4420513613591],[0.272780328844562,51.4420443904582],[0.273139738481084,51.4420374184588],[0.273499147982131,51.4420304453609],[0.273858557347685,51.4420234711644],[0.273847414312418,51.4417988626695],[0.27420682192414,51.4417918874738],[0.274566229400328,51.4417849111797],[0.274555083264104,51.4415603028704],[0.274914488986446,51.4415533255771],[0.275273894573217,51.4415463471854],[0.275262745336126,51.4413217390617],[0.275622149169038,51.4413147596708],[0.27598155286634,51.4413077791815],[0.275970400528475,51.4410831712435],[0.275959248326365,51.4408585632925],[0.276318648651575,51.4408515819034],[0.27630749496702,51.4406269740387],[0.276666893538386,51.4406199916506],[0.276655738371428,51.4403953838722],[0.27664458334026,51.4401707760807],[0.277003978539637,51.440163792793],[0.276992822026128,51.4399391850878],[0.276981665648425,51.4397145773696],[0.276970509406526,51.4394899696383],[0.277329899615906,51.4394829855503],[0.277318741891746,51.4392583779054],[0.277678130347369,51.4392513928185],[0.278037518667277,51.4392444066332],[0.278026357842863,51.4390197991739],[0.278385744409003,51.4390128119897],[0.278374582102436,51.4387882046168],[0.27836341993175,51.4385635972309],[0.278004036601617,51.4385705842163],[0.277992876184781,51.4383459767178],[0.2779817159038,51.4381213692063],[0.277970555758671,51.4378967616817],[0.277959395749393,51.437672154144],[0.277948235875962,51.4374475465932],[0.277588860499753,51.4374545319831],[0.277577702380035,51.4372299243198],[0.277566544396138,51.4370053166434],[0.277555386548061,51.436780708954],[0.277196015889699,51.4367876929473],[0.27683664509567,51.4367946758423],[0.276825490619023,51.436570067941],[0.276466121307153,51.4365770496383],[0.276454968584066,51.4363524416245],[0.276443815996728,51.4361278335976],[0.276084449784794,51.4361348139979],[0.27572508343726,51.4361417932999],[0.275365716954146,51.4361487715036],[0.275006350335474,51.436155748609],[0.274646983581264,51.4361627246162],[0.274287616691538,51.436169699525],[0.273928249666314,51.4361766733356],[0.273939390929222,51.436401282058],[0.273580022150737,51.4364082548696],[0.273220653236795,51.436415226583],[0.272861284187417,51.436422197198],[0.272501915002621,51.4364291667147],[0.272490780210867,51.4362045575951],[0.272131412508468,51.4362115259142],[0.271772044670699,51.4362184931351],[0.271412676697577,51.4362254592576],[0.271053308589122,51.4362324242818],[0.271064436909687,51.4364570337986],[0.270705067048118,51.4364639978237],[0.270693940345357,51.4362393882078],[0.270334571966301,51.4362463510354],[0.269975203451977,51.4362533127647],[0.269615834802403,51.4362602733957],[0.269256466017599,51.4362672329285],[0.268897097097589,51.4362741913629],[0.268908215711301,51.436498801475],[0.268548845038286,51.4365057589103],[0.268189474230102,51.4365127152472],[0.268200589743438,51.4367373255447],[0.267841217182263,51.4367442808825],[0.267481844485959,51.436751235122],[0.267492956898824,51.4369758456047],[0.267133582449542,51.4369827988451],[0.26677420786517,51.4369897509871],[0.266785317177473,51.4372143616551],[0.266425940840136,51.4372213127978],[0.266066564367747,51.4372282628423],[0.265707187760326,51.4372352117884],[0.265347811017895,51.4372421596361],[0.265358913993703,51.4374667706876],[0.265370017104608,51.437691381726],[0.265010636554854,51.4376983292001],[0.264651251995116,51.4377052802523],[0.264662352162089,51.4379298913532],[0.264302965872686,51.4379368414441],[0.264314064577272,51.4381614526647],[0.264325163415541,51.43838606387],[0.264336262387495,51.4386106750601],[0.263976871176173,51.4386176244595],[0.26398796868566,51.4388422357692],[0.264347361493137,51.4388352862349],[0.26435846073247,51.4390598973944],[0.264369560105496,51.4392845085387],[0.264380659612216,51.4395091196677],[0.264391759252632,51.4397337307814],[0.264402859026748,51.4399583418799],[0.264413958934565,51.4401829529631],[0.264773361185818,51.4401760015232],[0.26478446282364,51.4404006124562],[0.264425058976087,51.4404075640311],[0.264436159151314,51.4406321750838],[0.26479556459519,51.440625223374],[0.264806666500469,51.4408498342765],[0.264817768539479,51.4410744451638],[0.265177175596313,51.4410674941715],[0.26518827925079,51.4412921051003],[0.265547685254118,51.4412851565667],[0.265907091122416,51.4412782069346],[0.266266496855663,51.441271256204],[0.266277605500174,51.4414958668223],[0.266288714279866,51.4417204774276],[0.266648123114664,51.4417135254001],[0.266659233647883,51.4419381358932],[0.266299823194739,51.4419450880198],[0.2663109322448,51.442169698599],[0.266670344316309,51.4421627463732],[0.267029756252716,51.4421557930489],[0.267040875634642,51.4423804062878],[0.267400288762681,51.4423734516413],[0.267759701758321,51.4423664958978],[0.268119114621543,51.4423595390572],[0.268478527352326,51.4423525811194],[0.268837939950651,51.4423456220845]]],[[[0.278586715302521,51.443055752628],[0.278227299994386,51.4430627417759],[0.278216130033324,51.4428381318788],[0.27785671616565,51.4428451198067],[0.277845547911136,51.442620509772],[0.277834379789698,51.4423958997229],[0.277823212392796,51.4421712898903],[0.277463802900719,51.4421782762698],[0.277452643546524,51.4419536687818],[0.277093235537043,51.4419606539633],[0.277104393272919,51.4421852615507],[0.27674498356137,51.4421922457536],[0.276756146829501,51.4424168561862],[0.276396735576902,51.4424238394798],[0.276407897404609,51.4426484500207],[0.276048484445671,51.4426554323402],[0.275689071353852,51.4426624135626],[0.275700230167633,51.4428870243349],[0.275340815369488,51.4428940045831],[0.274981400438497,51.4429009837342],[0.274992556238263,51.4431255947377],[0.274633139600959,51.4431325729146],[0.274644293960128,51.4433571840265],[0.275003712170941,51.4433502057267],[0.275363130248925,51.4433432263298],[0.275374287888049,51.4435678371813],[0.275014868236537,51.4435748167011],[0.275026024435052,51.443799427661],[0.274666603077158,51.4438064062066],[0.274307181586449,51.4438133836551],[0.273947759962948,51.4438203600064],[0.273588338206673,51.4438273352606],[0.273228916317644,51.4438343094177],[0.273240064781197,51.4440589209774],[0.272880641185851,51.4440658941602],[0.272521217457789,51.4440728662458],[0.272161793597032,51.4440798372343],[0.271802369603599,51.4440868071256],[0.27144294547751,51.4440937759197],[0.271083521218785,51.4441007436167],[0.271072382196764,51.44387613132],[0.271061243307436,51.4436515190088],[0.270701822063266,51.443658485363],[0.270690684880181,51.4434338729144],[0.270331265076978,51.4434408380487],[0.269971845141205,51.4434478020859],[0.269612425072882,51.4434547650259],[0.26925300487203,51.4434617268688],[0.268893584538669,51.4434686876145],[0.268882455355951,51.4432440745375],[0.268523036463648,51.4432510340634],[0.268163617438876,51.4432579924921],[0.267804198281658,51.4432649498236],[0.267444778992013,51.443271906058],[0.26708535956996,51.4432788611953],[0.267096480884919,51.4435034748859],[0.26673705975692,51.4435104290487],[0.266377638496551,51.4435173821143],[0.266388756796808,51.4437419960358],[0.266029333830507,51.443748948127],[0.265669910731873,51.443755899121],[0.265310487500929,51.4437628490178],[0.264951062725571,51.4437697991003],[0.264591633904019,51.4437767516276],[0.264232204937502,51.4437837030481],[0.264221096385507,51.4435590888951],[0.26386166905286,51.4435660392408],[0.263502241575298,51.4435729884797],[0.263142813952842,51.4435799366119],[0.263131710882222,51.4433553225496],[0.263491136725884,51.4433483743855],[0.263480032021422,51.4431237602864],[0.263468927461911,51.4428991461824],[0.263109505175769,51.4429060944103],[0.263098402539931,51.4426814803332],[0.262738981887653,51.4426884274864],[0.262727881175443,51.4424638134363],[0.262716780608131,51.4422391993812],[0.262705685895485,51.4420145872306],[0.262694592900253,51.441789975595],[0.262683500038634,51.4415653639442],[0.262672407310628,51.4413407522781],[0.262661314716231,51.4411161405968],[0.26265022225544,51.4408915289002],[0.262639129928255,51.4406669171883],[0.262628037734672,51.4404423054612],[0.262268633085802,51.4404492504584],[0.262279723683049,51.4406738623204],[0.261920317304359,51.4406808063561],[0.261560910792206,51.4406877492955],[0.261549823387637,51.4404631371639],[0.261190418338383,51.4404700788722],[0.260831013155708,51.4404770194842],[0.26081992907732,51.4402524070676],[0.260808845132425,51.4400277946358],[0.260797761321021,51.4398031821887],[0.260786677643104,51.4395785697264],[0.260775594098673,51.4393539572488],[0.260416196764014,51.4393608960904],[0.260405114949287,51.4391362834628],[0.260045719077482,51.4391432210734],[0.259686323072331,51.4391501575878],[0.259675244583469,51.4389255446753],[0.259315850041196,51.4389324799586],[0.258956455365621,51.4389394141457],[0.258597060556762,51.4389463472366],[0.258585986989875,51.4387217339045],[0.258226593643944,51.4387286657644],[0.257867200164773,51.438735596528],[0.257507806552382,51.4387425261953],[0.25751887533069,51.4389671399316],[0.257529944242285,51.4391917536527],[0.257170547304278,51.4391986824933],[0.257181614752925,51.4394232963338],[0.257192682334844,51.4396479101591],[0.257203750050038,51.4398725239692],[0.257214817898508,51.440097137764],[0.257225885880258,51.4403217515436],[0.257236953995289,51.440546365308],[0.257248022243603,51.4407709790571],[0.257259090625204,51.440995592791],[0.257270159140092,51.4412202065096],[0.257281227788271,51.441444820213],[0.257292296569742,51.4416694339011],[0.257303365484507,51.4418940475741],[0.25766278157879,51.4418871171166],[0.257673852223346,51.4421117306396],[0.258033269780889,51.442104798951],[0.258392687205179,51.4420978661661],[0.258403764179083,51.442322479663],[0.25841484340202,51.4425470933343],[0.258774264012095,51.4425401594297],[0.258785345158389,51.4427647731281],[0.259144767402613,51.4427578381487],[0.25915585047231,51.4429824518743],[0.259515274350679,51.4429755158202],[0.259874698084415,51.4429685786594],[0.259863611457216,51.4427439648699],[0.26022303326755,51.4427370265704],[0.260234121673496,51.4429616403919],[0.260245210224185,51.4431862542085],[0.260256298919619,51.4434108680201],[0.260615725921579,51.4434039287099],[0.260975152778832,51.4433969882929],[0.260986245176638,51.4436216021635],[0.260997337719238,51.4438462160293],[0.260637907304339,51.4438531563823],[0.26064899821288,51.4440777702111],[0.260289565874411,51.4440847094254],[0.260278476744729,51.4438600956286],[0.25991904604043,51.4438670337682],[0.259930133391249,51.444091647533],[0.259941220886801,51.4443162612929],[0.259952308527086,51.4445408750478],[0.259592872341459,51.4445478119846],[0.259603958347548,51.4447724257027],[0.259244520238334,51.4447793615007],[0.258885081984492,51.4447862961919],[0.258873999536277,51.4445616825379],[0.258514562916769,51.4445686161544],[0.258155126152678,51.4445755486641],[0.25816620504301,51.4448001622541],[0.258177284077965,51.4450247758391],[0.258188363257547,51.4452493894192],[0.257828921011994,51.445256320726],[0.257469478621897,51.445263250926],[0.257110036087282,51.4452701800192],[0.257098962244681,51.4450455665353],[0.256739521344566,51.4450524945537],[0.256380080299981,51.4450594214654],[0.256369010159892,51.4448348080407],[0.25600957074984,51.4448417338777],[0.255650131195365,51.4448486586079],[0.255639064757705,51.4446240452424],[0.255279626837791,51.4446309688979],[0.254920188773504,51.4446378914466],[0.254909126038189,51.4444132781405],[0.254549689608495,51.4444201996146],[0.254560750564867,51.4446448128886],[0.254571811665632,51.4448694261578],[0.254212371533695,51.4448763464608],[0.254223430999862,51.4451009596929],[0.254234490610404,51.44532557292],[0.253875046776146,51.445332492052],[0.253886104752024,51.4455571052421],[0.253897162872258,51.4457817184272],[0.253537715335599,51.4457886363881],[0.253548771821105,51.4460132495361],[0.253559828450948,51.4462378626792],[0.25320037721181,51.446244779469],[0.253211432206857,51.4464693925749],[0.252851979044325,51.4464763082257],[0.252863032404529,51.4467009212946],[0.252874085909035,51.4469255343585],[0.253233542629917,51.446918618772],[0.253244598057934,51.4471432318632],[0.253604056413761,51.447136315202],[0.253592999206537,51.4469117020787],[0.253952455638873,51.4469047842786],[0.254311911926902,51.4468978653716],[0.254322972692532,51.4471224785591],[0.254682430615431,51.4471155585774],[0.25469349330468,51.4473401717922],[0.255052952862444,51.4473332507357],[0.255064017475358,51.4475578639777],[0.25507508223272,51.4477824772147],[0.255086147134533,51.4480070904468],[0.255097212180798,51.448231703674],[0.255108277371519,51.4484563168962],[0.255119342706697,51.4486809301135],[0.254759872473135,51.4486878509772],[0.254770936173393,51.4489124641575],[0.254782000018092,51.4491370773327],[0.254793064007232,51.4493616905031],[0.254804128140818,51.4495863036685],[0.254444650645214,51.4495932232967],[0.254455713143774,51.449817836425],[0.254466775786758,51.4500424495484],[0.254107294587819,51.4500493680054],[0.254118355595711,51.4502739810917],[0.254129416748011,51.4504985941731],[0.253769931845658,51.4505055114588],[0.253780996789733,51.450730125542],[0.253792062329196,51.4509547397097],[0.254151550545203,51.4509478225407],[0.254140483260159,51.4507232082949],[0.254499969588305,51.4507162899379],[0.254511038618927,51.4509409042619],[0.254522107791889,51.4511655185839],[0.254881597468906,51.4511585992734],[0.255241087003592,51.451151678853],[0.255600576395927,51.4511447573227],[0.255611650948087,51.451369371877],[0.255971141943659,51.451362449315],[0.256330632796831,51.451355525643],[0.256690123507581,51.4513486008613],[0.257049614075887,51.4513416749696],[0.257409104501724,51.451334747968],[0.257768594785073,51.4513278198565],[0.258128084925907,51.4513208906352],[0.258487574924208,51.4513139603039],[0.258847064779951,51.4513070288628],[0.259206554493114,51.4513000963118],[0.259566044063674,51.4512931626508],[0.259577137960107,51.451517778062],[0.259936629133651,51.4515108433692],[0.260296120164546,51.4515039075665],[0.260655611052768,51.4514969706539],[0.261015101798295,51.4514900326313],[0.261374592401105,51.4514830934989],[0.261734082861175,51.4514761532566],[0.262093573178482,51.4514692119043],[0.262453063353005,51.4514622694422],[0.262812553384719,51.4514553258701],[0.263172043273604,51.4514483811881],[0.263183154768907,51.4516729973771],[0.263542646260547,51.4516660516631],[0.26390213760931,51.4516591048393],[0.264261628815173,51.4516521569055],[0.264250512083055,51.4514275404827],[0.264610001400395,51.451420591361],[0.264621119878113,51.4516452078617],[0.264980610798108,51.4516382577081],[0.265340092856884,51.4516313062507],[0.265699572821526,51.451624353645],[0.265688449134885,51.4513997370688],[0.266047927031444,51.451392783365],[0.26640740477449,51.4513858285564],[0.266418532290319,51.4516104451195],[0.266778011794418,51.4516034891997],[0.266789141378434,51.4518281057489],[0.266800271116052,51.4520527222908],[0.267159754295833,51.4520457652532],[0.267519237322019,51.4520388071108],[0.267530371042557,51.4522634236323],[0.267889855829778,51.4522564643787],[0.268249340463352,51.4522495040203],[0.268608824943253,51.4522425425573],[0.268968309269458,51.4522355799895],[0.26932779344194,51.452228616317],[0.269687277460674,51.4522216515398],[0.270046761325637,51.4522146856578],[0.270406245036802,51.4522077186712],[0.270765728594145,51.4522007505798],[0.27112521199764,51.4521937813837],[0.271114059130682,51.4519691649284],[0.271102906417618,51.4517445484658],[0.271462385838012,51.4517375781783],[0.271451231364262,51.4515129617151],[0.271091753858448,51.4515199319959],[0.270732276198769,51.451526901172],[0.270721125708044,51.4513022846882],[0.271080601453165,51.4512953155187],[0.271440077044425,51.4512883452446],[0.271799552481798,51.4512813738657],[0.27215902776526,51.4512744013822],[0.272170185914198,51.4514990178394],[0.271810708716187,51.4515059903296],[0.271821865104513,51.4517306067861],[0.272181344217098,51.4517236342893],[0.272192502673963,51.4519482507318],[0.2725519835472,51.4519412771236],[0.272911464266468,51.4519343024106],[0.272922626706537,51.4521589188324],[0.273282109186425,51.452151943008],[0.273641591512291,51.4521449660789],[0.274001073684109,51.4521379880451],[0.273989905500207,51.4519133716434],[0.274349385603347,51.4519063925116],[0.274708865552394,51.451899412275],[0.275068345347321,51.4518924309338],[0.27505717157377,51.451667814545],[0.274697693693419,51.4516747958795],[0.274686521988579,51.4514501794767],[0.275045997954377,51.451443198149],[0.275034824489141,51.4512185817456],[0.275394298386275,51.4512115993199],[0.275383123160691,51.450986982916],[0.275742594989165,51.4509799993924],[0.276102066663455,51.4509730147642],[0.276090887763101,51.4507483983665],[0.276450357368714,51.4507414126404],[0.276439177133893,51.4505167964128],[0.276798645176329,51.4505098097903],[0.276809826820096,51.4507344258097],[0.277169296117223,51.4507274378743],[0.277528765260068,51.4507204488342],[0.277517580862238,51.450495833253],[0.277158113085783,51.4505028220703],[0.277146945027799,51.4502782121615],[0.276787478692512,51.4502851997584],[0.276776312341765,51.450060589712],[0.276765146124085,51.4498359796511],[0.276405682804097,51.4498429659048],[0.276394518293589,51.4496183557063],[0.276035056414757,51.4496253407397],[0.27602389361138,51.4494007304037],[0.275664433173708,51.4494077142168],[0.275653272077419,51.4491831037434],[0.275642111114127,51.4489584932554],[0.275630950283828,51.4487338827529],[0.275619789586521,51.4485092722358],[0.275260335312101,51.4485162544598],[0.275249176321771,51.4482916438053],[0.274889723488461,51.448298624809],[0.274530270522293,51.4483056047155],[0.274170817423287,51.4483125835246],[0.274159663287838,51.4480879724868],[0.27380021162999,51.4480949500758],[0.273440759839347,51.4481019265674],[0.273429608984712,51.4478773152693],[0.273070158635253,51.4478842905407],[0.27271070815304,51.4478912647149],[0.272699560579141,51.4476666531565],[0.272340111538138,51.4476736261105],[0.271980662364424,51.4476805979672],[0.271969518071184,51.4474559861486],[0.271610070338705,51.4474629567851],[0.271250622473557,51.4474699263244],[0.271261763618941,51.4476945383887],[0.270902314047212,51.4477015069535],[0.270542864342853,51.447708474421],[0.27055400247306,51.4479330867164],[0.270565140735958,51.4481576989973],[0.270924593588246,51.4481507312842],[0.270935733557831,51.4483753434277],[0.270946873660131,51.4485999555567],[0.270958013895149,51.4488245676712],[0.270969154262887,51.4490491797711],[0.270609695114488,51.4490561479755],[0.270620834040867,51.4492807601838],[0.270631973099951,51.4495053723775],[0.270643112291739,51.4497299845567],[0.270283648288408,51.4497369520321],[0.270272510670742,51.4495123397301],[0.269913048108927,51.4495193059854],[0.269901912198052,51.4492946935461],[0.269542451077754,51.4493016585812],[0.269182989824889,51.4493086225189],[0.269194122587548,51.4495332352039],[0.269205255482828,51.4497578478742],[0.269216388510732,51.4499824605301],[0.269227521671262,51.4502070731715],[0.26923865496442,51.4504316857983],[0.269598124088042,51.4504247212466],[0.269957593079084,51.4504177555975],[0.269968734694388,51.4506423701777],[0.270328205003613,51.4506354032376],[0.270339353118271,51.45086001975],[0.270350501386761,51.4510846362551],[0.270361649809087,51.451309252753],[0.270002173756318,51.4513162197131],[0.269642697549762,51.4513231855685],[0.269283221189445,51.4513301503192],[0.268923744675392,51.4513371139653],[0.268564268007626,51.4513440765066],[0.268553129158019,51.4511194599757],[0.268541990462127,51.4508948434375],[0.268530851919947,51.4506702268919],[0.268171380842078,51.4506771883088],[0.26816024679829,51.4504525728688],[0.268149118227724,51.4502279598737],[0.268137989789723,51.450003346864],[0.267778523284374,51.4500103067805],[0.267419056646549,51.4500172655996],[0.267407931489434,51.4497926523299],[0.267396806464839,51.4495680390457],[0.26738568157276,51.449343425747],[0.267026219524914,51.4493503831005],[0.26666675734464,51.4493573393565],[0.266307295031959,51.4493642945152],[0.265947832586892,51.4493712485765],[0.265936714123747,51.4491466347724],[0.265925595793033,51.4489220209538],[0.266285055089905,51.4489150671379],[0.266644514254394,51.4489081122247],[0.267003973286481,51.448901156214],[0.266992850366,51.4486765427491],[0.267352307691604,51.4486695857638],[0.267711764884769,51.4486626276811],[0.267722890953366,51.4488872409007],[0.268082349588126,51.4488802815979],[0.268071221945472,51.4486556685011],[0.268430678873696,51.4486487082238],[0.26841954978956,51.4484240952353],[0.268408420837993,51.4481994822322],[0.268397292018992,51.4479748692147],[0.268386163332555,51.4477502561826],[0.268375034778681,51.447525643136],[0.268734483704464,51.4475186823751],[0.268745613832283,51.4477432952989],[0.2691050641995,51.447736333318],[0.269093932497735,51.4475117205169],[0.269453381158479,51.4475047575614],[0.269464514434185,51.4477293702397],[0.269823964536319,51.4477224060641],[0.270183414505882,51.4477154407912],[0.270172278082297,51.4474908283585],[0.270531726345333,51.4474838621111],[0.270520588480498,51.4472592497866],[0.270509450748346,51.4470346374477],[0.270150005633119,51.4470416034495],[0.269790560385306,51.447048568354],[0.26943111500493,51.4470555321612],[0.269071669492007,51.4470624948712],[0.269060538188041,51.4468378820265],[0.268701094116476,51.4468448435164],[0.268341649912408,51.446851803909],[0.267982205575858,51.4468587632044],[0.267971079126073,51.4466341499769],[0.267611636230928,51.4466411080523],[0.267252193203341,51.4466480650303],[0.266892750043335,51.4466550209111],[0.266533306750928,51.4466619756945],[0.26617386332614,51.4466689293807],[0.26616274487814,51.4464443155252],[0.265803302894848,51.4464512679914],[0.265792186153109,51.4462266539987],[0.265781069543768,51.4460020399914],[0.265769953066825,51.4457774259697],[0.266129390328669,51.4457704738715],[0.266118272410349,51.445545859958],[0.26647770796607,51.4455389068853],[0.266466588606413,51.4453142930799],[0.266826022456016,51.4453073390326],[0.266814901655065,51.4450827253354],[0.267174333798556,51.4450757703137],[0.26716321155635,51.4448511567247],[0.267522641993734,51.4448442007284],[0.267511518310318,51.4446195872476],[0.267870947041599,51.4446126302769],[0.26823037564044,51.444605672209],[0.268241502471211,51.4448302854443],[0.268600932511267,51.4448233261564],[0.26858980410682,51.4445987130438],[0.26894923244072,51.4445917527815],[0.268960362418839,51.4448163657713],[0.269319792193909,51.4448094042891],[0.269679221836455,51.4448024417096],[0.269668088710998,51.4445778289653],[0.270027516647336,51.4445708654114],[0.270386944451114,51.4445639007603],[0.270398080723901,51.4447885132591],[0.270409217129345,51.4450131257433],[0.270768647947886,51.4450061597494],[0.270779786059695,51.4452307720964],[0.271139218319332,51.4452238048825],[0.271498650446342,51.4452168365714],[0.271858082440706,51.4452098671632],[0.2718469396078,51.4449852551847],[0.271835796907639,51.4447606431917],[0.27182465434022,51.4445360311842],[0.272184081480896,51.4445290610472],[0.272543508488891,51.4445220898131],[0.272554654203613,51.4447467015749],[0.272914082652556,51.4447397291208],[0.273273510968778,51.4447327555694],[0.273262362106761,51.4445081440533],[0.273621788716595,51.4445011695276],[0.27398121519367,51.4444941939048],[0.274340641537964,51.4444872171848],[0.274351795120904,51.4447118283324],[0.274362948836734,51.4449364394654],[0.274722378195523,51.4449294614024],[0.275081807421487,51.4449224822423],[0.275092964417562,51.445147093115],[0.275452395084357,51.4451401127348],[0.275811825618284,51.4451331312574],[0.275822985894683,51.4453577418697],[0.27583414630406,51.4455823524674],[0.275845306846419,51.4458069630506],[0.275485871591349,51.4458139448967],[0.275497030692934,51.4460385555883],[0.275137593731232,51.4460455364602],[0.275148751392003,51.4462701472601],[0.275159909185719,51.4464947580455],[0.274800468943579,51.4465017380659],[0.274811625296421,51.4467263489597],[0.274822781782191,51.446950959839],[0.27446333825954,51.446957939008],[0.274474493304375,51.4471825499956],[0.27411504807503,51.4471895281902],[0.274103894604063,51.4469649170797],[0.273744450815783,51.4469718940542],[0.273755602712878,51.4471965052876],[0.273396157217938,51.4472034812877],[0.273407307674009,51.4474280926294],[0.273766754742843,51.4474211165064],[0.274126201678888,51.4474141392862],[0.27413735541564,51.4476387503676],[0.273777906905682,51.4476457277107],[0.273789059201398,51.4478703389005],[0.27414850928529,51.4478633614345],[0.274507959236369,51.4478563828711],[0.27451911481287,51.4480809938006],[0.274878566205066,51.448074014017],[0.275238017464407,51.4480670331362],[0.275597468590872,51.4480600511581],[0.275608629022204,51.4482846617042],[0.275968081589738,51.4482776785058],[0.275956919584442,51.4480530680826],[0.276316370445096,51.4480460839099],[0.276675821172814,51.4480390986399],[0.276664656152642,51.447814488448],[0.277024105173468,51.4478075022037],[0.277012938712425,51.4475828921202],[0.277372386026363,51.4475759049016],[0.27736121812449,51.4473512949266],[0.277720663731546,51.4473443067336],[0.277709494388885,51.447119696867],[0.277698325179326,51.4468950869859],[0.278057767505658,51.4468880979417],[0.27804659685537,51.4466634881689],[0.277687156102865,51.4466704770902],[0.277675987159501,51.4464458671799],[0.277664818349232,51.4462212572551],[0.277653649672054,51.4459966473158],[0.278013085703207,51.4459896587635],[0.278001915585377,51.4457650489326],[0.278361349909773,51.4457580594061],[0.278350178351332,51.4455334496836],[0.277990745600655,51.4455404390871],[0.27797957574904,51.4453158292271],[0.277620144439053,51.4453228174105],[0.277608976294222,51.4450982074129],[0.277968406030529,51.4450912193525],[0.27795723644512,51.4448666094634],[0.278316664474764,51.4448596204288],[0.278305493448819,51.4446350106481],[0.278294322555991,51.4444104008529],[0.27828315179628,51.4441857910431],[0.278271981169683,51.4439611812188],[0.278260810676197,51.4437365713799],[0.277901390514523,51.4437435597996],[0.277541970219856,51.4437505471222],[0.277182549792216,51.4437575333477],[0.276823129231622,51.443764518476],[0.276463708538095,51.4437715025073],[0.276474871163797,51.4439961129609],[0.276115448763793,51.444003096018],[0.276104287711654,51.4437784854414],[0.276093126792499,51.4435538748502],[0.276452546045397,51.4435468920391],[0.276811965165384,51.4435399081307],[0.27680080123217,51.4433152977709],[0.276789637431976,51.4430906873966],[0.277149053272018,51.443083702637],[0.277137888031369,51.4428590923711],[0.277497302164991,51.4428521066374],[0.277508468979114,51.4430767167804],[0.277519635926298,51.4433013269089],[0.277530803006545,51.4435259370228],[0.277890221727678,51.4435189498232],[0.27824964031582,51.4435119615264],[0.278238470088551,51.4432873516585],[0.278597886970174,51.4432803623876],[0.278586715302521,51.443055752628]]],[[[0.274036976568873,51.4456172501115],[0.274048129242535,51.4458418613092],[0.274407565028978,51.4458348838519],[0.274418719409283,51.4460594949122],[0.274778156636675,51.4460525162348],[0.274767000682608,51.4458279052974],[0.274755844861462,51.4456032943455],[0.275115278808519,51.4455963148166],[0.275104121546572,51.4453717039731],[0.274744689173234,51.445378683379],[0.274733533617922,51.445154072398],[0.274374102685453,51.4451610505838],[0.274385256667066,51.4453856616877],[0.274025824028089,51.4453926388992],[0.274036976568873,51.4456172501115]]],[[[0.265973751521059,51.4426258777611],[0.265614336290145,51.4426328281417],[0.265254920926929,51.4426397774252],[0.264895503627956,51.442646727967],[0.264884392243554,51.4424221137256],[0.264524974094501,51.4424290664441],[0.264513864633803,51.4422044522296],[0.264154448118472,51.4422114038733],[0.264143347854758,51.4419867925023],[0.263783932565287,51.4419937428289],[0.263424517142237,51.4420006920591],[0.263435614653058,51.4422253038407],[0.263446718777732,51.4424499179595],[0.263806137361566,51.4424429685611],[0.263817243409883,51.4426675827069],[0.264176663627511,51.4426606322336],[0.264187771599517,51.4428852464064],[0.264198879716516,51.4431098605742],[0.264558303346673,51.443102909058],[0.264917726831873,51.4430959564351],[0.265277147159483,51.4430890061058],[0.265636565669728,51.443082056577],[0.265647680558071,51.4433066707728],[0.266007100509554,51.4432997200242],[0.26636652032871,51.4432927681784],[0.266355402293281,51.4430681542279],[0.26671482040655,51.4430612014076],[0.266703700930013,51.4428365875653],[0.2670631173374,51.4428296337706],[0.267051996419797,51.4426050200364],[0.266692581585906,51.4426119737084],[0.266333166619654,51.4426189262833],[0.265973751521059,51.4426258777611]]]]}}