{"type":"Feature","properties":{"code":"E63002051","name":"West Bridgford"},"geometry":{"type":"MultiPolygon","coordinates":[[[[-1.144950053229,52.9100457168954],[-1.14457835448406,52.9100430477295],[-1.1445827740304,52.9098183391015],[-1.14421107712587,52.9098156687008],[-1.14421549840118,52.9095909599965],[-1.14384380333705,52.909588288361],[-1.14384822634127,52.9093635795804],[-1.14347653311755,52.9093609067102],[-1.14310483994956,52.909358232675],[-1.14310926646731,52.9091335237485],[-1.14273757513974,52.9091308484786],[-1.14274200338628,52.9089061394758],[-1.14311369292921,52.9089088148154],[-1.14311811933994,52.9086841058822],[-1.14312254689022,52.9084593985972],[-1.14349423281512,52.9084620728349],[-1.14349865843184,52.9082373655549],[-1.14350308399058,52.9080126582669],[-1.14387476622235,52.9080153313668],[-1.14387918984762,52.9077906240838],[-1.14388361341491,52.9075659167928],[-1.14425529195364,52.9075685887549],[-1.14462697055022,52.9075712595534],[-1.14463139030869,52.9073465522803],[-1.14463581000924,52.9071218449993],[-1.14464022965189,52.9068971377103],[-1.14464464923663,52.9066724304133],[-1.14501632038945,52.9066751000999],[-1.14538799160009,52.906677768623],[-1.14538357576607,52.9069024758941],[-1.14575524890985,52.9069051432407],[-1.14575083489336,52.9071298504909],[-1.14574642081904,52.9073545577331],[-1.14537474392446,52.9073518904124],[-1.14537032791686,52.9075765976597],[-1.14574200668688,52.9075792649674],[-1.14611368551465,52.9075819311116],[-1.14610927320013,52.907806638325],[-1.14573759249689,52.9078039721938],[-1.14573317824905,52.9080286794121],[-1.14610486082778,52.9080313455304],[-1.14610044839763,52.9082560527279],[-1.14647213290961,52.9082587176695],[-1.14646772229718,52.9084834248461],[-1.14683940874242,52.9084860886112],[-1.14683499998137,52.908710795893],[-1.14720668835176,52.9087134584873],[-1.14757837677765,52.9087161199165],[-1.147573971787,52.9089408280196],[-1.14794566205299,52.9089434882141],[-1.14794125879144,52.9091681962407],[-1.14831295089753,52.9091708552004],[-1.14868464305906,52.9091735129951],[-1.14868024331133,52.9093982208756],[-1.14905193731294,52.9094008774354],[-1.149056335276,52.9091761696248],[-1.14942802754832,52.9091788250894],[-1.14979971987602,52.9091814793891],[-1.14979532548231,52.9094061870601],[-1.15016701965001,52.9094088401249],[-1.15017141225904,52.9091841325237],[-1.15054310469739,52.9091867844934],[-1.15053871387304,52.9094114920247],[-1.15091040815135,52.9094141427595],[-1.15090601905635,52.9096388502143],[-1.15127771517464,52.9096414997143],[-1.15164940975824,52.909644148847],[-1.15164502427088,52.9098688561468],[-1.15201671688514,52.9098715060963],[-1.15201233322732,52.910096213404],[-1.1520079495118,52.9103209207031],[-1.15237964595821,52.9103235695229],[-1.15238402778645,52.9100988622072],[-1.15275572240319,52.9101015098473],[-1.15275134246223,52.9103262171797],[-1.15312303902382,52.9103288636735],[-1.15311866091253,52.9105535710138],[-1.15311428274361,52.9107782783454],[-1.15348598313739,52.9107809237094],[-1.15385768358871,52.9107835679103],[-1.15422938409753,52.9107862109483],[-1.15422501153306,52.911010918321],[-1.15422063891105,52.9112356256851],[-1.15459234325209,52.9112382675932],[-1.1549640476506,52.9112409083382],[-1.15533575210653,52.9112435479202],[-1.1553313850892,52.9114682553253],[-1.15570309148996,52.9114708937608],[-1.1556987263026,52.9116956011738],[-1.15532701801441,52.9116929627218],[-1.15532265088213,52.9119176701096],[-1.15531828369239,52.9121423774887],[-1.15531391644517,52.9123670848592],[-1.15568563039582,52.9123697233609],[-1.15568999575553,52.9121450159739],[-1.15569436105779,52.9119203085782],[-1.15606607129083,52.9119229458837],[-1.15607043464817,52.9116982384628],[-1.15644214305111,52.9117008745887],[-1.15643778158123,52.9119255820261],[-1.15680949192897,52.9119282170055],[-1.15680513228918,52.9121529244507],[-1.15680077259202,52.9123776318873],[-1.15717248677208,52.9123802657367],[-1.15716812890509,52.9126049731811],[-1.15753984502998,52.9126076058838],[-1.15754420100942,52.9123828984229],[-1.15791591530403,52.912385529946],[-1.15791156121213,52.9126102374235],[-1.15828327745151,52.9126128678],[-1.15827892518988,52.9128375752853],[-1.15865064337406,52.9128402045151],[-1.15865499374811,52.9126154970134],[-1.1590267101019,52.9126181250637],[-1.15902236161542,52.9128428325819],[-1.15901801307171,52.9130675400915],[-1.15901366447077,52.9132922475924],[-1.15864194245419,52.9132896194927],[-1.15863759190837,52.9135143269685],[-1.1586332413053,52.9137390344356],[-1.15862889064497,52.9139637418941],[-1.15862453992739,52.9141884493439],[-1.15825281041725,52.9141858200152],[-1.15824845775466,52.9144105274399],[-1.15862018915255,52.914413156785],[-1.15861583832045,52.9146378642175],[-1.15861148743109,52.9148625716414],[-1.15860713648447,52.9150872790566],[-1.15823539942318,52.915084649662],[-1.15823104653145,52.915309357052],[-1.15822669358243,52.9155340644334],[-1.15822234057611,52.9157587718062],[-1.15821798751251,52.9159834791703],[-1.15821363439162,52.9162081865257],[-1.15820928121344,52.9164328938725],[-1.15820492797796,52.9166576012106],[-1.15820057468519,52.91688230854],[-1.15819622403081,52.9171070175872],[-1.1578244698825,52.9171043867787],[-1.15782012111745,52.9173290982447],[-1.15781577229063,52.917553809699],[-1.15781142340204,52.9177785211414],[-1.15780707445166,52.9180032325721],[-1.15780272543952,52.9182279439909],[-1.15743096096528,52.9182253112747],[-1.15705919655276,52.9182226773982],[-1.15705484332363,52.9184473885063],[-1.15705049003267,52.9186720996025],[-1.15667872152666,52.9186694642667],[-1.15667436609621,52.9188941752017],[-1.1566700106039,52.9191188861248],[-1.15666565504973,52.9193435970362],[-1.15666129943369,52.9195683079357],[-1.15703307625047,52.9195709438697],[-1.157404853129,52.9195735786434],[-1.15740050160662,52.9197982898302],[-1.15739615002243,52.9200230010053],[-1.15739179837642,52.9202477121686],[-1.15738744666859,52.9204724233201],[-1.15738309489895,52.9206971344598],[-1.15737874306749,52.9209218455878],[-1.15737439117422,52.9211465567039],[-1.15737003921912,52.9213712678083],[-1.15699824571773,52.9213686318383],[-1.15699389162283,52.9215933427813],[-1.15698953746609,52.9218180537125],[-1.15698518324749,52.922042764632],[-1.15698082896704,52.9222674755396],[-1.15697647462474,52.9224921864355],[-1.15697212022059,52.9227168973196],[-1.15696776575458,52.9229416081919],[-1.15696341122672,52.9231663190525],[-1.156959056637,52.9233910299012],[-1.15695470198542,52.9236157407381],[-1.15695034727198,52.9238404515633],[-1.15694599249668,52.9240651623767],[-1.1565741741195,52.9240625234515],[-1.15656981720403,52.9242872341035],[-1.15656546022668,52.9245119447437],[-1.15619363775465,52.9245093043589],[-1.15618927863704,52.9247340148377],[-1.15656110318743,52.9247366553721],[-1.15655674608629,52.9249613659888],[-1.15655238892326,52.9251860765936],[-1.15654803150865,52.925410787159],[-1.1565436735267,52.9256354976384],[-1.15617184062978,52.925632856482],[-1.15616748047416,52.9258575667799],[-1.15616312025586,52.9260822770655],[-1.15579128319949,52.9260796344103],[-1.15579564552883,52.925854924294],[-1.15542381064612,52.9258522806481],[-1.15505197582607,52.9258496358421],[-1.1546801410687,52.925846989876],[-1.15467577240626,52.9260716994842],[-1.15467140368102,52.9262964090802],[-1.15466703489298,52.926521118664],[-1.15503887598352,52.9265237651381],[-1.1550345092438,52.9267484748789],[-1.15540635250814,52.9267511203624],[-1.15540198781678,52.9269758302603],[-1.15577383325493,52.9269784747529],[-1.15576947061199,52.927203184808],[-1.15539762306266,52.927200540146],[-1.15539325824579,52.9274252500194],[-1.15538889336617,52.9276499598805],[-1.1553845284238,52.9278746697294],[-1.15538016341866,52.928099379566],[-1.15537579835077,52.9283240893904],[-1.15537143322013,52.9285487992025],[-1.15536706802672,52.9287735090023],[-1.15536270277056,52.9289982187899],[-1.15535833745163,52.9292229285653],[-1.15498647096319,52.9292202812188],[-1.15461460453745,52.9292176327122],[-1.15424273817445,52.9292149830453],[-1.1538708718742,52.9292123322182],[-1.15349900563674,52.929209680231],[-1.15350338151275,52.9289849713026],[-1.15350775732586,52.928760262362],[-1.15351213307607,52.9285355534091],[-1.15351650876339,52.9283108444439],[-1.15314465103423,52.9283081919742],[-1.15277279336792,52.9283055383443],[-1.15276841345794,52.9285302469706],[-1.15239655374317,52.9285275920111],[-1.15240093576447,52.9283028835542],[-1.15202907822392,52.9283002276039],[-1.1516572207463,52.9282975704936],[-1.15166160692722,52.9280728623633],[-1.1512897509235,52.9280702076456],[-1.15129413906846,52.9278454995401],[-1.15166599304511,52.9278481542208],[-1.15167037909997,52.927623446066],[-1.15204223024378,52.927626102668],[-1.15241408145052,52.9276287581099],[-1.15241846321991,52.9274040496039],[-1.15279031237832,52.9274067037163],[-1.15279469197356,52.9271819950286],[-1.15242284492634,52.9271793410856],[-1.15205099794201,52.9271766859826],[-1.15205538169662,52.9269519776215],[-1.15242722656979,52.9269546325551],[-1.15243160815027,52.9267299240123],[-1.15205976538823,52.9267272692481],[-1.15206414901685,52.9265025608625],[-1.15243598966777,52.9265052154572],[-1.15244037112231,52.9262805068899],[-1.15244475251389,52.9260557983103],[-1.15207291608509,52.9260531440544],[-1.15170107971921,52.9260504886385],[-1.15132924208077,52.9260478343476],[-1.15132485441299,52.9262725425305],[-1.150953013881,52.9262698887063],[-1.1505811734086,52.9262672337194],[-1.15058556501081,52.9260425256554],[-1.15021372656524,52.9260398695653],[-1.15020933299581,52.9262645775698],[-1.15020493936666,52.9264892855646],[-1.15057678174669,52.9264919417737],[-1.15094862418633,52.9264945968201],[-1.15132046668557,52.9264972507038],[-1.15131607889851,52.9267219588673],[-1.1513116910518,52.9269466670212],[-1.15130730314544,52.9271713751655],[-1.15093545474431,52.9271687211033],[-1.15093106481095,52.9273934291784],[-1.15055921450208,52.9273907738942],[-1.15055482254167,52.9276154819001],[-1.15018297032504,52.9276128253936],[-1.15017857633754,52.9278375333304],[-1.14980672221317,52.9278348756017],[-1.14943486814847,52.9278322167103],[-1.14943047016639,52.9280569245184],[-1.14905861419398,52.9280542644048],[-1.14905421418467,52.9282789721437],[-1.14868235630454,52.9282763108078],[-1.14867795426795,52.9285010184775],[-1.14830609448012,52.9284983559194],[-1.14830169041619,52.9287230635199],[-1.14829728629239,52.9289477711107],[-1.14792542262933,52.9289451072707],[-1.14792101647812,52.9291698147923],[-1.14754915090732,52.92916714973],[-1.14754474272865,52.9293918571823],[-1.14717287525012,52.9293891908977],[-1.14716846504392,52.9296138982808],[-1.14716405477779,52.9298386056543],[-1.14679218342391,52.9298359380877],[-1.14642031212993,52.9298332693583],[-1.14642472633132,52.929608562104],[-1.14605285706488,52.9296058922714],[-1.14605727317386,52.929381185067],[-1.14568540593498,52.9293785141312],[-1.1456809878584,52.929603221276],[-1.14530911871189,52.9296005491178],[-1.14530469860765,52.9298252561933],[-1.14530027844332,52.9300499632591],[-1.14567215152509,52.9300526355365],[-1.14566773326836,52.9302773426522],[-1.14566331495158,52.9305020497582],[-1.14565889657473,52.9307267568546],[-1.14528701758987,52.9307240843984],[-1.14491513866502,52.9307214107793],[-1.14491071629262,52.9309461177467],[-1.14490629386011,52.9311708247045],[-1.14527817672049,52.9311734984428],[-1.14565005964088,52.9311761710183],[-1.14564564108386,52.9314008780856],[-1.14527375619567,52.9313982054505],[-1.14526933561076,52.9316229124485],[-1.14489744881476,52.9316202385909],[-1.1445255620788,52.9316175635705],[-1.14415367540289,52.9316148873871],[-1.14378178878709,52.9316122100409],[-1.14378621724329,52.9313875032815],[-1.14341433265542,52.9313848248321],[-1.1430424481277,52.9313821452198],[-1.14267056366014,52.9313794644447],[-1.14266612930047,52.9316041710251],[-1.14229424292529,52.9316014890275],[-1.14192235661033,52.9315988058669],[-1.14155047035562,52.9315961215436],[-1.14117858416119,52.9315934360573],[-1.14117414186988,52.9318181423892],[-1.1408022537679,52.9318154556804],[-1.14079780944835,52.9320401619429],[-1.14042591943884,52.9320374740114],[-1.14005402948969,52.9320347849171],[-1.14004958117395,52.9322594910504],[-1.13967768931729,52.9322568007334],[-1.13967323897318,52.9324815067973],[-1.13930134520902,52.9324788152576],[-1.13929689283648,52.932703521252],[-1.13892499716482,52.9327008284897],[-1.13892054276381,52.9329255344146],[-1.13891608830226,52.9331502403299],[-1.13854418875511,52.9331475462851],[-1.13853973226501,52.9333722521308],[-1.13853527571434,52.9335969579669],[-1.13853081993189,52.9338216648306],[-1.13852636459508,52.9340463723181],[-1.13815445728364,52.9340436769114],[-1.13814999995855,52.9342683843677],[-1.1381455425738,52.9344930918153],[-1.13814108512941,52.934717799254],[-1.13813662762538,52.934942506684],[-1.13776471265869,52.9349398100239],[-1.13776025316624,52.9351645174227],[-1.1377557936141,52.9353892248127],[-1.13775133400229,52.9356139321939],[-1.1377468743308,52.9358386395663],[-1.1373749517085,52.9358359416528],[-1.13737049004846,52.936060648994],[-1.13736602832871,52.9362853563265],[-1.13736156654926,52.9365100636501],[-1.1369896381999,52.9365073645055],[-1.13698517443179,52.9367320717979],[-1.13698071060395,52.9369567790816],[-1.13697624671637,52.9371814863564],[-1.13660431263976,52.9371787859806],[-1.13659984676342,52.9374034932243],[-1.13659538082732,52.9376282004592],[-1.13622344295232,52.9376254988745],[-1.13621897502739,52.9378502060782],[-1.13584703528304,52.9378475033071],[-1.13547509559843,52.937844799372],[-1.1354706237555,52.938069506522],[-1.13584256536921,52.9380722104796],[-1.13583809539556,52.9382969176432],[-1.13546615185273,52.9382942136633],[-1.13546167989012,52.9385189207957],[-1.13545720786766,52.9387436279193],[-1.13508526052629,52.9387409227304],[-1.13508078651478,52.9389656298228],[-1.1350763124434,52.9391903369064],[-1.13470436185921,52.9391876309076],[-1.13469988579065,52.939412337942],[-1.13469540966108,52.9396370449661],[-1.13469093347048,52.93986175198],[-1.13431897764801,52.9398590450257],[-1.13431449942068,52.9400837519483],[-1.13431002113229,52.9403084588606],[-1.13430554278285,52.9405331657628],[-1.13393358109414,52.9405304574023],[-1.13392910070786,52.9407551642131],[-1.13355713710437,52.9407524546087],[-1.13355265468119,52.9409771613281],[-1.13318068916292,52.9409744504798],[-1.13317620470279,52.9411991571078],[-1.13280423726974,52.9411964450156],[-1.13279975077261,52.9414211515522],[-1.13279526421432,52.9416458580785],[-1.1324232928906,52.9416431446612],[-1.13241880429523,52.9418678510961],[-1.13204683105671,52.9418651364349],[-1.13204234068813,52.9420898429742],[-1.13167036553836,52.9420871270784],[-1.13166587369806,52.9423118339673],[-1.13129389667309,52.9423091168774],[-1.13092191970832,52.9423063986234],[-1.1305499428038,52.9423036792054],[-1.13055444045026,52.9420789724067],[-1.13092641541941,52.9420816917946],[-1.13093091170812,52.9418569854744],[-1.13055893871432,52.9418542661621],[-1.13018696578178,52.941851545687],[-1.12981499291051,52.9418488240491],[-1.12944302010054,52.9418461012485],[-1.1290710473519,52.9418433772851],[-1.12906654117655,52.942068083215],[-1.12869456650896,52.9420653580071],[-1.12869907466462,52.941840652159],[-1.12870358301909,52.9416159465366],[-1.12833161236909,52.941613220329],[-1.12795964178049,52.9416104929587],[-1.12796415402526,52.9413857874887],[-1.12759218547397,52.941383059037],[-1.12759669963309,52.9411583536381],[-1.12760121373068,52.940933648229],[-1.12722924919251,52.9409309187772],[-1.12723376520437,52.9407062134392],[-1.12723828115468,52.9404815080909],[-1.12724279704343,52.9402568027324],[-1.12724731287063,52.9400320973637],[-1.12687535629697,52.9400293670746],[-1.12650339978481,52.9400266356228],[-1.12613144333419,52.9400239030083],[-1.12613596502691,52.9397991978734],[-1.12650791950185,52.9398019304065],[-1.12651243915728,52.93957722518],[-1.126140486658,52.9395744927282],[-1.12614500822747,52.9393497875729],[-1.12577305776538,52.9393470540398],[-1.12576853422027,52.9395717591138],[-1.12539658184413,52.9395690243367],[-1.12502462952959,52.939566288397],[-1.12465267727669,52.9395635512946],[-1.12428072508544,52.9395608130296],[-1.12427619357606,52.9397855177678],[-1.12390423947084,52.9397827782587],[-1.12353228542734,52.939780037587],[-1.12316033144558,52.9397772957526],[-1.1231557939474,52.9400020002364],[-1.12278383805173,52.9399992571579],[-1.12241188221785,52.9399965129168],[-1.12240734070642,52.9402212172274],[-1.12203538295866,52.9402184717421],[-1.12166342527275,52.9402157250942],[-1.12129146764871,52.9402129772837],[-1.12128692014822,52.9404376813396],[-1.12091496061036,52.9404349322849],[-1.12054300113442,52.9404321820675],[-1.12017104172045,52.9404294306875],[-1.11979908236845,52.9404266781448],[-1.11942712307846,52.9404239244394],[-1.11905516385051,52.9404211695714],[-1.11905060443355,52.940645873128],[-1.11867864329191,52.9406431170158],[-1.11830668221236,52.9406403597408],[-1.11793472266742,52.9406376031998],[-1.11756276367333,52.9406348461255],[-1.11719080474252,52.94063208789],[-1.11718623528339,52.9408567908971],[-1.11718166576088,52.9410814938924],[-1.117177096175,52.9413061968761],[-1.11680513124409,52.9413034370581],[-1.11643316637652,52.9413006760789],[-1.11606120157232,52.9412979139385],[-1.11605662585948,52.9415226164892],[-1.11568465909748,52.9415198530471],[-1.11531269239892,52.9415170884437],[-1.1149407257638,52.9415143226791],[-1.11456875919216,52.9415115557533],[-1.11419679268403,52.9415087876663],[-1.11382482623943,52.941506018418],[-1.11382941407938,52.9412813167101],[-1.11383400185572,52.9410566149905],[-1.11383858956844,52.9408319132592],[-1.11346662925087,52.9408291432712],[-1.11309466899688,52.9408263721219],[-1.11309926068819,52.9406016706599],[-1.11310385231582,52.9403769691862],[-1.11310844387978,52.9401522677007],[-1.11311303538008,52.9399275662036],[-1.11311762681671,52.9397028646947],[-1.11312221818968,52.9394781631741],[-1.1127502701255,52.9394753917067],[-1.11275486345575,52.9392506903149],[-1.1127594567223,52.9390259889114],[-1.11276404992517,52.9388012874961],[-1.11276864306435,52.9385765860691],[-1.1123967031474,52.9385738140027],[-1.1120247632941,52.9385710407751],[-1.11165282350449,52.9385682663865],[-1.11128088377858,52.9385654908367],[-1.1112854849374,52.9383407899601],[-1.11129008603242,52.9381160890718],[-1.11129468706366,52.9378913881717],[-1.11092275346389,52.9378886118825],[-1.11092735645208,52.9376639111113],[-1.11093195937646,52.9374392103283],[-1.11093656223702,52.9372145095336],[-1.11130848977463,52.9372172854012],[-1.11131309055072,52.9369925844543],[-1.11168501613138,52.9369953590203],[-1.11205694177574,52.9369981324253],[-1.11242886748378,52.9370009046693],[-1.11243346213415,52.936776203289],[-1.11280538588519,52.9367789742315],[-1.11317730969984,52.9367817440129],[-1.11318190024526,52.93655704234],[-1.11318649072704,52.9363323406553],[-1.11319108114518,52.936107638959],[-1.11319567149966,52.9358829372509],[-1.1132002617905,52.9356582355311],[-1.11320485201769,52.9354335337996],[-1.11320944218124,52.9352088320563],[-1.11321403228115,52.9349841303014],[-1.11321862231742,52.9347594285347],[-1.11284671668739,52.9347566600177],[-1.1128513086804,52.9345319583798],[-1.11285590060974,52.9343072567301],[-1.11286049247542,52.9340825550688],[-1.11248859297006,52.9340797858122],[-1.11249318679238,52.9338550842796],[-1.11249778148733,52.9336303838698],[-1.11250237920332,52.9334056871861],[-1.11213048580172,52.9334029171546],[-1.11213508541906,52.9331782205247],[-1.11213968497409,52.9329535238849],[-1.111767795562,52.9329507528179],[-1.1117723970183,52.9327260562319],[-1.11177699841226,52.9325013596361],[-1.11214888389722,52.9325041305758],[-1.11215348326532,52.9322794339066],[-1.11215808257113,52.9320547372275],[-1.11216268181463,52.9318300405386],[-1.11179080222017,52.9318272697898],[-1.11179540336481,52.9316025731547],[-1.11216728099582,52.9316053438399],[-1.11217188011471,52.9313806471314],[-1.11217647917131,52.9311559504131],[-1.11218107816561,52.930931253685],[-1.1121856770976,52.930706556947],[-1.1121902759673,52.9304818601992],[-1.11181840815314,52.9304790898321],[-1.11182300892383,52.9302543931381],[-1.1118276096322,52.9300296964343],[-1.11183221027825,52.9298049997207],[-1.11146034841617,52.9298022283818],[-1.11146495096312,52.929577531722],[-1.11146955344772,52.9293528350524],[-1.11147415586999,52.929128138373],[-1.1114787582299,52.9289034416837],[-1.11148336052748,52.9286787449847],[-1.1111115085435,52.9286759728013],[-1.11073965662185,52.9286731994554],[-1.11036780476255,52.9286704249469],[-1.10999595296564,52.9286676492759],[-1.11000056305319,52.9284429528215],[-1.11000517307831,52.9282182563574],[-1.10963332526993,52.9282154796511],[-1.10963793719563,52.9279907832408],[-1.10964254905886,52.9277660868207],[-1.10927070523893,52.9277633090792],[-1.10927531900267,52.927538612713],[-1.10927993270392,52.9273139163369],[-1.10928454634268,52.927089219951],[-1.10891270847404,52.9270864412381],[-1.1089173240132,52.926861744906],[-1.10892193948986,52.9266370485641],[-1.108926554904,52.9264123522125],[-1.10929838688404,52.9264151307343],[-1.10967021892654,52.9264179080938],[-1.11004205103145,52.9264206842908],[-1.11041388319876,52.9264234593253],[-1.11041849069912,52.9261987627091],[-1.11042309813709,52.9259740660831],[-1.11042770551265,52.9257493694473],[-1.1104323128258,52.9255246728017],[-1.11043692018152,52.9252999762901],[-1.11044152783502,52.9250752802621],[-1.11006970740835,52.9250725055708],[-1.11007431692931,52.9248478095599],[-1.11007892638868,52.9246231135402],[-1.11008353578647,52.9243984175116],[-1.11045535042611,52.9244011921248],[-1.11045995783335,52.9241764960612],[-1.11046456517904,52.9239517999888],[-1.11083637602232,52.9239545733867],[-1.11084098137753,52.9237298772793],[-1.11084558667121,52.9235051811631],[-1.11085019190336,52.923280485038],[-1.11085479707398,52.923055788904],[-1.11048299394618,52.9230530156103],[-1.11048760098407,52.9228283194934],[-1.11011579984659,52.9228255450624],[-1.11012040875171,52.9226008489627],[-1.11012501759525,52.9223761528541],[-1.10975322037684,52.922373377312],[-1.10975783108753,52.9221486812205],[-1.10938603585941,52.9221459045412],[-1.10938142322,52.9223706006066],[-1.10900962612475,52.922367822738],[-1.10863782909113,52.9223650437062],[-1.10863321253259,52.9225897397106],[-1.10826141363186,52.9225869594895],[-1.10788961479281,52.9225841781051],[-1.10788499431504,52.9228088740485],[-1.10788037377555,52.9230335699829],[-1.10787575317432,52.9232582659084],[-1.10824755779976,52.923261047371],[-1.10824293906565,52.9234857433138],[-1.10823832026982,52.9237104392477],[-1.10823370141228,52.9239351351726],[-1.10860551188602,52.9239379155502],[-1.10860089489569,52.9241626114924],[-1.10859627784368,52.9243873074257],[-1.10896809223696,52.9243900866921],[-1.10933990669186,52.9243928647953],[-1.10971172120838,52.9243956417351],[-1.10970710988161,52.9246203377377],[-1.10933529343611,52.9246175607718],[-1.10933068011873,52.9248422567394],[-1.1093260667397,52.9250669526982],[-1.10895424649777,52.9250641745169],[-1.10858242631748,52.9250613951722],[-1.10821060619885,52.9250586146642],[-1.10783878614191,52.9250558329929],[-1.10746696614667,52.9250530501582],[-1.10709514621317,52.9250502661602],[-1.10709977116637,52.924825570358],[-1.10672795322365,52.9248227852228],[-1.10635613534272,52.9248199989242],[-1.10598431752361,52.9248172114624],[-1.10561249976633,52.9248144228371],[-1.10524068207091,52.9248116330486],[-1.10486886443738,52.9248088420968],[-1.10486422791006,52.9250335377422],[-1.10449240840943,52.9250307456008],[-1.10412058897074,52.9250279522962],[-1.1041252293561,52.9248032567031],[-1.10412986967947,52.9245785611012],[-1.10375805416075,52.9245757666856],[-1.1037534119084,52.9248004622613],[-1.10374876959402,52.9250251578282],[-1.10374412721762,52.9252498533861],[-1.10337230597385,52.9252470577286],[-1.10300048479211,52.9252442609077],[-1.1026286636724,52.9252414629235],[-1.10262401532275,52.9254661583151],[-1.10225219232228,52.9254633591244],[-1.10225684261478,52.9252386637759],[-1.10188502161924,52.925235863465],[-1.10151320081693,52.9252330616979],[-1.1015178547483,52.9250083663329],[-1.10114603715065,52.9250055606272],[-1.10115069292445,52.9247808652472],[-1.10115534863668,52.9245561698591],[-1.1007835349085,52.9245533629752],[-1.10041172124189,52.9245505549272],[-1.10040706172176,52.9247752503292],[-1.10003524621279,52.924772441124],[-1.10003990763687,52.924547745715],[-1.09966809409348,52.9245449353387],[-1.09967275735983,52.9243202399147],[-1.099300945782,52.9243174283674],[-1.09892913426584,52.9243146156558],[-1.09855732281137,52.9243118017802],[-1.09855265383325,52.924536497225],[-1.09818084053658,52.9245336821921],[-1.09818551141863,52.9243089867404],[-1.09819018223889,52.9240842912806],[-1.09819485299738,52.9238595958128],[-1.09819952369408,52.9236349003368],[-1.09820419432902,52.9234102048529],[-1.09820886490218,52.9231855093608],[-1.09821353541357,52.9229608138607],[-1.09821820586318,52.9227361183526],[-1.0985900039292,52.9227389334408],[-1.09896180205693,52.9227417473649],[-1.09896646863734,52.9225170518626],[-1.09897113515603,52.9222923563521],[-1.098975801613,52.9220676608337],[-1.09934759409133,52.9220704736145],[-1.09935225858294,52.9218457780949],[-1.09935692301286,52.9216210825673],[-1.0993615873811,52.9213963870315],[-1.09898980061361,52.9213935742299],[-1.09899446682372,52.9211688786792],[-1.09899913297212,52.9209441831204],[-1.09900379905881,52.9207194875536],[-1.09900846508378,52.9204947919787],[-1.09863668599209,52.9204919779853],[-1.09864135385882,52.9202672823954],[-1.09901313104705,52.9202700963957],[-1.09901779694861,52.9200454008047],[-1.09902246278846,52.9198207052057],[-1.09902712856661,52.9195960095986],[-1.09939890010626,52.9195988224557],[-1.09940356391934,52.9193741268475],[-1.09940822767074,52.9191494312312],[-1.09941289136046,52.9189247356068],[-1.09941755498851,52.9187000399744],[-1.09942221855488,52.9184753443339],[-1.09979398063962,52.9184781560618],[-1.09979864224107,52.9182534604202],[-1.09980330378089,52.9180287647706],[-1.09980796525905,52.9178040691129],[-1.09981262667557,52.9175793734471],[-1.09981728803044,52.9173546777733],[-1.10018904066086,52.9173574883721],[-1.10019370005098,52.9171327926971],[-1.10019835632087,52.9169080941695],[-1.10057010526468,52.9169109036565],[-1.10057475639503,52.9166862021416],[-1.10094650345746,52.9166890104026],[-1.10131825058241,52.9166918175015],[-1.10168999790712,52.916694621787],[-1.10169464312197,52.916469919999],[-1.10206638872446,52.9164727203275],[-1.10243813439104,52.9164755194951],[-1.10243349319468,52.9167002214984],[-1.10280524093455,52.9167030196126],[-1.10280060168334,52.9169277217125],[-1.10317235149652,52.9169305187733],[-1.10316771013219,52.9171552171076],[-1.1035394618847,52.917158012985],[-1.10353481975043,52.9173827088279],[-1.10353017755415,52.9176074046619],[-1.10390193322495,52.9176101994287],[-1.10427368895771,52.9176129930324],[-1.10427832729765,52.917388297146],[-1.10465008116417,52.9173910895605],[-1.10502183509259,52.9173938808121],[-1.10502646951429,52.9171691848644],[-1.10539822157644,52.9171719749268],[-1.10576997370045,52.9171747638262],[-1.10577460197927,52.9169500656913],[-1.1061463523037,52.9169528534642],[-1.10651810269192,52.916955640076],[-1.10652272185035,52.9167309369007],[-1.10689447029304,52.9167337222441],[-1.10726621879947,52.9167365064265],[-1.10763796736959,52.9167392894479],[-1.10764258043642,52.9165145859393],[-1.10801432706096,52.9165173676922],[-1.10838607374915,52.9165201482841],[-1.10875782050097,52.9165229277151],[-1.10912956731638,52.916525705985],[-1.10950131419535,52.916528483094],[-1.10949671117485,52.9167531871398],[-1.10986846012663,52.9167559631951],[-1.1098638590518,52.9169806673374],[-1.11023561007639,52.9169834423391],[-1.11024020914193,52.9167587380895],[-1.11061195822072,52.9167615118228],[-1.11098370736297,52.9167642843951],[-1.11097911231603,52.9169889888596],[-1.11097450991658,52.9172136863015],[-1.11060275692935,52.9172109136842],[-1.11023100400361,52.917208139904],[-1.11022639657607,52.9174328362169],[-1.11022178908697,52.917657532521],[-1.11059354586906,52.9176603063533],[-1.11058894024662,52.9178850026746],[-1.11058433456266,52.9181096989869],[-1.11095609526269,52.9181124717082],[-1.11095149144546,52.9183371680377],[-1.11094688756672,52.9185618643583],[-1.11057512301013,52.9185590915849],[-1.11057051714156,52.9187837878706],[-1.11056591121147,52.9190084841474],[-1.11093767962472,52.9190112569728],[-1.11093307556146,52.9192359532667],[-1.11130484596456,52.919238724955],[-1.11167661642911,52.9192414954802],[-1.11167201616113,52.9194661918173],[-1.1120437886155,52.9194689612054],[-1.11203919021448,52.9196936575595],[-1.11203459175202,52.9199183539048],[-1.11240636812467,52.9199211221818],[-1.11277814455869,52.9199238892956],[-1.11278273916424,52.9196991928984],[-1.11315451373117,52.9197019588231],[-1.11352628835941,52.9197047235848],[-1.11353087904673,52.9194800271267],[-1.11353546967272,52.9192553306598],[-1.11390724050543,52.9192580942065],[-1.11427901139942,52.91926085659],[-1.11427442463024,52.9194855531088],[-1.11464619751387,52.9194883143551],[-1.11465078235465,52.9192636178105],[-1.11465536713417,52.9190389212568],[-1.11502713622224,52.9190416812883],[-1.11503171901215,52.9188169846999],[-1.11540348623306,52.9188197435423],[-1.11577525351513,52.9188225012216],[-1.11577983238717,52.9185978045726],[-1.11615159780205,52.918600561063],[-1.11652336327804,52.9186033163903],[-1.11652793823228,52.9183786196806],[-1.11689970184106,52.9183813738189],[-1.11727146551089,52.9183841267942],[-1.11764322924176,52.9183868786064],[-1.11764779835003,52.9181621818103],[-1.11801956021362,52.9181649324336],[-1.11839132170332,52.9181676814233],[-1.11839588686391,52.917942984534],[-1.11876764597547,52.9179457317821],[-1.11913940514892,52.9179484778681],[-1.11914396631398,52.9177237808338],[-1.11951572358249,52.9177265256902],[-1.11988748091281,52.9177292693847],[-1.11989203808244,52.9175045722053],[-1.1202637935078,52.9175073146702],[-1.12063554899492,52.9175100559731],[-1.12064010216923,52.9172853586487],[-1.12101185575134,52.9172880987221],[-1.12138360939518,52.9172908376334],[-1.12138815857427,52.9170661401641],[-1.12175991031307,52.917068877846],[-1.12213166211354,52.9170716143658],[-1.12213619959161,52.9168469092686],[-1.12250794960178,52.9168496446685],[-1.1228796996738,52.9168523789067],[-1.12288423073221,52.9166276713049],[-1.12325597888742,52.9166304042998],[-1.12362772710443,52.9166331361329],[-1.12363225414372,52.9164084283575],[-1.12363678112116,52.916183720572],[-1.12364130803673,52.9159590127761],[-1.12364583489045,52.9157343049701],[-1.1232740945877,52.9157315734635],[-1.12327862335807,52.9155068657289],[-1.12328315206655,52.915282157984],[-1.12328768071315,52.9150574502288],[-1.1229159464076,52.9150547178056],[-1.12292047697074,52.9148300101219],[-1.12292500747198,52.9146053024279],[-1.12255327718506,52.9146025690065],[-1.12255780960276,52.9143778613839],[-1.12256234195853,52.9141531537511],[-1.12256687425238,52.913928446108],[-1.12293859860428,52.9139311792844],[-1.12331032301799,52.9139339112993],[-1.12368204749348,52.9139366421526],[-1.12368657379054,52.9137119342543],[-1.1240582963495,52.9137146638644],[-1.12443001897019,52.913717392313],[-1.12480174165258,52.9137201195999],[-1.12517346439664,52.9137228457253],[-1.12517798271879,52.9134981374903],[-1.12554970354623,52.9135008623725],[-1.12555421982839,52.9132761540457],[-1.12592593873922,52.9132788776847],[-1.12629765771164,52.9132816001623],[-1.12666937674563,52.9132843214782],[-1.12704109584115,52.9132870416327],[-1.12704560414873,52.9130623329693],[-1.12741732132755,52.9130650518806],[-1.12778903856786,52.9130677696303],[-1.12816075586962,52.9130704862186],[-1.128165258181,52.9128457773003],[-1.12853697356601,52.9128484926454],[-1.12890868901242,52.912851206829],[-1.12928040452021,52.9128539198511],[-1.12965212008936,52.9128566317116],[-1.1296566144265,52.9126319224571],[-1.1300283280788,52.9126346330746],[-1.1304000417924,52.9126373425305],[-1.13077175556727,52.9126400508249],[-1.13114346940338,52.9126427579578],[-1.1311479557665,52.9124180483671],[-1.13151966768568,52.912420754257],[-1.13152415200935,52.9121960445747],[-1.1318958620116,52.9121987492216],[-1.13189137966605,52.9124234589854],[-1.1322630917076,52.9124261625521],[-1.13263480381028,52.9124288649574],[-1.13300651597408,52.9124315662011],[-1.13337822819896,52.9124342662833],[-1.13338270263197,52.9122095561939],[-1.13375441293977,52.9122122550332],[-1.13412612330861,52.9122149527109],[-1.13449783373846,52.9122176492271],[-1.13486954422929,52.9122203445818],[-1.13524125927049,52.9122230432482],[-1.13523679448606,52.9124477535434],[-1.1356085114656,52.9124504510719],[-1.13598022850139,52.9124531474351],[-1.1363519455934,52.9124558426332],[-1.13672366274161,52.9124585366661],[-1.13671920504083,52.9126832466768],[-1.13671474728377,52.912907956681],[-1.13671028947044,52.9131326666785],[-1.13670583160083,52.9133573766694],[-1.13633410731246,52.9133546829145],[-1.13632964760148,52.9135793929684],[-1.1363251878342,52.9138041030157],[-1.13632072801061,52.9140288130564],[-1.13669245765437,52.9140315066027],[-1.13706418735431,52.9140341989838],[-1.13706864360759,52.9138094890821],[-1.13744037157853,52.9138121803675],[-1.13781209960561,52.9138148704876],[-1.13818382768879,52.9138175594425],[-1.13855555582807,52.9138202472322],[-1.13856000488458,52.9135955376021],[-1.13893173129479,52.9135982242961],[-1.13893617851003,52.913373514729],[-1.13930790319117,52.9133762003274],[-1.1393123485652,52.9131514908233],[-1.13968407151726,52.913154175326],[-1.14005579452532,52.9131568586635],[-1.14006023627312,52.912932149292],[-1.14043195755208,52.912934831534],[-1.14080367888698,52.9129375126107],[-1.14080811700865,52.9127128033718],[-1.14117983661443,52.912715483353],[-1.14118427289507,52.9124907741772],[-1.14155599077173,52.9124934530628],[-1.14192770870426,52.9124961307832],[-1.14192327599365,52.9127208398198],[-1.14229499576704,52.9127235163054],[-1.14229942669263,52.9124988073385],[-1.14267114473683,52.9125014827286],[-1.14304286283682,52.9125041569536],[-1.1434145809926,52.9125068300134],[-1.14341900650728,52.9122821212489],[-1.14342343196613,52.9120574124778],[-1.14342785736914,52.9118327037001],[-1.14379957022574,52.9118353758038],[-1.14380399378799,52.9116106670892],[-1.14417570491539,52.9116133380974],[-1.14418012663693,52.9113886294459],[-1.14455183603513,52.9113912993588],[-1.144556255916,52.9111665907704],[-1.14456067574112,52.9109418821754],[-1.14493238162526,52.9109445510625],[-1.14493679960979,52.9107198425307],[-1.14530850376473,52.9107225103224],[-1.14530408756504,52.9109472187846],[-1.14567579356045,52.9109498853415],[-1.14568020797531,52.9107251769491],[-1.1460519122415,52.9107278424107],[-1.14642361656326,52.9107305067072],[-1.14679532094058,52.9107331698387],[-1.14716702537343,52.910735831805],[-1.1475387298618,52.9107384926063],[-1.14791043440565,52.9107411522425],[-1.14791483805594,52.9105164442621],[-1.14791924165069,52.910291736275],[-1.14754754067645,52.9102890764992],[-1.14754313529691,52.9105137845561],[-1.14717143259336,52.910511123685],[-1.14679972994532,52.9105084616489],[-1.14642802735281,52.9105057984477],[-1.14605632481586,52.9105031340814],[-1.14568462233449,52.9105004685501],[-1.14531291990872,52.9104978018537],[-1.14531733599701,52.9102730933783],[-1.14494563541166,52.9102704254471],[-1.144950053229,52.9100457168954]]],[[[-1.1127502701255,52.9394753917067],[-1.11274567673157,52.9397000930868],[-1.11237372671006,52.9396973203178],[-1.11200177675221,52.9396945463876],[-1.11162982685804,52.9396917712963],[-1.11125787702759,52.9396889950438],[-1.11088592726088,52.9396862176302],[-1.11089053075963,52.9394615169528],[-1.11089513419456,52.9392368162637],[-1.11126707991937,52.9392395933962],[-1.11163902570793,52.9392423693675],[-1.11201097156019,52.9392451441778],[-1.11238291747614,52.9392479178269],[-1.11237832212496,52.9394726190782],[-1.1127502701255,52.9394753917067]]],[[[-1.1231557939474,52.9400020002364],[-1.12352774990484,52.9400047421522],[-1.12389970592402,52.9400074829053],[-1.12427166200492,52.9400102224958],[-1.1246436181475,52.9400129609236],[-1.12464814774296,52.9397882561142],[-1.12502010197152,52.939790993298],[-1.12539205626172,52.9397937293191],[-1.12576401061352,52.9397964641776],[-1.12575948694511,52.9400211692311],[-1.12575496321505,52.9402458742744],[-1.12538300491185,52.9402431392532],[-1.12501104667026,52.9402404030693],[-1.12463908849031,52.9402376657228],[-1.12463455877138,52.9404623705117],[-1.12426259867735,52.9404596319211],[-1.12425806692093,52.9406843366183],[-1.12388610491284,52.9406815967836],[-1.12351414296646,52.9406788557862],[-1.1235186786744,52.9404541512517],[-1.12352321432052,52.9402294467071],[-1.12315125638738,52.9402267047099],[-1.1231557939474,52.9400020002364]]]]}}