{"type":"Feature","properties":{"code":"E63004793","name":"Haringey"},"geometry":{"type":"MultiPolygon","coordinates":[[[[-0.140434239296186,51.5693815134486],[-0.140443404957731,51.5691568471868],[-0.140803920572395,51.5691625570961],[-0.141164436304704,51.5691682658988],[-0.141524952154637,51.5691739735951],[-0.141885468122169,51.5691796801848],[-0.141894626667425,51.5689550136878],[-0.141903785095049,51.5687303471804],[-0.141912943405045,51.5685056806627],[-0.141552432686377,51.5684999742417],[-0.141561592628322,51.5682753077699],[-0.141570752452619,51.5680506412878],[-0.141579912159271,51.5678259747954],[-0.141940417629278,51.5678316810477],[-0.141931259672157,51.5680563475964],[-0.141922101597413,51.5682810141347],[-0.142282610684075,51.568286719393],[-0.142273454241285,51.5685113859773],[-0.14226429768089,51.5687360525512],[-0.142624810384282,51.5687417568155],[-0.142615655455907,51.5689664234353],[-0.142606500409946,51.5691910900448],[-0.142597345246398,51.5694157566439],[-0.14295786331627,51.5694214599703],[-0.143318381503654,51.5694271621902],[-0.143309229721911,51.5696518288915],[-0.143669749776484,51.569657530061],[-0.144030269948526,51.569663230124],[-0.144021121548684,51.5698878969273],[-0.144381643587899,51.56989359594],[-0.14474216574454,51.5698992938461],[-0.144733020726696,51.5701239607514],[-0.145093544750493,51.5701296576071],[-0.145454068891673,51.5701353533563],[-0.145814593150212,51.5701410479989],[-0.146175117526089,51.5701467415349],[-0.146165979389903,51.5703714086545],[-0.146526505632879,51.5703771011401],[-0.146887031993147,51.5703827925191],[-0.147247558470689,51.5703884827915],[-0.147238425466559,51.5706131500692],[-0.147598953811161,51.5706188392911],[-0.147959482272991,51.5706245274065],[-0.148320010852028,51.5706302144153],[-0.148310882980107,51.5708548818509],[-0.148671413426168,51.5708605678092],[-0.149031943989391,51.5708662526609],[-0.149392474669753,51.570871936406],[-0.149383351930195,51.5710966039994],[-0.149743884477545,51.571102286694],[-0.150104417141991,51.5711079682819],[-0.150095297785051,51.5713326359772],[-0.150455832316468,51.5713383165145],[-0.150446714592318,51.5715629842555],[-0.15080725099071,51.5715686637422],[-0.151167787506136,51.5715743421224],[-0.151528324138571,51.5715800193959],[-0.151888861611071,51.5715856956396],[-0.152249399324896,51.5715913707896],[-0.1526099371574,51.5715970448326],[-0.152970475108558,51.5716027177687],[-0.153331013178346,51.5716083895979],[-0.153691551366744,51.5716140603201],[-0.154052089673726,51.5716197299355],[-0.154412628099271,51.5716253984439],[-0.154403529754592,51.5718500667448],[-0.15476407008293,51.5718557341967],[-0.155124610529786,51.5718614005417],[-0.155485151095136,51.5718670657798],[-0.155845691778957,51.5718727299109],[-0.156206232581227,51.5718783929352],[-0.156566773501922,51.5718840548525],[-0.156927314541019,51.5718897156629],[-0.157287855698495,51.5718953753663],[-0.157648396974327,51.5719010339628],[-0.158008938368492,51.5719066914524],[-0.157999857748092,51.5721313602468],[-0.158360401044865,51.5721370166797],[-0.158720944459926,51.5721426720058],[-0.158711867289807,51.5723673408908],[-0.159072412607458,51.5723729951602],[-0.159432958043355,51.5723786483226],[-0.159423884323615,51.5726033172982],[-0.159784431662085,51.5726089694039],[-0.160144979118755,51.5726146204027],[-0.160135908849493,51.5728392894688],[-0.160496458208719,51.5728449394109],[-0.160857007686101,51.572850588246],[-0.161217557281617,51.5728562359741],[-0.161226622197734,51.5726315667572],[-0.161587170126971,51.5726372133281],[-0.161596233140565,51.5724125440509],[-0.161956779403524,51.5724181894646],[-0.162317325784541,51.5724238337714],[-0.162677872283594,51.5724294769712],[-0.163038418900661,51.572435119064],[-0.163398965635718,51.5724407600499],[-0.163759512488741,51.5724463999287],[-0.164120059459708,51.5724520387007],[-0.164480606548596,51.5724576763656],[-0.164841153755381,51.5724633129236],[-0.16520170108004,51.5724689483747],[-0.16556224852255,51.5724745827187],[-0.16555320513708,51.5726992525478],[-0.165913754481806,51.5727048858351],[-0.166274303944337,51.5727105180153],[-0.166265264009806,51.5729351879347],[-0.166625815374536,51.572940819058],[-0.166986366857029,51.5729464490744],[-0.167346918457262,51.5729520779838],[-0.167355953038544,51.5727274079141],[-0.167716502972073,51.5727330356664],[-0.16770747017521,51.5729577057862],[-0.168068022010852,51.5729633324816],[-0.168058990880688,51.5731880026414],[-0.168049959632798,51.5734126727912],[-0.168040928267181,51.5736373429311],[-0.168031896783833,51.5738620130609],[-0.168392456637531,51.5738676408093],[-0.168753017721204,51.5738732703102],[-0.169113578922684,51.5738788987056],[-0.16910455263652,51.5741035689219],[-0.169095526232517,51.5743282391268],[-0.169086499710672,51.5745529093203],[-0.169077473070984,51.5747775795024],[-0.169438041542506,51.5747832071051],[-0.169429016573094,51.575007877354],[-0.169419991485858,51.5752325475915],[-0.169410966280795,51.5754572178175],[-0.169401940831047,51.5756818883825],[-0.16939291523236,51.5759065590293],[-0.169383889518741,51.5761312296648],[-0.169374863690188,51.5763559002892],[-0.1693658377467,51.5765805709023],[-0.169356811688275,51.5768052415042],[-0.16934778551491,51.577029912095],[-0.169338759226603,51.5772545826744],[-0.168978171537669,51.5772489542312],[-0.168987199556484,51.577024283726],[-0.168626613712967,51.577018654251],[-0.168635643347302,51.5767939838088],[-0.168275059349202,51.5767883533021],[-0.167914476959751,51.5767827263868],[-0.167923509942521,51.5765580559402],[-0.167562929580338,51.57655242839],[-0.167571964224421,51.576327757992],[-0.167211385758427,51.5763221293943],[-0.167220422063779,51.576097459045],[-0.166859845493969,51.5760918293998],[-0.166868883460543,51.5758671590993],[-0.166508308786914,51.5758615284065],[-0.166517348414664,51.5756368581547],[-0.166156775637212,51.5756312264145],[-0.166165816952131,51.5754065563874],[-0.16580524607513,51.5754009236057],[-0.16544467531596,51.5753952897169],[-0.165453720116163,51.5751706200079],[-0.16509315125951,51.5751649850621],[-0.164732582520731,51.5751593490093],[-0.164372013899851,51.5751537118494],[-0.164011445396893,51.5751480735825],[-0.164002393458054,51.5753727430909],[-0.163993341440957,51.5755974127338],[-0.163632769486539,51.5755917732471],[-0.16362371562932,51.5758164430251],[-0.163263142013895,51.5758108023725],[-0.163254086260254,51.5760354720808],[-0.162893510983828,51.5760298302623],[-0.16253293582512,51.5760241873371],[-0.162523876396295,51.5762488569164],[-0.162163299576614,51.5762432128253],[-0.162154238251254,51.5764678823348],[-0.161793659770604,51.5764622370777],[-0.161784596548663,51.5766869065174],[-0.161775533208875,51.5769115759467],[-0.161766469751237,51.5771362453655],[-0.16140588605204,51.5771305988238],[-0.161396820697726,51.5773552681729],[-0.161387755225534,51.5775799375114],[-0.161027168086487,51.5775742897444],[-0.161018100717548,51.5777989590132],[-0.161009033230705,51.5780236282715],[-0.160999965625957,51.5782482975193],[-0.160639373268086,51.5782426484676],[-0.160630303766493,51.5784673176456],[-0.160269709747564,51.5784616674279],[-0.160260638349081,51.5786863365361],[-0.16025156683264,51.5789110056338],[-0.16024249519824,51.579135674721],[-0.159881895960277,51.5791300232185],[-0.15987282242889,51.579354692236],[-0.159863748779517,51.5795793612429],[-0.159503146101415,51.5795737085149],[-0.159494070554984,51.579798377452],[-0.159484994890539,51.5800230463787],[-0.159124388772239,51.5800173924252],[-0.159115311210665,51.580242061282],[-0.159106233531051,51.5804667301283],[-0.158745623972491,51.5804610749492],[-0.158736544395676,51.5806857437257],[-0.158727464700794,51.5809104124917],[-0.15908807781769,51.5809160677896],[-0.159448691052581,51.5809217219806],[-0.159809304405441,51.5809273750648],[-0.159800229930104,51.5811520439984],[-0.160160845180122,51.5811576960351],[-0.160521460548066,51.581163346965],[-0.160882076033912,51.581168996788],[-0.16124269163764,51.5811746455041],[-0.161233624161241,51.5813993146647],[-0.16122455656693,51.5816239838148],[-0.161215488854703,51.5818486529544],[-0.161576109914078,51.5818543007416],[-0.161567043863244,51.5820789699301],[-0.161927666819771,51.5820846166698],[-0.162288289894116,51.5820902623026],[-0.162297352386324,51.5818655929956],[-0.162306414760685,51.581640923678],[-0.162667034394219,51.5816465680854],[-0.162676094871465,51.581421898698],[-0.163036712843496,51.5814275419392],[-0.163027654145522,51.5816522113858],[-0.163388274014571,51.5816578535794],[-0.163379216978093,51.5818825230748],[-0.163739838744163,51.5818881642208],[-0.164100460627935,51.58189380426],[-0.164461082629386,51.5818994431922],[-0.164821704748493,51.5819050810175],[-0.165182326985232,51.581910717736],[-0.165542949339581,51.5819163533476],[-0.165903571811517,51.5819219878522],[-0.165894527112555,51.5821466577519],[-0.165885482295973,51.5823713276411],[-0.16587643736177,51.5825959975198],[-0.165515809551764,51.5825903628375],[-0.165506762720535,51.5828150326465],[-0.165497715771657,51.5830397024451],[-0.165488668705129,51.5832643722332],[-0.165128035674445,51.5832587362663],[-0.164767402761381,51.5832530991924],[-0.164758352018263,51.5834777688516],[-0.164749301157445,51.5837024385003],[-0.164388664803072,51.583696800201],[-0.164379611962985,51.5839214700496],[-0.164018973953067,51.5839158305564],[-0.164009919082174,51.5841405007534],[-0.163649279412624,51.5841348600678],[-0.163288639860681,51.5841292182766],[-0.162928000426368,51.5841235753799],[-0.162918940106134,51.5843482453046],[-0.162558299012242,51.5843426012154],[-0.162197658036028,51.5843369560206],[-0.162188594043581,51.5845616257598],[-0.161827951407818,51.5845559793726],[-0.161818885520344,51.5847806490131],[-0.161458241225035,51.5847750014334],[-0.161449173442487,51.5849996709752],[-0.161088527487638,51.584994022203],[-0.160727881650564,51.5849883723253],[-0.160367235931289,51.5849827213419],[-0.160376309045707,51.5847580520608],[-0.16001566522154,51.5847524000587],[-0.160024739995347,51.5845277308526],[-0.159664098066284,51.5845220778318],[-0.159655021515215,51.584746746951],[-0.159294377926756,51.5847410927377],[-0.159285299480488,51.5849657617582],[-0.158924654232638,51.5849601063524],[-0.158564009102703,51.584954449841],[-0.158554926983887,51.5851791186757],[-0.15819428019459,51.5851734609717],[-0.158185196180462,51.5853981297077],[-0.157824547731807,51.5853924708112],[-0.157815461822319,51.5856171394483],[-0.157806375794789,51.5858418080735],[-0.157797289649216,51.5860664766869],[-0.157436635986458,51.5860608164239],[-0.157075982441715,51.5860551550552],[-0.157066892623279,51.5862798234828],[-0.157057802686749,51.5865044918985],[-0.157048712632123,51.5867291603024],[-0.157409371509157,51.5867348219319],[-0.157770030504214,51.5867404824558],[-0.15813068961727,51.586746141874],[-0.158491348848302,51.5867518001866],[-0.158482265785498,51.5869764689264],[-0.158473182604686,51.5872011376543],[-0.158464099305864,51.5874258063704],[-0.15845501588903,51.5876504750746],[-0.158445932354183,51.587875143767],[-0.15843684870132,51.5880998124475],[-0.15879751871556,51.5881054701759],[-0.159158188847742,51.5881111267987],[-0.159518859097844,51.5881167823157],[-0.159879529465841,51.588122436727],[-0.159870452805464,51.5883471057434],[-0.159861376027159,51.5885717747478],[-0.159852299130924,51.5887964437405],[-0.159843222116759,51.5890211127212],[-0.159834144984659,51.5892457816901],[-0.159825067734623,51.5894704506471],[-0.159815990366649,51.5896951195923],[-0.159455307554765,51.5896894645726],[-0.159446228291061,51.589914133419],[-0.159437148909392,51.5901388022535],[-0.159797835276881,51.5901444574471],[-0.159788757555082,51.5903691263567],[-0.159428069409756,51.5903634710762],[-0.159418989792152,51.590588139887],[-0.159409910056576,51.5908128086859],[-0.159400830203028,51.591037477473],[-0.159391750231504,51.5912621462482],[-0.159382670142004,51.5914868150116],[-0.159021973225079,51.5914811581906],[-0.159012891239626,51.5917058268552],[-0.15865219266268,51.5917001688414],[-0.15864310878123,51.5919248374071],[-0.15863402478175,51.592149505961],[-0.158624939477115,51.5923741747544],[-0.158985643288163,51.5923798330391],[-0.159346347213564,51.5923854902181],[-0.159707051253294,51.5923911462914],[-0.15969797083776,51.5926158153682],[-0.159688890307873,51.592840484433],[-0.159679809663629,51.5930651534857],[-0.159670728905027,51.5932898225264],[-0.16003143988502,51.5932954778552],[-0.160022360718602,51.5935201469742],[-0.160013281437844,51.5937448160811],[-0.160004202042744,51.593969485176],[-0.1599951225333,51.5941941542589],[-0.160355840453909,51.5941998088431],[-0.160346762536756,51.5944244780043],[-0.160337684505276,51.5946491471534],[-0.160698405953464,51.5946548008123],[-0.160689329514339,51.5948794700397],[-0.160680252960908,51.5951041392551],[-0.160671176293168,51.5953288084584],[-0.161031902975737,51.5953344612824],[-0.161022827900439,51.595559130564],[-0.160662099511117,51.5955534776497],[-0.160301371236064,51.5955478236296],[-0.159940643075302,51.5955421685036],[-0.159579915028853,51.5955365122717],[-0.159570833012178,51.5957611811801],[-0.159210103373298,51.595755523752],[-0.158849373848776,51.5957498652181],[-0.158858459278982,51.5955251964904],[-0.158867544594763,51.5953005277507],[-0.158876629796121,51.595075858999],[-0.158515905506201,51.5950701996302],[-0.158155181330678,51.5950645391557],[-0.158146092715886,51.5952892077267],[-0.158137003986626,51.5955138762858],[-0.158127915142897,51.5957385448328],[-0.157767185961584,51.5957328829813],[-0.157406456894717,51.595727220024],[-0.157397364522956,51.5959518883782],[-0.157036633863781,51.5959462242247],[-0.156675903319099,51.5959405589652],[-0.15631517288893,51.5959348926],[-0.156324270381016,51.5957102245169],[-0.156333367758518,51.5954855564218],[-0.15634246502144,51.5952608883146],[-0.155981739826055,51.5952552211147],[-0.155621014745223,51.5952495528089],[-0.15561191406885,51.5954742207353],[-0.155602813277852,51.5956988886496],[-0.155593712372226,51.5959235565518],[-0.155232982285734,51.595917886869],[-0.154872252313844,51.5959122160803],[-0.154863147880011,51.5961368837896],[-0.155223879558688,51.5961425546688],[-0.155214776716989,51.5963672224565],[-0.155575510217083,51.5963728923202],[-0.155566408967561,51.5965975601864],[-0.155927144289077,51.5966032290346],[-0.156287879725156,51.596608896777],[-0.156278781774719,51.5968335648119],[-0.156269683709689,51.5970582328348],[-0.156630422674058,51.597063899652],[-0.15662132620134,51.5972885677533],[-0.156612229614049,51.5975132358425],[-0.156972972106782,51.5975189017346],[-0.156963877111868,51.5977435699022],[-0.156954782002398,51.5979682380577],[-0.157315528023572,51.5979739030247],[-0.157306434506544,51.5981985712585],[-0.15729734087498,51.5984232394803],[-0.157658090424669,51.5984289035221],[-0.157648998385612,51.5986535718223],[-0.157639906232035,51.5988782401104],[-0.157630813963938,51.5991029083865],[-0.157621721581317,51.5993275766505],[-0.157612629084172,51.5995522449025],[-0.1579733872838,51.5995579082902],[-0.157964296379289,51.5997825766206],[-0.157955205360271,51.6000072449389],[-0.157946114226744,51.6002319132451],[-0.157937022978708,51.6004565815394],[-0.157927932011676,51.6006812492398],[-0.157918841029408,51.600905916782],[-0.157558072547806,51.6009002529045],[-0.157197304181439,51.6008945879201],[-0.157188209639804,51.6011192553089],[-0.156827439666645,51.6011135891463],[-0.156818343287632,51.6013382564529],[-0.156809246793285,51.6015629237485],[-0.156800150183604,51.601787591033],[-0.156791053458586,51.6020122583064],[-0.157151830320167,51.6020179247537],[-0.157142735201971,51.6022425920872],[-0.157503513900982,51.6022482574986],[-0.157494420389655,51.6024729248922],[-0.157855200926099,51.6024785892677],[-0.157846109021684,51.6027032567214],[-0.157837017001992,51.602927924164],[-0.157476233021105,51.6029222596462],[-0.15748532676303,51.6026975922748],[-0.157124544619625,51.6026919267211],[-0.156763762591493,51.6026862600603],[-0.156402980678655,51.6026805922924],[-0.156042198881134,51.6026749234175],[-0.156033098250297,51.6028995905043],[-0.15602399750407,51.60312425758],[-0.156014896642448,51.6033489246447],[-0.156375683606712,51.6033545937332],[-0.156366584351987,51.603579260858],[-0.156357484981888,51.6038039279717],[-0.156718275506085,51.6038095960954],[-0.156709177742948,51.6040342632692],[-0.157069970104792,51.604039930357],[-0.157060873948661,51.6042645975909],[-0.157051777677196,51.6044892648138],[-0.156690981870603,51.6044835975837],[-0.15668188376139,51.6047082647243],[-0.156672785536816,51.6049329318538],[-0.156311986400696,51.6049272633742],[-0.155951187379913,51.6049215937874],[-0.155960289049345,51.6046969268002],[-0.155599491866346,51.6046912561774],[-0.155608595142773,51.6044665892504],[-0.155247799797554,51.6044609175916],[-0.155256904680931,51.6042362507247],[-0.154896111173487,51.60423057803],[-0.154535317781463,51.6042249042281],[-0.154544425994099,51.6040002374926],[-0.154183634439865,51.6039945626548],[-0.154192744259337,51.6037698959794],[-0.154201853963297,51.6035452292929],[-0.153841065969154,51.6035395534905],[-0.153850177279884,51.6033148868642],[-0.153859288475084,51.6030902202268],[-0.153498504040957,51.6030845434597],[-0.153507616842862,51.6028598768825],[-0.153146834246464,51.6028541990796],[-0.153155948655029,51.6026295325625],[-0.153165062948025,51.6024048660344],[-0.153174177125453,51.6021801994952],[-0.153183291187315,51.6019555329449],[-0.153192405133615,51.6017308663836],[-0.153201518964351,51.6015061998112],[-0.153562291227831,51.6015118771866],[-0.153571403220934,51.6012872105319],[-0.153580515098502,51.601062543866],[-0.153219746279149,51.6010568666331],[-0.153228859763212,51.6008322000275],[-0.153237973131723,51.6006075334107],[-0.153247086545755,51.600382866529],[-0.152886323007403,51.6003771884014],[-0.152895438156453,51.6001525213733],[-0.152904553190679,51.5999278543331],[-0.152913668110083,51.5997031872808],[-0.152922782914668,51.5994785202165],[-0.152931897604436,51.5992538531402],[-0.152571142716637,51.599248174359],[-0.152580258998679,51.5990235073611],[-0.152219505932752,51.5990178275645],[-0.152228623807022,51.5987931606451],[-0.152237741566436,51.5985684937136],[-0.151876992029418,51.598562812992],[-0.151886111380995,51.598338146139],[-0.151895230617698,51.5981134792739],[-0.151534485249804,51.5981077978688],[-0.151543605954808,51.5978831310336],[-0.151182866635297,51.5978774501884],[-0.151191988928005,51.5976527834132],[-0.150831251425486,51.5976471015323],[-0.150822127430415,51.5978717682363],[-0.150461388340184,51.5978660851773],[-0.150452262528025,51.5980907517991],[-0.150091521850087,51.5980850675621],[-0.149730781286845,51.5980793822181],[-0.149721651955151,51.5983040486866],[-0.149360909804229,51.5982983621646],[-0.149351778655338,51.5985230285509],[-0.148991034916739,51.5985173408508],[-0.148630291292907,51.5985116520438],[-0.148621156624333,51.5987363182767],[-0.148260411412851,51.5987306282915],[-0.14825127492697,51.5989552944422],[-0.147890528127842,51.5989496032789],[-0.14752978144355,51.5989439110088],[-0.147520641437839,51.5991685770059],[-0.147159893165928,51.5991628835577],[-0.1471507513428,51.5993875494725],[-0.146790001483274,51.5993818548461],[-0.146780857842684,51.5996065206786],[-0.146420106395546,51.599600824874],[-0.146059355063339,51.5995951279624],[-0.146050207902705,51.5998197936415],[-0.145689454982914,51.5998140955517],[-0.145680306004708,51.6000387611484],[-0.145319551497337,51.6000330618804],[-0.144958797104964,51.6000273615055],[-0.144949644606566,51.6002520269486],[-0.14458888862664,51.6002463253953],[-0.144579734310562,51.6004709907561],[-0.144570580103159,51.6006956559166],[-0.144561425816673,51.6009203210359],[-0.144552271415139,51.6011449861447],[-0.14419150873665,51.6011392832298],[-0.14420066483961,51.6009146181836],[-0.144209820827499,51.6006899531267],[-0.143849061666847,51.6006842492295],[-0.143488302621223,51.6006785442248],[-0.14312754369065,51.6006728381126],[-0.14276678487515,51.6006671308931],[-0.142406026174745,51.6006614225661],[-0.142045267589456,51.6006557131317],[-0.141684509119306,51.6006500025898],[-0.141675341221646,51.6008746672088],[-0.141314581165268,51.6008689554969],[-0.141323750764317,51.6006442909405],[-0.140962992524509,51.6006385781838],[-0.140602234399905,51.6006328643196],[-0.140241476390528,51.600627149348],[-0.139880718496399,51.600621433269],[-0.13951996071754,51.6006157160826],[-0.139159203053972,51.6006099977888],[-0.138798445505719,51.6006042783875],[-0.138437688072801,51.6005985578788],[-0.138076930755241,51.6005928362627],[-0.138067745843789,51.6008175002555],[-0.13770698694024,51.6008117774693],[-0.137697800211949,51.6010364413887],[-0.137688613368183,51.6012611052975],[-0.137679426408941,51.6014857691957],[-0.138040190416729,51.6014914921699],[-0.138400954539904,51.6014972140367],[-0.138391770868101,51.6017218780495],[-0.138382587080862,51.6019465420517],[-0.138373403178186,51.6021712060433],[-0.13836421916007,51.6023958700242],[-0.138003448230923,51.6023901479068],[-0.137642677417171,51.6023844246818],[-0.137633489880518,51.6026090885268],[-0.137272717480639,51.6026033641317],[-0.1369119451962,51.6025976386291],[-0.136902754140927,51.6028223023379],[-0.136541980270388,51.6028165756651],[-0.136532787397995,51.6030412393007],[-0.136172011941359,51.6030355114577],[-0.136181206515335,51.6028108478848],[-0.135820432875792,51.602805118997],[-0.135811236600234,51.6030297825071],[-0.135802040209073,51.6032544460066],[-0.135792843702306,51.6034791094954],[-0.135432065073488,51.6034733793119],[-0.135071286560228,51.6034676480208],[-0.135062086534563,51.6036923113735],[-0.134701307275305,51.6036865779615],[-0.134340528696655,51.6036808428053],[-0.133979750237634,51.6036751065405],[-0.133970544821674,51.6038997697073],[-0.133609764702381,51.6038940322916],[-0.133600557386749,51.6041186954064],[-0.133961339285988,51.6041244328645],[-0.133952133630575,51.604349096012],[-0.134312917429442,51.6043548324039],[-0.134673701347943,51.6043605676871],[-0.135034485763636,51.6043663013676],[-0.135025285275344,51.6045909646776],[-0.134664499132792,51.6045852309098],[-0.134655296797955,51.6048098941228],[-0.13464609434343,51.6050345573263],[-0.135006883951771,51.6050402912658],[-0.134997683116487,51.6052649545438],[-0.135358475243526,51.6052706863368],[-0.135349275994397,51.605495349667],[-0.13534007662962,51.6057200129866],[-0.134979281098913,51.6057142810681],[-0.134618486261709,51.605708546879],[-0.134609283328413,51.6059332100439],[-0.134248486949451,51.6059274744642],[-0.134239282116299,51.6061521375773],[-0.133878484076829,51.6061464008465],[-0.133869277343775,51.6063710639076],[-0.133508477643803,51.6063653260258],[-0.1334992690108,51.6065899890349],[-0.133138467650329,51.606584250002],[-0.133129257117332,51.6068089129591],[-0.133490060258024,51.6068146520343],[-0.133480851385474,51.6070393150242],[-0.133471642393145,51.6072639780044],[-0.133832449214057,51.6072697160557],[-0.134193256154653,51.6072754529983],[-0.134184050603132,51.6075001160537],[-0.134544859443685,51.6075058519299],[-0.134535655552749,51.607730515018],[-0.134896466293264,51.6077362498278],[-0.134887264062958,51.6079609129487],[-0.134526451542097,51.6079551780965],[-0.13451724741173,51.6081798411654],[-0.134878061712958,51.6081855760599],[-0.134868859243263,51.6084102391616],[-0.135229675231077,51.6084159719901],[-0.135590491301265,51.6084217035539],[-0.135581292135029,51.6086463667976],[-0.135942110022936,51.6086520973164],[-0.136302928026403,51.6086578267275],[-0.136293729855659,51.6088824900153],[-0.136654549435225,51.6088882183727],[-0.13701536913743,51.6088939456223],[-0.137006166060239,51.6091186087616],[-0.137366987725651,51.6091243349654],[-0.137357786366441,51.609348998156],[-0.137718609995063,51.6093547233139],[-0.137709410353879,51.6095793865558],[-0.138070235945716,51.6095851106678],[-0.138061038022608,51.609809773961],[-0.138421865577662,51.609815497027],[-0.138412669372677,51.6100401603715],[-0.138051839976931,51.6100344372436],[-0.13804264180868,51.6102591005157],[-0.137681810694774,51.610253376218],[-0.137320979703447,51.6102476508126],[-0.13731177773115,51.6104723139502],[-0.136950945021693,51.610466587375],[-0.136590112434866,51.6104608596919],[-0.136580906658434,51.6106855226951],[-0.136220072353508,51.6106797938423],[-0.135859238171262,51.6106740638815],[-0.135850028590606,51.6108987267502],[-0.135489192690292,51.6108929956197],[-0.135128356912708,51.6108872633814],[-0.13511914352774,51.6111119261155],[-0.134758306565412,51.6111061923339],[-0.134767521694473,51.610881529672],[-0.134406687204575,51.6108757943452],[-0.134045852829395,51.6108700579091],[-0.134055071209193,51.6106453953078],[-0.134415903901649,51.610651131709],[-0.13442512048399,51.6104264690635],[-0.134064289474236,51.6104207326973],[-0.133703458579218,51.6104149952219],[-0.133694238631476,51.6106396577975],[-0.133333406168518,51.6106339191779],[-0.133342627798959,51.6104092566373],[-0.133351849314602,51.6101845940874],[-0.132991020331797,51.6101788544285],[-0.13298179713348,51.6104035169434],[-0.132620966582802,51.6103977761404],[-0.132260136146947,51.6103920342281],[-0.131899305825938,51.6103862912066],[-0.131908534072265,51.6101616287966],[-0.132269362710607,51.6101673717831],[-0.132278589159404,51.6099427093289],[-0.131917762203707,51.6099369663773],[-0.131556935362875,51.6099312223166],[-0.131547705548788,51.6101558847008],[-0.131186877140196,51.6101501394959],[-0.131196108636926,51.6099254771466],[-0.131205340018728,51.6097008147881],[-0.130844515090304,51.609695068544],[-0.130835282025883,51.6099197308675],[-0.130474455529767,51.6099139834792],[-0.130483690276804,51.6096893211907],[-0.130492924908872,51.609464658893],[-0.130132101892912,51.6094589104655],[-0.130141338092583,51.6092342481936],[-0.129780516874157,51.6092284986919],[-0.129771278991918,51.6094531609288],[-0.129410456205912,51.609447410283],[-0.129049633534916,51.6094416585279],[-0.129058874782286,51.6092169963611],[-0.129419695770718,51.6092227480811],[-0.129428935220492,51.60899808587],[-0.129068115914603,51.6089923341851],[-0.128707296723741,51.608986581391],[-0.128698053908884,51.609211243532],[-0.128337233150533,51.6092054895937],[-0.127976412507256,51.6091997345462],[-0.127985658687188,51.6089750724754],[-0.127624839841538,51.6089693163538],[-0.127634083855691,51.608744654237],[-0.127273266610659,51.6087388970399],[-0.127264021111004,51.6089635591231],[-0.127254771566006,51.6091882211238],[-0.126893951268078,51.6091824627488],[-0.126533131085308,51.6091767032647],[-0.126172311017719,51.6091709426714],[-0.126163056309907,51.6093956045575],[-0.125802234674974,51.6093898428199],[-0.125792978169361,51.6096145046617],[-0.125432154967089,51.6096087417798],[-0.12542289666363,51.6098334035772],[-0.12506207189402,51.609827639551],[-0.125071331880066,51.6096029777888],[-0.124710508908314,51.6095972126885],[-0.124719770461622,51.6093725509522],[-0.124358949287723,51.609366784778],[-0.12436821240825,51.6091421230676],[-0.124007393032202,51.6091363558193],[-0.124016657719901,51.6089116941349],[-0.12402591681327,51.6086870323723],[-0.123665100770417,51.6086812640877],[-0.123674358672099,51.6084566023222],[-0.123313544529964,51.6084508329715],[-0.123304284847909,51.6086754946943],[-0.122943469045768,51.6086697241921],[-0.12258265336402,51.6086639525812],[-0.122221837802685,51.6086581798615],[-0.122231102825847,51.6084335182667],[-0.121870289165313,51.6084277444809],[-0.121509475625239,51.6084219695864],[-0.121148662205645,51.6084161935832],[-0.120787848906556,51.6084104164712],[-0.120427035727994,51.6084046382505],[-0.120066222669983,51.608398858921],[-0.119705409732545,51.6083930784828],[-0.119344596915704,51.6083872969359],[-0.119353876061035,51.6081626356729],[-0.118993065145139,51.60815685306],[-0.118983784219483,51.6083815142802],[-0.118622971643904,51.6083757305158],[-0.118262159188991,51.6083699456426],[-0.118271443675292,51.6081452845079],[-0.117910631929638,51.608139494901],[-0.117549820242641,51.6081337039905],[-0.117189008677873,51.6081279119719],[-0.117179718732022,51.6083525728459],[-0.116818905480211,51.6083467796652],[-0.116458092350677,51.6083409853764],[-0.116467385915119,51.6081163246102],[-0.116106574717179,51.608110529267],[-0.115745763641562,51.6081047328158],[-0.115736466458538,51.6083293934744],[-0.11537565369598,51.6083235958611],[-0.115014841055793,51.6083177971397],[-0.114654028538002,51.6083119973101],[-0.11429321614263,51.6083061963723],[-0.1139324038697,51.6083003943264],[-0.113571591719236,51.6082945911724],[-0.113210779691262,51.6082887869102],[-0.112849967785801,51.6082829815398],[-0.112489156002876,51.6082771750613],[-0.112128344342511,51.6082713674747],[-0.111767532804729,51.6082655587799],[-0.111406721389555,51.6082597489769],[-0.111045910097011,51.6082539380658],[-0.110685098927121,51.6082481260466],[-0.110324287879909,51.6082423129192],[-0.109963476955397,51.6082364986837],[-0.10960266615361,51.60823068334],[-0.109241855474571,51.6082248668882],[-0.108881044918303,51.6082190493283],[-0.10852023448483,51.6082132306601],[-0.108159424174176,51.6082074108839],[-0.107798613986363,51.6082015899996],[-0.107437803921416,51.6081957680071],[-0.107076993979359,51.6081899449064],[-0.106716184160213,51.6081841206976],[-0.106355374464004,51.6081782953807],[-0.106346030117162,51.6084029546256],[-0.105985218734657,51.6083971281465],[-0.105994564890754,51.6081724689557],[-0.105633755440486,51.6081666414225],[-0.105272946113226,51.6081608127812],[-0.105263596338623,51.6083854718638],[-0.104902785325143,51.6083796420602],[-0.104541974434718,51.6083738111485],[-0.104181163667372,51.6083679791287],[-0.103820353023129,51.6083621460007],[-0.103459542502012,51.6083563117646],[-0.103468901322843,51.6081316529528],[-0.103108092734115,51.6081258176627],[-0.102747284268557,51.6081199812645],[-0.102756646584604,51.6078953225509],[-0.102395840051453,51.6078894850987],[-0.10240520405343,51.607664826429],[-0.102766008777393,51.6076706638269],[-0.102775370846927,51.6074460050928],[-0.102414567932128,51.6074401677491],[-0.10242393168755,51.6072155090589],[-0.102433295319698,51.6069908503585],[-0.102442658828572,51.6067661916479],[-0.102803456316016,51.6067720288291],[-0.103164253926643,51.6067778649022],[-0.103173613694102,51.606553206073],[-0.10318297333834,51.6063285472336],[-0.103543767453996,51.6063343820903],[-0.103553125165985,51.6061097231865],[-0.103562482754781,51.6058850642725],[-0.103201692257159,51.6058792295241],[-0.103211051531745,51.605654570654],[-0.103571840220385,51.6056604053483],[-0.103581197562799,51.6054357464138],[-0.103590554782026,51.6052110874691],[-0.103599911878066,51.6049864285142],[-0.103960695263017,51.6049922619379],[-0.103970050426983,51.6047676029186],[-0.103979405467792,51.6045429438891],[-0.103988760385445,51.6043182848494],[-0.103998115179944,51.6040936257995],[-0.103637339030418,51.6040877925924],[-0.103276563004001,51.6040819582773],[-0.103267204591862,51.6043066172189],[-0.103257846056522,51.6045312761503],[-0.10324848739798,51.6047559350715],[-0.102887706068176,51.604750099486],[-0.102526924861534,51.6047442627924],[-0.102517562462016,51.6049689215951],[-0.102156779569677,51.6049630837393],[-0.101795996800551,51.6049572447756],[-0.10178663065997,51.6051819034596],[-0.101777264396087,51.6054065621334],[-0.102138050783044,51.6054124012055],[-0.102498837293218,51.6054182391696],[-0.102489474523933,51.6056428979416],[-0.102850262966254,51.6056487348518],[-0.102840901882687,51.6058733936677],[-0.102480111631389,51.6058675567033],[-0.102470748615583,51.6060922154548],[-0.102109956678482,51.6060863773281],[-0.101749164864602,51.6060805380934],[-0.10173979810749,51.6063051967263],[-0.101379003462696,51.6062993552137],[-0.101388372097318,51.6060746966939],[-0.101027578589332,51.6060688533379],[-0.101036948938993,51.6058441948776],[-0.101046319163685,51.6056195364062],[-0.100685529460549,51.6056136920838],[-0.100676157395896,51.6058383504848],[-0.100315365977728,51.6058325049849],[-0.0999545746845122,51.6058266583778],[-0.0995937835162728,51.6058208106635],[-0.099603161100792,51.6055961524738],[-0.0992423718975043,51.6055903037227],[-0.0992517511968912,51.6053656455925],[-0.0988909639585502,51.6053597958047],[-0.0989003449727575,51.6051351377338],[-0.0985395596993606,51.6051292869094],[-0.0981787745510286,51.6051234349778],[-0.0978179895277872,51.6051175819391],[-0.0974572046296582,51.6051117277933],[-0.0974478162558651,51.6053363855822],[-0.0978086029938873,51.6053422397986],[-0.0977992163348102,51.6055668976469],[-0.0977898295505537,51.6057915554842],[-0.0977804426411158,51.6060162133104],[-0.0981412350240825,51.6060220666311],[-0.0981318498294519,51.6062467245168],[-0.0981224645096587,51.6064713823913],[-0.0981130790647012,51.6066960402548],[-0.0984738770928135,51.6067018926798],[-0.098464493362753,51.6069265506027],[-0.0984551095075482,51.6071512085146],[-0.0984457255271958,51.6073758664153],[-0.0988065292006559,51.6073817179445],[-0.0987971469352903,51.6076063759047],[-0.0987877645447983,51.6078310338538],[-0.0984269571910409,51.6078251821836],[-0.0980661499623752,51.6078193294062],[-0.0980567637663877,51.6080439872033],[-0.0976959548226587,51.6080381332481],[-0.0976865666612878,51.6082627909635],[-0.0976771783747121,51.6084874486679],[-0.0973163658756988,51.6084815934645],[-0.0973069756236682,51.6087062510873],[-0.0969461614095785,51.608700394706],[-0.096936768670273,51.6089250532529],[-0.096575952810664,51.6089191956515],[-0.0965665574263048,51.6091438556797],[-0.0962057399416458,51.6091379969585],[-0.0958449225772846,51.6091321371268],[-0.0958543214522881,51.6089074771172],[-0.0954935059535663,51.6089016161843],[-0.0955029058054181,51.608676958108],[-0.0955123052586576,51.6084523008379],[-0.0951514935110217,51.6084464389908],[-0.0947906818887,51.6084405760364],[-0.094781278754992,51.6086652331653],[-0.0944204654177773,51.6086593690331],[-0.0940596522059248,51.6086535037935],[-0.0936988391194609,51.6086476374467],[-0.0936894302655208,51.6088722948623],[-0.0933286154891827,51.6088664272664],[-0.0929678008333209,51.60886055856],[-0.0926069862979575,51.6088546887431],[-0.0926164006126331,51.6086300317626],[-0.0922555880279587,51.6086241609867],[-0.0922461718831152,51.6088488178156],[-0.0918853575888168,51.6088429457778],[-0.0918947755687911,51.6086182891035],[-0.0915339632351554,51.608612416113],[-0.0911731510270752,51.6086065420153],[-0.0908123389445733,51.6086006668103],[-0.0908029154427867,51.6088253231513],[-0.0904421016456575,51.6088194467683],[-0.0900812879741574,51.6088135692781],[-0.0897204744283114,51.6088076906806],[-0.0897299034507839,51.6085830345517],[-0.0893690918708394,51.6085771549177],[-0.0890082804165934,51.6085712741763],[-0.0886474690880698,51.6085653923278],[-0.0882866578852941,51.6085595093719],[-0.0879258468082885,51.6085536253088],[-0.0875650358570779,51.6085477401385],[-0.0872042250316864,51.6085418538608],[-0.0868434143321375,51.608535966476],[-0.0868528579504239,51.6083113109019],[-0.0864920492169244,51.6083054224805],[-0.0861312406093138,51.608299532952],[-0.0857704321276156,51.6082936423161],[-0.0854096237718538,51.6082877505731],[-0.0850488155420524,51.6082818577228],[-0.084688007100053,51.6082759640484],[-0.0846974616147698,51.608051308848],[-0.0847069160061187,51.6078266536388],[-0.0847163702741033,51.607601998421],[-0.0847258244187236,51.6073773431945],[-0.0847352784399837,51.6071526879592],[-0.0850960777474688,51.6071585814557],[-0.0851055298104707,51.6069339261689],[-0.0847447323378847,51.6069280327153],[-0.0843839345734915,51.6069221382328],[-0.0840231369324267,51.6069162426408],[-0.0840325942845335,51.6066915874385],[-0.0836717985555992,51.6066856907621],[-0.0833110029500385,51.6066797929761],[-0.0833015420203783,51.6069044481281],[-0.0829407447494412,51.6068985492073],[-0.0829312819075349,51.6071232043253],[-0.0829218189421541,51.6073478594347],[-0.0829123558532969,51.6075725145353],[-0.08290289264096,51.6077971696273],[-0.0828934293051427,51.6080218247105],[-0.0828839658458426,51.608246479785],[-0.0828745022630569,51.6084711348508],[-0.0825136925934933,51.6084652346441],[-0.0821528830473881,51.6084593333276],[-0.0817920736247678,51.6084534309016],[-0.0814312643256534,51.6084475273659],[-0.0810704551500691,51.6084416227205],[-0.0807096460980368,51.6084357169656],[-0.0803488371695814,51.6084298101009],[-0.0799880283647251,51.6084239021267],[-0.0796272196834905,51.6084179930428],[-0.0792664111259023,51.6084120828493],[-0.0789056026919826,51.6084061715461],[-0.0785447943817549,51.6084002591333],[-0.0781839861952428,51.6083943456109],[-0.0778231781324684,51.6083884309788],[-0.0774623701934564,51.6083825152371],[-0.0771015623782293,51.6083765983858],[-0.0767407546868098,51.6083706804248],[-0.076379947119222,51.6083647613542],[-0.0760191396754878,51.608358841174],[-0.0756583323556321,51.6083529198842],[-0.0752975251596772,51.6083469974847],[-0.0749367180876465,51.6083410739756],[-0.0745759111395621,51.6083351493568],[-0.0742151043154487,51.6083292236285],[-0.074205597674801,51.6085538780781],[-0.0738447891857758,51.6085479512147],[-0.0734839808207688,51.6085420232417],[-0.0731231725798042,51.608536094159],[-0.0727623644629049,51.6085301639667],[-0.0724015564700945,51.6085242326647],[-0.0720407486013958,51.6085183002531],[-0.0716799408568319,51.6085123667319],[-0.0713191332364266,51.608506432101],[-0.0713096121603626,51.6087310863384],[-0.070948802875226,51.6087251505724],[-0.0709583257402021,51.6085004963605],[-0.0709678484809241,51.60827584214],[-0.0709773710973944,51.6080511879107],[-0.0709868935896162,51.6078265336727],[-0.0709964159575912,51.607601879426],[-0.0710059382013212,51.6073772251706],[-0.0713667367533335,51.6073831607836],[-0.0713762570840482,51.607158506494],[-0.0713857772905451,51.6069338521957],[-0.0710249823160553,51.6069279166337],[-0.0710154603208083,51.6071525709065],[-0.0706546636817601,51.6071466342094],[-0.0706451397735018,51.607371288448],[-0.0706356157409778,51.6075959426779],[-0.0706260915841865,51.6078205968991],[-0.0706165673031241,51.6080452511116],[-0.0706070428977899,51.6082699053154],[-0.0705975183681817,51.6084945595104],[-0.0702367111203895,51.6084886215507],[-0.0698759039968481,51.6084826824813],[-0.0695150969975808,51.6084767423023],[-0.0695055669769798,51.6087013964121],[-0.0691447583131093,51.6086954550979],[-0.0687839497735605,51.6086895126741],[-0.0687934833719618,51.6084648586154],[-0.0684326767456565,51.6084589151075],[-0.0680718702960978,51.6084529707547],[-0.0677110640179338,51.6084470255372],[-0.0673502578620589,51.6084410792091],[-0.0673407172128321,51.6086657332253],[-0.0669799094304814,51.6086597857792],[-0.0666191017704676,51.6086538372225],[-0.0662582942328123,51.6086478875553],[-0.0658974868175383,51.6086419367774],[-0.0659070344619016,51.608417282791],[-0.0655462289178103,51.60841133091],[-0.0651854234961441,51.6084053779184],[-0.0648246181969244,51.6083994238163],[-0.064463813020175,51.6083934686035],[-0.0641030079659184,51.6083875122802],[-0.063742203034177,51.6083815548462],[-0.0637326448971731,51.6086062087877],[-0.0633718383392032,51.6086002502356],[-0.0630110319037943,51.608594290573],[-0.0626502255909715,51.6085883297998],[-0.0622894194007557,51.608582367916],[-0.0619286133331701,51.6085764049216],[-0.0615678073882372,51.6085704408166],[-0.0612070015659799,51.608564475601],[-0.0608461958664203,51.6085585092748],[-0.0604853902895811,51.608552541838],[-0.0601245848354851,51.6085465732907],[-0.0597637795041548,51.6085406036327],[-0.0594029742956134,51.6085346328642],[-0.0590421692098825,51.608528660985],[-0.0586813642469855,51.6085226879953],[-0.0586717815045384,51.6087473418229],[-0.0583109749157368,51.608741367715],[-0.0579501684498176,51.6087353924964],[-0.0575893621068013,51.6087294161672],[-0.0572285558867106,51.6087234387275],[-0.0568677497895693,51.6087174601771],[-0.0565069438153992,51.6087114805162],[-0.0561461379642229,51.6087054997446],[-0.0557853322360626,51.6086995178625],[-0.0554245266309417,51.6086935348697],[-0.0550637211488825,51.6086875507664],[-0.0547029157899079,51.6086815655525],[-0.0543421105540397,51.6086755792279],[-0.053981305441301,51.6086695917928],[-0.0536205004517148,51.6086636032471],[-0.0536301076766044,51.6084389495273],[-0.0532693045589228,51.6084329598787],[-0.053278913409292,51.608208306159],[-0.0529181121635106,51.6082023154076],[-0.0529277226393153,51.6079776616879],[-0.0532885221364134,51.6079836524314],[-0.0536493217567038,51.6079896420645],[-0.0540101215001614,51.6079956305869],[-0.0540197266067118,51.6077709768361],[-0.0543805247246501,51.6077769642402],[-0.0543901279593587,51.6075523104739],[-0.0543997310708946,51.6073276566998],[-0.0544093340592589,51.607103002918],[-0.0540485411871828,51.6070970155371],[-0.0536877484382443,51.6070910270457],[-0.0533269558124648,51.6070850374438],[-0.0533365639233797,51.6068603836775],[-0.0529757731693517,51.6068543929728],[-0.0529853829055777,51.6066297392065],[-0.052994992518547,51.6064050854325],[-0.0526342053847873,51.6063990936328],[-0.0522734183742494,51.6063931007227],[-0.0519126314869547,51.606387106702],[-0.0519222462221594,51.6061624529436],[-0.0515614602662989,51.6061564580753],[-0.0515518434935751,51.606381111894],[-0.0515422265922002,51.6066057657017],[-0.0515326095621732,51.6068304194984],[-0.0515229924034906,51.607055073284],[-0.0511621897278501,51.6070490795965],[-0.0511525705925967,51.6072737333024],[-0.0507917661976704,51.6072677384388],[-0.0504309619313962,51.607261742468],[-0.0504213389715903,51.6074863960254],[-0.0500605329860613,51.6074803988785],[-0.0500701577937981,51.6072557453898],[-0.050079782472782,51.6070310918901],[-0.0497189803117904,51.6070250937735],[-0.0497286067099023,51.6068004403315],[-0.0493678065255118,51.6067944411764],[-0.0493581782795202,51.6070190945495],[-0.0489973763759971,51.6070130942183],[-0.048636574601244,51.6070070927798],[-0.048646206542988,51.6067824395442],[-0.048285406744902,51.6067764370673],[-0.0479246070756325,51.6067704334831],[-0.0475638075352032,51.6067644287916],[-0.0475734448916433,51.6065397757515],[-0.0472126473279205,51.6065337700216],[-0.0468518498930843,51.6065277631844],[-0.0464910525871581,51.60652175524],[-0.0465006953581326,51.6062971023954],[-0.0461399000289535,51.6062910934126],[-0.0457791048287293,51.6062850833226],[-0.0454183097574867,51.6062790721253],[-0.0450575148152479,51.6062730598209],[-0.0450671648483787,51.6060484072406],[-0.0450768147524345,51.6058237546493],[-0.0450864645274171,51.605599102047],[-0.0454472539263829,51.6056051141449],[-0.0454569017245846,51.6053804614627],[-0.0454665493937409,51.6051558087695],[-0.0458273352263028,51.6051618196224],[-0.0458369809187515,51.6049371668493],[-0.0458466264821838,51.6047125140652],[-0.0462074087484034,51.6047185236732],[-0.0462170523352009,51.6044938708092],[-0.04622669579301,51.6042692179342],[-0.0465874744929505,51.6042752262974],[-0.046597115974198,51.6040505733425],[-0.0466067573264849,51.6038259203766],[-0.0469675324602074,51.6038319274949],[-0.0469771718360072,51.6036072744492],[-0.0469868110828742,51.6033826213924],[-0.0469964502008117,51.6031579683247],[-0.0473572199208937,51.6031639741294],[-0.0473668570624427,51.6029393209818],[-0.0477276250639146,51.6029453256106],[-0.0480883931942131,51.6029513291322],[-0.0480980265119798,51.602726675836],[-0.0484587929236376,51.6027326781818],[-0.0488195594640718,51.6027386794204],[-0.0488099298411943,51.6029633328543],[-0.0488003000895101,51.6031879862771],[-0.0491610704536155,51.6031939865462],[-0.0495218409464537,51.6031999857082],[-0.0498826115680003,51.6032059837631],[-0.0498922357772637,51.602981330134],[-0.0499018598577899,51.6027566764938],[-0.0495410929311716,51.6027506785765],[-0.0495507187303935,51.6025260249941],[-0.0495603444008602,51.6023013714007],[-0.0495699699425734,51.6020767177963],[-0.0492092086868677,51.6020707189781],[-0.0492188359471861,51.6018460654315],[-0.0495795953555363,51.6018520641809],[-0.0495892206397503,51.6016274105544],[-0.0499499783294622,51.601633408128],[-0.0499403548925817,51.6018580618232],[-0.0503011145582989,51.6018640583585],[-0.0506618743526627,51.6018700537867],[-0.0510226342756491,51.6018760481078],[-0.0513833943272351,51.6018820413218],[-0.0517441509641921,51.6018880350855],[-0.05175376498144,51.6016633811798],[-0.0517633788753875,51.6014387272663],[-0.052124127177844,51.6014447222256],[-0.0521337392005021,51.6012200682966],[-0.0517729926460371,51.6012140733451],[-0.0514122420839223,51.6012080793784],[-0.0514218577455683,51.6009834253753],[-0.0514314732785931,51.6007587713611],[-0.0510707224634849,51.6007527784907],[-0.051080339715115,51.6005281245342],[-0.0507195908758154,51.6005221306255],[-0.0503588421651256,51.6005161356097],[-0.050368464321763,51.6002914853958],[-0.0500077173291896,51.6002854895373],[-0.0500173410015246,51.6000608397085],[-0.0496565956622025,51.6000548429127],[-0.0496662207631327,51.5998301932324],[-0.0500269645615181,51.5998361898635],[-0.0503877084721958,51.5998421853927],[-0.0503973303789334,51.599617535367],[-0.0507580728609633,51.5996235296298],[-0.050767693114486,51.5993988794233],[-0.050406952173354,51.5993928853252],[-0.0504165738554591,51.5991682352672],[-0.0504261954252515,51.598943585193],[-0.0507869332846495,51.5989495789619],[-0.0507965532012954,51.598724928707],[-0.0511572896321005,51.5987309212094],[-0.0511669078956401,51.5985062707738],[-0.0515276428978499,51.5985122620098],[-0.0515372595083247,51.5982876113934],[-0.0511765260469133,51.598281620322],[-0.0511861440859232,51.5980569698541],[-0.0511957620126702,51.5978323193701],[-0.0508350317450082,51.5978263275261],[-0.050844651100229,51.5976016771906],[-0.0512053798271569,51.5976076688699],[-0.0515661086662978,51.5976136594475],[-0.0519268273258392,51.5976196542419],[-0.0519172131173698,51.5978443048193],[-0.0519075987831651,51.5980689553865],[-0.051897984323224,51.5982936059433],[-0.0522587076370717,51.5982996002362],[-0.0522490948453558,51.5985242508379],[-0.0526098200788416,51.5985302440782],[-0.0526194310765927,51.5983055934214],[-0.0529801546417625,51.598311585499],[-0.0529897637198751,51.5980869347769],[-0.0533504856167234,51.5980929256918],[-0.0533600927752456,51.5978682749043],[-0.0537208130037688,51.5978742646564],[-0.0537304182427461,51.5976496138036],[-0.0537400233561066,51.5974249629405],[-0.0541007401224182,51.5974309514749],[-0.0541103433163064,51.5972063005465],[-0.0544710584143043,51.5972122879182],[-0.054461457014277,51.5974369389017],[-0.0544518554886821,51.597661589875],[-0.0540911368029394,51.5976556023931],[-0.0540815333578665,51.597880253301],[-0.0540719297871989,51.5981049041986],[-0.0544326520607785,51.5981108917906],[-0.0547933744598901,51.5981168782749],[-0.0548029744426952,51.5978922272672],[-0.0551636951733789,51.5978982125888],[-0.0551540969845086,51.5981228636516],[-0.0551444986701104,51.598347514704],[-0.0547837743515342,51.5983415292723],[-0.0547741741176248,51.5985661802595],[-0.0547645737581594,51.5987908312364],[-0.0544038459771123,51.5987848445869],[-0.0543942436980633,51.5990094954985],[-0.0543846412934326,51.5992341463997],[-0.0547453726625539,51.5992401331593],[-0.0547357719264094,51.5994647841053],[-0.0547261710647001,51.5996894350411],[-0.0543654361074129,51.5996834481715],[-0.0543558333260203,51.5999080990419],[-0.054346230419036,51.6001327499021],[-0.0539854919990388,51.6001267618147],[-0.0539758871722983,51.6003514126095],[-0.054336627386457,51.600357400752],[-0.0546973677261676,51.6003633877867],[-0.0547069689645824,51.6001387368818],[-0.0550677076356558,51.6001447227537],[-0.0550773069543552,51.5999200717835],[-0.0550869061475111,51.599695420803],[-0.0550965052151222,51.5994707698122],[-0.0551061041571925,51.5992461188111],[-0.0554668357773277,51.5992521033553],[-0.0554764327998072,51.5990274522889],[-0.0554860296967727,51.5988028012122],[-0.0554956264682274,51.5985781501253],[-0.0555052231141727,51.5983534990281],[-0.0558659476836982,51.5983594822445],[-0.055875542410175,51.598134831082],[-0.0558851370111687,51.5979101799093],[-0.0558947314866841,51.5976855287262],[-0.0559043258367223,51.5974608775329],[-0.0562650433559698,51.5974668594216],[-0.0562746357866605,51.597242208163],[-0.056284228091901,51.5970175568942],[-0.0562938202716948,51.596792905615],[-0.0566545325347987,51.5967988862312],[-0.0566641227953426,51.5965742348868],[-0.0566737129304662,51.5963495835321],[-0.056683302940172,51.5961249321671],[-0.0566928928244615,51.5959002807919],[-0.0567024825833379,51.5956756294064],[-0.0570631860030204,51.5956816086401],[-0.0570727738427935,51.5954569571893],[-0.057082361557182,51.5952323057283],[-0.0570919491461858,51.595007654257],[-0.0574526473102036,51.5950136322182],[-0.0574622329802025,51.5947889806816],[-0.0574718185248448,51.5945643291348],[-0.0574814039441328,51.5943396775777],[-0.0578420968526589,51.5943456542665],[-0.0578516803530393,51.5941210026442],[-0.0578612637280923,51.5938963510116],[-0.0575005744066536,51.5938903744327],[-0.0571398852105183,51.5938843967463],[-0.0571302982484024,51.594109048269],[-0.0567696073840664,51.5941030694202],[-0.056760018503026,51.5943277208776],[-0.0567504294965874,51.5945523723247],[-0.0563897351704816,51.5945463922585],[-0.0563993259704929,51.5943217408663],[-0.0560386335633376,51.5943157597475],[-0.0560482260314744,51.5940911084001],[-0.0556875355432639,51.5940851262288],[-0.0553268451804765,51.59407914295],[-0.0549661549431346,51.5940731585638],[-0.0546054648312605,51.5940671730701],[-0.054615064348028,51.5938425219324],[-0.0546246637392612,51.5936178707845],[-0.0549853502641277,51.5936238561681],[-0.0549949477363608,51.5933992049549],[-0.0550045450830892,51.5931745537314],[-0.0550141423043122,51.5929499024976],[-0.0550237394000344,51.5927252512535],[-0.0553844188766204,51.5927312353096],[-0.0553940140534646,51.5925065840003],[-0.055403609104835,51.5922819326806],[-0.0554131999671299,51.592057281665],[-0.0557738744524264,51.5920632643999],[-0.0557834594697893,51.5918386135605],[-0.055793044367066,51.5916139627072],[-0.0558026291442576,51.5913893118401],[-0.0561632986713633,51.5913952931035],[-0.0561728816357841,51.5911706421],[-0.055812213801366,51.5911646609591],[-0.0554515460869454,51.5911586787144],[-0.0550908784925439,51.5911526953659],[-0.055100466414897,51.5909280447161],[-0.0554611323166371,51.590934027942],[-0.0558217983383946,51.5909400100642],[-0.0558313827553435,51.5907153591554],[-0.0561920472044521,51.5907213400513],[-0.0562016298087034,51.5904966890061],[-0.055840967052216,51.5904907082328],[-0.0558505512290138,51.5902660572962],[-0.0562112122929021,51.5902720379471],[-0.0562207946570513,51.5900473868741],[-0.0562303769011514,51.5898227357873],[-0.0562399590252057,51.5895980846867],[-0.0562495410292151,51.5893734335722],[-0.0566101954428888,51.5893794126291],[-0.0566197756343661,51.5891547613782],[-0.0566293557058261,51.5889301101134],[-0.0566389356572694,51.5887054588348],[-0.0569995851134702,51.5887114364205],[-0.0570091632524745,51.5884867850055],[-0.0566485154886995,51.5884808075422],[-0.0562878678448535,51.5884748289753],[-0.0559272203209573,51.5884688493047],[-0.0559176371046829,51.5886935003522],[-0.0559080537683497,51.5889181513858],[-0.0555474029795665,51.5889121703665],[-0.0555378178307089,51.5891368212637],[-0.0555282325617672,51.5893614721471],[-0.0551675785080361,51.589355489779],[-0.0551579914265018,51.5895801405259],[-0.0551484042248561,51.589804791259],[-0.0547877469061193,51.5897988075421],[-0.0547781578918124,51.5900234581387],[-0.054768568757369,51.5902481087215],[-0.0544079081735665,51.5902421236558],[-0.0543983172263932,51.5904667741021],[-0.0543887261590562,51.5906914245345],[-0.0540280623101304,51.5906854381199],[-0.0540184694299945,51.5909100884159],[-0.0540088764296693,51.591134738698],[-0.0536482093155606,51.5911287509345],[-0.05328754232158,51.5911227620672],[-0.0532971387072097,51.5908981120303],[-0.0533067349726051,51.5906734619795],[-0.0536673985813062,51.5906794506016],[-0.0536769930338625,51.5904548004143],[-0.0536865873662119,51.5902301502132],[-0.0536961815783557,51.5900054999981],[-0.0537057756702955,51.5897808497692],[-0.0537153696420333,51.5895561995264],[-0.054076024908035,51.5895621864319],[-0.054085617067075,51.5893375360526],[-0.0544462707606679,51.5893435217318],[-0.0544558611070558,51.5891188712161],[-0.0544654513332922,51.5888942206865],[-0.0548261017620155,51.5889002050168],[-0.0548356901756668,51.5886755543508],[-0.0551963390319954,51.588681537455],[-0.0552059256331069,51.5884568866525],[-0.0552155121141178,51.5882322358362],[-0.0548548666425992,51.5882262529772],[-0.0548644546958821,51.5880016022696],[-0.0548740426290472,51.587776951548],[-0.0548836304420959,51.5875523008127],[-0.0548932181350295,51.5873276500634],[-0.054532579552889,51.5873216665909],[-0.0545229901676534,51.5875463172176],[-0.0541623500132615,51.587540332519],[-0.0541719410907982,51.5873156820148],[-0.0538113027487786,51.5873096963351],[-0.0534506645268515,51.5873037095519],[-0.0534602588687814,51.587079059279],[-0.0530996224592415,51.5870730715147],[-0.0527389861698369,51.5870670826467],[-0.0527485837760647,51.5868424326051],[-0.0531092183732223,51.5868484213505],[-0.0534698530905126,51.5868544089922],[-0.0538304879279132,51.5868603955303],[-0.0538400803372174,51.5866357451071],[-0.0538496726263489,51.58641109467],[-0.0542103041993967,51.5864170798594],[-0.0542198946761699,51.5861924292859],[-0.0545805246770913,51.5861984132492],[-0.0545901133415502,51.5859737625392],[-0.0549507417703429,51.5859797452764],[-0.0549603286225316,51.58575509443],[-0.0553209554791904,51.5857610759411],[-0.0553305405191545,51.5855364249583],[-0.0549699153546234,51.5855304435697],[-0.0549795019666184,51.5853057926955],[-0.0553401254390451,51.5853117739616],[-0.0553497102388638,51.585087122951],[-0.055359294918612,51.5848624719266],[-0.0553688794782931,51.5846378208883],[-0.0553784639179088,51.5844131698361],[-0.0557390807421172,51.5844191495085],[-0.0557486633696731,51.58419449832],[-0.056109278621841,51.5842004767664],[-0.0561188594373811,51.5839758254415],[-0.0564794731175063,51.5839818026619],[-0.0564890513819555,51.5837571494555],[-0.05684966352746,51.5837631256057],[-0.0568592386058236,51.5835384692286],[-0.057219849129844,51.5835444442279],[-0.0572294223413447,51.583319787798],[-0.0575900312438769,51.5833257616464],[-0.0575996025885586,51.5831011051638],[-0.0576091738105447,51.5828764486714],[-0.057618744909835,51.5826517921694],[-0.0579793487027463,51.5826577647809],[-0.0579889179353133,51.5824331082261],[-0.0583495201067692,51.5824390796867],[-0.0587101224007776,51.5824450500397],[-0.0587196880226553,51.5822203933891],[-0.0587292535219125,51.5819957367289],[-0.0590898524504458,51.582001705888],[-0.0590994160831165,51.581777049175],[-0.0594600133901825,51.5817830171834],[-0.0598206108197273,51.5817889840841],[-0.0598110506749999,51.5820136408832],[-0.059801490407723,51.5822382976727],[-0.0597919300178935,51.5824629544525],[-0.0597823695055102,51.5826876112227],[-0.0601429740335473,51.582693577188],[-0.060133415142673,51.5829182339915],[-0.0601238561292627,51.5831428907855],[-0.0601142969933141,51.5833675475698],[-0.060104737734826,51.5835922043445],[-0.0597441262303889,51.583586238207],[-0.0597345651052022,51.5838108949289],[-0.0597250016319712,51.5840355479885],[-0.0597154377363003,51.5842602005381],[-0.0593548212857715,51.5842542331267],[-0.0593452555782871,51.5844788855399],[-0.0589846375554807,51.5844729169026],[-0.058624019652436,51.5844669471617],[-0.0586144504410565,51.5846915993163],[-0.0582538309657613,51.5846856283495],[-0.0578932116102733,51.5846796562791],[-0.0578836388949175,51.5849043081749],[-0.0575230179672057,51.5848983348786],[-0.0571623971593471,51.5848923604787],[-0.0571528209399316,51.5851170121156],[-0.0575134434398627,51.585122986638],[-0.0578740660596483,51.5851289600567],[-0.0582346887992675,51.585134932372],[-0.0582442599424598,51.5849102803677],[-0.0586048811098116,51.5849162514569],[-0.0589655023969518,51.5849222214426],[-0.0593261238038576,51.5849281903248],[-0.059686745330507,51.5849341581035],[-0.0596963095855703,51.5847095055955],[-0.0600569295398778,51.5847154721482],[-0.0600473669768794,51.5849401247786],[-0.0600378042941018,51.5851647773951],[-0.0600282414915419,51.5853894299977],[-0.0600186785691986,51.5856140825865],[-0.0596580518464995,51.5856081155441],[-0.0596484871122178,51.5858327679966],[-0.0600091155270703,51.5858387351614],[-0.0599995523651545,51.5860633877225],[-0.0599899890834488,51.5862880402697],[-0.0599804256819512,51.586512692803],[-0.0596197921905049,51.586506725271],[-0.0596102269769721,51.5867313776681],[-0.05997086216066,51.5867373453225],[-0.0599612985195732,51.5869619978281],[-0.0599517347586892,51.5871866503199],[-0.0595910961904494,51.5871806824206],[-0.0595815306174562,51.5874053347761],[-0.0595719649246387,51.5876299871177],[-0.0595623991119953,51.5878546394455],[-0.059923042757227,51.587860607712],[-0.0599326068775168,51.5876359552619],[-0.0602932489501213,51.5876419223024],[-0.0603028112582752,51.5874172697159],[-0.0603123734466484,51.5871926171156],[-0.0603219355152452,51.5869679645014],[-0.0603314974640655,51.5867433118733],[-0.0603410592931125,51.5865186592314],[-0.0603506210023879,51.5862940065757],[-0.0603601825918934,51.5860693539061],[-0.0603697440616321,51.5858447012226],[-0.060379305411605,51.5856200485253],[-0.0603888666418151,51.5853953958141],[-0.0603984277522634,51.585170743089],[-0.0604079887429519,51.5849460903501],[-0.0604175496138839,51.5847214375974],[-0.0604271103650608,51.5844967848307],[-0.0604366709964837,51.5842721320503],[-0.0604462315081561,51.5840474792559],[-0.060455791724841,51.5838228261824],[-0.0604653493617131,51.5835981693743],[-0.0604749068760655,51.5833735125566],[-0.0608355168812428,51.5833794764356],[-0.0608450725289622,51.5831548195652],[-0.0608546280541893,51.5829301626851],[-0.0612152346935578,51.5829361253704],[-0.0612247883522224,51.5827114684377],[-0.061585393369894,51.5827174299722],[-0.0615949451620409,51.5824927729868],[-0.0619555485580106,51.5824987333706],[-0.0623161520763082,51.5825046926467],[-0.0626767557169106,51.5825106508151],[-0.0626863021545185,51.5822859936911],[-0.0626958484697552,51.5820613365574],[-0.0627053946626232,51.5818366794141],[-0.0630659931934659,51.5818426363459],[-0.0630755375199976,51.5816179791499],[-0.0630850817241888,51.5813933219443],[-0.0630946258060395,51.5811686647291],[-0.0634552192272897,51.5811746204243],[-0.0638158127707645,51.5811805750118],[-0.0641764064364421,51.5811865284917],[-0.0645370002242987,51.581192480864],[-0.0648975941343131,51.5811984321286],[-0.0652581881664625,51.5812043822856],[-0.0652677216625267,51.580979724803],[-0.0649071293742906,51.5809737746889],[-0.064916664492046,51.5807491172396],[-0.0649261994875808,51.5805244597807],[-0.0649357343608977,51.5802998023122],[-0.0645751474263936,51.5802938512193],[-0.0645846839213155,51.5800691937841],[-0.0645942202940007,51.5798445363392],[-0.0646037565444521,51.5796198788846],[-0.0642431749634842,51.579613926813],[-0.0638825935046814,51.5796079736338],[-0.0635220121680662,51.5796020193471],[-0.0635124706863018,51.5798266766727],[-0.0631518877281296,51.5798207212354],[-0.0627913048921933,51.5798147646905],[-0.0627817598005493,51.5800394219206],[-0.062421175343084,51.5800334642251],[-0.0620605910079012,51.5800275054221],[-0.062070139587114,51.579802848278],[-0.0624307221785131,51.579808807038],[-0.0624402688915727,51.5795841498413],[-0.0624498154822642,51.579359492635],[-0.0624593619505886,51.579134835419],[-0.0620987845904035,51.579128876788],[-0.0621083326800564,51.5789042196054],[-0.0621178806473256,51.5786795624131],[-0.0617573068967942,51.5786736027605],[-0.0617668564853257,51.5784489456016],[-0.0617764059514531,51.5782242884331],[-0.0614158358105008,51.578218327759],[-0.0614253868978251,51.5779936706238],[-0.0614349378627276,51.5777690134791],[-0.0614444887052115,51.5775443563246],[-0.061805053615439,51.5775503168697],[-0.0621656186479704,51.5775562763073],[-0.0621751658809746,51.5773316190572],[-0.0625357292922535,51.5773375773442],[-0.0628962928257904,51.5773435345238],[-0.0629058364493995,51.5771188771781],[-0.0632663983616549,51.5771248332072],[-0.0636269603961204,51.5771307881289],[-0.0639875225527726,51.5771367419431],[-0.0639970608235752,51.5769120844588],[-0.0643576213588939,51.5769180371225],[-0.0647181820163522,51.5769239886788],[-0.0650787427959283,51.5769299391276],[-0.0650882757140429,51.5767052815049],[-0.0654488348722323,51.5767112308033],[-0.0658093941524924,51.5767171789942],[-0.0661699535547994,51.5767231260776],[-0.0661794811203461,51.5764984683165],[-0.0665400389012128,51.5765044142496],[-0.0665495646012041,51.576279756436],[-0.0669101207606259,51.5762857012188],[-0.0669196445951075,51.5760610433526],[-0.0672801991330807,51.576066986985],[-0.0676407537930066,51.57607292951],[-0.0680013085748612,51.5760788709275],[-0.0683618616572133,51.5760848120118],[-0.0687224104088727,51.5760907538796],[-0.0687319252720632,51.575866095904],[-0.069092472426405,51.5758720366532],[-0.06945301970123,51.5758779762932],[-0.0698135670965153,51.5758839148239],[-0.0698230766857,51.575659256812],[-0.0701836224836155,51.5756651942242],[-0.070544168401946,51.5756711305271],[-0.0709047144406695,51.5756770657209],[-0.0709142185022961,51.5754524073832],[-0.0712747629627587,51.5754583414857],[-0.0716353075459089,51.5754642744802],[-0.0719958522517222,51.5754702063669],[-0.0723563970801772,51.5754761371457],[-0.07271694203125,51.5754820668165],[-0.0730774871049185,51.5754879953795],[-0.0734380323011605,51.5754939228346],[-0.0737985776199518,51.5754998491818],[-0.0741591230582765,51.5755057744182],[-0.0745196685818962,51.5755116985106],[-0.0748802142256626,51.5755176214938],[-0.0748896980434811,51.5752929619154],[-0.0752502420900555,51.575298883797],[-0.0756107862590639,51.5753048045708],[-0.0756202663442663,51.5750801448331],[-0.0759808088735153,51.5750860644651],[-0.0759902870740699,51.5748614046843],[-0.0763508279635556,51.5748673231744],[-0.0767113689754028,51.5748732405567],[-0.0770719101095888,51.5748791568311],[-0.0774324513660902,51.5748850719976],[-0.0774229802141456,51.575109731914],[-0.0777835233550981,51.5751156460065],[-0.0781440666183231,51.5751215589912],[-0.0785046100037966,51.5751274708679],[-0.0784951440160164,51.5753521308768],[-0.078855689285904,51.5753580416795],[-0.0792162346779978,51.5753639513744],[-0.0795767801922743,51.5753698599613],[-0.0799373258287111,51.5753757674403],[-0.0802978715872859,51.5753816738115],[-0.0806584174679757,51.5753875790747],[-0.0810189634707582,51.57539348323],[-0.0813795095956084,51.5753993862775],[-0.0817400558425056,51.575405288217],[-0.0817495059705273,51.5751806279037],[-0.0821100505772421,51.5751865287015],[-0.0824705953059556,51.5751924283915],[-0.0828311401566452,51.5751983269735],[-0.0831916851292878,51.5752042244477],[-0.0832011280864542,51.5749795639901],[-0.083561671418836,51.5749854603226],[-0.0839222148731231,51.5749913555472],[-0.0842827584492924,51.574997249664],[-0.0846433021473217,51.5750031426728],[-0.0850038455798151,51.5750090343018],[-0.085364387817948,51.5750149238987],[-0.0853738200775486,51.574790263229],[-0.0857343607071254,51.5747961517075],[-0.0860949014567074,51.5748020390768],[-0.0861043301390638,51.5745773783807],[-0.0864648692800601,51.5745832646317],[-0.0868254085410153,51.5745891497735],[-0.0868348336462122,51.5743644890511],[-0.0868442586313872,51.5741398283209],[-0.0872047945552028,51.5741457123351],[-0.0875653305989284,51.5741515952402],[-0.087555909070808,51.5743762559889],[-0.0875464874227109,51.5746009167296],[-0.0879070270434071,51.574606798544],[-0.0882675667839719,51.5746126792492],[-0.0886281066443841,51.5746185588452],[-0.0889886466246196,51.5746244373321],[-0.0893491867246582,51.5746303147097],[-0.0897097269444759,51.5746361909783],[-0.0900702672840522,51.5746420661377],[-0.090079676832235,51.5744174053328],[-0.0897191382212247,51.5744115301826],[-0.0893585997299694,51.5744056539232],[-0.0893680126154186,51.5741809931287],[-0.0897285493781324,51.574186869379],[-0.0900890862605996,51.5741927445201],[-0.0904496232627991,51.5741986185521],[-0.0904402155629789,51.5744232793739],[-0.0908007544134335,51.5744291523059],[-0.0911612933835763,51.5744350241287],[-0.0915218324733849,51.5744408948423],[-0.0915312349875595,51.5742162339932],[-0.0918917724684601,51.5742221035886],[-0.0918823716828391,51.5744467644468],[-0.0922429110119132,51.5744526329421],[-0.09225231006898,51.5742279720749],[-0.0926128477890975,51.574233839452],[-0.0926034504605888,51.5744585003283],[-0.0929639900288401,51.5744643666054],[-0.0929733856287904,51.57423970572],[-0.0933339235880357,51.5742455708788],[-0.0936944616668108,51.5742514349285],[-0.0937038536900464,51.5740267740172],[-0.0940643901597872,51.5740326369487],[-0.0940737803349135,51.5738079760205],[-0.0944343151956164,51.5738138378338],[-0.0944437035226794,51.5735891768887],[-0.0948042367743399,51.5735950375839],[-0.0948136232533831,51.5733703766219],[-0.0951741548959989,51.573376236199],[-0.0951647701454366,51.57360089717],[-0.095525303635945,51.573606755647],[-0.0958858372458448,51.5736126130149],[-0.0958764558328008,51.5738372739959],[-0.0962369912905789,51.5738431302637],[-0.0965975268677044,51.5738489854222],[-0.0969580625641558,51.5738548394717],[-0.0973185983799101,51.573860692412],[-0.0973279728789026,51.5736360313951],[-0.0976885070854207,51.5736418832173],[-0.0976791343149456,51.5738665442432],[-0.0980396703692403,51.5738723949652],[-0.098030299207969,51.5740970559922],[-0.0980209279273793,51.5743217170112],[-0.0980115565274683,51.5745463780225],[-0.0983720978867003,51.5745522276621],[-0.0983627280960794,51.5747768886744],[-0.0983533581861555,51.5750015496788],[-0.098343988156928,51.5752262106753],[-0.0983346180083943,51.5754508716639],[-0.0986951664014381,51.5754567202301],[-0.0990557149136886,51.5754625676871],[-0.099416263545122,51.5754684140349],[-0.0994256285076046,51.5752437530195],[-0.0997861755295117,51.5752495982492],[-0.100146722670557,51.5752554423697],[-0.100507269930716,51.5752612853811],[-0.100867817309969,51.5752671272832],[-0.100877175238539,51.5750424662245],[-0.101237721008189,51.5750483070086],[-0.101598266878267,51.575054146647],[-0.101958812318315,51.5750599840981],[-0.101968164906988,51.574835322962],[-0.10232870871945,51.5748411592826],[-0.102338059440515,51.5746164981158],[-0.102347410041543,51.5743918369404],[-0.102707950478886,51.5743976721083],[-0.103068491036163,51.5744035061678],[-0.103429031713351,51.5744093391187],[-0.103438376951824,51.5741846778686],[-0.103798916001388,51.5741905096891],[-0.104159455170817,51.5741963404011],[-0.104519994460086,51.5742021700046],[-0.104529334336122,51.5739775086797],[-0.104889871997716,51.5739833371528],[-0.104880533869174,51.5742079984997],[-0.10487119562076,51.574432659838],[-0.104861857252471,51.5746573211678],[-0.104852518764305,51.574881982489],[-0.104843180156262,51.5751066438017],[-0.104833841428337,51.5753313051058],[-0.104824502388159,51.5755559662791],[-0.104815162565172,51.5757806270221],[-0.10480582262086,51.5760052877554],[-0.104796482555219,51.5762299484788],[-0.104787142368247,51.5764546091925],[-0.104777802059944,51.5766792698964],[-0.105138360936198,51.5766850976362],[-0.105498919933691,51.5766909242687],[-0.105508256691057,51.5764662634732],[-0.105517593327136,51.5762416026679],[-0.105878148894924,51.5762474281014],[-0.10588748363429,51.5760227672405],[-0.1058968182524,51.5757981063698],[-0.105906152749251,51.5755734454893],[-0.106266703112012,51.5755792696781],[-0.106276035213788,51.5753546084418],[-0.106636583959497,51.5753604315046],[-0.106645913949348,51.5751357700904],[-0.107006461067129,51.5751415920227],[-0.107015789189615,51.574916930578],[-0.107376334679465,51.5749227513797],[-0.107736880288959,51.574928571073],[-0.107746204796547,51.5747039095758],[-0.10810674877808,51.5747097281387],[-0.108116071418414,51.574485066611],[-0.108476613771984,51.5744908840434],[-0.108837156245126,51.5744967003673],[-0.109197698837818,51.5745025155828],[-0.109207016115861,51.5742778539807],[-0.109567557080536,51.5742836680658],[-0.109928098164713,51.5742894810424],[-0.109937411828111,51.574064819388],[-0.110297951284243,51.5740706312342],[-0.11065849085983,51.574076441972],[-0.110667800908667,51.5738517802652],[-0.11102833885618,51.5738575898727],[-0.111037647038028,51.5736329281354],[-0.110677110838,51.5736271185499],[-0.110316574757401,51.5736213078559],[-0.110307263080586,51.5738459695493],[-0.109946725371957,51.573840157725],[-0.109586187782804,51.5738343447922],[-0.109576872491457,51.5740590064333],[-0.109216333274304,51.5740531923701],[-0.108855794176673,51.5740473771985],[-0.10884647527071,51.5742720387872],[-0.108485934545109,51.5742662224852],[-0.108125393939077,51.5742604050747],[-0.107764853452638,51.5742545865558],[-0.107755529184439,51.5744792480701],[-0.107394987070081,51.5744734284207],[-0.107385660934632,51.5746980899045],[-0.107025117192359,51.5746922691247],[-0.106664573569752,51.5746864472364],[-0.106655243819432,51.5749111086677],[-0.106294698568938,51.5749052856489],[-0.105934153438156,51.5748994615217],[-0.105924820072881,51.5751241229004],[-0.105564273314242,51.5751182976427],[-0.105203726675361,51.5751124712764],[-0.105213063535817,51.5748878099417],[-0.105222400276417,51.5746631485985],[-0.105231736897163,51.5744384872467],[-0.105241073398058,51.5742138258863],[-0.105250409779103,51.5739891645174],[-0.105259746040301,51.5737645031399],[-0.105269082181652,51.5735398417538],[-0.10527841820316,51.5733151803593],[-0.105287754104827,51.5730905189561],[-0.105297089886654,51.5728658575444],[-0.105306425548644,51.5726411961242],[-0.105315761090798,51.5724165346954],[-0.105676286760099,51.5724223607974],[-0.105685620435103,51.572197699338],[-0.105694953990299,51.5719730378701],[-0.105704287425688,51.5717483763936],[-0.105713620741272,51.5715237149086],[-0.105722953937055,51.571299053415],[-0.105732287013036,51.5710743919128],[-0.105741619969219,51.5708497304021],[-0.105750952805607,51.5706250688828],[-0.1057602855222,51.570400407355],[-0.105769618119001,51.5701757458186],[-0.105778950596011,51.5699510842737],[-0.105788282953234,51.5697264227202],[-0.106148787775938,51.5697322474498],[-0.106158118266327,51.5695075858658],[-0.106167448636956,51.5692829242732],[-0.106176778887826,51.569058262672],[-0.106186109018938,51.5688336010623],[-0.106195439030296,51.5686089394441],[-0.1062047689219,51.5683842778173],[-0.106214098693754,51.5681596161819],[-0.106223428345857,51.567934954538],[-0.106232757878216,51.5677102928855],[-0.106242087290828,51.5674856312245],[-0.106251416583699,51.5672609695549],[-0.106260744826125,51.5670363066451],[-0.106270072352145,51.5668116429338],[-0.106279399761464,51.5665869792136],[-0.106288727054085,51.5663623154846],[-0.105928248182345,51.566356491052],[-0.105567769427241,51.5663506655114],[-0.105577099979543,51.5661260018283],[-0.105586430415105,51.5659013381363],[-0.105225955153009,51.5658955115426],[-0.105235287159976,51.5656708478691],[-0.104874813702694,51.5656650201948],[-0.104514340362106,51.5656591914128],[-0.10450500497886,51.5658838550315],[-0.104144530066852,51.5658780251142],[-0.103784055271583,51.565872194089],[-0.1037933940311,51.565647530525],[-0.104153867138233,51.5656533615228],[-0.104163204092792,51.5654286979226],[-0.10380273267377,51.5654228669522],[-0.103442261371505,51.5654170348739],[-0.103432921040726,51.5656416984194],[-0.103072448167131,51.5656358652059],[-0.103063106031353,51.5658605287151],[-0.102702631586435,51.5658546943664],[-0.102693287645614,51.5660793578393],[-0.102332811629374,51.5660735223553],[-0.102323465883467,51.5662981857921],[-0.101962988295908,51.5662923491727],[-0.101953640744871,51.5665170125732],[-0.101593161585997,51.5665111748186],[-0.101602510825224,51.5662865114455],[-0.101611859947466,51.5660618480637],[-0.101972335729984,51.5660676857634],[-0.101981683047099,51.5658430223453],[-0.102342157258343,51.5658488589098],[-0.102351502770375,51.5656241954554],[-0.102711975410341,51.5656300308845],[-0.102721319117334,51.5654053673939],[-0.103081790186019,51.5654112016878],[-0.103091132088019,51.5651865381609],[-0.103451601585418,51.5651923713196],[-0.103460941682468,51.5649677077565],[-0.103821409608579,51.56497353978],[-0.103830747900723,51.5647488761806],[-0.10384008607603,51.5645242125725],[-0.103479621525983,51.5645183806038],[-0.103488961272452,51.5642937170141],[-0.103128498527175,51.564287883965],[-0.103137839844763,51.564063220394],[-0.102777378904251,51.5640573862645],[-0.102786721792914,51.563832722712],[-0.10242626265716,51.5638268875021],[-0.102435607116854,51.5636022239682],[-0.102075149785856,51.563596387678],[-0.102084495816536,51.5633717241627],[-0.101724040290289,51.5633658867921],[-0.101733387891912,51.5631412232954],[-0.101372934187283,51.5631353840376],[-0.101382283398616,51.5629107206017],[-0.101021831583445,51.5629048797152],[-0.101031182432078,51.5626802163092],[-0.100670732495382,51.5626743743549],[-0.100680084981268,51.5624497109787],[-0.100319636923043,51.5624438679566],[-0.100328991046137,51.5622192046103],[-0.0999685448663791,51.5622133605204],[-0.0999779006266353,51.561988697204],[-0.0996174563253408,51.5619828520464],[-0.0996268137227127,51.5617581887598],[-0.0992663712998763,51.5617523425345],[-0.0992757303343199,51.5615276792778],[-0.0989152897899375,51.5615218319847],[-0.0989246504614069,51.561297168758],[-0.0985642117954742,51.5612913203972],[-0.0985735741039228,51.5610666572003],[-0.0982131373164365,51.5610608077719],[-0.0978527006496714,51.5610549572363],[-0.0974922641036498,51.5610491055938],[-0.0971318276783948,51.5610432528442],[-0.0971224583389772,51.5612679158835],[-0.0967620202767756,51.5612620619874],[-0.0964015823353871,51.5612562069843],[-0.0960411445148359,51.5612503508741],[-0.0956807068151444,51.5612444936569],[-0.0953202692363353,51.5612386353326],[-0.0949598317784315,51.5612327759013],[-0.0949692116642387,51.5610081130986],[-0.0946087760849878,51.5610022525997],[-0.0942483406266849,51.5609963909937],[-0.0938879052893527,51.5609905282807],[-0.0938972903272434,51.560765865587],[-0.0935368568686009,51.5607600018064],[-0.0935462435430814,51.5605353391427],[-0.0931858119631246,51.5605294742946],[-0.0928253805042025,51.5605236083395],[-0.0924649491663387,51.5605177412774],[-0.0921045179495551,51.5605118731083],[-0.0921139115335116,51.5602872105931],[-0.0917534821954719,51.5602813413565],[-0.0913930529785553,51.5602754710129],[-0.0914024499565497,51.5600508085673],[-0.09141184681331,51.5598261461123],[-0.0917722725150192,51.5598320163768],[-0.0917628774158516,51.5600566788714],[-0.0921233049962754,51.5600625480684],[-0.092483732697798,51.5600684161585],[-0.0924743409926537,51.5602930787227],[-0.0928347705728728,51.5602989457453],[-0.0931952002741499,51.5603048116609],[-0.0935556300964588,51.5603106764695],[-0.0939160600397788,51.560316540171],[-0.0939066752440512,51.5605412028837],[-0.0942671070660113,51.5605470655177],[-0.094257723906877,51.5607717282605],[-0.0946181576074806,51.560777589827],[-0.0949785914290309,51.5607834502864],[-0.0953390253715045,51.5607893096388],[-0.0953296473644166,51.5610139724905],[-0.0956900831854973,51.5610198307753],[-0.0960505191274578,51.5610256879531],[-0.0964109551902763,51.5610315440238],[-0.0967713913739289,51.5610373989875],[-0.0967807623501817,51.5608127359781],[-0.0971411968969322,51.5608185897954],[-0.0975016315644712,51.5608244425056],[-0.0978620663527743,51.5608302941088],[-0.0982225012618198,51.5608361446049],[-0.0982318650863937,51.5606114814285],[-0.0985922983584582,51.5606173307783],[-0.0989527317512171,51.560623179021],[-0.0989433714420442,51.5608478422761],[-0.098934011012108,51.5610725055218],[-0.0992944480409691,51.5610783527361],[-0.0992850892480168,51.5613030160117],[-0.0996455281552822,51.5613088621584],[-0.0996361709993594,51.5615335254638],[-0.0999966117850336,51.5615393705428],[-0.0999872562661863,51.5617640338781],[-0.100347698930272,51.5617698778893],[-0.100338345048546,51.5619945412545],[-0.10069878959105,51.562000384198],[-0.10068943734649,51.5622250475931],[-0.101049883767415,51.5622308894688],[-0.101040533160066,51.5624555528937],[-0.101400981459417,51.5624613937016],[-0.101391632489327,51.5626860571564],[-0.101752082744289,51.5626918962754],[-0.101742735376578,51.5629165597898],[-0.10210318752709,51.5629223971055],[-0.10209384173028,51.5631470606385],[-0.102454295685494,51.5631528968739],[-0.102444951459632,51.5633775604255],[-0.102805407219553,51.5633833955805],[-0.102796064564681,51.5636080591507],[-0.103156522129314,51.5636138932254],[-0.103147181045476,51.5638385568141],[-0.103507640414825,51.5638443898084],[-0.103498300902066,51.5640690534157],[-0.103858762076135,51.5640748853296],[-0.103849424134499,51.5642995489555],[-0.104209887113294,51.564305379789],[-0.104200550742825,51.5645300434334],[-0.104561015526348,51.5645358731864],[-0.104921480426578,51.5645417018317],[-0.105281945443492,51.5645475293692],[-0.105272614020292,51.5647721930868],[-0.105633080841901,51.5647780195438],[-0.105623750990004,51.56500268328],[-0.105984219616311,51.5650085086565],[-0.105974891335763,51.5652331724111],[-0.106335361766772,51.5652389967072],[-0.106326035057617,51.5654636604803],[-0.106686507293334,51.5654694836958],[-0.106677182155615,51.5656941474874],[-0.107037656196045,51.5656999696224],[-0.107028332629806,51.5659246334325],[-0.107388808474951,51.5659304544869],[-0.107379486480239,51.5661551183155],[-0.107370164368898,51.5663797821353],[-0.107730643706961,51.5663856021364],[-0.10772132316721,51.5666102659746],[-0.108081804310022,51.5666160848951],[-0.108072485341905,51.5668407487518],[-0.10843296828947,51.5668465665917],[-0.108423650893031,51.5670712304668],[-0.108784135645354,51.5670770472261],[-0.108774819178112,51.5673017099384],[-0.109135305741237,51.5673075255605],[-0.109125990422998,51.5675321874058],[-0.109486478852445,51.5675380019415],[-0.109477165161505,51.5677626638002],[-0.109837655457279,51.5677684772497],[-0.109828343393685,51.5679931391217],[-0.110188835555789,51.5679989514849],[-0.110179525119585,51.5682236133703],[-0.110540019148024,51.5682294246471],[-0.110530710339256,51.5684540865459],[-0.110891206234035,51.5684598967364],[-0.110881899052748,51.5686845586484],[-0.11124239681387,51.5686903677526],[-0.111602894694354,51.5686961757485],[-0.111593590887581,51.5689208376958],[-0.111954090634391,51.5689266446053],[-0.111944788455214,51.5691513065659],[-0.112305290068356,51.5691571123891],[-0.112665791800795,51.5691629171039],[-0.112656492996299,51.5693875790996],[-0.113016996595054,51.5693933827281],[-0.113007699418271,51.5696180447371],[-0.113368204883344,51.5696238472791],[-0.113728710467652,51.5696296487128],[-0.113719416665715,51.5698543107569],[-0.114079924116326,51.5698601111041],[-0.114070631942218,51.5700847731615],[-0.114431141259136,51.5700905724222],[-0.114791650695223,51.5700963705747],[-0.11478236189613,51.5703210326671],[-0.115142873198509,51.570326829733],[-0.115133586027359,51.5705514918386],[-0.115494099196034,51.570557287818],[-0.115484813652872,51.5707819499368],[-0.115475527990532,51.5710066120471],[-0.115466242209007,51.5712312741489],[-0.115456956308298,51.5714559362421],[-0.115817476584985,51.5714617312002],[-0.115808192312372,51.5716863933066],[-0.115798907920593,51.5719110554045],[-0.116159431810966,51.5719168492978],[-0.11615014904735,51.5721415114088],[-0.116140866164586,51.5723661735114],[-0.116131583162671,51.5725908356053],[-0.116122300041605,51.5728154976908],[-0.116113016801386,51.5730401597676],[-0.116473549547726,51.5730459526613],[-0.116464267935796,51.5732706147514],[-0.116824802548646,51.5732764065584],[-0.116815522565053,51.5735010686616],[-0.117176059044417,51.5735068593819],[-0.117166780689206,51.5737315214984],[-0.117157502214901,51.5739561836063],[-0.1171482236215,51.5741808457057],[-0.117508765462447,51.5741866353827],[-0.117518042308304,51.5739619732616],[-0.117878582520709,51.5739677618084],[-0.117869307422397,51.5741924239512],[-0.118229849501328,51.5741982114113],[-0.118590394492207,51.5742039935345],[-0.118950939774619,51.5742097742876],[-0.119311485174331,51.5742155539342],[-0.119672030691319,51.5742213324744],[-0.119662764012681,51.5744459949887],[-0.119653497216715,51.5746706574923],[-0.119292948267217,51.5746648788292],[-0.119283679637635,51.5748895412608],[-0.119644230303422,51.5748953199855],[-0.119634963272797,51.5751199824679],[-0.119625696124839,51.5753446449399],[-0.119986250340534,51.575350422681],[-0.119995515772157,51.5751257601476],[-0.120356068388757,51.5751315367208],[-0.120716621122577,51.5751373121875],[-0.121077173973592,51.5751430865478],[-0.121086434138954,51.5749184238195],[-0.121446985390823,51.5749241970118],[-0.121807536759843,51.5749299690978],[-0.12216808824599,51.5749357400772],[-0.122177343145209,51.5747110771541],[-0.122537893032158,51.5747168469657],[-0.122898443036189,51.5747226156708],[-0.122907694385669,51.5744979526143],[-0.123268242790474,51.5745037201516],[-0.123628791312315,51.5745094865825],[-0.123989339951168,51.574515251907],[-0.123998586034727,51.5742905886557],[-0.124359133074302,51.5742963528123],[-0.124349888707013,51.574521016125],[-0.124710437579827,51.5745267792365],[-0.125070986569589,51.5745325412417],[-0.125431535676275,51.5745383021403],[-0.125422296340837,51.5747629656264],[-0.125782847280727,51.5747687254799],[-0.126143398337499,51.574774484227],[-0.126503949511131,51.5747802418677],[-0.126513183697663,51.5745555781977],[-0.126152634240334,51.5745498206183],[-0.125792084899864,51.5745440619326],[-0.125801322402056,51.5743193983746],[-0.125440774894744,51.5743136386437],[-0.125080227504333,51.5743078778063],[-0.124719680230845,51.5743021158626],[-0.124728922764852,51.574077452478],[-0.12473816518185,51.5738527890828],[-0.125098709022858,51.5738585509039],[-0.125459252980785,51.5738643116186],[-0.125819797055609,51.5738700712269],[-0.126180341247308,51.5738758297287],[-0.12654088555586,51.5738815871241],[-0.126901429981242,51.5738873434131],[-0.127261974523433,51.5738930985957],[-0.127252744120077,51.57411776242],[-0.127613290495296,51.5741235165574],[-0.127622519182409,51.5738988526718],[-0.12798306395815,51.5739046056415],[-0.128343608850633,51.5739103575048],[-0.128704153859836,51.5739161082617],[-0.128713377281449,51.5736914441817],[-0.129073920691122,51.5736971937709],[-0.129434464217468,51.5737029422537],[-0.129795007860467,51.57370868963],[-0.130155551620095,51.5737144358999],[-0.130164768060113,51.5734897715644],[-0.130525310220135,51.5734955166667],[-0.13088585249674,51.5735012606626],[-0.131246394889905,51.5735070035521],[-0.131606937399611,51.5735127453351],[-0.131616146858186,51.5732880807442],[-0.131976687768208,51.5732938213597],[-0.131967480025833,51.5735184860117],[-0.132328022768549,51.5735242255819],[-0.132337228794724,51.5732995608687],[-0.132697769937711,51.5733052992713],[-0.132706974131174,51.5730806344864],[-0.132716178208132,51.572855969691],[-0.133076716035224,51.5728617068649],[-0.13308591827954,51.5726370419977],[-0.133446454506914,51.5726427780041],[-0.133806990850687,51.5726485129041],[-0.133816189546286,51.5724238479041],[-0.134176724290314,51.5724295816366],[-0.134185921153381,51.5722049165649],[-0.13454645429766,51.5722106491299],[-0.134555649328241,51.5719859839865],[-0.134916180879962,51.5719917153796],[-0.13492537420312,51.5717670500868],[-0.135285909047457,51.5717727772703],[-0.135295100502645,51.5715481119108],[-0.135655633715107,51.5715538379313],[-0.136016167045555,51.5715595628453],[-0.136025354882956,51.5713348973627],[-0.136385886581501,51.5713406211137],[-0.136395072551042,51.5711159555643],[-0.136755602617681,51.5711216781524],[-0.136764786719409,51.5708970125364],[-0.137125315154137,51.5709027339615],[-0.137485843706753,51.57090845428],[-0.137495024190912,51.570683788541],[-0.13785555111159,51.5706895076966],[-0.138216078150107,51.5706952257457],[-0.138225255016781,51.5704705598836],[-0.138585780423331,51.5704762767698],[-0.13859495542237,51.5702516108412],[-0.138955479196949,51.5702573265645],[-0.138964652328398,51.5700326605692],[-0.139325174471002,51.5700383751296],[-0.139334345734907,51.5698137090677],[-0.139694866245531,51.5698194224654],[-0.139704035641937,51.5695947563368],[-0.140064554520579,51.5696004685717],[-0.140073722049531,51.5693758023765],[-0.140434239296186,51.5693815134486]]],[[[-0.0508638894738353,51.5971523764711],[-0.0508542703431713,51.5973770268389],[-0.0504935432691894,51.5973710342224],[-0.0504839224855353,51.5975956844095],[-0.0504743015895825,51.5978203345804],[-0.0504646805813275,51.5980449847352],[-0.0504550594607689,51.5982696348739],[-0.0500943263360746,51.5982636404971],[-0.0497335933236591,51.5982576450186],[-0.0493728604235408,51.5982516484382],[-0.0493824861664099,51.5980269987935],[-0.0497432175257595,51.5980329952092],[-0.0497528416155153,51.5978083453836],[-0.0497624655929275,51.597583695542],[-0.050123193983095,51.5975896905266],[-0.0501328163074582,51.5973650405042],[-0.0501424385195032,51.5971403904656],[-0.0505031639405443,51.5971463840192],[-0.0505127844996039,51.5969217337999],[-0.050873508492225,51.5969277260872],[-0.0508638894738353,51.5971523764711]]],[[[-0.0608737387371744,51.5824808488961],[-0.0608832938949366,51.5822561919872],[-0.0605226926101094,51.5822502283233],[-0.0605322493893884,51.5820255714478],[-0.0601716499709763,51.5820196067193],[-0.0601812083717279,51.5817949498772],[-0.0605418060461626,51.5818009145626],[-0.0609024038430097,51.5818068781403],[-0.0609119586333249,51.5815822212024],[-0.061272554808602,51.5815881836295],[-0.0612821077325033,51.5813635266389],[-0.0609215133011628,51.5813575642549],[-0.0609310678465241,51.5811329072977],[-0.0612916605339516,51.5811388696387],[-0.0616522533437395,51.5811448308721],[-0.0616427022862066,51.5813694879153],[-0.061633151106243,51.5815941449489],[-0.0619937475262255,51.5816001051606],[-0.0620032969622486,51.581375448084],[-0.0623638917606083,51.5813814071451],[-0.0623543440685272,51.5816060642647],[-0.0623447962540585,51.5818307213747],[-0.0619841979677917,51.5818247622276],[-0.0619746482869463,51.5820494192849],[-0.0623352483172007,51.582055378475],[-0.0623257002579514,51.5822800355657],[-0.0619650984836868,51.5822740763325],[-0.0616044968317476,51.5822681159918],[-0.0612438953021562,51.5822621545433],[-0.0612343418884215,51.5824868114953],[-0.0608737387371744,51.5824808488961]]],[[[-0.104613387825512,51.571955556371],[-0.104252866010149,51.5719497269879],[-0.104262206434613,51.5717250655995],[-0.104271546739182,51.5715004042026],[-0.104280886923857,51.5712757427971],[-0.103920370470037,51.5712699123718],[-0.103929712282018,51.5710452509798],[-0.103939053974086,51.5708205895792],[-0.103948395546244,51.5705959281701],[-0.103957736998495,51.5703712667525],[-0.10359722765315,51.570365435307],[-0.103236718427657,51.5703596027533],[-0.103246063254205,51.5701349413712],[-0.102885555895685,51.5701291077313],[-0.102525048657059,51.570123272983],[-0.102534396857807,51.5698986116365],[-0.10217389148617,51.5698927758021],[-0.10216454153835,51.5701174371264],[-0.101804034539581,51.5701116001616],[-0.101443527271193,51.5701057615318],[-0.101452880731756,51.5698811002833],[-0.101462234073242,51.5696564390269],[-0.101101729784995,51.5696505984552],[-0.101111084735516,51.5694259371998],[-0.101471587295653,51.5694317777627],[-0.101832089264139,51.5694376162291],[-0.101841440598922,51.5692129549011],[-0.102201940609548,51.5692187917775],[-0.102562440740106,51.5692246275457],[-0.102553092899329,51.5694492889179],[-0.102913594896802,51.5694551235999],[-0.103274097014163,51.5694609571736],[-0.103264752547456,51.5696856185814],[-0.103625256531715,51.5696914510689],[-0.103615913692119,51.5699161124902],[-0.10397641954328,51.5699219438915],[-0.10398576063582,51.5696972824482],[-0.103995101608461,51.5694726209963],[-0.104004442461203,51.5692479595359],[-0.10401378319405,51.5690232980669],[-0.104023123807003,51.5687986365893],[-0.104032464300066,51.5685739751032],[-0.104392959789038,51.5685798052639],[-0.104383621042921,51.5688044667721],[-0.104374282176936,51.5690291282717],[-0.10436494319108,51.5692537897627],[-0.104355604085351,51.5694784512452],[-0.10471610668204,51.5694842803859],[-0.105076609398505,51.5694901084183],[-0.10506727366698,51.5697147699363],[-0.105057937815625,51.5699394314457],[-0.105048601844436,51.5701640929466],[-0.105039265753412,51.5703887544389],[-0.105029929542549,51.5706134159227],[-0.105020593211848,51.5708380773979],[-0.105011256761304,51.5710627388646],[-0.105001920190917,51.5712874003227],[-0.104992583500684,51.5715120617723],[-0.104983246690603,51.5717367232133],[-0.10462272650271,51.5717308949606],[-0.104613387825512,51.571955556371]]],[[[-0.104613387825512,51.571955556371],[-0.104973909760673,51.5719613846457],[-0.104964572710891,51.5721860460696],[-0.104955235541254,51.5724107074849],[-0.104594710111489,51.5724048791661],[-0.104234184801527,51.572399049739],[-0.103873659611389,51.5723932192034],[-0.103883002022959,51.5721685578542],[-0.103892344314607,51.5719438964964],[-0.104252866010149,51.5719497269879],[-0.104243525465788,51.5721743883677],[-0.104604049028439,51.5721802177728],[-0.104613387825512,51.571955556371]]],[[[-0.103892344314607,51.5719438964964],[-0.103531822738907,51.5719380648966],[-0.103171301283075,51.5719322321883],[-0.103161955496861,51.572156893502],[-0.102801432413635,51.5721510596633],[-0.102440909450323,51.5721452247163],[-0.102080386606946,51.5721393886609],[-0.101719863883528,51.5721335514971],[-0.101359340767323,51.5721277124143],[-0.100998817468377,51.5721218717453],[-0.100638294288473,51.5721160299671],[-0.100277771227633,51.57211018708],[-0.100287130945049,51.5718855259288],[-0.100647652277535,51.5718913688071],[-0.101008173729082,51.5718972105764],[-0.101368695299671,51.5719030512366],[-0.101729216658852,51.5719088902718],[-0.101738569314118,51.571684229038],[-0.102099088543011,51.5716900661576],[-0.102108439330995,51.5714654048931],[-0.10211778999895,51.57124074362],[-0.102478305853357,51.5712465795871],[-0.102487654654099,51.5710219182834],[-0.102848168881247,51.57102775312],[-0.103208683228298,51.5710335868482],[-0.103199337921933,51.5712582481961],[-0.103559854136056,51.5712640808381],[-0.103550510456945,51.5714887421995],[-0.103541166657897,51.5717134035523],[-0.103901686486335,51.5717192351301],[-0.103892344314607,51.5719438964964]]]]}}