{"type":"Feature","properties":{"code":"E63005058","name":"Gravesend"},"geometry":{"type":"MultiPolygon","coordinates":[[[[0.359814839699569,51.4275091319934],[0.359861135463768,51.4284075581242],[0.360220419190078,51.4284003274669],[0.360243571631167,51.4288495404639],[0.360602858840771,51.4288423086796],[0.360614437110378,51.4290669151552],[0.360973725984809,51.4290596822557],[0.360985306226672,51.429284288712],[0.361344596765921,51.4292770546972],[0.361367761348038,51.4297262675639],[0.361727055370671,51.4297190324221],[0.361738639710996,51.4299436388325],[0.363175821538026,51.4299146871825],[0.363187413306599,51.4301392935384],[0.364624599946299,51.4301103241837],[0.364659397999202,51.4307841430649],[0.364300096114226,51.4307913870944],[0.364311693954516,51.4310159933849],[0.364670997658179,51.4310087493436],[0.364694197438163,51.4314579618785],[0.36361627495302,51.431479690762],[0.363627869617752,51.4317042970535],[0.362549940291206,51.4317260160392],[0.362538351082779,51.4315014097125],[0.362179042818342,51.4315086471553],[0.362167455582539,51.4312840408093],[0.361448842229781,51.4312985123605],[0.361460425828077,51.43152311873],[0.361101117102294,51.4315303528618],[0.361089535322757,51.4313057464806],[0.360011613679385,51.4313274422191],[0.360023190002631,51.4315520486353],[0.35930457116783,51.431566506966],[0.359339290146953,51.4322403262397],[0.359698605097628,51.4322330975912],[0.359710180216876,51.4324577039891],[0.360069496832763,51.4324504742252],[0.360092651170153,51.4328996869751],[0.360451971270155,51.4328924560841],[0.360440392205692,51.4326678497246],[0.360799710333086,51.4326606177417],[0.360822872253592,51.4331098304297],[0.361182193865087,51.4331025973197],[0.361205360038618,51.4335518099543],[0.36156468513427,51.4335445757171],[0.361587855974689,51.4339937905689],[0.36086919839787,51.4340082582634],[0.360880780898368,51.4342328684283],[0.360521450059782,51.4342401006571],[0.360533030894572,51.4344647108479],[0.359455031997797,51.4344864010252],[0.359478183211373,51.4349356215893],[0.358759509233433,51.4349500763356],[0.358771081431604,51.435174686674],[0.358052403199865,51.4351891370808],[0.358063971912451,51.4354137474799],[0.357704630746532,51.4354209710647],[0.357716197793101,51.4356455814896],[0.357356854653936,51.4356528040069],[0.35736842003444,51.4358774144577],[0.357727764993296,51.4358701919055],[0.357762467515664,51.4365440230993],[0.35812181778014,51.4365367993402],[0.358144957202816,51.4369860200212],[0.358504310953258,51.4369787950899],[0.358515882714917,51.437203405382],[0.35887523813154,51.4371961793135],[0.358886811866736,51.4374207895617],[0.359246168949532,51.4374135623558],[0.359257744658312,51.4376381725601],[0.359617103407276,51.4376309442169],[0.359628681089686,51.4378555543773],[0.359269320520834,51.4378627827554],[0.359280896537102,51.4380873929417],[0.358921533994637,51.4380946202523],[0.358944682848523,51.4385438406676],[0.358585316512478,51.4385510669455],[0.35859688935003,51.4387756771746],[0.358237521040336,51.4387829023849],[0.358260663536525,51.4392321228857],[0.357901291433138,51.4392393470634],[0.357924430903949,51.4396885675979],[0.35756505500679,51.4396957907428],[0.357588191452052,51.440145011311],[0.357228811761042,51.4401522334231],[0.357309781418138,51.4417245053721],[0.357669173850751,51.441717283016],[0.357703887711408,51.4423911179107],[0.358063285281372,51.4423838941732],[0.358098017552681,51.4430577391244],[0.358457420449603,51.4430505141199],[0.358469000008718,51.4432751290278],[0.358109595284726,51.4432823540875],[0.358144329405725,51.4439561989148],[0.357784919046251,51.4439634230387],[0.357819649073029,51.4446372679388],[0.357460233077871,51.4446444911269],[0.357483383545224,51.4450937211191],[0.357123963741466,51.4451009433162],[0.357135537379027,51.445325558352],[0.356776115593905,51.4453327795028],[0.356787687558247,51.4455573945834],[0.356428263791755,51.445564614688],[0.356439834082832,51.4457892298135],[0.357158685116439,51.4457747883926],[0.357170259216295,51.4459994033974],[0.356451404527963,51.4460138449287],[0.356462975127151,51.4462384600335],[0.357900691197013,51.4462095723444],[0.357889113288292,51.4459849574603],[0.357529686329348,51.4459921809796],[0.357518110402132,51.4457675660299],[0.363987739169724,51.4456373751538],[0.363999347988942,51.4458619891085],[0.364358772169898,51.445854745763],[0.364370382970996,51.446079359652],[0.364729808824724,51.4460721151497],[0.364706583722467,51.4456228874719],[0.367581898416472,51.44556483715],[0.367570272152995,51.4453402254359],[0.369367325428912,51.4453039053854],[0.369390595795279,51.4457531261897],[0.37046883656089,51.4457313195413],[0.370457195995624,51.4455067099311],[0.370097784327063,51.445513979642],[0.370062868844693,51.4448401498897],[0.37078168141789,51.4448256109403],[0.370770039688563,51.4446010014958],[0.371129443979661,51.444593730649],[0.371106157437151,51.4441445122093],[0.371465558039635,51.4441372407946],[0.371453913226517,51.4439126317994],[0.372172710440473,51.4438980862259],[0.37219600729266,51.4443473031522],[0.371477203003982,51.4443618497661],[0.37150049338637,51.4448110676384],[0.372938115508455,51.4447819679774],[0.372949768001535,51.4450065758376],[0.374387394777556,51.4449774577267],[0.374410714367961,51.4454266712951],[0.374051304363458,51.4454339529753],[0.374062962616987,51.4456585599842],[0.375141197482658,51.4456367108988],[0.375117870514216,51.4451874984184],[0.374758462581349,51.4451947820146],[0.374735139756284,51.4447455689193],[0.375813352488005,51.4447237164276],[0.375801685996497,51.4444991106251],[0.37616108816873,51.4444918245453],[0.376172756428944,51.4447164300876],[0.376532160218364,51.4447091426596],[0.376520490189443,51.4444845373774],[0.379036300089992,51.4444334967378],[0.379024617831919,51.4442088932537],[0.38082161150987,51.4441724043151],[0.380809920560337,51.4439478021088],[0.379372332995996,51.4439769943944],[0.379360649272723,51.4437523911233],[0.381876414100797,51.4437012927309],[0.381888110222316,51.4439258940907],[0.382606904431181,51.4439112757121],[0.386200866504784,51.4438381180613],[0.386189149615254,51.4436135183516],[0.386548543269116,51.4436061966964],[0.386560261889296,51.4438307962685],[0.387638447144558,51.4438088243145],[0.387626723332441,51.4435842251552],[0.388345509292551,51.4435695719815],[0.388333782168974,51.4433449730817],[0.389411954793701,51.4433229855147],[0.389400222628177,51.4430983870121],[0.390478388712324,51.4430763899949],[0.390490126069591,51.4433009880845],[0.391208906170533,51.4432863176516],[0.391220647138945,51.4435109154501],[0.391580038695047,51.4435035784522],[0.391568295996042,51.4432789807913],[0.393365242873073,51.4432422800516],[0.393388745727068,51.4436914739804],[0.39482631437142,51.4436620925607],[0.394873349571506,51.4445604780254],[0.393795152545667,51.4445825173872],[0.393806906529152,51.4448071141274],[0.395603909474674,51.4447703756892],[0.395580384350941,51.444321183571],[0.395220987523659,51.4443285331749],[0.395173946001999,51.4434301481984],[0.397330283176565,51.443386037444],[0.39731851278842,51.4431614419874],[0.398756062863759,51.4431320135709],[0.398744285626781,51.4429074185704],[0.399822445149297,51.4428853361592],[0.399810662815313,51.442660741345],[0.401607583569364,51.4426239156443],[0.401619374651167,51.4428485101294],[0.401978760095989,51.4428411416217],[0.401966967264631,51.4426165472025],[0.402326350807997,51.4426091776601],[0.402338145388909,51.4428337720135],[0.403775685041105,51.4428042825752],[0.403787486772239,51.4430288766541],[0.405943802186947,51.4429846090847],[0.405931989958472,51.4427600154012],[0.408088289398397,51.4427157086077],[0.408076466824982,51.4424911153091],[0.408435847782589,51.4424837270576],[0.408424023611989,51.4422591338139],[0.408064644403869,51.4422665219994],[0.408052822151024,51.4420419283395],[0.407693444544114,51.4420493153633],[0.407681624208535,51.4418247214448],[0.406962872050313,51.4418394920265],[0.406986505865912,51.4422886799527],[0.4062677460795,51.442303446419],[0.406220493123437,51.441405069665],[0.406939238864939,51.4413903038166],[0.406891974326728,51.4404919272503],[0.406532608559554,51.4404993103881],[0.406520794563517,51.440274716132],[0.40508333699547,51.4403042373546],[0.405095143964467,51.4405288319466],[0.402938942495172,51.4405730813062],[0.402950739075985,51.4407976763897],[0.40151326135356,51.4408271543127],[0.401525051059503,51.4410517497196],[0.398650074248692,51.4411106534702],[0.398661850052048,51.4413352495357],[0.396864983332012,51.4413720271167],[0.396876750285174,51.4415966239167],[0.394720496133733,51.4416407213788],[0.394708739951865,51.4414161236244],[0.395427488363207,51.4414014291661],[0.395415728745391,51.4411768317127],[0.392900119170042,51.4412282420514],[0.392876625530262,51.440779044867],[0.393235995199497,51.4407717041341],[0.393224246815953,51.4405471056752],[0.393583614535721,51.4405397640069],[0.393595364714407,51.4407643623068],[0.393954734074966,51.4407570193851],[0.393942982101143,51.4405324212442],[0.394302349512192,51.4405250773872],[0.39431410328115,51.440749675369],[0.395032841230307,51.4407349840537],[0.395021083871085,51.4405103863899],[0.395739817612217,51.4404956910152],[0.395716296176788,51.4400464962723],[0.396075659225459,51.4400391472615],[0.396063896944445,51.4398145500234],[0.396423258043561,51.4398072000773],[0.396411494122042,51.4395826029812],[0.397130212266628,51.4395679001241],[0.397106677707259,51.4391187065167],[0.397466032957741,51.4391113537649],[0.397454264114982,51.4388867570946],[0.397813617415929,51.4388794034075],[0.397801846932849,51.4386548068791],[0.398520550455508,51.4386400959447],[0.3984852289801,51.4379663072726],[0.398125882378133,51.4379736630462],[0.398114110718704,51.4377490666084],[0.397036077739066,51.4377711252834],[0.397000779841664,51.4370973344356],[0.396641440590365,51.4371046846615],[0.396617913021033,51.4366554903592],[0.398414590137268,51.436618729599],[0.398402817529281,51.4363941332774],[0.398762153274246,51.4363867759162],[0.398750379062012,51.4361621796662],[0.399469046582758,51.436147461814],[0.399492602184929,51.4365966539665],[0.399133264987863,51.4366040136098],[0.399168594263318,51.4372778019986],[0.399527936729713,51.4372704421039],[0.399539715215725,51.4374950381253],[0.402414463517887,51.4374361187265],[0.402402670980066,51.437211523376],[0.403480693810417,51.437189410717],[0.403468896155669,51.436964815606],[0.404187573767538,51.4369500685055],[0.404152171179701,51.4362762836029],[0.403792837719156,51.4362836574509],[0.403757441772724,51.4356098721866],[0.403398113428688,51.4356172446838],[0.40337452040592,51.4351680542787],[0.404093169916495,51.435153308521],[0.40408137012131,51.434928713468],[0.40372204719847,51.4349360868125],[0.403698451577919,51.434486896502],[0.403339132015034,51.4344942685796],[0.403327336189599,51.4342696733221],[0.403686653996322,51.4342623013285],[0.403674856567173,51.4340377061428],[0.40331554051659,51.4340450780525],[0.403268367585678,51.4331467019026],[0.403627676674444,51.4331393303983],[0.40363947091111,51.4333639240401],[0.404717402549259,51.4333418026672],[0.404729202228015,51.4335663960282],[0.405807137778918,51.4335442644994],[0.405818942899881,51.4337688575795],[0.406896882362946,51.4337467158946],[0.406885071952769,51.4335221230829],[0.408322315374757,51.4334925858136],[0.408334132837182,51.4337171782673],[0.409412069084678,51.4336950135112],[0.409423892631013,51.4339196061207],[0.411579771075825,51.4338752460781],[0.411544270935415,51.4332014710281],[0.412622192465585,51.4331792771469],[0.412610354153599,51.4329546857427],[0.412969659260503,51.4329472856748],[0.412934139956518,51.4322735116555],[0.413293439621173,51.4322661107579],[0.413281598397254,51.4320415194826],[0.413640896145556,51.432034117576],[0.413617210632514,51.4315849351669],[0.412898622033841,51.431599737523],[0.412886783033228,51.4313751461203],[0.41252749026654,51.4313825455609],[0.412503816251287,51.4309333625385],[0.41214452685676,51.4309407607015],[0.41213269184205,51.4307161690818],[0.412851266952187,51.4307013718366],[0.41283942856543,51.4304767803836],[0.412480142849794,51.4304841794658],[0.412397290777641,51.4289120383147],[0.410960195735328,51.4289416211504],[0.410972024235059,51.4291662131395],[0.409534919689682,51.4291957787584],[0.409546741292304,51.4294203710931],[0.40918746301027,51.4294277598413],[0.409175643170264,51.4292031674171],[0.408097812693001,51.4292253268023],[0.408062369955447,51.4285515486486],[0.407703098111174,51.4285589326449],[0.407679473910219,51.4281097469673],[0.406242399102753,51.4281392712528],[0.406266009203462,51.4285884576461],[0.406625281659937,51.4285810780435],[0.406660703246471,51.4292548572708],[0.407379258275876,51.4292400942335],[0.407391069302762,51.4294646871052],[0.406313231241203,51.429486830282],[0.406325037133221,51.4297114234095],[0.405606474135128,51.4297261802139],[0.405618276654812,51.4299507735077],[0.404899709519488,51.429965526097],[0.404911508666739,51.4301901195572],[0.404192937394302,51.4302048679313],[0.404204733169022,51.4304294615577],[0.403845445540732,51.4304368341864],[0.403833651528759,51.4302122404707],[0.403474365510363,51.4302196119115],[0.403462573414001,51.4299950180938],[0.403103289005503,51.4300023883467],[0.403091498824706,51.4297777944271],[0.403450781470498,51.4297704242635],[0.403438989679851,51.4295458304206],[0.402361146572148,51.4295679373478],[0.402337574025325,51.4291187490882],[0.403056129199308,51.4291040125927],[0.40300897183833,51.4282056366376],[0.402649701378058,51.4282130050771],[0.402626127139504,51.4277638168454],[0.402266860051508,51.4277711840078],[0.402255074923898,51.4275465897838],[0.401895809445655,51.4275539557584],[0.401872243173623,51.427104767094],[0.401512981067582,51.4271121317916],[0.401489418931308,51.4266629428982],[0.401130160197411,51.4266703063187],[0.40105948957614,51.425322739144],[0.401418737819585,51.425315376283],[0.401406959613267,51.4250907821268],[0.402484698241102,51.4250686872626],[0.402472914987456,51.424844093397],[0.402113670661614,51.4248514593479],[0.402066546085677,51.4239530833469],[0.40170730853963,51.4239604477952],[0.40166019330638,51.4230620711755],[0.401300962539811,51.4230694341212],[0.401265632895153,51.4223956512125],[0.400906407175318,51.422403012757],[0.400894632660967,51.4221784183262],[0.400535408522908,51.422185778672],[0.400523635891659,51.4219611841266],[0.399805190628495,51.4219759013236],[0.399816959794918,51.4222004960715],[0.399098510464582,51.4222152090813],[0.399086744762993,51.421990614131],[0.398727521604424,51.4219979688885],[0.398680467233292,51.4210995885489],[0.3990396834624,51.4210922341961],[0.399051448561689,51.4213168291999],[0.399410666372599,51.4213094736485],[0.39939889954098,51.421084878746],[0.399758115469008,51.4210775221985],[0.399746347055677,51.4208529273839],[0.40010556110083,51.4208455698402],[0.400093791105829,51.4206209751134],[0.400453003268112,51.4206136165736],[0.40046477499539,51.4208382111992],[0.400823988739332,51.4208308514608],[0.400859310022065,51.4215046349535],[0.401218528812319,51.421497273814],[0.401206753168388,51.421272679431],[0.401565970075638,51.4212653172954],[0.401554192850099,51.4210407230003],[0.40191340787435,51.4210333598685],[0.401878071905272,51.4203595772071],[0.402237281582024,51.4203522132818],[0.402249061819881,51.4205768074143],[0.403326695142426,51.4205547087506],[0.403303124424123,51.4201055210799],[0.402943916931815,51.4201128881959],[0.402932133531095,51.4198882942392],[0.403291339291214,51.4198809272245],[0.403279554309129,51.4196563333558],[0.402920350281177,51.4196637002692],[0.402908567182058,51.4194391062858],[0.402190162138194,51.4194538366181],[0.402166603320802,51.4190046482061],[0.40037060539531,51.4190414538215],[0.400394146891468,51.419490643246],[0.399675739738419,51.4195053582159],[0.399652205170789,51.4190561683866],[0.400011405358336,51.4190488116527],[0.399964331101874,51.4181504322387],[0.400323524210592,51.4181430748124],[0.400299984521992,51.4176938852279],[0.400659174016137,51.4176865269068],[0.400647402665808,51.4174619321957],[0.401006590277393,51.4174545728786],[0.400983044609026,51.4170053827648],[0.401342228611997,51.4169980225079],[0.401330454306247,51.4167734269413],[0.40168963643169,51.4167660656737],[0.401666084816967,51.4163168746782],[0.40202526333774,51.4163095124877],[0.402013486028831,51.4160849170588],[0.402372662672112,51.4160775538577],[0.402325548032238,51.415179172368],[0.401248038376176,51.4152012576266],[0.401236265273303,51.4149766619604],[0.400158759445515,51.4149987370741],[0.400146991673992,51.414774141133],[0.398710322041705,51.4148035588954],[0.398698561328407,51.414578962592],[0.397621067259252,51.4146010088391],[0.397609311935221,51.4143764122823],[0.396890986598218,51.414391102634],[0.396902738481225,51.4146156992664],[0.393670251576856,51.414681751675],[0.393623306880458,51.4137833637326],[0.393264147803524,51.4137906972319],[0.39325241372348,51.4135661001857],[0.3925340985624,51.4135807638052],[0.392510637732234,51.4131315695345],[0.392869791946609,51.4131242383508],[0.392858060035187,51.4128996412393],[0.392498907541201,51.4129069723855],[0.392487177499529,51.4126823752272],[0.392128026576584,51.4126897052345],[0.392116298404618,51.4124651080294],[0.391397999551546,51.4124797646649],[0.391386274969571,51.4122551673754],[0.391027127039472,51.4122624940037],[0.390991959350125,51.4115887019673],[0.390632816431664,51.4115960273815],[0.390597655246306,51.4109222351497],[0.39023851733932,51.41092955935],[0.390226798962841,51.4107049618834],[0.390585935149648,51.4106976377207],[0.390562495404003,51.4102484428353],[0.389485096716998,51.4102704117943],[0.389449953698523,51.409596619059],[0.389809081583051,51.4095892972866],[0.389797365821803,51.4093646997274],[0.390156491837148,51.4093573768915],[0.390133057322116,51.4089081818208],[0.389773934746802,51.4089155045815],[0.389738790347297,51.4082417110973],[0.390097907748698,51.4082343884546],[0.390039328249995,51.4071113992395],[0.390398436854255,51.4071040757082],[0.390386719674489,51.4068794778792],[0.390027612799636,51.4068868013681],[0.39000418234828,51.4064376055967],[0.38964507878243,51.4064449279],[0.389633365510771,51.4062203299577],[0.389274263524543,51.406227651118],[0.389285975066856,51.4064522491027],[0.388567767186625,51.4064668882061],[0.388579475419933,51.4066914862662],[0.387502157289079,51.4067134367933],[0.387513860483881,51.406938034971],[0.387154752411642,51.4069453496544],[0.387178155791264,51.4073945460659],[0.387896378703899,51.4073799154291],[0.387908084077073,51.4076045135359],[0.388267197038435,51.407597196524],[0.38827890429076,51.407821794579],[0.387560674759428,51.4078364275868],[0.387572378702413,51.408061025717],[0.387931495272407,51.4080537097211],[0.387943201094573,51.4082783077995],[0.387224964345897,51.4082929387752],[0.387260072545313,51.4089667330766],[0.386182700795379,51.4089886716296],[0.386206097469788,51.4094378675263],[0.38656522497545,51.4094305557014],[0.386576925256141,51.4096551535985],[0.387295183260786,51.4096405265703],[0.387306887130632,51.4098651243832],[0.384433837777527,51.4099236063693],[0.384457218442122,51.4103728025675],[0.383738947734774,51.4103874122026],[0.38370388728195,51.4097136176668],[0.382267364723964,51.4097428232741],[0.382279044512296,51.4099674216116],[0.381560781262491,51.409982016413],[0.381572457563471,51.4102066149368],[0.380854199905679,51.4102211994078],[0.380865872911301,51.4104457979935],[0.380506742137258,51.4104530886125],[0.380495070853709,51.4102284899915],[0.37941768280577,51.4102503551347],[0.379429348923083,51.4104749538619],[0.377992822556908,51.4105040921098],[0.378004481934431,51.4107286909694],[0.377286214415818,51.4107432535563],[0.377297870497627,51.4109678524775],[0.376220462939634,51.4109896882041],[0.37623211400346,51.4112142872222],[0.375513838111606,51.4112288389373],[0.375525485879494,51.411453438017],[0.375166345988776,51.4114607122578],[0.37517799218286,51.4116853113638],[0.374459708511889,51.411699856612],[0.374471351409871,51.4119244557795],[0.374112207629634,51.4119317267868],[0.374123848953695,51.4121563259805],[0.37340555750377,51.4121708647616],[0.373417195531562,51.4123954640168],[0.373058047861888,51.4124027317905],[0.373069684315645,51.4126273310718],[0.372710534775397,51.4126345977795],[0.372722169655074,51.412859197087],[0.372003866685215,51.4128737272685],[0.372027129999773,51.4133229259972],[0.370949664099296,51.4133447132202],[0.370961290811605,51.4135693126766],[0.370602133492739,51.4135765729166],[0.370613758630741,51.4138011723991],[0.369536280618239,51.4138229466161],[0.369547900736918,51.414047546195],[0.368829577876711,51.4140620569028],[0.368841194698428,51.414286656543],[0.368122867801204,51.4143011629152],[0.368134481325864,51.4145257626166],[0.367416150391733,51.4145402646532],[0.367427760619238,51.4147648644158],[0.366709425648315,51.4147793621167],[0.366721032578568,51.4150039619404],[0.366002693570965,51.4150184553056],[0.366014297203869,51.4152430551904],[0.365295954159697,51.4152575442197],[0.365307554495157,51.4154821441655],[0.364589200197175,51.4154966328586],[0.364600797386214,51.4157212327842],[0.363882434645086,51.4157357195879],[0.363894028479898,51.4159603196098],[0.363175661636498,51.4159748021186],[0.363187252116983,51.4161994022367],[0.362468881171425,51.4162138804506],[0.362480468297489,51.416438480665],[0.361762093249887,51.4164529545838],[0.361773677021428,51.4166775548943],[0.3610552978719,51.4166920245181],[0.36106687828882,51.4169166249248],[0.360707686737851,51.4169238581392],[0.360719265552139,51.4171484585889],[0.360360072099682,51.4171556907561],[0.360371647794813,51.4173802929586],[0.360012452354095,51.4173875241329],[0.360024026094962,51.417612126727],[0.360383223319869,51.417604895514],[0.360429526934921,51.4185033056433],[0.360070322573024,51.4185105370108],[0.360081897071203,51.4187351395587],[0.360441103217404,51.4187279081525],[0.360464256236849,51.4191771131431],[0.36010504652197,51.4191843446266],[0.36009347172085,51.4189597420972],[0.358656638484557,51.4189886568623],[0.358668206148249,51.4192132595461],[0.358308995676383,51.4192204855224],[0.358320561707073,51.4194450882355],[0.357242924030421,51.4194667596716],[0.357254484859231,51.4196913624912],[0.356536055416275,51.4197058046853],[0.356547612827493,51.4199304075727],[0.356188396094729,51.4199376270561],[0.356211507801966,51.4203868328803],[0.355852287349035,51.4203940513393],[0.355863841644987,51.4206186542761],[0.355504619256353,51.4206258716721],[0.355527724732795,51.4210750775949],[0.355886950690541,51.4210678601218],[0.355898505440147,51.4212924630309],[0.357335414897359,51.4212635819693],[0.357393226606851,51.4223865956047],[0.357752462516237,51.4223793723927],[0.357775591828765,51.4228285777049],[0.357416352349925,51.4228358009941],[0.357427915448461,51.4230604036749],[0.357787156712062,51.4230531803472],[0.357902813870182,51.4252992062609],[0.35933984880632,51.4252703003905],[0.359328275269385,51.4250456979951],[0.360046788258928,51.4250312385272],[0.360069942624225,51.4254804431542],[0.360429202461744,51.4254732116905],[0.36046393159544,51.4261470303874],[0.360823196831124,51.42613979764],[0.360846353471411,51.4265890107405],[0.359768546394003,51.4266107057424],[0.359780119489906,51.4268353123164],[0.359061577033669,51.426849770157],[0.35907314664662,51.4270743767469],[0.359432419769838,51.4270671483667],[0.359455563093263,51.4275163615005],[0.359814839699569,51.4275091319934]]],[[[0.3610552978719,51.4166920245181],[0.361043717604424,51.4164674241012],[0.361402905501877,51.4164601898927],[0.361391323631834,51.4162355895189],[0.361750509627835,51.4162283542631],[0.361738926155268,51.4160037539322],[0.361379741911253,51.4160109891348],[0.36135657891847,51.4155617883361],[0.360997398028926,51.4155690223319],[0.36098581850864,51.4153444218641],[0.360267459785193,51.4153588864486],[0.36027903580163,51.4155834870227],[0.360638216989972,51.4155762552275],[0.360649794907745,51.4158008557382],[0.360290611967455,51.4158080875866],[0.360302188282669,51.4160326881403],[0.359943003441038,51.4160399189415],[0.359954578153649,51.4162645195382],[0.359595391410671,51.4162717492921],[0.359606964520632,51.4164963499317],[0.359966153015631,51.4164891201246],[0.359977728026991,51.4167137207009],[0.3610552978719,51.4166920245181]]],[[[0.399410666372599,51.4213094736485],[0.39942243335481,51.4215340685377],[0.399781652747515,51.4215267117877],[0.399793421612694,51.4217513065623],[0.400152642587188,51.4217439486138],[0.40014087198964,51.4215193539404],[0.400500091081164,51.4215119949956],[0.400488318901912,51.4212874004102],[0.399410666372599,51.4213094736485]]],[[[0.397130212266628,51.4395679001241],[0.397141979778194,51.4397924969021],[0.396782618988152,51.4397998490369],[0.396794384859264,51.4400244459568],[0.396075659225459,51.4400391472615],[0.396099184251063,51.4404883416863],[0.3964585507354,51.440480991263],[0.396470315275115,51.4407055882906],[0.396110946995659,51.4407129388729],[0.39613447294845,51.4411621331949],[0.397571959500164,51.4411327230267],[0.397560189265853,51.4409081265105],[0.397919558722158,51.4409007713916],[0.397907786847344,51.4406761750175],[0.398267154353886,51.4406688189633],[0.398255380838614,51.4404442227311],[0.397896015127177,51.4404515786262],[0.397884243561656,51.4402269822178],[0.398602972557106,51.4402122690862],[0.398579422624379,51.4397630768211],[0.398220061220794,51.4397704339318],[0.398208288324178,51.4395458376311],[0.397848929792937,51.4395531928897],[0.397837158845969,51.4393285964128],[0.397477801955105,51.439335950418],[0.397489571107078,51.4395605470541],[0.397130212266628,51.4395679001241]]],[[[0.403626971622895,51.4194243715643],[0.4036387581863,51.4196489653451],[0.403997961912667,51.419641596237],[0.404009750359077,51.4198661899032],[0.404368955666778,51.4198588195965],[0.404357165488209,51.4196342260317],[0.404716368912902,51.4196268547291],[0.404704577153089,51.4194022612523],[0.40506377869478,51.4193948889537],[0.405040192163682,51.4189457021628],[0.404321795857827,51.4189604452573],[0.404333585583736,51.4191850388621],[0.403255984797423,51.4192071455782],[0.403267769477866,51.4194317394737],[0.403626971622895,51.4194243715643]]],[[[0.390328136022762,51.4057564885916],[0.391046332029756,51.4057418387361],[0.391022892700634,51.4052926431244],[0.389945608841048,51.4053146160021],[0.389957323242944,51.40553921394],[0.389598226594332,51.4055465360737],[0.38962165238887,51.4059957320059],[0.390339852453502,51.4059810864681],[0.390328136022762,51.4057564885916]]],[[[0.359572245638794,51.4158225479823],[0.35849469502594,51.4158442303233],[0.358517830285861,51.4162934319517],[0.358877017476754,51.4162862054989],[0.358888587082665,51.4165108062447],[0.359247775876303,51.4165035786384],[0.359224633309754,51.4160543772427],[0.359583818450059,51.4160471486423],[0.359572245638794,51.4158225479823]]]]}}