{"type":"Feature","properties":{"code":"E63003977","name":"Letchworth"},"geometry":{"type":"MultiPolygon","coordinates":[[[[-0.230488105764246,51.9619335341917],[-0.2308517801704,51.9619389947309],[-0.230842910063459,51.9621636687058],[-0.230834039848598,51.9623883426663],[-0.230470362129209,51.9623828818456],[-0.230106684517838,51.9623774199067],[-0.230097810881754,51.9626020935713],[-0.2300889371377,51.9628267672215],[-0.230080063285676,51.9630514408574],[-0.230443745867061,51.9630569032185],[-0.230807428556473,51.9630623644615],[-0.231171111353888,51.9630678245863],[-0.231162242364045,51.96329249863],[-0.231153373266294,51.9635171726593],[-0.231517059485157,51.9635226319473],[-0.231508191936262,51.9637473061031],[-0.231499324279478,51.9639719802444],[-0.231863013919864,51.9639774386957],[-0.231871879919859,51.9637527644136],[-0.2322355680114,51.9637582216059],[-0.232599256210865,51.9637636776799],[-0.232962944518234,51.9637691326356],[-0.23295408348862,51.9639938073399],[-0.233317773560667,51.9639992613181],[-0.233308914080069,51.9642239361486],[-0.2336726059168,51.9642293891493],[-0.233681463740577,51.964004714178],[-0.234045154028327,51.9640101659197],[-0.234054010087545,51.9637854907934],[-0.234417698826313,51.9637909412761],[-0.234426553121015,51.9635662659948],[-0.234790240310797,51.9635717152186],[-0.235153923385206,51.9635771664685],[-0.235517604204033,51.9635826183586],[-0.23588128513459,51.963588069126],[-0.236244966176853,51.9635935187706],[-0.236608647330799,51.9635989672924],[-0.236599803516881,51.9638236428717],[-0.236963486521583,51.9638290903189],[-0.236954644335204,51.9640537659365],[-0.237318329190667,51.9640592123091],[-0.237682014157749,51.964064657559],[-0.2376731753381,51.964289333263],[-0.237664336406939,51.9645140089572],[-0.238028024963933,51.9645194531806],[-0.23801918766045,51.964744128913],[-0.238382878068217,51.9647495720618],[-0.238374042392458,51.9649742478325],[-0.238737734651001,51.9649796899066],[-0.238728900603011,51.9652043657155],[-0.239092594712336,51.9652098067149],[-0.239083762292161,51.9654344825621],[-0.239074929760557,51.9656591583995],[-0.239438627459958,51.9656645983723],[-0.239429796556236,51.9658892742479],[-0.23979349610645,51.965894713146],[-0.239784666830657,51.9661193890598],[-0.24014836823169,51.9661248268831],[-0.240139540583871,51.9663495028352],[-0.240130712824683,51.9665741787774],[-0.2397670079449,51.9665687408579],[-0.239758178334933,51.9667934167421],[-0.240121884954125,51.9667988547098],[-0.240113056972194,51.9670235306322],[-0.240476765442284,51.9670289675251],[-0.24046794022329,51.9672536411754],[-0.240831650619549,51.9672590768451],[-0.241195361129351,51.967264511388],[-0.241186540294003,51.9674891830729],[-0.241550252700827,51.967494616456],[-0.241559071752675,51.967269944804],[-0.241922782489494,51.9672753770932],[-0.242286493339789,51.9672808082557],[-0.242650204303534,51.9672862382913],[-0.243013915380707,51.9672916672001],[-0.243005103462879,51.96751633872],[-0.242996291431727,51.967741010234],[-0.242987479287249,51.967965681742],[-0.242623762859482,51.9679602529323],[-0.242614948818096,51.9681849244674],[-0.242606134663357,51.9684095959966],[-0.242969854658304,51.9684150247403],[-0.242961042173834,51.9686396962305],[-0.242597320395262,51.9686342675199],[-0.242588506013809,51.9688589390372],[-0.242952229576029,51.9688643677148],[-0.242943416864888,51.9690890391931],[-0.242934604040409,51.9693137106655],[-0.242925791102589,51.969538382132],[-0.243289520129318,51.9695438095836],[-0.2432807088619,51.9697684810111],[-0.243271897481161,51.9699931524326],[-0.243263085987099,51.9702178238482],[-0.243254274379712,51.9704424952579],[-0.242890538217868,51.9704370679384],[-0.242526802169455,51.970431639492],[-0.242517986881069,51.9706563109618],[-0.242154249162278,51.9706508814215],[-0.241790511556967,51.9706454507542],[-0.241781692587493,51.9708701222841],[-0.241772873504596,51.9710947938081],[-0.241764054308273,51.9713194653261],[-0.242127797265218,51.9713248958943],[-0.242118979739391,51.9715495673734],[-0.242110162100158,51.9717742388465],[-0.242473908738467,51.9717796682218],[-0.242465092769798,51.9720043396559],[-0.24282884130555,51.9720097678711],[-0.242820027007493,51.9722344392663],[-0.24281121259607,51.9724591106556],[-0.243174964813293,51.9724645376777],[-0.243166152072551,51.9726892090279],[-0.24352990618725,51.9726946348899],[-0.243538717143942,51.9724699635727],[-0.243902469587994,51.9724753883408],[-0.244266222145426,51.9724808119818],[-0.244629974816215,51.9724862344958],[-0.244621169211683,51.9727109057138],[-0.244612363493898,51.9729355769259],[-0.244976119846159,51.9729409982467],[-0.244967315799224,51.9731656694197],[-0.244958511639055,51.9733903405868],[-0.244594751718563,51.9733849193322],[-0.244585945661008,51.9736095905265],[-0.244222184069708,51.9736041681779],[-0.24421337611472,51.9738288393993],[-0.244577139490193,51.9738342617148],[-0.244568333206115,51.9740589328972],[-0.244559526808773,51.9742836040736],[-0.244923293866011,51.9742890251959],[-0.244914489139646,51.9745136963333],[-0.245278258094456,51.9745191162954],[-0.245287061036574,51.974294445191],[-0.24565082832044,51.9742998640591],[-0.245659629365112,51.974075192982],[-0.246023394978031,51.9740806107561],[-0.246032194125305,51.9738559397061],[-0.246395958067271,51.9738613563863],[-0.246404755317195,51.9736366853635],[-0.246768517588206,51.9736421009497],[-0.246777312940825,51.9734174299541],[-0.247141073540877,51.9734228444464],[-0.247149866996238,51.973198173478],[-0.247513625925327,51.9732035868764],[-0.247877384967571,51.9732089991477],[-0.247868595080495,51.9734336700498],[-0.248232356020014,51.9734390811609],[-0.24822356780406,51.9736637520239],[-0.248587330640858,51.9736691619748],[-0.24857854409607,51.9738938327986],[-0.248942308830153,51.9738992415892],[-0.248933523956579,51.9741239123739],[-0.249297290587949,51.9741293200043],[-0.249661057332365,51.9741347265076],[-0.249652275914299,51.9743593972199],[-0.249643494383294,51.9745840679263],[-0.249634712739348,51.9748087386268],[-0.249998484949602,51.9748141439033],[-0.249989704977031,51.9750388145646],[-0.249980924891539,51.97526348522],[-0.24997214648196,51.9754881556825],[-0.249963381925798,51.9757128246784],[-0.249954617255918,51.9759374936645],[-0.24994585247232,51.9761621626408],[-0.249937087575002,51.9763868316073],[-0.250300872836225,51.9763922358119],[-0.250292109626034,51.9766169048146],[-0.250283346302142,51.9768415738075],[-0.249919557439194,51.9768361695112],[-0.249555768689978,51.9768307640914],[-0.249191980054518,51.9768253575483],[-0.248828191532838,51.9768199498818],[-0.248819420891663,51.9770446186813],[-0.248810650136689,51.9772692874711],[-0.248801879267915,51.9774939562511],[-0.248793108285337,51.9777186250214],[-0.248784337188953,51.9779432937819],[-0.248775565978762,51.9781679625326],[-0.248411766765192,51.9781625534672],[-0.248402993640161,51.9783872221622],[-0.248394220401295,51.9786118908475],[-0.248385447048593,51.978836559523],[-0.248376673582051,51.9790612281888],[-0.248367900001669,51.9792858968448],[-0.248731708220631,51.97929130614],[-0.249095516553418,51.9792967143116],[-0.249459325000005,51.9793021213598],[-0.249450556709234,51.9795267901439],[-0.249814367070753,51.9795321961145],[-0.250178177546029,51.9795376009617],[-0.250169412743843,51.9797622698278],[-0.250533225134033,51.9797676735974],[-0.250897037637934,51.9797730762435],[-0.250888276324433,51.9799977451916],[-0.251252090743232,51.9800031467601],[-0.251615905306444,51.9800085472436],[-0.251624663023897,51.9797838782139],[-0.251988476205462,51.9797892779297],[-0.25199723198726,51.9795646088393],[-0.252361043462335,51.9795700073811],[-0.252369797308527,51.97934533823],[-0.252378551040179,51.9791206690689],[-0.25274235898774,51.979126066386],[-0.253106167049822,51.9791314625799],[-0.253114917024944,51.9789067933074],[-0.253123666885578,51.9786821240249],[-0.253487471420182,51.9786875189943],[-0.253478723380524,51.9789121883274],[-0.2534699752264,51.9791368576506],[-0.253833783517451,51.9791422515981],[-0.253825037069886,51.979366920962],[-0.254188847296411,51.9793723138369],[-0.254180102555451,51.9795969832415],[-0.254171357700068,51.9798216526361],[-0.254162612730259,51.9800463220207],[-0.254153867646023,51.9802709913953],[-0.254145122447357,51.9804956607599],[-0.253781303115341,51.9804902676317],[-0.253772555981075,51.9807149369356],[-0.253408734942352,51.9807095426334],[-0.253044914018117,51.9807041472078],[-0.252681093208391,51.980698750659],[-0.2523172725132,51.9806933529868],[-0.251953451932567,51.9806879541914],[-0.251589631466516,51.9806825542727],[-0.25122581152439,51.9806771536835],[-0.251217051557447,51.9809018226385],[-0.251208291476836,51.9811264915837],[-0.251572115015713,51.9811318922581],[-0.251580873294995,51.980907223267],[-0.251944695577909,51.9809126232318],[-0.252308517979725,51.980918022078],[-0.252299763331696,51.9811426911592],[-0.252663587669281,51.9811480889327],[-0.253027412121404,51.981153485583],[-0.253391236688042,51.98115888111],[-0.25338248738916,51.9813835503333],[-0.253373737975792,51.9816082195466],[-0.253009909766657,51.9816028239183],[-0.253001158417516,51.9818274930709],[-0.252637328501618,51.9818220962685],[-0.252273498700264,51.9818166983428],[-0.252264743593999,51.982041367384],[-0.251900912085911,51.9820359682843],[-0.251537080762105,51.9820305681248],[-0.251173250017673,51.982025167267],[-0.250809419386924,51.9820197652856],[-0.250445588869883,51.9820143621806],[-0.250081758466572,51.982008957952],[-0.250072992413261,51.9822336267108],[-0.250064226246199,51.9824582954598],[-0.249700392353739,51.9824528900158],[-0.249691624271439,51.9826775587091],[-0.24968285607536,51.9829022273927],[-0.249319018693688,51.9828968207334],[-0.249310248582298,51.9831214893612],[-0.248946409512905,51.9831160815323],[-0.248937637486156,51.9833407501045],[-0.248928865345575,51.983565418667],[-0.248920093091162,51.9837900872197],[-0.248556248730878,51.9837846781293],[-0.248547495054544,51.984009347451],[-0.248538742275182,51.9842340168036],[-0.248529989380836,51.9844586861466],[-0.248166139142845,51.9844532757783],[-0.248157384308594,51.9846779450672],[-0.248148629359331,51.9849026143464],[-0.248139874295055,51.9851272836158],[-0.247776018697148,51.9851218719905],[-0.247412163214178,51.9851164592414],[-0.247048307846168,51.9851110453686],[-0.247039547191916,51.985335714495],[-0.246675690113907,51.985330299454],[-0.246311833150909,51.9853248832891],[-0.246303068731558,51.9855495523169],[-0.245939210058591,51.9855441349838],[-0.245575351500684,51.9855387165269],[-0.245566583316143,51.985763385456],[-0.245202723048297,51.9857579658308],[-0.24483886289556,51.9857525450818],[-0.244830090945742,51.9859772139122],[-0.244466229083096,51.9859717919949],[-0.244102367335609,51.9859663689538],[-0.243738505703305,51.9859609447889],[-0.243729728163057,51.986185613476],[-0.243365864820901,51.9861801881428],[-0.243002001593975,51.9861747616857],[-0.242993220288252,51.986399430274],[-0.242629355351504,51.9863940026486],[-0.242265490530038,51.9863885738993],[-0.241901625823878,51.9863831440263],[-0.241537761233049,51.9863777130294],[-0.241528972511562,51.9866023814297],[-0.24116510621099,51.9865969492644],[-0.241156315548926,51.9868216176104],[-0.240792447538618,51.9868161842767],[-0.240783654935928,51.9870408525684],[-0.240419785215885,51.9870354180662],[-0.240410990672524,51.9872600863036],[-0.240047119242751,51.9872546506329],[-0.239683247928435,51.9872492138384],[-0.239692046122117,51.9870245456903],[-0.239700844200216,51.9867998775325],[-0.239709642162737,51.986575209365],[-0.240073508001648,51.9865806460255],[-0.24043737395601,51.9865860815623],[-0.240446168152776,51.9863614132958],[-0.240082304023504,51.9863559778037],[-0.240091099929809,51.9861313095721],[-0.239727237741048,51.9861258730008],[-0.239736035356843,51.9859012048042],[-0.239744832857067,51.9856765365979],[-0.239380974433829,51.9856710989921],[-0.239389773643474,51.9854464308207],[-0.239398572737526,51.9852217626397],[-0.239034718079732,51.9852163239994],[-0.239043518883137,51.9849916558533],[-0.238679666165791,51.9849862161339],[-0.2386884686785,51.9847615480228],[-0.238697271075576,51.9845368799019],[-0.23870607335702,51.9843122117714],[-0.238342226229873,51.9843067710623],[-0.237978379218277,51.9843013292295],[-0.237987185033774,51.9840766611786],[-0.237623339962588,51.9840712182667],[-0.237632147487224,51.9838465502508],[-0.237268304356446,51.98384110626],[-0.237277130155002,51.9836164390062],[-0.236913289450008,51.9836109939598],[-0.236922121156139,51.9833863269278],[-0.236930952747659,51.983161659886],[-0.236567115760324,51.9831562138084],[-0.236575949038721,51.9829315468031],[-0.236212113967505,51.9829260996481],[-0.236203278887623,51.9831507666072],[-0.236194443693086,51.9833754335564],[-0.235830605133537,51.9833699851854],[-0.235821768022812,51.9835946520786],[-0.235457927776419,51.9835892025377],[-0.235449090437297,51.98381386945],[-0.235085248000582,51.9838084187169],[-0.235076427702308,51.9840330864197],[-0.234712583255702,51.984027634389],[-0.234348738699153,51.9840221811376],[-0.23398489425984,51.9840167267632],[-0.233976068282384,51.9842413942774],[-0.233612222106212,51.9842359387202],[-0.23360339415725,51.984460606164],[-0.233594566090898,51.9846852735974],[-0.233230716323706,51.9846798167975],[-0.23286686667383,51.9846743588746],[-0.232503017141293,51.9846688998286],[-0.232511850770134,51.9844442325749],[-0.232520684281512,51.9842195653107],[-0.23252951767543,51.9839948980361],[-0.232165673822661,51.9839894380469],[-0.232174511695349,51.9837647709268],[-0.232183366700902,51.9835401044571],[-0.231819527061007,51.9835346434592],[-0.231828383721868,51.9833099770193],[-0.231837240269391,51.9830853105698],[-0.231846096703576,51.982860644111],[-0.231482262482822,51.9828551821066],[-0.231491120572226,51.9826305156775],[-0.231499978548274,51.9824058492389],[-0.231508836410967,51.9821811827909],[-0.231145007609157,51.98217571978],[-0.23115386712698,51.9819510533617],[-0.231162726531429,51.981726386934],[-0.230798901379931,51.9817209228775],[-0.230790040207025,51.9819455892661],[-0.230426213400467,51.9819401240465],[-0.230062386707327,51.9819346577031],[-0.23005352188407,51.9821593240039],[-0.229689693535898,51.9821538564974],[-0.229680826830698,51.9823785227496],[-0.229316996827498,51.98237305408],[-0.22895316693779,51.9823675842865],[-0.228944296582084,51.9825922504509],[-0.228580465037375,51.9825867794943],[-0.228216633606207,51.9825813074138],[-0.228207759599907,51.9828059734903],[-0.227843926513768,51.9828005002467],[-0.227480093541216,51.9827950258791],[-0.227471215884235,51.9830196918677],[-0.227107381256742,51.983014216337],[-0.227098501717568,51.983238882277],[-0.226734665435135,51.9832334055831],[-0.226370829266362,51.9832279277652],[-0.226361946076353,51.9834525936172],[-0.226725784013722,51.9834580714743],[-0.226716902478643,51.9836827373562],[-0.226708030130505,51.9839074034537],[-0.227071872220002,51.9839128802873],[-0.227063011014639,51.9841375466624],[-0.227054149691455,51.984362213027],[-0.226690303893775,51.9843567360734],[-0.226326458213844,51.9843512579968],[-0.226317593064582,51.9845759242309],[-0.225953745648302,51.9845704449712],[-0.225589898349821,51.9845649645886],[-0.225226051169166,51.984559483083],[-0.225217180339591,51.9847841491264],[-0.225581029374391,51.9847896306921],[-0.225572160281037,51.9850142967852],[-0.225563291069757,51.9852389628678],[-0.225199438326597,51.985233481182],[-0.224835585701292,51.9852279983731],[-0.224471733193867,51.9852225144413],[-0.224107880804345,51.9852170293865],[-0.223744028532751,51.9852115432087],[-0.223752907014972,51.9849868774265],[-0.223389056715512,51.9849813901859],[-0.223025206534026,51.9849759018222],[-0.223016324343444,51.9852005674841],[-0.222652472425779,51.9851950779373],[-0.222643588262899,51.9854197435285],[-0.223007442034765,51.9854252331355],[-0.222998559607986,51.9856498987764],[-0.222989677063107,51.9858745644069],[-0.222980794400125,51.986099230027],[-0.22334465385275,51.9861047186913],[-0.223335772925963,51.9863293843611],[-0.223326891881092,51.9865540500203],[-0.223318010718137,51.9867787156692],[-0.223309129437094,51.9870033813075],[-0.223300248037962,51.9872280469354],[-0.223291366520738,51.9874527125529],[-0.223282484885421,51.9876773781599],[-0.223273603132009,51.9879020437564],[-0.222909728844306,51.987896554611],[-0.222900845118303,51.9881212201369],[-0.223264721260499,51.9881267093425],[-0.223628597520698,51.988132197425],[-0.223992473898876,51.9881376843844],[-0.223983595618307,51.9883623500803],[-0.224347473968963,51.9883678359766],[-0.224338597424888,51.9885925017222],[-0.224329720762782,51.9888171674573],[-0.224693602940493,51.9888226523507],[-0.225057485236117,51.9888281361211],[-0.225066358189074,51.9886034702658],[-0.225075231024048,51.9883788044],[-0.225439109728428,51.988384286927],[-0.225447980590891,51.9881596209907],[-0.225811857558599,51.9881651023345],[-0.22617573464414,51.9881705825552],[-0.22653961184749,51.9881760616528],[-0.226903489168625,51.9881815396272],[-0.227267366607521,51.9881870164785],[-0.227631244164152,51.9881924922067],[-0.227640103781584,51.9879678258996],[-0.228003979601408,51.9879733004447],[-0.228012837246536,51.9877486340671],[-0.228021694773883,51.9875239676791],[-0.228030552183449,51.9872993012807],[-0.228039409475237,51.9870746348718],[-0.22804826664925,51.9868499684524],[-0.228057123705488,51.9866253020226],[-0.228065980643954,51.9864006355824],[-0.228074837464651,51.9861759691317],[-0.228438698566852,51.9861814420736],[-0.228802559786699,51.9861869138923],[-0.228811412781016,51.9859622473112],[-0.228820265657615,51.9857375807196],[-0.228829118416498,51.9855129141176],[-0.229192974191111,51.9855183846334],[-0.229201824978045,51.9852937179609],[-0.229565679016008,51.9852991872936],[-0.229929533171536,51.9853046555034],[-0.230293387444603,51.9853101225901],[-0.230657241835185,51.9853155885539],[-0.230666085087561,51.9850909216311],[-0.231029937741411,51.9850963864118],[-0.231393790512726,51.9851018500696],[-0.231757643401481,51.9851073126043],[-0.231766480973665,51.9848826454913],[-0.232130332125632,51.9848881068431],[-0.232494183394988,51.9848935670719],[-0.232485349531217,51.9851182343048],[-0.232849202772147,51.9851236934705],[-0.23285803478171,51.9848990261778],[-0.233221886285773,51.9849044841606],[-0.233585737907153,51.9849099410204],[-0.233949589645826,51.9849153967572],[-0.234313441501768,51.984920851371],[-0.234677293474953,51.9849263048618],[-0.234686116096118,51.9847016372592],[-0.235049966112291,51.9847070894699],[-0.235413815848347,51.984712540382],[-0.235777665700146,51.9847179901704],[-0.236141515667667,51.984723438835],[-0.236505365750886,51.9847288863759],[-0.236869215949777,51.9847343327931],[-0.237233066264318,51.9847397780865],[-0.237596916694485,51.9847452222562],[-0.237588108707044,51.9849698902333],[-0.237951961077722,51.9849753333239],[-0.238315813563978,51.9849807752908],[-0.238307009110699,51.9852054433475],[-0.238670863537448,51.9852108842353],[-0.238662060793469,51.9854355523271],[-0.239025917160715,51.9854409921358],[-0.239017116126083,51.9856656602625],[-0.239008314975833,51.9858903283795],[-0.238999513709966,51.9861149964868],[-0.238990712328477,51.9863396645844],[-0.238981910831365,51.9865643326723],[-0.239345776439301,51.9865697715805],[-0.239336976651672,51.9867944397034],[-0.239328176748439,51.9870191078166],[-0.238964307490264,51.987013668819],[-0.238955505646271,51.9872383368779],[-0.239319376729601,51.9872437759201],[-0.239310576595156,51.9874684440139],[-0.239301776345102,51.9876931120979],[-0.238937901611391,51.9876876729664],[-0.2389290994205,51.9879123409961],[-0.238565222977097,51.9879069006961],[-0.238201346649254,51.9879014592722],[-0.237837470436991,51.9878960167244],[-0.237828662654725,51.9881206846104],[-0.237819854756748,51.9883453524867],[-0.237811046743059,51.9885700203533],[-0.237802238613656,51.9887946882101],[-0.237793430368536,51.9890193560573],[-0.237429545145432,51.9890139121622],[-0.237420734959233,51.989238579955],[-0.23741192465729,51.9894632477381],[-0.2374031142396,51.9896879155115],[-0.237394303706162,51.9899125832752],[-0.237030411297119,51.9899071380773],[-0.237021598822477,51.9901318057865],[-0.237385493056973,51.9901372510291],[-0.237376682292033,51.9903619187734],[-0.237367871411338,51.990586586508],[-0.237359060414886,51.9908112542329],[-0.237350249302677,51.9910359219481],[-0.237341438074707,51.9912605896536],[-0.237332626730975,51.9914852573494],[-0.237323815271478,51.9917099250355],[-0.237315003696216,51.9919345927119],[-0.237306191987834,51.9921592603572],[-0.236942281326651,51.9921538147155],[-0.236933467573036,51.9923784821693],[-0.236569555205488,51.992373035355],[-0.236560739514367,51.9925977027503],[-0.23655192370761,51.9928223701356],[-0.236915839718971,51.9928278170472],[-0.236907025618518,51.9930524844714],[-0.237270943567337,51.9930579303078],[-0.237634861631647,51.9930633750203],[-0.237626051059516,51.9932880425319],[-0.237617240371814,51.9935127100336],[-0.237608429568538,51.9937373775254],[-0.237244506038245,51.9937319326668],[-0.237235693297354,51.9939566001001],[-0.236871768060519,51.993951154069],[-0.236862953381963,51.9941758214436],[-0.23649902643859,51.9941703742399],[-0.236135099610765,51.9941649259123],[-0.236126281172414,51.9943895931797],[-0.236490209822321,51.994395041556],[-0.236854138587779,51.9944004888084],[-0.236845323677968,51.9946251561633],[-0.237209254381064,51.9946306023404],[-0.237200441177756,51.9948552697341],[-0.236836508652525,51.9948498235083],[-0.23682769351145,51.9950744908434],[-0.236818878254739,51.9952991581686],[-0.236454942200703,51.9952937107215],[-0.236446125006152,51.9955183779881],[-0.236082187245472,51.9955129293683],[-0.236073368113033,51.9957375965764],[-0.235709428645714,51.9957321467839],[-0.235718249600376,51.9955074796245],[-0.23535431207089,51.9955020287568],[-0.23536313473204,51.9952773616363],[-0.234999199140382,51.9952719096933],[-0.234990374657035,51.995496576765],[-0.23498155005793,51.9957212438269],[-0.234617608886725,51.9957157899522],[-0.234608782242848,51.9959404569304],[-0.234244838904062,51.9959350017366],[-0.233880895683646,51.9959295454189],[-0.233889726081464,51.9957048785484],[-0.233525784856412,51.9956994211608],[-0.233534617012679,51.9954747543339],[-0.233170677782987,51.9954692958765],[-0.233179511697653,51.9952446290933],[-0.232815574463317,51.995239169566],[-0.232824410136335,51.9950145028265],[-0.232460474897351,51.9950090422294],[-0.232096539776853,51.9950035805085],[-0.231732604774866,51.994998117664],[-0.231723763471189,51.9952227842419],[-0.231359826710855,51.9952173202197],[-0.231350983411635,51.9954419867336],[-0.230987044892958,51.9954365215338],[-0.230623106492871,51.9954310552104],[-0.230614259321132,51.9956557216063],[-0.230250319162734,51.9956502541052],[-0.230241469995333,51.9958749204371],[-0.230232620709191,51.9960995867588],[-0.229868676915514,51.9960941180262],[-0.229859825633635,51.9963187842838],[-0.229850974232987,51.9965434505313],[-0.229487026803968,51.9965379805671],[-0.229478173407508,51.9967626467505],[-0.229114224220146,51.9967571756085],[-0.229105368827824,51.9969818417279],[-0.228741417882124,51.9969763694082],[-0.228732560493892,51.9972010354634],[-0.22872370298681,51.9974257015085],[-0.228359748405668,51.9974202279571],[-0.228350888902601,51.9976448939381],[-0.227986932563107,51.997639419209],[-0.227978071064006,51.9978640851258],[-0.227969209446001,51.9980887510325],[-0.227605249470982,51.9980832750716],[-0.227241289614798,51.9980777979869],[-0.227232424123484,51.9983024637755],[-0.226868462508962,51.998296985513],[-0.226504501013327,51.9982915061266],[-0.226513370259034,51.9980668404461],[-0.226149410759504,51.9980613599899],[-0.225785451378908,51.9980558784099],[-0.225794324259949,51.9978312128273],[-0.225430366875476,51.9978257301775],[-0.225066409609983,51.997820246404],[-0.225075286126254,51.9975955809192],[-0.224711330856904,51.9975900960759],[-0.224347375706583,51.9975846101088],[-0.223983420675313,51.997579123018],[-0.223992302703818,51.9973544576852],[-0.223628349668732,51.9973489695246],[-0.223619465763122,51.9975736348033],[-0.223255510970031,51.9975681454649],[-0.223264396752747,51.9973434802403],[-0.222900443955885,51.9973379898321],[-0.222536491278173,51.9973324983002],[-0.222172538719635,51.9973270056445],[-0.22218143001436,51.9971023405721],[-0.222190321189798,51.9968776754895],[-0.221826372504576,51.9968721818183],[-0.221462423938573,51.9968666870233],[-0.221471318748769,51.9966420220388],[-0.221107372179028,51.9966365261742],[-0.220743425728554,51.9966310291859],[-0.220752324173404,51.9964063642996],[-0.22038837971921,51.9964008662416],[-0.220024435384329,51.99639536706],[-0.220033337463729,51.9961707022718],[-0.219669395125148,51.9961652020205],[-0.219305452905927,51.9961597006456],[-0.219314358619775,51.9959350359556],[-0.218950418396872,51.9959295335111],[-0.218586478293376,51.9959240299429],[-0.218595387641568,51.9956993653511],[-0.218231448952632,51.9956938605724],[-0.217867502505146,51.9956883527602],[-0.217876415729782,51.9954636883226],[-0.21751247131345,51.9954581794466],[-0.217521386326912,51.9952335150582],[-0.21715744394173,51.9952280051183],[-0.216793501677704,51.9952224940551],[-0.216802420389934,51.9949978297755],[-0.216811338980899,51.9947731654855],[-0.216820257450603,51.9945485011851],[-0.217184193984729,51.9945540120694],[-0.217193110423255,51.9943293476989],[-0.217557045168609,51.9943348574003],[-0.217565959576006,51.9941101929598],[-0.217929892532583,51.9941157014781],[-0.217938804908901,51.9938910369675],[-0.217947717164039,51.9936663724465],[-0.218311645181095,51.9936718794179],[-0.218320555210857,51.9934472147786],[-0.218684474550306,51.9934527188742],[-0.218693382583908,51.9932280541706],[-0.218329465121095,51.9932225501292],[-0.218338374911814,51.9929978854697],[-0.217974453202396,51.9929923788208],[-0.217983364972835,51.9927677142581],[-0.217619443475124,51.9927622060974],[-0.217628357034119,51.9925375415838],[-0.217264437567237,51.9925320323594],[-0.217255522098519,51.9927566968134],[-0.216891600843045,51.992751186406],[-0.216882683343364,51.9929758507899],[-0.216518760299304,51.9929703391996],[-0.216509840768609,51.9931950035134],[-0.216145915935967,51.9931894907402],[-0.215781991224536,51.9931839768436],[-0.215418066634341,51.9931784618237],[-0.215426991894326,51.9929537976888],[-0.215063069335152,51.9929482816052],[-0.215071996383528,51.9927236175196],[-0.215080923310537,51.9924989534235],[-0.214717004692087,51.992493436336],[-0.214353086194942,51.9924879181251],[-0.213989167819127,51.992482398791],[-0.213625249564667,51.9924768783336],[-0.213261331431588,51.9924713567529],[-0.212897413419913,51.9924658340488],[-0.212906351683626,51.9922411703005],[-0.212542435703053,51.9922356465329],[-0.212178519843934,51.9922301216421],[-0.212169577760883,51.9924547852709],[-0.211805660113575,51.992449259197],[-0.211796715999272,51.9926739227556],[-0.211432796563782,51.9926683954987],[-0.211423850418177,51.9928930589871],[-0.211059929194509,51.9928875305471],[-0.211050981017553,51.9931121939653],[-0.210687058005712,51.9931066643422],[-0.210323135115457,51.9931011335957],[-0.210314182997345,51.9933257968839],[-0.210305230757539,51.9935504601617],[-0.210669157467331,51.9935559910277],[-0.210660207015635,51.9937806543548],[-0.210651256442266,51.9940053176715],[-0.210642305747223,51.9942299809777],[-0.210278373307941,51.9942244499323],[-0.210269420581341,51.9944491131683],[-0.209905486353805,51.9944435809397],[-0.209896531595599,51.9946682441055],[-0.209532595579814,51.9946627106938],[-0.209168659685707,51.9946571761587],[-0.209177618263711,51.9944325131126],[-0.208813684401203,51.9944269775139],[-0.20844975066042,51.9944214407919],[-0.208440788262627,51.9946461037184],[-0.208431825743005,51.9948707666344],[-0.208795763303599,51.994876303476],[-0.209159700985923,51.9948818391943],[-0.209523638789953,51.9948873737892],[-0.209514681878334,51.9951120368743],[-0.209505724844955,51.9953366999489],[-0.209141783221007,51.9953311652343],[-0.208777841718768,51.9953256293963],[-0.208768880743637,51.9955502923408],[-0.208759919646693,51.9957749552749],[-0.20839597444618,51.9957694181938],[-0.20840493745314,51.9955447553196],[-0.208040994284405,51.995539217175],[-0.208049959079518,51.9953145543502],[-0.207686017942558,51.9953090151421],[-0.207322076927408,51.9953034748105],[-0.207331045420585,51.995078812095],[-0.206967106437228,51.9950732706999],[-0.206976076718431,51.9948486080338],[-0.206612139766865,51.9948430655753],[-0.206248202937179,51.9948375219933],[-0.205884266229399,51.994831977288],[-0.205893242118388,51.9946073147911],[-0.205902217885376,51.9943826522838],[-0.205538285119305,51.9943771065749],[-0.205547262674144,51.9941524441171],[-0.205911193530364,51.994157989766],[-0.206275124508508,51.9941635342917],[-0.20628409812167,51.9939388717035],[-0.206293071612859,51.993714209105],[-0.206302044982081,51.9934895464959],[-0.206665970352705,51.9934950897185],[-0.206674941690202,51.9932704270392],[-0.207038865272935,51.9932759690786],[-0.207047834578758,51.9930513063289],[-0.207411756373593,51.9930568471851],[-0.207775678290242,51.993062386918],[-0.207784643654725,51.9928377240381],[-0.208148563783446,51.9928432625879],[-0.208157527116375,51.9926185996377],[-0.208521445457163,51.9926241370043],[-0.208885363919685,51.9926296732476],[-0.208894323311438,51.9924050101674],[-0.208903282581408,51.9921803470766],[-0.208912241587883,51.9919556844124],[-0.208548328877755,51.9919501483772],[-0.208557289663298,51.9917254859108],[-0.208193379021459,51.9917199488313],[-0.208202341628259,51.9914952864317],[-0.207838433054705,51.991489748308],[-0.207847397482713,51.9912650859753],[-0.207856361787135,51.9910404236311],[-0.207492457226606,51.9910348845415],[-0.207501423352163,51.9908102222641],[-0.207137520859885,51.9908046821303],[-0.207146488806526,51.9905800199199],[-0.206782588382496,51.9905744787419],[-0.206418688082045,51.9905689364418],[-0.206427659794384,51.9903442743763],[-0.206436631383045,51.9901196122994],[-0.206445602848029,51.9898949502113],[-0.206081708505092,51.9898894070234],[-0.206072735095496,51.9901140690334],[-0.205708838931576,51.990108524645],[-0.20534494289131,51.9901029791344],[-0.205335965468749,51.9903276409766],[-0.204972067607532,51.9903220942654],[-0.204963088116566,51.9905467560181],[-0.204599188434405,51.9905412081064],[-0.204590206874983,51.9907658697694],[-0.204226305371882,51.9907603206572],[-0.204217321743953,51.9909849822306],[-0.203853418419917,51.9909794319178],[-0.203844432723432,51.9912040934016],[-0.203480527578466,51.9911985418883],[-0.203471539813375,51.9914232032824],[-0.203107632847485,51.9914176505685],[-0.203116622557319,51.9911929892527],[-0.202752717660014,51.9911874354947],[-0.202761709190652,51.9909627742458],[-0.202397806361931,51.9909572194438],[-0.202033903657103,51.9909516635196],[-0.202042898953182,51.9907270024159],[-0.201678998316956,51.9907214454476],[-0.201687995433712,51.9904967844109],[-0.201324094139106,51.9904912268189],[-0.201333093139351,51.9902665658168],[-0.200969192882144,51.9902610073066],[-0.200605292746891,51.9902554476728],[-0.200614295432246,51.9900307867663],[-0.20025039732252,51.9900252260618],[-0.200259401789358,51.989800565198],[-0.200623297995561,51.9898061258496],[-0.200632300436837,51.9895814649229],[-0.200641302756077,51.9893568039861],[-0.201005195277277,51.9893623634085],[-0.201014195571032,51.9891377024088],[-0.201378086310722,51.9891432606549],[-0.20138708457904,51.9889185995922],[-0.201750971778993,51.9889241568354],[-0.201759967903772,51.9886994957077],[-0.202123851038966,51.9887050519711],[-0.202132845095323,51.9884803907538],[-0.202496726409978,51.9884859458167],[-0.202505718397963,51.9882612845097],[-0.202869597892073,51.9882668383722],[-0.202878587811737,51.9880421769755],[-0.203242465485297,51.9880477296375],[-0.203251453336689,51.9878230681512],[-0.203615329189694,51.9878286196128],[-0.203624314972865,51.9876039580368],[-0.20398818900531,51.9876095082979],[-0.203997172720309,51.9873848466324],[-0.20436104493219,51.9873903956931],[-0.204370026579067,51.9871657339379],[-0.204733896970378,51.9871712817982],[-0.205097767485391,51.9871768285364],[-0.20510674511992,51.9869521666134],[-0.20547061381433,51.9869577121512],[-0.205479589380859,51.9867330501386],[-0.205115722630703,51.9867275046791],[-0.205124700017743,51.9865028427334],[-0.204760835335485,51.9864972962299],[-0.204769814542986,51.9862726343511],[-0.204778793626723,51.9860479724609],[-0.204414932956534,51.9860424249918],[-0.20442391386066,51.9858177631685],[-0.204060055258335,51.9858122146555],[-0.204069037982798,51.9855875528991],[-0.203705181448334,51.9855820033423],[-0.203714165993084,51.9853573416527],[-0.203350311526477,51.9853517910521],[-0.203359297891465,51.9851271294295],[-0.20299544549271,51.985121577785],[-0.203004433677887,51.9848969162293],[-0.202640583346982,51.984891363541],[-0.202649573352297,51.9846667020522],[-0.202658563233713,51.984442040552],[-0.202294716914639,51.9844364868983],[-0.202303708616121,51.984211825465],[-0.201939864364861,51.9842062707675],[-0.201948857886358,51.9839816094012],[-0.201585015624696,51.9839760536573],[-0.20159401298691,51.983751392356],[-0.201230168192415,51.9837458353811],[-0.201239175120783,51.9835211741171],[-0.20087533223627,51.9835156160827],[-0.200884340880915,51.9832909548727],[-0.200893349406951,51.983066293652],[-0.200529510310731,51.9830607346244],[-0.200538520552975,51.9828360734578],[-0.200902357814381,51.9828416324206],[-0.200911366103207,51.9826169711785],[-0.20127520164841,51.9826225289539],[-0.201284207983866,51.9823978676364],[-0.201293214200746,51.9821732063082],[-0.201657045351979,51.9821787627792],[-0.201666049509889,51.9819541013656],[-0.201675053551387,51.9817294399407],[-0.201311226278785,51.9817238836197],[-0.201302220299052,51.9819485449693],[-0.20093839025808,51.9819429873881],[-0.200574560335688,51.9819374286844],[-0.200565550567944,51.9821620898938],[-0.200201718929441,51.9821565300027],[-0.199837887409568,51.982150968989],[-0.199828873853725,51.9823756300581],[-0.199465040617771,51.982370067857],[-0.19947405600835,51.9821454068526],[-0.199110224725809,51.9821398435937],[-0.199119241832403,51.9819151826434],[-0.199128258820282,51.9816905216825],[-0.198764431325834,51.9816849574305],[-0.198773450029659,51.9814602965237],[-0.199137275689447,51.9814658607108],[-0.1991462924399,51.9812411997285],[-0.199155309071645,51.9810165387354],[-0.199164325584682,51.9807918777317],[-0.19880050542873,51.980786313739],[-0.198809523657627,51.9805616527893],[-0.198818541767796,51.980336991829],[-0.199182358254643,51.9803425556921],[-0.199191374411571,51.9801178946563],[-0.199555189182586,51.980123457332],[-0.19956420338632,51.9798987962207],[-0.199928016441499,51.9799043577092],[-0.199937028692088,51.9796796965224],[-0.200300840031424,51.9796852568235],[-0.200664651489369,51.9796908160022],[-0.200655642907732,51.9799154773185],[-0.201019456318739,51.9799210354395],[-0.201010449453002,51.9801456968099],[-0.201001442468687,51.9803703581696],[-0.201365259667289,51.9803759152975],[-0.201356254398945,51.9806005767112],[-0.201720072012769,51.9806061326452],[-0.2017110685533,51.9808307941271],[-0.202074885286753,51.9808363487707],[-0.202065883502376,51.9810610103196],[-0.202056881601619,51.9812856718571],[-0.202420702034449,51.9812912255357],[-0.202429702143687,51.9810665639198],[-0.20279352090134,51.981072116398],[-0.202802519102724,51.9808474546923],[-0.203166336185194,51.9808530059702],[-0.20317533247877,51.9806283441747],[-0.20318432865604,51.9804036823678],[-0.203548142271871,51.980409232367],[-0.203557136541405,51.9801845704704],[-0.203920948482067,51.9801901192694],[-0.203929940843914,51.9799654572829],[-0.203938933089507,51.9797407952851],[-0.204302741563609,51.9797463428054],[-0.204311731901587,51.9795216807179],[-0.204320722123339,51.9792970186189],[-0.204684527130943,51.9793025648607],[-0.204693515445152,51.979077902672],[-0.204702503643162,51.9788532404719],[-0.205066305184331,51.9788587854351],[-0.205430106841657,51.9788643292765],[-0.20543909134092,51.9786396669084],[-0.205802891323102,51.9786452095496],[-0.205811873914961,51.9784205470918],[-0.206175672221995,51.9784260885329],[-0.206184652906499,51.9782014259853],[-0.206548449538381,51.9782069662263],[-0.206557428315575,51.977982303589],[-0.206921223272301,51.9779878426299],[-0.207285018345059,51.977993380549],[-0.207293993423799,51.9777687177437],[-0.207657786821373,51.9777742544627],[-0.20802158033493,51.9777797900599],[-0.208030551715302,51.9775551270867],[-0.208394343553646,51.9775606614839],[-0.20838537396445,51.9777853245353],[-0.208749167709907,51.977790857889],[-0.208740199795961,51.9780155210073],[-0.208731231766085,51.9782401841143],[-0.208722263620278,51.97846484721],[-0.208713295358536,51.9786895102943],[-0.209077096384862,51.9786950428392],[-0.209068129798482,51.9789197059904],[-0.209059163096188,51.9791443691302],[-0.209422967821035,51.9791499007098],[-0.209786772661763,51.9791554311676],[-0.210150577618348,51.9791609605035],[-0.210514382690766,51.9791664887176],[-0.210878187878994,51.9791720158099],[-0.210869230017534,51.9793966793296],[-0.211233037112905,51.9794022053782],[-0.211596844324041,51.9794077303049],[-0.21196065165092,51.9794132541098],[-0.212324459093517,51.9794187767929],[-0.21233340978954,51.9791941129604],[-0.212342360369858,51.9789694491166],[-0.211978556509962,51.9789639265899],[-0.211969604138305,51.9791885903555],[-0.211605798602786,51.9791830666288],[-0.21161475276578,51.9789584029414],[-0.211250949137336,51.978952878171],[-0.211259904975891,51.9787282145504],[-0.211623706813023,51.9787337392426],[-0.211632660744518,51.9785090755324],[-0.211641614560267,51.9782844118109],[-0.211277816305687,51.9782788872751],[-0.211286771796933,51.9780542236205],[-0.210922975449347,51.9780486980411],[-0.210931932616044,51.9778240344533],[-0.210940889666952,51.9775993708542],[-0.210577097017546,51.9775938443095],[-0.210586055743836,51.9773691807772],[-0.21059501435432,51.9771445172335],[-0.210231225403016,51.9771389897235],[-0.210240185688813,51.9769143262467],[-0.209876398644439,51.9769087976932],[-0.209867436567527,51.9771334610917],[-0.209858474374763,51.9773581244789],[-0.209494683863976,51.9773525946471],[-0.209485719764199,51.9775772579447],[-0.209121927578117,51.9775717269128],[-0.208758135507925,51.9775661947593],[-0.208767103190018,51.9773415316182],[-0.208403313026893,51.9773359984211],[-0.208039522979702,51.9773304641022],[-0.208048494128131,51.9771058011063],[-0.208057465160591,51.9768811380991],[-0.207693678811588,51.976875602815],[-0.207702651519162,51.9766509398747],[-0.207711624110746,51.976426276923],[-0.207347841459853,51.9764207406738],[-0.207356815726483,51.9761960777891],[-0.207720596586346,51.97620161396],[-0.207729568945961,51.9759769509856],[-0.207365789877106,51.975971414893],[-0.207002010924243,51.9759658776787],[-0.207010986749843,51.9757412148495],[-0.206647209703976,51.9757356765918],[-0.206638232087396,51.9759603393426],[-0.206629254354763,51.9761850020821],[-0.206265473842953,51.9761794625461],[-0.206256494203241,51.9764041251959],[-0.205892712016471,51.9763985844598],[-0.205883730469633,51.9766232470199],[-0.205874748806688,51.9768479095687],[-0.205510963153896,51.9768423675542],[-0.205501979583753,51.9770670300132],[-0.205492995897477,51.9772916924609],[-0.205856785132477,51.9772972346321],[-0.205847803121205,51.9775218971467],[-0.205838820993819,51.9777465596501],[-0.205829838750318,51.977971222142],[-0.205466044141833,51.9779656797358],[-0.205457059991005,51.978190342138],[-0.20509326370744,51.9781847985317],[-0.205102249649474,51.9779601362078],[-0.204738455273266,51.9779545915581],[-0.20437466101323,51.9779490457866],[-0.20438365042146,51.977724383608],[-0.204019858068799,51.9777188367931],[-0.204028849151974,51.9774941746816],[-0.203665058706682,51.9774886268233],[-0.203674051464755,51.9772639647788],[-0.203310262926829,51.9772584158772],[-0.203319257359752,51.9770337538997],[-0.202955470729187,51.9770282039547],[-0.202964466836914,51.9768035420443],[-0.202600682113707,51.976797991056],[-0.20260967989619,51.9765733292126],[-0.202245897080337,51.976567777181],[-0.20225489653753,51.9763431154047],[-0.202263895878386,51.976118453617],[-0.201900116760882,51.9761129006205],[-0.20190911777638,51.9758882388998],[-0.201545340139806,51.9758826847764],[-0.201554342918871,51.9756580231381],[-0.201190564240354,51.9756524673698],[-0.201199569689204,51.9754278057484],[-0.201208580049512,51.9752031439207],[-0.201572354947932,51.9752086995505],[-0.201581363389089,51.9749840376336],[-0.201217590292862,51.9749784820817],[-0.201226600419254,51.9747538202313],[-0.200862829242163,51.9747482636355],[-0.200871841053743,51.9745236018515],[-0.200880852748347,51.9742989400563],[-0.200517085292507,51.9742933824944],[-0.20052609867223,51.9740687207656],[-0.200162333135493,51.9740631621599],[-0.200171348200289,51.9738385004976],[-0.199807584582652,51.9738329408481],[-0.199816601332472,51.9736082792523],[-0.199825617965252,51.9733836176452],[-0.200189377978828,51.973389177139],[-0.200198392692576,51.9731645154426],[-0.199834634480996,51.9731589560266],[-0.199843650879705,51.9729342943968],[-0.199479894587143,51.9729287339371],[-0.199488912670765,51.9727040723737],[-0.199125158297218,51.9726985108702],[-0.198761404040763,51.9726929482451],[-0.198397649901424,51.9726873844985],[-0.198406673273746,51.9724627231574],[-0.19804292105346,51.972457158367],[-0.197679168950335,51.9724515924551],[-0.197315416964392,51.9724460254216],[-0.197324445625258,51.9722213643028],[-0.197333474168933,51.9719967031726],[-0.197697222551125,51.9720022700503],[-0.19770624917577,51.9717776088309],[-0.19771527568325,51.9715529476001],[-0.198079020578962,51.9715585132005],[-0.198088045167487,51.9713338518805],[-0.198097069638874,51.9711091905491],[-0.198460811048169,51.9711147548723],[-0.198469833600673,51.9708900934517],[-0.198833573325342,51.9708956565754],[-0.198842593959008,51.9706709950657],[-0.198851614475592,51.9704463335445],[-0.199215350713923,51.9704518953911],[-0.199224369311743,51.9702272337808],[-0.199233387792506,51.9700025721591],[-0.199597120544564,51.9700081327285],[-0.199606137106636,51.9697834710176],[-0.199969868174098,51.9697890303877],[-0.200333599358578,51.9697945886363],[-0.200342612200388,51.9695699267584],[-0.200351624925219,51.9693452648692],[-0.200360637533074,51.9691206029687],[-0.200724363429759,51.9691261598624],[-0.200715352623477,51.9693508218407],[-0.201079080438704,51.9693563776908],[-0.20108808944341,51.9691317156347],[-0.201097098331188,51.9689070535672],[-0.201106107102041,51.9686823914884],[-0.201469829629551,51.9686879459836],[-0.201478836481973,51.9684632838157],[-0.201842557800478,51.9684688351461],[-0.201851562844234,51.9682441727694],[-0.202215282813405,51.9682497219607],[-0.202224286074451,51.9680250594228],[-0.202588004481848,51.9680306073496],[-0.202597005960228,51.9678059446504],[-0.202606007328185,51.9675812819364],[-0.202969722501607,51.9675868284522],[-0.203333437785447,51.96759237385],[-0.203342435698629,51.9673677108283],[-0.203706149420686,51.9673732549616],[-0.203715145551337,51.9671485917787],[-0.204078857711607,51.9671541346475],[-0.204442569982225,51.9671596763984],[-0.204451564004451,51.9669350122039],[-0.20408785348033,51.9669294705571],[-0.204096849299711,51.9667048063676],[-0.204460558111368,51.9667103478929],[-0.204469552105987,51.9664856835684],[-0.204478545988309,51.9662610192305],[-0.204842251487428,51.9662665593937],[-0.204851243545058,51.9660418949207],[-0.205214947444077,51.9660474338433],[-0.20522393767706,51.9658227692354],[-0.205587639975976,51.9658283069174],[-0.205596628384356,51.9656036421745],[-0.205960329083167,51.9656091786159],[-0.206324029894205,51.9656147139381],[-0.20668773081745,51.9656202481411],[-0.207051431852878,51.965625781225],[-0.207042450293943,51.9658504464535],[-0.2074061531539,51.9658559785396],[-0.207397173195223,51.9660806438759],[-0.207760877879712,51.9660861749642],[-0.208124582676323,51.9660917049333],[-0.208133559210217,51.9658670393542],[-0.208142535632047,51.9656423737615],[-0.207778834260199,51.9656368440352],[-0.207415133000469,51.9656313131897],[-0.20742411273493,51.9654066478263],[-0.207433092357286,51.9651819824494],[-0.207442071867538,51.9649573170591],[-0.207451051265689,51.9647326516553],[-0.20746003055174,51.9645079862379],[-0.207823723249969,51.9645135164766],[-0.207832700711691,51.9642888509244],[-0.208196391809794,51.9642943799225],[-0.208205367447231,51.9640697142354],[-0.208569056945204,51.9640752419931],[-0.208578030758402,51.9638505761712],[-0.208941718656243,51.9638561026884],[-0.208950690645247,51.9636314367316],[-0.209314376942953,51.9636369620084],[-0.209323347107808,51.9634122959168],[-0.209687031805374,51.9634178199531],[-0.210050716614927,51.9634233428703],[-0.210414401536446,51.9634288646684],[-0.210778086569909,51.9634343853474],[-0.211141771715292,51.9634399049073],[-0.211505456972575,51.9634454233481],[-0.211869142341735,51.9634509406698],[-0.21223282782275,51.9634564568724],[-0.212596513415598,51.9634619719559],[-0.212960199120256,51.9634674859203],[-0.213323884936702,51.9634729987655],[-0.213314933605615,51.9636976661912],[-0.213678621245999,51.9637031780385],[-0.21404230899813,51.9637086887668],[-0.214405996861985,51.9637141983759],[-0.214769684837542,51.9637197068659],[-0.21513337292478,51.9637252142367],[-0.215497061123673,51.9637307204885],[-0.215860749434203,51.963736225621],[-0.215851809976792,51.9639608938816],[-0.216215500111142,51.9639663980163],[-0.216224437856346,51.9637417296345],[-0.21658812639008,51.9637472325288],[-0.216951815035383,51.963752734304],[-0.217315503792233,51.96375823496],[-0.217679192660607,51.9637637344969],[-0.218042881640484,51.9637692329146],[-0.218406569298391,51.9637747312598],[-0.218770255038475,51.9637802299668],[-0.219133940887273,51.9637857275556],[-0.219497626844766,51.9637912240262],[-0.219506549174579,51.9635665545342],[-0.219515471395773,51.9633418850277],[-0.219151788751713,51.9633363888392],[-0.219142864873814,51.9635610582046],[-0.218779180681741,51.9635555607568],[-0.218788106216343,51.9633308915325],[-0.218424423789684,51.9633253931077],[-0.218060739674455,51.9633198948993],[-0.217697054118946,51.9633143967238],[-0.217705984680937,51.963089727817],[-0.218069668524297,51.9630952258714],[-0.218078597262712,51.9628705568301],[-0.218442277846242,51.9628760548978],[-0.218451204711499,51.9626513857712],[-0.218460131468079,51.9624267166302],[-0.218096454405269,51.9624212187071],[-0.217732775698222,51.9624157210161],[-0.217723845470573,51.9626403899632],[-0.217360165162938,51.962634891032],[-0.217369097102667,51.962410222206],[-0.217005418618624,51.9624047222768],[-0.216641740246117,51.9623992212285],[-0.216278061985168,51.9623937190611],[-0.215914383835798,51.9623882157747],[-0.21555070579803,51.9623827113691],[-0.215187027871886,51.9623772058445],[-0.215178085659719,51.9626018739435],[-0.214814406133155,51.9625963671786],[-0.21445072671826,51.9625908592947],[-0.214441780970313,51.9628155271378],[-0.214078099955025,51.9628100180135],[-0.213714419051455,51.9628045077702],[-0.213705469767641,51.9630291753575],[-0.213341787263704,51.9630236638738],[-0.21297810487153,51.963018151271],[-0.21298705757955,51.9627934839262],[-0.212996010175828,51.9625688165679],[-0.213004962660365,51.9623441491961],[-0.213368639916301,51.9623496614352],[-0.213732317283993,51.9623551725552],[-0.213741266232721,51.9621305049275],[-0.214104942000111,51.9621360148073],[-0.214113889125132,51.9619113470449],[-0.214477563292214,51.9619168556844],[-0.214486508593575,51.9616921877873],[-0.214495453783294,51.9614675198768],[-0.214504398861373,51.9612428519529],[-0.214513343827813,51.9610181840154],[-0.214877011258731,51.9610236910511],[-0.215240678801306,51.9610291969677],[-0.215231737258725,51.9612538651475],[-0.21522279560455,51.9614785333138],[-0.215213853838781,51.9617032014667],[-0.215577526628857,51.9617087066278],[-0.215941199530549,51.9617142106698],[-0.216304872543838,51.9617197135928],[-0.216313809173669,51.9614950450764],[-0.216677480586548,51.9615005467592],[-0.216686415392891,51.9612758781082],[-0.216695350087731,51.9610512094438],[-0.216704284671071,51.9608265407659],[-0.216340618394006,51.9608210394466],[-0.216349554577741,51.9605963708764],[-0.216358490649957,51.9603717022927],[-0.216367426610655,51.9601470336956],[-0.216376362459839,51.959922365085],[-0.216740021889469,51.9599278659198],[-0.217103681430635,51.9599333656356],[-0.217467341083316,51.9599388642324],[-0.217458410369612,51.9601635332064],[-0.217449479544462,51.9603882021669],[-0.217440548607863,51.9606128711139],[-0.217431617559812,51.9608375400475],[-0.217795284171443,51.9608430380098],[-0.217804213507595,51.9606183689551],[-0.218167878518804,51.9606238656772],[-0.218176806031649,51.9603991964879],[-0.218185733433092,51.9601745272852],[-0.218194660723132,51.959949858069],[-0.218203587901772,51.9597251888394],[-0.218212514969014,51.9595005195963],[-0.218576169414753,51.959506016484],[-0.218585094650035,51.959281347141],[-0.218948747259851,51.9592868430271],[-0.218957670730201,51.9590621735286],[-0.219321321792412,51.9590676681556],[-0.219684972963278,51.9590731616647],[-0.219693893012478,51.9588484918698],[-0.219330243497875,51.9588429985017],[-0.218966594091925,51.9588375040157],[-0.218602944794649,51.9588320084117],[-0.218239295502371,51.9588265117864],[-0.217875644185551,51.9588210160331],[-0.21751199298019,51.9588155191608],[-0.217503062823694,51.959040188202],[-0.217139410018101,51.9590346900897],[-0.216775757324015,51.9590291908584],[-0.21678469090394,51.9588045220595],[-0.21679362266167,51.9585798547472],[-0.216802554252371,51.9583551874699],[-0.217166201693002,51.9583606864286],[-0.2175298492492,51.9583661842652],[-0.217893496920943,51.9583716809796],[-0.218257144702455,51.9583771765772],[-0.218266068948573,51.9581525091167],[-0.218274993082156,51.9579278416431],[-0.218283917103209,51.9577031741565],[-0.218647557679667,51.9577086702661],[-0.219011198368671,51.9577141652564],[-0.219020118807158,51.9574894975313],[-0.219383757873666,51.9574949912895],[-0.219374839170198,51.9577196591274],[-0.219738480084226,51.957725151879],[-0.21972956300334,51.9579498198165],[-0.219720645810014,51.958174487741],[-0.219711728504245,51.9583991556524],[-0.220075374735959,51.9584046476229],[-0.220439021080134,51.958410138474],[-0.220430107132152,51.9586348065978],[-0.220793755323885,51.9586402964423],[-0.220784842207989,51.958864965266],[-0.22114849215699,51.9588704541621],[-0.22113957873286,51.959095124521],[-0.221130665200235,51.9593197948655],[-0.221121751559116,51.9595444651955],[-0.221112837809499,51.9597691355112],[-0.221103923951383,51.9599938058124],[-0.22074026572081,51.9599883162114],[-0.220376607598815,51.9599828254923],[-0.220385524769646,51.9597581554731],[-0.220021868412604,51.959752663777],[-0.220012949585417,51.9599773336553],[-0.220004030649663,51.9602020035191],[-0.21964037108851,51.960196510423],[-0.21963145038779,51.9604211801314],[-0.219622529578477,51.9606458498253],[-0.219986192452447,51.9606513432035],[-0.219977273190981,51.960876013024],[-0.219968353820939,51.9611006828301],[-0.21995943434232,51.9613253526218],[-0.220323102294312,51.9613308453049],[-0.220314184363626,51.9615555152232],[-0.22030526632438,51.9617801851271],[-0.220296348176575,51.9620048550165],[-0.220660021206777,51.9620103470045],[-0.220651104606987,51.9622350170206],[-0.220287429920208,51.9622295248915],[-0.220278511555277,51.9624541947521],[-0.219914835320515,51.962448701364],[-0.219905915190398,51.9626733710692],[-0.219896994951691,51.9628980407599],[-0.220260674499716,51.9629035344301],[-0.220624354156361,51.9629090269821],[-0.220988033921608,51.962914518416],[-0.221351713795434,51.9629200087317],[-0.221715393777819,51.9629254979293],[-0.222079073868739,51.9629309860087],[-0.222442754068176,51.9629364729699],[-0.222806434376106,51.962941958813],[-0.222815341361622,51.9627172879944],[-0.223179020121369,51.9627227725784],[-0.223187925341837,51.9624981016044],[-0.222824248238726,51.9624926171614],[-0.222833155007418,51.9622679463139],[-0.222842061667702,51.9620432754521],[-0.222850968219578,51.9618186045758],[-0.222859874663048,51.9615939336851],[-0.222868780998116,51.96136926278],[-0.223232449818384,51.9613747465183],[-0.223241354388547,51.9611500754579],[-0.22360502166075,51.9611555579372],[-0.223968689041368,51.9611610392984],[-0.223959787784214,51.9613857106407],[-0.224323456929734,51.9613911910247],[-0.224687126183629,51.9613966702906],[-0.224696024127764,51.9611719986665],[-0.225059691833501,51.9611774766734],[-0.225423359647567,51.9611829535622],[-0.225432254170434,51.9609582816419],[-0.225795920436316,51.9609637572718],[-0.225804813194468,51.9607390851962],[-0.2258137058444,51.9605144131063],[-0.225450042891437,51.9605089377582],[-0.225458937089579,51.9602842657947],[-0.225467831179484,51.9600595938168],[-0.225831490819615,51.9600650688832],[-0.226195150568024,51.9600705428315],[-0.226186259790931,51.9602952150911],[-0.226549921304006,51.9603006880621],[-0.22654103207515,51.9605253604482],[-0.226532142738121,51.9607500328198],[-0.226523253292917,51.9609747051771],[-0.226886919883594,51.9609801774526],[-0.226878031986711,51.9612048499363],[-0.226514363739537,51.96119937752],[-0.226505474077977,51.9614240498484],[-0.226141804282528,51.9614185761731],[-0.226132912856247,51.9616432483463],[-0.226496584308237,51.9616487221625],[-0.226487694430314,51.9618733944622],[-0.226851367647118,51.9618788673011],[-0.226842479317599,51.9621035397272],[-0.22720615429922,51.9621090115888],[-0.227197267518148,51.9623336841413],[-0.227188380628932,51.9625583566795],[-0.227552059032011,51.9625638277046],[-0.227543173691307,51.9627885003692],[-0.227906853859237,51.962793970417],[-0.227897970067088,51.963018643208],[-0.227889086166834,51.9632433159847],[-0.228252769756325,51.9632487851959],[-0.228243887404692,51.963473458099],[-0.228235004944971,51.9636981309877],[-0.228598691956097,51.9637035993623],[-0.228607572759067,51.9634789263328],[-0.228616453453971,51.9632542532889],[-0.228980137259751,51.9632597202637],[-0.228989016189884,51.9630350470646],[-0.229352698447066,51.9630405127804],[-0.229361575612472,51.9628158394261],[-0.228997895011979,51.9628103738511],[-0.229006773726037,51.9625857006233],[-0.229015652332059,51.962361027381],[-0.228651975152982,51.9623555609694],[-0.228643094890316,51.9625802340709],[-0.228279416162725,51.9625747664003],[-0.228288298082031,51.9623500934396],[-0.227924621119227,51.9623446247917],[-0.227933504587071,51.9621199519575],[-0.228297179893259,51.9621254204646],[-0.228306061596411,51.9619007474752],[-0.228669735354148,51.9619062147233],[-0.228678615292653,51.9616815415787],[-0.229042287501936,51.9616870075679],[-0.22940595981932,51.9616924724389],[-0.229414836336665,51.9614677989983],[-0.229778507105569,51.9614732626104],[-0.230142177982528,51.9614787251044],[-0.230133304778299,51.9617033988266],[-0.230496977419853,51.9617088603432],[-0.230488105764246,51.9619335341917]]],[[[-0.221103923951383,51.9599938058124],[-0.221467582290512,51.9599992942953],[-0.221831240738174,51.9600047816603],[-0.221822330084324,51.960229452229],[-0.221813419322015,51.9604541227833],[-0.221449757561562,51.9604486351364],[-0.221086095909647,51.9604431463715],[-0.221095009984767,51.9602184760992],[-0.221103923951383,51.9599938058124]]],[[[-0.208040994284405,51.995539217175],[-0.20803202936743,51.9957638799894],[-0.20839597444618,51.9957694181938],[-0.208387011317379,51.9959940810576],[-0.208378048066736,51.9962187439109],[-0.208014099167883,51.9962132055867],[-0.208005133885307,51.9964378683698],[-0.208369084694249,51.9964434067538],[-0.208360121199915,51.9966680695862],[-0.20799616848086,51.9966625311423],[-0.207632215883603,51.996656991575],[-0.207268263408168,51.9966514508842],[-0.206904311054582,51.99664590907],[-0.206540358822868,51.9966403661324],[-0.206176406713051,51.9966348220713],[-0.206185381668032,51.9964101595981],[-0.206549331867746,51.9964157035993],[-0.206558304790654,51.9961910410558],[-0.206922253202184,51.9961965838737],[-0.20693122409307,51.9959719212598],[-0.20729517071641,51.9959774628944],[-0.207304139575322,51.9957528002102],[-0.207668084410469,51.9957583406615],[-0.207677051237457,51.995533677907],[-0.208040994284405,51.995539217175]]],[[[-0.221813419322015,51.9604541227833],[-0.222177081190985,51.9604596093121],[-0.222540743168449,51.9604650947228],[-0.222531835610543,51.9606897655446],[-0.222895499352916,51.9606952499782],[-0.222886593343048,51.9609199209266],[-0.222522927944218,51.960914436352],[-0.222159262653867,51.9609089506594],[-0.221795597472015,51.9609034638487],[-0.221804508451246,51.9606787933232],[-0.221813419322015,51.9604541227833]]],[[[-0.211896016210119,51.962776939767],[-0.211532335977311,51.9627714228092],[-0.211523376420901,51.962996089669],[-0.211159694587872,51.9629905714707],[-0.211150733207511,51.9632152381958],[-0.210787049774264,51.9632097187572],[-0.210423366452936,51.9632041981995],[-0.210432331257521,51.962979531717],[-0.210441295950203,51.9627548652211],[-0.210450260530985,51.9625301987117],[-0.210813938716045,51.9625357189055],[-0.211177617013021,51.9625412379802],[-0.211186578057815,51.9623165712148],[-0.211195538990756,51.9620919044358],[-0.211559213975552,51.962097422149],[-0.211922889072211,51.962102938743],[-0.211913931563321,51.9623276057645],[-0.212277608483853,51.9623331213608],[-0.212268652575208,51.9625577884901],[-0.211904973942624,51.9625522727725],[-0.211896016210119,51.962776939767]]],[[[-0.248503730007874,51.9851326941174],[-0.248867585835582,51.9851381034951],[-0.249231441778155,51.9851435117491],[-0.24922269207384,51.9853681811422],[-0.249213942254579,51.9855928505255],[-0.24957780196201,51.9855982577445],[-0.249569053852845,51.9858229271626],[-0.249560305628753,51.986047596571],[-0.24919644227121,51.9860421892632],[-0.248832579028516,51.9860367808316],[-0.248841330902742,51.985812111512],[-0.248850082661993,51.9855874421827],[-0.248486223184277,51.9855820327161],[-0.248494976653572,51.9853573634216],[-0.248503730007874,51.9851326941174]]]]}}