{"type":"Feature","properties":{"code":"E63000855","name":"Lytham St Anne's"},"geometry":{"type":"MultiPolygon","coordinates":[[[[-2.93588230402773,53.74473043352],[-2.93626131665,53.7447274722639],[-2.93664032920416,53.7447245098108],[-2.93664532340993,53.7449491797267],[-2.93665031768379,53.7451738496324],[-2.93627130104749,53.7451768122435],[-2.93589228434309,53.7451797736576],[-2.93588729415138,53.7449551035939],[-2.93588230402773,53.74473043352]]],[[[-3.02954554345705,53.7459853320632],[-3.02916653572263,53.7459885899289],[-3.0287875279135,53.7459918465955],[-3.02878203863246,53.7457671837357],[-3.02840303278341,53.7457704391994],[-3.02839754561173,53.7455457763276],[-3.02801854172275,53.7455490305885],[-3.02801305666038,53.7453243677048],[-3.02763405473149,53.7453276207628],[-3.027255052728,53.7453308726218],[-3.02724957180955,53.7451062097224],[-3.02762857177836,53.7451029578672],[-3.02800757167258,53.7450997048129],[-3.02838657149218,53.7450964505595],[-3.02839205851465,53.7453211134477],[-3.02877106029428,53.7453178579915],[-3.02877654942605,53.7455425208676],[-3.0291555531657,53.7455392642086],[-3.02916104440684,53.7457639270728],[-3.0295400501065,53.7457606692109],[-3.02954554345705,53.7459853320632]]],[[[-3.02954554345705,53.7459853320632],[-3.02992455111674,53.7459820729984],[-3.03030355870166,53.7459788127344],[-3.0306825662118,53.7459755512714],[-3.030677066757,53.7457508884305],[-3.03105607215757,53.7457476257722],[-3.0314350774833,53.7457443619148],[-3.03181408273416,53.7457410968582],[-3.03181958829319,53.7459657596876],[-3.03219859550389,53.7459624934281],[-3.03220410317255,53.7461871562454],[-3.03258311234309,53.746183888783],[-3.03258862212143,53.7464085515882],[-3.03296763325181,53.7464052829228],[-3.03297314513988,53.746629945716],[-3.0333521582301,53.7466266758476],[-3.03335767222796,53.7468513386287],[-3.0333631863008,53.7470760014017],[-3.03298416914086,53.747079271278],[-3.03260515190593,53.7470825399551],[-3.03261066198393,53.7473072027277],[-3.03223164263913,53.7473104702094],[-3.0318526232194,53.7473137364921],[-3.03185812930245,53.7475383992642],[-3.03186363546037,53.7477630620282],[-3.03224265895,53.7477597957379],[-3.03262168236469,53.7477565282483],[-3.03300070570442,53.7477532595596],[-3.03299519344162,53.7475285968072],[-3.03337421467139,53.7475253269232],[-3.03337972896915,53.7477499896717],[-3.03338524334189,53.747974652412],[-3.0333907577896,53.7481993151442],[-3.03339627231229,53.7484239778682],[-3.03301724294252,53.7484272477677],[-3.03301173045487,53.7482025850399],[-3.03300621804217,53.7479779223038],[-3.03262719266746,53.7479811909964],[-3.03263270304514,53.7482058537363],[-3.03263821349775,53.7484305164681],[-3.03264372402529,53.7486551791917],[-3.03302275550513,53.7486519104874],[-3.03302826814269,53.748876573199],[-3.03340730158262,53.7488733032916],[-3.03378633494753,53.7488700321851],[-3.0337918517303,53.7490946948806],[-3.03417088705527,53.7490914225709],[-3.03417640594819,53.7493160852544],[-3.03455544323323,53.7493128117415],[-3.03454992230516,53.749088149062],[-3.03492896372057,53.749084875242],[-3.03493448681911,53.7493095379213],[-3.03531353361906,53.7493062633624],[-3.03530800849353,53.7490816007119],[-3.03568705319156,53.7490783249833],[-3.03568152611395,53.7488536623528],[-3.03606056871006,53.7488503854545],[-3.03605503968042,53.7486257228438],[-3.03643408017461,53.7486224447759],[-3.0368131205938,53.7486191655094],[-3.0368186536773,53.7488438280624],[-3.03643961123118,53.7488471073577],[-3.03644514236272,53.7490717699306],[-3.03606609781463,53.7490750480562],[-3.03607162699415,53.7492997106491],[-3.03569258034409,53.749302987605],[-3.03569810757152,53.7495276502178],[-3.03531905881948,53.749530926004],[-3.03532458409479,53.7497555886366],[-3.03570363487388,53.7497523128216],[-3.03570916225115,53.7499769754166],[-3.03571468970334,53.7502016380027],[-3.03609374446164,53.7501983609314],[-3.03609927396274,53.7504230233814],[-3.03647833066256,53.7504197450834],[-3.03648386224671,53.7506444074839],[-3.03686292088613,53.7506411279576],[-3.03686845455915,53.7508657903192],[-3.03687398830679,53.751090452672],[-3.0372530509001,53.7510871718873],[-3.03725858673669,53.7513118342013],[-3.03687952212906,53.7513151150158],[-3.03688505602597,53.7515397773507],[-3.03689058999751,53.7517644396766],[-3.03726965863386,53.7517611588024],[-3.03727519469443,53.7519858210896],[-3.03728073082968,53.7522104833678],[-3.03765980342014,53.7522072012352],[-3.0376653416445,53.7524318634747],[-3.03804441617468,53.7524285801136],[-3.03804995648822,53.7526532423142],[-3.03805549687648,53.7528779045059],[-3.03843457536088,53.7528746198863],[-3.03844011783839,53.7530992820392],[-3.03844566039066,53.7533239441831],[-3.03882474282936,53.7533206583051],[-3.03883028747096,53.7535453204102],[-3.03920937184942,53.7535420333036],[-3.03921491858042,53.7537666953699],[-3.03922046538624,53.7539913574272],[-3.03959955371909,53.7539880690621],[-3.03960510261438,53.7542127310806],[-3.03998419288702,53.7542094414868],[-3.03998974387184,53.7544341034664],[-3.03999529493154,53.7546587654371],[-3.04037438915867,53.7546554745847],[-3.04037994230798,53.7548801365165],[-3.0403854955322,53.7551047984394],[-3.0407645937139,53.7551015063283],[-3.04077014902781,53.7553261682123],[-3.04114924914933,53.7553228748726],[-3.041154806553,53.7555475367176],[-3.04116036403163,53.7557721985538],[-3.04153946810782,53.7557689039553],[-3.04154502767629,53.7559935657526],[-3.04192413369233,53.7559902699253],[-3.04192969535068,53.7562149316836],[-3.04193525708406,53.756439593433],[-3.04231436705487,53.756436296347],[-3.04231993087822,53.7566609580575],[-3.04232549477661,53.756885619759],[-3.04270460870227,53.7568823214141],[-3.04271017469073,53.7571069830767],[-3.04308929055628,53.757103683503],[-3.04308372255282,53.7568790218705],[-3.04346283632821,53.756875721128],[-3.04346840634668,53.7571003827305],[-3.0438475220619,53.7570970807592],[-3.04385309417054,53.7573217423227],[-3.04385866635434,53.7575464038773],[-3.04347954660902,53.7575497059088],[-3.04348511685289,53.7577743674845],[-3.0434906871719,53.7579990290513],[-3.04386981094742,53.7579957269598],[-3.04387538335671,53.7582203884876],[-3.04388095584116,53.7584450500065],[-3.04426008357178,53.758441746656],[-3.04426565806629,53.7586664080622],[-3.04427123255751,53.7588910693874],[-3.04465036422721,53.7588877647665],[-3.04465594079617,53.7591124260434],[-3.04466151743998,53.7593370873112],[-3.04504065304061,53.7593337814135],[-3.04504623176225,53.7595584426329],[-3.04542536929089,53.7595551354974],[-3.0454309500904,53.7597797966685],[-3.04543653096484,53.7600044578304],[-3.0458156724245,53.7600011494181],[-3.04582125537689,53.7602258105317],[-3.04582683840424,53.7604504716361],[-3.04583242150653,53.7606751327312],[-3.04621156890038,53.7606718230028],[-3.04621715408075,53.7608964840496],[-3.04583800468379,53.7608997938172],[-3.04584358793599,53.761124454894],[-3.04546443646089,53.761127763502],[-3.04545885521182,53.7609031023861],[-3.04507970566489,53.7609064097563],[-3.04470055604301,53.7609097159277],[-3.04470613328579,53.7611343771218],[-3.04432698158585,53.7611376821336],[-3.04433255690033,53.7613623433576],[-3.04471171060345,53.7613590383068],[-3.04471728799598,53.7615836994825],[-3.04472286546339,53.7618083606491],[-3.04510202309801,53.7618050543212],[-3.04510760264355,53.7620297154395],[-3.045113182264,53.7622543765485],[-3.04511876195937,53.7624790376484],[-3.04549792552887,53.7624757300044],[-3.04550350730248,53.762700391056],[-3.04550908915103,53.7629250520983],[-3.04588825665224,53.7629217431773],[-3.04589384057912,53.7631464041713],[-3.04589942458097,53.7633710651561],[-3.04627859601397,53.763367754958],[-3.04628418209423,53.7635924158945],[-3.04628976824948,53.7638170768218],[-3.04629535447974,53.7640417377399],[-3.0466745318481,53.7640384262255],[-3.04668012015688,53.7642630870952],[-3.046300940785,53.7642663986487],[-3.04630652716527,53.7644910595484],[-3.04592734571479,53.7644943699422],[-3.0455481641893,53.7644976791371],[-3.04555374663741,53.7647223401059],[-3.04517456303335,53.7647256481411],[-3.04479537935431,53.7647289549773],[-3.04480095787017,53.7649536160151],[-3.04442177211257,53.7649569216916],[-3.04404258628009,53.7649602261692],[-3.0436634003727,53.7649635294478],[-3.04366897295255,53.7651881905937],[-3.04328978496666,53.7651914927125],[-3.04291059690594,53.7651947936324],[-3.04253140877042,53.7651980933534],[-3.04252584220149,53.7649734320903],[-3.04252027570731,53.7647487708181],[-3.04251470928785,53.7645241095366],[-3.0421355270884,53.7645274079415],[-3.04212996274724,53.7643027466118],[-3.04212439848079,53.764078085273],[-3.04174522021368,53.7640813824009],[-3.04173965802544,53.7638567210138],[-3.04173409591187,53.7636320596175],[-3.04135492157704,53.7636353554686],[-3.04134936154161,53.763410694024],[-3.04134380158082,53.7631860325703],[-3.04096463117818,53.7631893271445],[-3.04095907329544,53.7629646656426],[-3.04095351548731,53.7627400041315],[-3.04057434901679,53.7627432974288],[-3.04056879328663,53.7625186358695],[-3.04018962874483,53.7625219279291],[-3.03981046412844,53.7625252187898],[-3.03943129943747,53.7625285084517],[-3.03943684915757,53.762753170128],[-3.0390576823887,53.7627564586301],[-3.03906323017993,53.7629811203361],[-3.03868406133315,53.7629844076783],[-3.03868960719544,53.7632090694141],[-3.03831043627075,53.7632123555964],[-3.0379312652716,53.7632156405799],[-3.03755209419799,53.7632189243645],[-3.03754655434594,53.762994262512],[-3.03716738520134,53.7629975450589],[-3.03678821598235,53.7630008264069],[-3.036409046689,53.7630041065562],[-3.03602987732131,53.7630073855066],[-3.03603540915969,53.7632320475147],[-3.03565623771428,53.7632353253052],[-3.03565070787932,53.7630106632581],[-3.03527153836305,53.7630139398108],[-3.03526601060572,53.7627892777157],[-3.0352604829226,53.7625646156115],[-3.03488131733885,53.7625678908876],[-3.03450215474089,53.7625711641752],[-3.03412299535515,53.7625744354139],[-3.03412851681853,53.7627990975635],[-3.03413403835837,53.7630237597058],[-3.03451320191069,53.763020488519],[-3.03451872561031,53.7632451506799],[-3.03452424938641,53.7634698128336],[-3.03490342050293,53.7634665394051],[-3.0349089464794,53.7636912015115],[-3.03491447253006,53.7639158636087],[-3.03491999865491,53.7641405256967],[-3.03529917826282,53.7641372501485],[-3.03530470646542,53.7643619121885],[-3.03531023474222,53.7645865742193],[-3.03568941828303,53.7645832973945],[-3.03569494863767,53.7648079593773],[-3.03570047906655,53.7650326213508],[-3.03607966654031,53.7650293432494],[-3.03608519904711,53.7652540051749],[-3.03609073162818,53.7654786670912],[-3.03646992303499,53.765475387713],[-3.03647545769406,53.7657000495813],[-3.03648099242743,53.7659247114403],[-3.03686018776735,53.7659214307854],[-3.0368657245788,53.7661460925964],[-3.03687126146459,53.7663707543981],[-3.03649206211709,53.7663740351308],[-3.03611286269524,53.7663773146645],[-3.03573366319907,53.7663805929992],[-3.0357391941477,53.7666052549085],[-3.0353599925734,53.7666085320831],[-3.03498079092482,53.7666118080587],[-3.03460159028284,53.7666150822179],[-3.03460711520629,53.766839744262],[-3.03422791623344,53.7668430150083],[-3.03384871718406,53.7668462845537],[-3.0334695180582,53.7668495528982],[-3.03309031885588,53.7668528200417],[-3.03309583516648,53.7670774814916],[-3.03347503645055,53.7670742143752],[-3.03348055485226,53.7672988757542],[-3.03348607333011,53.7675235371257],[-3.0331068678975,53.767526804207],[-3.03272766238872,53.7675300700876],[-3.03273317679409,53.7677547314164],[-3.03235396913487,53.7677579960787],[-3.03197476139955,53.7677612595404],[-3.03198027173232,53.7679859208263],[-3.03160106184658,53.7679891830696],[-3.03122185188479,53.7679924441123],[-3.03084264184698,53.7679957039542],[-3.03084814603265,53.7682203651797],[-3.03046893384448,53.7682236238033],[-3.03047443603169,53.7684482850035],[-3.03047993829483,53.7686729461963],[-3.03010072188185,53.7686762035838],[-3.03010622214645,53.7689008647513],[-3.03011172248695,53.7691255259112],[-3.02973250184907,53.7691287820626],[-3.02973800019094,53.7693534431973],[-3.0297434986087,53.7695781043245],[-3.02936427374583,53.7695813592398],[-3.02936977016488,53.7698060203417],[-3.02937526665978,53.7700306814361],[-3.02938076323053,53.7702553425229],[-3.02900153206795,53.7702585961843],[-3.02900702663989,53.7704832572459],[-3.02901252128765,53.7707079182999],[-3.02901801601124,53.7709325793464],[-3.02863877854872,53.7709358317538],[-3.02825954101035,53.7709390829605],[-3.02788030339618,53.7709423329663],[-3.02750106570622,53.7709455817713],[-3.02712182794051,53.7709488293755],[-3.02674259009907,53.7709520757789],[-3.02636335218194,53.7709553209814],[-3.02598411418913,53.7709585649832],[-3.02560487612069,53.7709618077841],[-3.02522563797663,53.7709650493842],[-3.02484639975699,53.7709682897835],[-3.02446716146179,53.770971528982],[-3.02408792309106,53.7709747669797],[-3.02370868464483,53.7709780037765],[-3.02370321896747,53.770753342979],[-3.02332398252051,53.7707565785929],[-3.0229447459981,53.7707598130061],[-3.02256550940029,53.7707630462184],[-3.02218627272708,53.7707662782298],[-3.02180703597852,53.7707695090405],[-3.02142779915463,53.7707727386504],[-3.02104856225544,53.7707759670595],[-3.02066932528098,53.7707791942678],[-3.02029008823127,53.7707824202753],[-3.01991085110635,53.770785645082],[-3.01953161390623,53.7707888686879],[-3.01915237663096,53.7707920910929],[-3.01877313928055,53.7707953122972],[-3.01839390185504,53.7707985323007],[-3.01801466432765,53.7708017510604],[-3.01800922982094,53.770577090484],[-3.0176299925786,53.7705803053406],[-3.01725075526248,53.7705835189975],[-3.01687151787262,53.7705867314548],[-3.01649228040904,53.7705899427123],[-3.01611304287176,53.7705931527703],[-3.01573380526083,53.7705963616285],[-3.01535456757625,53.7705995692871],[-3.01497532981807,53.7706027757461],[-3.01459609198631,53.7706059810054],[-3.014216854081,53.770609185065],[-3.01383761610215,53.7706123879249],[-3.01345837804981,53.7706155895852],[-3.013079139924,53.7706187900458],[-3.01308454802409,53.770843450901],[-3.01308995619759,53.7710681117475],[-3.01271071393573,53.7710713110512],[-3.01270530779354,53.7708466501834],[-3.01269990172475,53.7706219893068],[-3.01232066345208,53.7706251873681],[-3.01231525948793,53.7704005264614],[-3.01193602317313,53.7704037233017],[-3.01193062131357,53.770179062365],[-3.01192521952734,53.7699544014197],[-3.01230445177969,53.7699512046221],[-3.01268368395866,53.769948006625],[-3.0126782781834,53.7697233457137],[-3.01305750825777,53.7697201465383],[-3.01343673825871,53.7697169461632],[-3.01381596818619,53.7697137445885],[-3.01381055639086,53.7694890837327],[-3.01380514466899,53.7692644228683],[-3.01342591880378,53.7692676244001],[-3.01343132849453,53.769492285286],[-3.01305210052474,53.7694954856397],[-3.01304669286511,53.7692708247324],[-3.01266746685301,53.7692740238651],[-3.01228824076749,53.7692772217981],[-3.01228283724346,53.7690525608394],[-3.01227743379278,53.768827899872],[-3.01189821169606,53.7688310965627],[-3.01189281034976,53.7686064355653],[-3.01188740907679,53.7683817745592],[-3.01150819096878,53.7683849700076],[-3.01150279180011,53.7681603089715],[-3.01149739270473,53.7679356479267],[-3.01111817858535,53.7679388421329],[-3.01111278159419,53.767714181058],[-3.01110738467629,53.7674895199745],[-3.01072817454547,53.7674927129385],[-3.01072277973171,53.7672680518249],[-3.01034357155852,53.7672712435681],[-3.01033817884884,53.7670465824245],[-3.01033278621815,53.766821921242],[-3.00995358203382,53.7668251117461],[-3.00995897263327,53.7670497729468],[-3.0095797663445,53.7670529622696],[-3.00920055998256,53.7670561503928],[-3.00920594659966,53.7672808116003],[-3.00882673813369,53.7672839985453],[-3.00883212279303,53.7675086597653],[-3.00845291222307,53.7675118455321],[-3.00844752959463,53.7672871842908],[-3.00844214703925,53.7670625230408],[-3.00806294045795,53.7670657075655],[-3.00805756001358,53.7668410462717],[-3.00805217967136,53.7666163849123],[-3.0076729770812,53.7666195682032],[-3.00766759884547,53.7663949068201],[-3.00728839821559,53.7663980888963],[-3.00690919751263,53.7664012697728],[-3.00690382341669,53.7661766083511],[-3.00652462467404,53.7661797880128],[-3.00614542585837,53.766182966475],[-3.00615079588759,53.7664076279269],[-3.00577159496556,53.7664108052044],[-3.0057662269697,53.7661861437374],[-3.00538702800807,53.7661893198002],[-3.00539239397057,53.7664139812823],[-3.00501319290263,53.7664171561605],[-3.0050078289735,53.7661924946634],[-3.00462862986602,53.7661956683269],[-3.00424943068565,53.7661988407908],[-3.00387023143242,53.766202012055],[-3.0038648736762,53.7659773505043],[-3.00348567638349,53.7659805205539],[-3.00310647901797,53.7659836894038],[-3.00310112540118,53.7657590278146],[-3.00309577185712,53.7655343662169],[-3.00347496515603,53.765531197397],[-3.00346960965145,53.7653065358058],[-3.00346425421964,53.7650818742061],[-3.00384344337926,53.7650787042165],[-3.00383808598701,53.7648540426233],[-3.00383272866755,53.7646293810216],[-3.00382737142089,53.7644047194114],[-3.00420655440815,53.7644015482674],[-3.00420119520115,53.7641768866637],[-3.00419583606697,53.7639522250515],[-3.0041904770056,53.7637275634308],[-3.00456965382074,53.7637243911323],[-3.00456429279915,53.7634997295181],[-3.00455893185039,53.7632750678954],[-3.00493810452662,53.7632718944274],[-3.00531727712995,53.7632687197599],[-3.00569644966036,53.7632655438928],[-3.00569108268551,53.7630408823068],[-3.00568571578357,53.7628162207122],[-3.0060648841751,53.7628130436758],[-3.00605951531316,53.7625883820878],[-3.00605414652416,53.7623637204913],[-3.0060487778081,53.7621390588864],[-3.00642794002798,53.7621358806956],[-3.00642256935203,53.7619112190972],[-3.00641719874904,53.7616865574903],[-3.00679635683028,53.7616833781303],[-3.00679098426747,53.7614587165299],[-3.00678561177766,53.7612340549211],[-3.00678023936084,53.7610093933038],[-3.00640108737786,53.7610125726186],[-3.00639571706673,53.7607879109777],[-3.00601656704346,53.760791089078],[-3.00563741694724,53.7607942659788],[-3.00563205077441,53.7605696042993],[-3.00525290263793,53.7605727799857],[-3.00524753857065,53.7603481182826],[-3.00486839239391,53.7603512927545],[-3.00486303043213,53.7601266310279],[-3.00448388621514,53.7601298042854],[-3.00410474192529,53.7601329763435],[-3.00409938410155,53.7599083145783],[-3.00372024177149,53.7599114854221],[-3.00372559756263,53.7601361472023],[-3.00334645312717,53.7601393168617],[-3.00335180695844,53.7603639786484],[-3.00297266041759,53.7603671471234],[-3.002593513804,53.7603703143989],[-3.00258816403798,53.7601456525822],[-3.00258281434465,53.759920990757],[-3.00257746472399,53.7596963289233],[-3.0021983241355,53.7596994949545],[-3.00219297662007,53.7594748330973],[-3.00181383799145,53.7594779979142],[-3.0018084925812,53.7592533360336],[-3.00142935591245,53.7592564996361],[-3.00142401260731,53.759031837732],[-3.00104487742007,53.7590349995777],[-3.00103953620549,53.7588103376303],[-3.00103419506325,53.758585675674],[-3.00102885377949,53.7583610135909],[-3.00064972449609,53.7583641740417],[-3.00027059514024,53.7583673332935],[-3.0002652579496,53.7581426711363],[-2.9998861305499,53.7581458291664],[-2.9998807954602,53.7579211669779],[-2.99987546044288,53.7576965047807],[-2.99949633702785,53.7576996615666],[-2.99950167001665,53.7579243237864],[-2.99950700307779,53.7581489859974],[-2.99912787553331,53.7581521416293],[-2.99913320663821,53.7583768038542],[-2.99875407699281,53.7583799583096],[-2.99874874791649,53.7581552960621],[-2.99836962022735,53.7581584492959],[-2.99836429325187,53.7579337870172],[-2.99798516751899,53.7579369390293],[-2.99760604171386,53.7579400898423],[-2.9976007188677,53.7577154275099],[-2.99722159501886,53.7577185771013],[-2.9972162742734,53.7574939147377],[-2.99683715238086,53.7574970631075],[-2.99645803041615,53.7575002102783],[-2.99607890837929,53.7575033562501],[-2.99607359379144,53.7572786938102],[-2.99569447371094,53.7572818385604],[-2.99531535355835,53.7572849821116],[-2.99493623333369,53.7572881244637],[-2.9949309249033,53.7570634619477],[-2.99455180663507,53.7570666030783],[-2.99454650030512,53.7568419405313],[-2.9941673839933,53.7568450804404],[-2.99378826760951,53.7568482191505],[-2.99340915115377,53.7568513566615],[-2.9930300346261,53.7568544929735],[-2.99302473648175,53.7566298303281],[-2.99264562191059,53.7566329654187],[-2.99226650726757,53.7566360993102],[-2.9918873925527,53.7566392320028],[-2.99150827776602,53.7566423634963],[-2.99112916290756,53.7566454937907],[-2.99075004797733,53.7566486228862],[-2.9907553339512,53.7568732856658],[-2.99037621692083,53.7568764135846],[-2.99038150093796,53.7571010763779],[-2.99000238180744,53.7571042031199],[-2.98962326260523,53.7571073286629],[-2.98924414333138,53.7571104530068],[-2.9888650239859,53.7571135761516],[-2.98848590456883,53.7571166980975],[-2.98810678508019,53.7571198188442],[-2.98772766552001,53.7571229383919],[-2.98734854588831,53.7571260567406],[-2.98734327809879,53.756901393769],[-2.98696416042407,53.7569045108963],[-2.98658504267788,53.7569076268247],[-2.98620592486027,53.7569107415539],[-2.98582680697126,53.7569138550841],[-2.98583206664694,53.7571385181446],[-2.98545294665809,53.757141630498],[-2.98545820437662,53.757366293572],[-2.98507908228793,53.7573694047485],[-2.98469996012792,53.757372514726],[-2.98469470646636,53.7571478516076],[-2.98431558664429,53.7571509609817],[-2.98431033507546,53.7569262978307],[-2.9839312172024,53.7569294059796],[-2.98392596772064,53.7567047427869],[-2.98354685179285,53.7567078497045],[-2.98354160439811,53.7564831864703],[-2.9831624904156,53.7564862921566],[-2.98278337636224,53.7564893966441],[-2.98277813307058,53.7562647333359],[-2.98239902096254,53.7562678365921],[-2.98239377975775,53.7560431732424],[-2.98201466959502,53.7560462752674],[-2.98200943047706,53.7558216118761],[-2.98200419142982,53.7555969484758],[-2.98238329756045,53.7555938465158],[-2.98237805656792,53.7553691831391],[-2.98275716061175,53.7553660800129],[-2.98275191767399,53.7551414166597],[-2.98313101963103,53.7551383123674],[-2.98312577474809,53.7549136490377],[-2.98312052993595,53.754688985699],[-2.98349962779027,53.7546858802731],[-2.98349438103303,53.754461216958],[-2.98348913434662,53.7542365536339],[-2.98386822809831,53.7542334470744],[-2.98386297946688,53.7540087837738],[-2.98385773090631,53.7537841204643],[-2.98385248241658,53.7535594571457],[-2.9838472339977,53.7533347938182],[-2.98384198564968,53.7531101304816],[-2.9838367373725,53.7528854671361],[-2.98383148916616,53.7526608037816],[-2.98382624103067,53.7524361404181],[-2.98382099296603,53.7522114770455],[-2.98381574497222,53.751986813664],[-2.98381049704926,53.7517621502735],[-2.98380524919714,53.751537486874],[-2.98380000141585,53.7513128234656],[-2.98417906889281,53.7513097161307],[-2.98417381916687,53.7510850527458],[-2.9841685695118,53.7508603893519],[-2.98416331992759,53.7506357259489],[-2.98415807041423,53.750411062537],[-2.98415282093642,53.7501863991054],[-2.98414757133366,53.7499617356054],[-2.98414232180191,53.7497370720966],[-2.98452137508463,53.7497339637714],[-2.98451612360291,53.7495093002778],[-2.98489517479488,53.7495061909406],[-2.98488992136262,53.7492815274577],[-2.98488466800145,53.7490568639661],[-2.9845056208526,53.7490599732642],[-2.98450036958399,53.7488353097443],[-2.98449511838642,53.7486106462156],[-2.9848741614924,53.7486075369566],[-2.98486890834452,53.7483828734388],[-2.98486365526772,53.7481582099122],[-2.98485840226202,53.7479335463768],[-2.9848531493274,53.7477088828327],[-2.98484789646387,53.7474842192799],[-2.98522692938801,53.7474811090953],[-2.98522167457372,53.7472564455572],[-2.98521641983055,53.7470317820105],[-2.98521116515848,53.746807118455],[-2.98483213829979,53.7468102285689],[-2.98482688572059,53.746585564981],[-2.98520591055753,53.7465824548907],[-2.98520065602768,53.7463577913177],[-2.98519540156894,53.7461331277359],[-2.9851901471813,53.7459084641454],[-2.98518489286477,53.7456838005461],[-2.98517963861934,53.7454591369381],[-2.98517438444501,53.7452344733214],[-2.98555339708083,53.7452313621738],[-2.98554814095603,53.7450066985719],[-2.98592715149913,53.7450035862494],[-2.98630616197104,53.7450004727285],[-2.98631142213897,53.7452251362833],[-2.98669043456123,53.7452220215402],[-2.98668517237174,53.744997358009],[-2.98667991025346,53.7447726944691],[-2.98630090187429,53.7447758091649],[-2.98629564184873,53.7445511455927],[-2.98591663541986,53.7445542590665],[-2.98553762891982,53.7445573713418],[-2.9855323730084,53.7443327077136],[-2.98515336845868,53.7443358187669],[-2.98514811463984,53.7441111551065],[-2.98514286089209,53.7438864914372],[-2.98552186139892,53.7438833804311],[-2.98551660570086,53.7436587167767],[-2.98551135007392,53.7434340531135],[-2.98550609451809,53.7432093894416],[-2.9851271000754,53.7432125003771],[-2.98513235360987,53.7434371640726],[-2.98475335707471,53.7434402738332],[-2.98475860865889,53.7436649375435],[-2.98476386031415,53.743889601245],[-2.98476911204046,53.7441142649377],[-2.98439010935026,53.744117373804],[-2.98401110658388,53.7441204815327],[-2.98400585889803,53.7438958177963],[-2.98400061128316,53.7436711540512],[-2.98399536373927,53.7434464902973],[-2.98437436044484,53.7434433826402],[-2.98436911095171,53.7432187189014],[-2.98399011626636,53.7432218265347],[-2.98398486886442,53.7429971627633],[-2.98360587612824,53.7430002691743],[-2.98322688332109,53.7430033743869],[-2.98284789044299,53.7430064784012],[-2.98284264917252,53.7427818145495],[-2.98283740797293,53.7425571506891],[-2.98245841906421,53.7425602534573],[-2.98207943008461,53.7425633550271],[-2.98170044103413,53.7425664553985],[-2.98132145191282,53.7425695545716],[-2.98094246272071,53.7425726525463],[-2.9805634734578,53.7425757493225],[-2.98056870253654,53.7428004133257],[-2.98018971118274,53.7428035089274],[-2.97981071975821,53.7428066033307],[-2.97943172826297,53.7428096965356],[-2.97905273669706,53.7428127885421],[-2.97867374506051,53.7428158793502],[-2.97866852608252,53.7425912152283],[-2.97866330717512,53.7423665510977],[-2.9786580883383,53.7421418869584],[-2.9782791026915,53.742144976497],[-2.97827388594534,53.7419203123251],[-2.97789490224803,53.7419234006417],[-2.97788968763649,53.7416987365172],[-2.97751070588788,53.7417018236071],[-2.9775054933749,53.7414771594609],[-2.97750028093241,53.7412524953058],[-2.97749506856042,53.7410278311418],[-2.97711609280102,53.7410309169506],[-2.97712130315312,53.7412555811422],[-2.97674232530333,53.7412586657805],[-2.97674753370599,53.7414833299908],[-2.97636855376582,53.7414864134584],[-2.9759895737552,53.7414894957278],[-2.97599477818842,53.7417141599845],[-2.97599998270361,53.741938824249],[-2.97562099858335,53.7419419053754],[-2.97562620118898,53.7421665697129],[-2.97524721497824,53.7421696496646],[-2.97525241563412,53.742394314017],[-2.97487342733291,53.7423973927939],[-2.97449443896135,53.7424004703725],[-2.9744996356473,53.7426251347634],[-2.97450483240354,53.7428497991455],[-2.97451002923006,53.7430744635188],[-2.97451522612688,53.7432991278835],[-2.97413622960428,53.743302204358],[-2.97375723301139,53.7433052796342],[-2.97337823634823,53.743308353712],[-2.97299923961483,53.7433114265913],[-2.9729940507989,53.7430867621323],[-2.97261505601552,53.7430898337897],[-2.97260986928997,53.7428651692984],[-2.97223087645661,53.7428682397338],[-2.97185188355308,53.7428713089708],[-2.97147289057943,53.7428743770094],[-2.97109389753568,53.7428774438496],[-2.97109907618042,53.743102108435],[-2.97072008104639,53.7431051741003],[-2.97034108584231,53.7431082385672],[-2.97034626051662,53.7433329031909],[-2.96996726322229,53.7433359664829],[-2.96958826585797,53.7433390285765],[-2.96920926842368,53.7433420894716],[-2.96883027091945,53.7433451491683],[-2.96845127334532,53.7433482076666],[-2.9684461087722,53.7431235429255],[-2.96806711314842,53.7431266002019],[-2.96768811922546,53.743129658411],[-2.96768295879493,53.7429049936226],[-2.96730396704334,53.7429080508428],[-2.96730912544782,53.7431327156814],[-2.96731428392222,53.7433573805106],[-2.96693528804854,53.7433604366335],[-2.96694044456676,53.7435851015034],[-2.96656144659703,53.7435881564788],[-2.9661824485574,53.7435912102565],[-2.96580345044788,53.7435942628366],[-2.965798300008,53.7433695978162],[-2.96541930385475,53.7433726491483],[-2.96504030763167,53.7433756992828],[-2.96503516131378,53.7431510341526],[-2.964656167047,53.7431540830393],[-2.96465102282494,53.7429294178495],[-2.96427203051446,53.7429324654884],[-2.96426688838816,53.742707800239],[-2.96388789803398,53.74271084663],[-2.96388275800341,53.7424861813212],[-2.96350376960553,53.7424892264644],[-2.96349863167061,53.7422645610959],[-2.96349349380535,53.742039895718],[-2.96348835600765,53.7418152303966],[-2.96348321827519,53.7415905652022],[-2.96347808061225,53.7413658999988],[-2.96309910226354,53.7413689437318],[-2.96309396669125,53.7411442784869],[-2.96347294301883,53.7411412347865],[-2.96385191927686,53.7411381898879],[-2.96384677973184,53.7409135246991],[-2.96384164025637,53.7406888595013],[-2.96346266804053,53.7406919043347],[-2.96345753065565,53.7404672390954],[-2.96345239334028,53.740242573847],[-2.96383136151404,53.7402395290787],[-2.96382622224718,53.7400148638539],[-2.96382108304986,53.7397901986201],[-2.96381594392207,53.7395655333773],[-2.96419490596334,53.7395624875086],[-2.96457386793502,53.7395594404418],[-2.96495282983708,53.7395563921771],[-2.9653317916695,53.7395533427143],[-2.96571075343224,53.7395502920535],[-2.96608971512528,53.7395472401947],[-2.96646867674859,53.7395441871378],[-2.96684763830215,53.739541132883],[-2.96722659978592,53.7395380774302],[-2.96760556119989,53.7395350207793],[-2.96760040193252,53.7393103558535],[-2.96722144253946,53.7393134124717],[-2.96684248307659,53.7393164678919],[-2.96646352354394,53.7393195221141],[-2.96608456394154,53.7393225751384],[-2.96570560426941,53.7393256269646],[-2.96532664452758,53.7393286775928],[-2.96494768471608,53.739331727023],[-2.96456872483493,53.7393347752552],[-2.96418976488417,53.7393378222894],[-2.96381080486382,53.7393408681256],[-2.9634318447739,53.7393439127638],[-2.96343698181123,53.7395685780481],[-2.96305801963086,53.7395716215208],[-2.96305288461445,53.739346956204],[-2.96304774966751,53.7391222908782],[-2.96304261479005,53.7388976255433],[-2.96342157090774,53.7388945821682],[-2.9638005269559,53.7388915375951],[-2.96379538810624,53.7386668723164],[-2.96379024932611,53.7384422070286],[-2.9634112973196,53.7384452515367],[-2.96303234524355,53.7384482948467],[-2.96303747998206,53.7386729601995],[-2.9626585258157,53.7386760023442],[-2.96266365860285,53.7389006677205],[-2.96266879145944,53.7391253330878],[-2.9622898331819,53.7391283740995],[-2.9619108748349,53.7391314139132],[-2.96153191641848,53.7391344525288],[-2.96115295793266,53.7391374899465],[-2.96077399937746,53.7391405261662],[-2.96039504075293,53.7391435611879],[-2.96001608205908,53.7391465950116],[-2.95963712329595,53.7391496276372],[-2.95925816446355,53.7391526590649],[-2.95887920556192,53.7391556892946],[-2.95850024659109,53.7391587183263],[-2.95812128755108,53.73916174616],[-2.9581263962263,53.7393864119078],[-2.95850535728722,53.7393833840417],[-2.95888431827896,53.7393803549776],[-2.9592632792015,53.7393773247155],[-2.9596422400548,53.7393742932554],[-2.96002120083884,53.7393712605973],[-2.96040016155359,53.7393682267411],[-2.96077912219902,53.739365191687],[-2.96115808277511,53.7393621554349],[-2.96153704328183,53.7393591179847],[-2.96191600371915,53.7393560793365],[-2.96229496408704,53.7393530394903],[-2.96267392438549,53.7393499984462],[-2.96267905738098,53.7395746637955],[-2.96268419044593,53.7397993291359],[-2.96306315471676,53.7397962868287],[-2.96306828987213,53.7400209521275],[-2.96307342509699,53.7402456174174],[-2.96307856039133,53.7404702826983],[-2.96269959005749,53.740473325103],[-2.96270472340025,53.7406979904074],[-2.96232575097587,53.7407010316467],[-2.96233088236701,53.7409256969746],[-2.96270985681248,53.7409226557029],[-2.96271499029416,53.7411473209893],[-2.96233601382758,53.7411503622936],[-2.96195703729153,53.7411534023998],[-2.96195190785207,53.7409287370483],[-2.96194677848202,53.7407040716879],[-2.96156780591874,53.740707110531],[-2.96156267863916,53.7404824451291],[-2.96118370802754,53.7404854827417],[-2.96117858283836,53.7402608172983],[-2.9607996141784,53.7402638536804],[-2.96042064544909,53.7402668888643],[-2.96041552437128,53.740042223347],[-2.96003655759366,53.7400452573005],[-2.96004167665045,53.7402699228503],[-2.96004679577651,53.7404945883911],[-2.96005191497184,53.7407192539229],[-2.96043088781258,53.740716219872],[-2.96043600909826,53.7409408853624],[-2.96044113045325,53.7411655508437],[-2.96044625187752,53.7413902163161],[-2.9604513733711,53.7416148817795],[-2.96007239244582,53.7416179159602],[-2.95969341145124,53.7416209489428],[-2.95968829400001,53.7413962834145],[-2.95930931495734,53.7413993151665],[-2.95930419959651,53.7411746495968],[-2.9592990843049,53.7409499840181],[-2.9592939690825,53.7407253184304],[-2.95928885392931,53.7405006528337],[-2.95890988290183,53.7405036832579],[-2.95891499603395,53.740728348887],[-2.95853602291619,53.7407313781456],[-2.95815704972924,53.7407344062061],[-2.95777807647313,53.7407374330686],[-2.95778318361113,53.7409620987859],[-2.95778829081823,53.7411867644943],[-2.95779339809444,53.7414114301936],[-2.95779850543976,53.741636095884],[-2.95780361285418,53.7418607615654],[-2.95818259621607,53.741857734541],[-2.95818770565847,53.7420824005672],[-2.9581928151602,53.7423070666455],[-2.9581979247312,53.7425317327143],[-2.95820303437147,53.7427563987736],[-2.958208144081,53.7429810648235],[-2.958587137504,53.7429780363477],[-2.95896613085768,53.7429750066743],[-2.959345124142,53.7429719758031],[-2.95972411735693,53.7429689437343],[-2.96010311050246,53.7429659104678],[-2.96048210357856,53.7429628760036],[-2.9604769817127,53.7427382102536],[-2.96047185991628,53.7425135444942],[-2.96046673818928,53.7422888787253],[-2.96084572511785,53.7422858432135],[-2.96085084887084,53.7425105089323],[-2.9612298377559,53.7425074721728],[-2.96160882657146,53.7425044342155],[-2.96161395444594,53.7427290998249],[-2.96161908238994,53.7429537654247],[-2.96162421040346,53.7431784310151],[-2.96162933848649,53.7434030965961],[-2.9612503415667,53.7434061347535],[-2.96125546769312,53.743630800375],[-2.96126059388904,53.743855465987],[-2.96088159284743,53.7438585030468],[-2.96088671708665,53.7440831686994],[-2.96089184139535,53.7443078343425],[-2.96051283623184,53.7443108703046],[-2.96051795858376,53.7445355359883],[-2.96052308100513,53.7447602016626],[-2.96014407171964,53.7447632365269],[-2.96014919218415,53.7449879022417],[-2.95977018080292,53.7449909359582],[-2.95977529931052,53.7452156017136],[-2.95939628583354,53.7452186342824],[-2.95901727228717,53.7452216656533],[-2.95902238681145,53.7454463314992],[-2.95864337116936,53.7454493617224],[-2.95826435545792,53.7454523907477],[-2.95788533967717,53.7454554185752],[-2.95789044819163,53.7456800845616],[-2.95751143031521,53.7456831112412],[-2.95713241236953,53.7456861367231],[-2.95675339435462,53.7456891610071],[-2.9563743762705,53.7456921840934],[-2.95599535811721,53.7456952059818],[-2.95561633989476,53.7456982266724],[-2.9552373216032,53.7457012461651],[-2.95485830324254,53.7457042644601],[-2.95447928481281,53.7457072815572],[-2.95410026631404,53.7457102974564],[-2.95409517806352,53.7454856309711],[-2.95409008988198,53.7452609644763],[-2.95371107536698,53.745263979078],[-2.95371616152214,53.7454886456227],[-2.95333714491178,53.7454916590765],[-2.95295812823246,53.7454946713325],[-2.95257911148421,53.7454976823906],[-2.95220009466707,53.745500692251],[-2.95182107778104,53.7455037009135],[-2.95181600175777,53.7452790341197],[-2.95143698682928,53.7452820415346],[-2.95105797102907,53.7452850502809],[-2.95067895496011,53.745288058459],[-2.95067388509799,53.7450633914949],[-2.950668815305,53.7448387245205],[-2.95066374558112,53.7446140575359],[-2.95065867592637,53.7443893905411],[-2.95027966795235,53.7443923972045],[-2.95027460040767,53.74416773012],[-2.95026953293209,53.7439430630253],[-2.95064853682424,53.7439400565207],[-2.95102754064724,53.7439370488191],[-2.95140654429241,53.7439340402748],[-2.951401470777,53.7437093733651],[-2.95178047152159,53.7437063662987],[-2.95215947219734,53.7437033580346],[-2.95253847280423,53.7437003485728],[-2.95253339327912,53.743475681803],[-2.95291239179096,53.7434726711932],[-2.95290731030858,53.7432480044638],[-2.95290222889509,53.743023337725],[-2.95289714755048,53.7427986709767],[-2.95251815511695,53.742801681437],[-2.95213916261454,53.7428046906996],[-2.95213408539092,53.7425800238423],[-2.95175509484569,53.7425830318574],[-2.95175001971692,53.7423583649408],[-2.95137103112889,53.7423613717084],[-2.95137610423164,53.7425860386748],[-2.95138117740316,53.7428107056318],[-2.95100218389726,53.742813713986],[-2.95099711275469,53.7425890469886],[-2.95061812117664,53.7425920542138],[-2.95061305214394,53.7423673871268],[-2.95099204168125,53.742364379981],[-2.95098697067696,53.7421397129632],[-2.95060798318035,53.7421427200295],[-2.95060291428587,53.7419180529221],[-2.95059784531598,53.7416933864973],[-2.95021886182989,53.7416963922116],[-2.95021379494327,53.7414717258189],[-2.95059277639329,53.7414687201672],[-2.95058770753958,53.7412440538274],[-2.95020872812561,53.7412470594164],[-2.9502036613769,53.7410223930041],[-2.95019859469715,53.7407977265819],[-2.95057757003911,53.7407947211183],[-2.95095654531207,53.7407917144575],[-2.95095147462934,53.740567048151],[-2.95133044779729,53.7405640403556],[-2.95170942026041,53.740561033686],[-2.95170434559753,53.7403363674337],[-2.95132537514764,53.7403393741019],[-2.95094640401562,53.7403423818347],[-2.95056743281456,53.7403453883701],[-2.95057250139235,53.7405700547491],[-2.95019352808635,53.74057306015],[-2.94981455471137,53.7405760643537],[-2.9498196192862,53.7408007308482],[-2.9494406438063,53.7408037339173],[-2.94944570641407,53.7410284004647],[-2.94945076909074,53.7412530670024],[-2.94907178946989,53.7412560689995],[-2.94907685017941,53.74148073559],[-2.94869786845361,53.7414837364525],[-2.94870292719592,53.7417084030959],[-2.94832394336517,53.7417114028236],[-2.94832900009935,53.7419360697094],[-2.94833405674976,53.7421607372931],[-2.94871304466078,53.742157737408],[-2.94871810342084,53.7423824049021],[-2.94872316224987,53.742607072386],[-2.94910215417334,53.7426040711454],[-2.94910721511211,53.7428287385396],[-2.94948620900731,53.7428257360227],[-2.94948114602778,53.7426010687078],[-2.94986013781316,53.7425980650734],[-2.95023912952946,53.742595060242],[-2.95024419659051,53.7428197273982],[-2.95024926372065,53.7430443945441],[-2.94987026792281,53.7430473995342],[-2.94987533308122,53.7432720667492],[-2.94949633517347,53.7432750706218],[-2.94911733719666,53.7432780732974],[-2.94912239834244,53.743502740661],[-2.94912745955722,53.7437274080143],[-2.94950646161575,53.74372440518],[-2.94951152494045,53.7439490724437],[-2.94951658833418,53.7441737396971],[-2.94952165179695,53.7443984069404],[-2.94952671532875,53.7446230741734],[-2.9495317789296,53.7448477413961],[-2.94953684259949,53.7450724086086],[-2.94915782829514,53.7450754119192],[-2.94877881392174,53.7450784140328],[-2.94839979947934,53.7450814149493],[-2.94802078496794,53.7450844146688],[-2.94801572946221,53.7448597471388],[-2.9476367169229,53.744862745582],[-2.94725770431466,53.7448657428281],[-2.94687869163751,53.7448687388772],[-2.94687364232376,53.7446440710991],[-2.94649463161876,53.7446470658719],[-2.94649967889148,53.7448717337294],[-2.94650472623302,53.7450964015766],[-2.9461257113771,53.7450993953109],[-2.94574669645236,53.7451023878483],[-2.94575173978057,53.7453270558439],[-2.94575678317754,53.7455517238292],[-2.94613580218447,53.7455487311333],[-2.94614084769135,53.7457733990291],[-2.94651986867059,53.7457704050568],[-2.94652491628742,53.7459950728631],[-2.94652996397309,53.7462197406592],[-2.94653501172758,53.746444408445],[-2.94615598462479,53.7464474026551],[-2.94615093891151,53.74622273479],[-2.9457719137811,53.7462257277238],[-2.94539288858189,53.7462287194605],[-2.94501386331391,53.7462317100001],[-2.94501890290353,53.7464563781031],[-2.94502394256188,53.7466810461958],[-2.94502898228895,53.7469057142783],[-2.94540801368067,53.7469027235009],[-2.94540297191233,53.7466780554977],[-2.945782001194,53.7466750636024],[-2.94578704500361,53.7468997315264],[-2.945792088882,53.7471243994401],[-2.94579713282917,53.7473490673436],[-2.94580217684512,53.7475737352368],[-2.94542313939819,53.7475767274492],[-2.94542818144154,53.7478013954115],[-2.94504914188445,53.7478043865061],[-2.9446701022586,53.7478073764034],[-2.94466506429803,53.7475827082826],[-2.94428602664484,53.7475856969035],[-2.94390698892296,53.7475886843273],[-2.94352795113241,53.747591670554],[-2.94314891327322,53.7475946555835],[-2.94276987534541,53.7475976394159],[-2.94239083734902,53.7476006220511],[-2.94201179928406,53.7476036034892],[-2.94201682295491,53.7478282721646],[-2.94163778278003,53.7478312524847],[-2.94125874253665,53.7478342316077],[-2.94087970222478,53.7478372095335],[-2.94050066184447,53.7478401862621],[-2.94012162139574,53.7478431617935],[-2.93974258087861,53.7478461361278],[-2.93936354029311,53.7478491092649],[-2.93898449963928,53.7478520812049],[-2.93860545891714,53.7478550519476],[-2.93861046428364,53.7480797213252],[-2.93823142145178,53.7480826909499],[-2.93823642484508,53.7483073603963],[-2.9378573799035,53.7483103289029],[-2.93747833489369,53.7483132962123],[-2.93747333558331,53.7480886266077],[-2.93746833634111,53.7478639569929],[-2.937089295346,53.747866922947],[-2.93708429821338,53.7476422532429],[-2.93707930114891,53.7474175835286],[-2.93670026416842,53.7474205481274],[-2.93669526921345,53.7471958783238],[-2.9366902743266,53.74697120851],[-2.93668527950786,53.7467465386861],[-2.93668028475723,53.7465218688519],[-2.93667529007472,53.7462971990075],[-2.93667029546031,53.7460725291529],[-2.93666530091402,53.7458478592881],[-2.9370443236056,53.7458448952427],[-2.93703932708626,53.7456202254467],[-2.93703433063504,53.7453955556405],[-2.93702933425197,53.7451708858241],[-2.93702433793702,53.7449462159975],[-2.9370193416902,53.7447215461607],[-2.93701434551152,53.7444968763137],[-2.9366353350665,53.7444998398848],[-2.93663034099694,53.7442751699485],[-2.93662534699549,53.744050500002],[-2.93662035306212,53.7438258300453],[-2.93661535919686,53.7436011600784],[-2.93661036539969,53.7433764901013],[-2.93623136509127,53.7433794520801],[-2.93622637340305,53.7431547820138],[-2.93622138178291,53.7429301119372],[-2.93660037800964,53.7429271501164],[-2.93697937416825,53.7429241870986],[-2.93698436987007,53.7431488570171],[-2.93736336800136,53.7431458927233],[-2.93774236606449,53.7431429272325],[-2.93773736628102,53.7429182574721],[-2.93811636223511,53.7429152908635],[-2.93811136047901,53.7426906211719],[-2.93773236656572,53.7426935877015],[-2.9377273669186,53.7424689179207],[-2.93810635879112,53.7424659514702],[-2.93848535059541,53.7424629838227],[-2.93849035432408,53.7426876534454],[-2.93886934810089,53.7426846845219],[-2.93887435393858,53.7429093540552],[-2.93887935984453,53.7431340235784],[-2.93925835763468,53.7431310532997],[-2.93925334968791,53.7429063838557],[-2.93963234536892,53.7429034124592],[-2.93962733544963,53.742678743084],[-2.93924834180942,53.7426817144014],[-2.93924333399921,53.7424570449369],[-2.93923832625729,53.7422323754622],[-2.939617315816,53.7422294043031],[-2.93999630530637,53.7422264319469],[-2.9399912935513,53.7420017626203],[-2.9403702809326,53.7419987891464],[-2.94074926824552,53.7419958144755],[-2.94112825549001,53.7419928386078],[-2.94113327336721,53.7422175076971],[-2.94151226258396,53.7422145305533],[-2.94151728257031,53.7424391995532],[-2.94189627375933,53.7424362211333],[-2.94227526487984,53.7424332415165],[-2.94227024081203,53.7422085726749],[-2.94264922982328,53.7422055919404],[-2.94264420378327,53.7419809231678],[-2.94302319068526,53.7419779413155],[-2.94340217751867,53.7419749582663],[-2.94339714731015,53.7417502903286],[-2.94377613203379,53.741747306166],[-2.94415511668891,53.7417443208061],[-2.94453410127549,53.7417413342489],[-2.94452906493013,53.741516666917],[-2.94490804741204,53.7415136792249],[-2.94528702982535,53.7415106903356],[-2.9452819894764,53.741286023119],[-2.94490300909915,53.7412890119458],[-2.94452402865331,53.7412919995753],[-2.94414504813889,53.7412949860075],[-2.94376606755594,53.7412979712423],[-2.94377109976062,53.7415226387091],[-2.94339211707308,53.7415256228092],[-2.94301313431704,53.7415286057119],[-2.94301816251802,53.7417532732939],[-2.94263917765743,53.7417562550618],[-2.9422601927284,53.7417592356324],[-2.94188120773097,53.7417622150057],[-2.94150222266515,53.7417651931816],[-2.94112323753099,53.7417681701602],[-2.9407442523285,53.7417711459415],[-2.94073923634413,53.7415464779847],[-2.94073422042803,53.7413218100181],[-2.94035523922943,53.7413247844772],[-2.94036025310945,53.7415494525062],[-2.9399812698065,53.7415524258304],[-2.93960228643531,53.7415553979572],[-2.93959727662745,53.7413307298033],[-2.93959226688777,53.7411060616397],[-2.93921328752051,53.7411090324444],[-2.93921829522413,53.7413337006704],[-2.9392233029959,53.7415583688867],[-2.93884431948831,53.7415613386189],[-2.93846533591256,53.7415643071537],[-2.93846033221296,53.7413396388127],[-2.93808135060517,53.7413426060878],[-2.93770236892927,53.7413455721656],[-2.93732338718531,53.7413485370461],[-2.93731838966198,53.7411238685082],[-2.93731339220668,53.7408991999605],[-2.93693441446676,53.740902163519],[-2.93655543665883,53.7409051258801],[-2.93655044334356,53.740680457198],[-2.93654545009624,53.7404557885061],[-2.93692442383218,53.7404528262696],[-2.93691942861687,53.7402281576303],[-2.93729840024885,53.7402251942589],[-2.93767737181278,53.7402222296902],[-2.93767237259361,53.7399975611658],[-2.93805134205356,53.7399945954621],[-2.93843031144541,53.7399916285612],[-2.93880928076914,53.7399886604631],[-2.93880427551032,53.739763992116],[-2.93918324273001,53.739761022883],[-2.93917823550346,53.7395363545886],[-2.93955720061911,53.7395333842207],[-2.93955219142486,53.7393087159789],[-2.93954718229879,53.7390840477273],[-2.9399261432746,53.739081076287],[-2.93992113218092,53.738856408088],[-2.94030009105272,53.7388534355129],[-2.94029507799149,53.7386287673666],[-2.9406740347593,53.7386257936567],[-2.94066901973057,53.738401125563],[-2.94066400477009,53.7381764574596],[-2.9410429573982,53.7381734826774],[-2.94103794047031,53.7379488146266],[-2.94141689099445,53.7379458387096],[-2.9414118720992,53.7377211707115],[-2.94179082051937,53.7377181936599],[-2.94178579965681,53.7374935257144],[-2.94216474597303,53.737490547528],[-2.94215972314322,53.7372658796353],[-2.94253866735547,53.7372629003142],[-2.94291761149931,53.737259919796],[-2.94291258466676,53.7370352520185],[-2.94329152670662,53.7370322703656],[-2.94328649790695,53.7368076026408],[-2.94366543784283,53.7368046198533],[-2.94404437771021,53.7368016358687],[-2.94442331750908,53.7367986506871],[-2.94480225723941,53.7367956643083],[-2.94518119690115,53.7367926767324],[-2.9455601364943,53.7367896879594],[-2.94593907601882,53.7367866979893],[-2.94593403303918,53.7365620306923],[-2.94631297045956,53.7365590395876],[-2.94669190781126,53.7365560472859],[-2.94668686082934,53.7363313801043],[-2.94706579607688,53.736328386668],[-2.94707084509425,53.736553053787],[-2.94707589418034,53.7367777208963],[-2.94745483343007,53.7367747261378],[-2.94783377261103,53.7367717301821],[-2.94783882583684,53.7369963971564],[-2.94745988462037,53.7369993931746],[-2.94746493587941,53.7372240602017],[-2.94784387913141,53.7372210641208],[-2.94784893249475,53.7374457310755],[-2.94822787771351,53.7374427337349],[-2.94822282231462,53.7372180668428],[-2.948601765429,53.7372150683678],[-2.94898070847453,53.7372120686955],[-2.94897564907337,53.736987401919],[-2.94935459001449,53.7369844011123],[-2.94973353088671,53.7369813991085],[-2.95011247168999,53.7369783959076],[-2.95049141242432,53.7369753915096],[-2.95048634495001,53.7367507249739],[-2.95086528357985,53.7367477194415],[-2.95124422214068,53.736744712712],[-2.95162316032869,53.7367417061753],[-2.95200209831212,53.7367386990623],[-2.95238103622685,53.7367356907515],[-2.95275997407286,53.7367326812427],[-2.95275489451527,53.7365080149345],[-2.95313383027192,53.7365050042601],[-2.9535127659598,53.7365019923878],[-2.95389170157887,53.7364989793177],[-2.9542706371291,53.7364959650496],[-2.95464957261047,53.7364929495836],[-2.95502850802295,53.7364899329198],[-2.95540744336651,53.736486915058],[-2.95540234973367,53.7362622489668],[-2.95578128298773,53.7362592299395],[-2.95616021617281,53.7362562097143],[-2.9565391492889,53.7362531882913],[-2.95691808233597,53.7362501656703],[-2.95729701531398,53.7362471418515],[-2.95767594822291,53.7362441168348],[-2.95805488106273,53.7362410906203],[-2.95843381383342,53.7362380632078],[-2.95842870410525,53.7360133973666],[-2.95880763478625,53.7360103687886],[-2.95918656539806,53.7360073390129],[-2.95956549594066,53.7360043080392],[-2.95994442641402,53.7360012758677],[-2.959939308673,53.7357766101472],[-2.95993419100121,53.7355519444176],[-2.95992907339867,53.7353272786791],[-2.95992395586536,53.7351026129316],[-2.95954503347381,53.7351056449734],[-2.95916611101303,53.7351086758173],[-2.95916099758972,53.7348840099959],[-2.95953991803012,53.7348809791844],[-2.95953480265564,53.7346563133865],[-2.95991372100644,53.7346532814096],[-2.96029263928799,53.7346502482349],[-2.96067155750024,53.7346472138625],[-2.96105047564317,53.7346441782922],[-2.96105559909908,53.7348688439603],[-2.96143451919302,53.7348658071597],[-2.96143964473862,53.7350904727864],[-2.9610607226243,53.7350935096194],[-2.96068180044063,53.7350965452546],[-2.96030287818764,53.735099579692],[-2.96030799774136,53.7353242454071],[-2.96031311736434,53.7355489111132],[-2.96069204365817,53.7355458766108],[-2.96069716537089,53.7357705422755],[-2.96070228715289,53.7359952079311],[-2.96108121741835,53.735992172166],[-2.96107609361586,53.7357675065428],[-2.96145502179148,53.7357644696123],[-2.96183394989773,53.735761431484],[-2.96221287793456,53.7357583921578],[-2.96259180590197,53.7357553516338],[-2.96258667408696,53.7355306861316],[-2.96258154234138,53.7353060206204],[-2.96257641066522,53.7350813551002],[-2.96295533250188,53.7350783134759],[-2.96333425426906,53.7350752706538],[-2.96333938998601,53.7352999361089],[-2.96334452577245,53.735524601555],[-2.96334966162837,53.7357492669922],[-2.96372858938731,53.7357462228746],[-2.96410751707671,53.7357431775592],[-2.96448644469654,53.7357401310459],[-2.96486537224678,53.7357370833348],[-2.96486022830905,53.7355124180278],[-2.96523915376921,53.7355093691515],[-2.96561807915972,53.7355063190772],[-2.96599700448055,53.7355032678052],[-2.96637592973168,53.7355002153353],[-2.96675485491307,53.7354971616676],[-2.9671337800247,53.735494106802],[-2.96712862403406,53.7352694416816],[-2.9675075470555,53.7352663856509],[-2.96788647000712,53.7352633284223],[-2.96826539418737,53.735260271315],[-2.96864431905315,53.7352572137771],[-2.96902324384906,53.7352541550413],[-2.96940216857508,53.7352510951075],[-2.96978109323119,53.7352480339758],[-2.97016001781735,53.735244971646],[-2.97053894233354,53.7352419081184],[-2.97091786677972,53.7352388433927],[-2.97091269063629,53.7350141785215],[-2.97129161299329,53.7350111126254],[-2.97167053528023,53.7350080455313],[-2.97204945749709,53.7350049772392],[-2.97242837964385,53.7350019077492],[-2.97280730172047,53.7349988370613],[-2.97318622372693,53.7349957651754],[-2.97319141198534,53.7352204298817],[-2.97319660031391,53.7354450945791],[-2.97281767426911,53.73544816652],[-2.97243874815414,53.735451237263],[-2.97244393251444,53.7356759020066],[-2.97282286064863,53.7356728312361],[-2.97320178871265,53.7356697592677],[-2.97320697718154,53.7358944239475],[-2.97358590719461,53.7358913507536],[-2.97359109775294,53.736116015397],[-2.97359628838146,53.7363406800315],[-2.97360147908018,53.7365653446572],[-2.97360666984909,53.736790009274],[-2.97398560786917,53.736786934772],[-2.97398041508091,53.7365622701827],[-2.97397522236287,53.7363376055846],[-2.97397002971506,53.7361129409776],[-2.97396483713746,53.7358882763617],[-2.97395964463008,53.735663611737],[-2.97358071670648,53.7356666861014],[-2.97357552628853,53.7354420214403],[-2.97357033594077,53.7352173567703],[-2.97394925982598,53.735214282461],[-2.97394406752925,53.7349896178097],[-2.9735651456632,53.7349926920915],[-2.97355995545582,53.7347680274039],[-2.97393887530274,53.7347649531496],[-2.97431779507942,53.7347618776974],[-2.97469671478583,53.7347588010472],[-2.97507563442194,53.7347557231992],[-2.97545455398773,53.7347526441531],[-2.97583347348317,53.7347495639092],[-2.97621239290822,53.7347464824673],[-2.97621759724949,53.7349711469621],[-2.97622280166114,53.7351958114481],[-2.97622800614316,53.7354204759252],[-2.97623321069556,53.7356451403934],[-2.97623841531835,53.7358698048528],[-2.97624362001152,53.7360944693033],[-2.97624882477507,53.7363191337449],[-2.97625402960901,53.7365437981778],[-2.97625923451334,53.7367684626017],[-2.97626443948805,53.7369931270168],[-2.97664337903514,53.7369900441011],[-2.97702231851178,53.7369869599873],[-2.97740125791795,53.7369838746755],[-2.97778019725362,53.7369807881657],[-2.97777498420145,53.7367561238611],[-2.97815392144722,53.7367530361809],[-2.97853285862245,53.7367499473026],[-2.9785276416021,53.7365252830444],[-2.97890657668741,53.7365221929958],[-2.97890135771831,53.7362975287563],[-2.97889613881979,53.736072864508],[-2.97889091999184,53.7358482002508],[-2.97926984894871,53.7358451090872],[-2.97926462817212,53.7356204448488],[-2.97925940746613,53.7353957806016],[-2.97963833231396,53.7353926882953],[-2.9796331096594,53.7351680240668],[-2.97962788707546,53.7349433598296],[-2.98000680781433,53.7349402663807],[-2.98038572848252,53.7349371717339],[-2.98039095510473,53.7351618359158],[-2.98076987772134,53.7351587400434],[-2.98114880026722,53.735155642973],[-2.98152772274233,53.7351525447046],[-2.98153295549269,53.7353772087946],[-2.98191187991617,53.7353741093006],[-2.98229080426883,53.7353710086086],[-2.98229604112833,53.7355956726342],[-2.98267496742932,53.7355925707166],[-2.98305389365943,53.7355894676009],[-2.98343281981864,53.7355863632873],[-2.98343806280659,53.7358110272208],[-2.98381699091407,53.7358079216815],[-2.9841959189506,53.7358048149442],[-2.98420116604791,53.7360294788133],[-2.98458009603268,53.7360263708502],[-2.98495902593134,53.7360232617754],[-2.98496427713741,53.7362479255864],[-2.98534320897753,53.7362448153275],[-2.98572214074658,53.7362417038705],[-2.98610107244455,53.7362385912153],[-2.98610632977776,53.7364632549536],[-2.98648526342334,53.7364601410789],[-2.98686419699777,53.736457026006],[-2.98686945843954,53.7366816896929],[-2.98724839396154,53.7366785734004],[-2.98762732941234,53.7366754559098],[-2.98763259496277,53.7369001195452],[-2.98801153236112,53.736897000835],[-2.98839046968821,53.7368938809266],[-2.98876940694402,53.73689075982],[-2.988774678622,53.7371154233825],[-2.98915361782529,53.7371123010563],[-2.98953255695725,53.7371091775319],[-2.98953783274413,53.7373338410428],[-2.98991677382353,53.7373307162987],[-2.99029571483154,53.7373275903564],[-2.99029043500705,53.7371029268884],[-2.99066937392484,53.7370997997694],[-2.99066409215295,53.7368751363141],[-2.99104302898052,53.7368720080184],[-2.99104831277118,53.7370966714521],[-2.99142725154605,53.7370935419367],[-2.99143253742696,53.7373182053403],[-2.99181147814914,53.7373150746052],[-2.99181676612034,53.7375397379786],[-2.99143782337934,53.7375428687352],[-2.99105888056683,53.7375459982936],[-2.99106416457182,53.7377706617013],[-2.99144310940319,53.7377675321214],[-2.99182205416305,53.7377644013433],[-2.99182734227725,53.7379890646993],[-2.99220628898447,53.7379859327014],[-2.99258523562012,53.7379827995053],[-2.99259052784365,53.7382074628096],[-2.99296947642662,53.7382043283938],[-2.99334842493799,53.7382011927797],[-2.99335372127093,53.7384258560322],[-2.99335901767549,53.7386505192761],[-2.99373797015311,53.7386473824206],[-2.99411692255905,53.7386442443669],[-2.99411162211657,53.7384195811661],[-2.99449057243186,53.7384164419357],[-2.99449587489329,53.7386411051149],[-2.9948748271558,53.7386379646646],[-2.99525377934657,53.7386348230161],[-2.99524847284723,53.7384101598801],[-2.99562742294726,53.7384070170549],[-2.99562211450074,53.7381823539317],[-2.99524316641964,53.7381854967354],[-2.99523786006379,53.7379608335819],[-2.995616806126,53.7379576907999],[-2.9959957521164,53.7379545468197],[-2.99637469803497,53.7379514016412],[-2.99636938569427,53.7377267385439],[-2.99674832952212,53.7377235921889],[-2.99712727327808,53.7377204446356],[-2.99712195697152,53.7374957815728],[-2.99750089863674,53.7374926328429],[-2.99749558038326,53.7372679697932],[-2.99787451995772,53.7372648198867],[-2.99825345946023,53.7372616687821],[-2.99824813724109,53.7370370057669],[-2.99862707465283,53.7370338534858],[-2.99900601199254,53.7370307000064],[-2.99900068580787,53.7368060370259],[-2.99937962105679,53.73680288237],[-2.99975855623364,53.736799726516],[-3.0001374913384,53.7367965694638],[-3.00051642637103,53.7367934112134],[-3.0005110921835,53.736568748311],[-3.00089002512526,53.7365655888841],[-3.00126895799484,53.7365624282591],[-3.00164788723237,53.7365592634661],[-3.00202681534752,53.736556096599],[-3.00240574338823,53.7365529285321],[-3.00278467135448,53.7365497592653],[-3.00316359924625,53.7365465887987],[-3.00316894786862,53.7367712517782],[-3.00279001788112,53.7367744222073],[-3.00241108781913,53.7367775914366],[-3.00203215768268,53.7367807594661],[-3.00165322747179,53.7367839262958],[-3.00165856778559,53.7370085891184],[-3.00127963451694,53.7370117539682],[-3.0009006976099,53.7370149146367],[-3.00052176063068,53.737018074107],[-3.00014282357931,53.7370212323791],[-3.00014815589232,53.7372458952858],[-2.99976921675005,53.7372490523815],[-2.99939027753568,53.7372522082789],[-2.99901133824923,53.7372553629782],[-2.99901666457793,53.7374800259413],[-2.99863772320064,53.737483179464],[-2.99825878175132,53.7374863317885],[-2.99826410411438,53.7377109947863],[-2.99788516057424,53.7377141459343],[-2.9978904809904,53.737938808945],[-2.99751153535942,53.7379419589164],[-2.99713258965651,53.7379451076896],[-2.99713790610683,53.7381697707349],[-2.99675895831311,53.7381729183315],[-2.9967642728164,53.7383975813898],[-2.99638532293187,53.7384007278097],[-2.99639063548806,53.7386253908809],[-2.99639594811609,53.7388500539434],[-2.99677490203854,53.7388469074802],[-2.99678021675741,53.7390715705124],[-2.99715917262697,53.7390684228293],[-2.99753812842461,53.7390652739479],[-2.9979170841503,53.7390621238682],[-2.99829603980403,53.7390589725903],[-2.99867499538574,53.739055820114],[-2.99866967057188,53.7388311571901],[-2.99904862406258,53.7388280035372],[-2.99942757748121,53.7388248486861],[-2.99942224870142,53.7386001857969],[-2.99980120002901,53.7385970297692],[-3.00018015128449,53.7385938725433],[-3.00017481853887,53.7383692096888],[-3.00055376770328,53.7383660512863],[-3.00054843301086,53.7381413884448],[-3.0009273800842,53.7381382288658],[-3.00130632708535,53.7381350680886],[-3.00168527047023,53.7381319031259],[-3.0016906112303,53.7383565659063],[-3.00206955611215,53.738353399339],[-3.00207489904257,53.7385780621498],[-3.00245384594594,53.73857489442],[-3.00245919104677,53.7387995572613],[-3.00246453622203,53.7390242200956],[-3.00284348724294,53.7390210512408],[-3.00322243818934,53.7390178811861],[-3.00360138906121,53.7390147099314],[-3.00359603759789,53.7387900469847],[-3.00397498629919,53.7387868744927],[-3.0043539349259,53.7387837008007],[-3.00435929058124,53.7390083638221],[-3.00473824122934,53.7390051889676],[-3.0051171918028,53.7390020129131],[-3.00549614230158,53.7389988356586],[-3.00550150431963,53.7392234987852],[-3.00550686641234,53.7394481619048],[-3.00551222857973,53.7396728250174],[-3.00589118529199,53.7396696466751],[-3.00627014192953,53.7396664671329],[-3.00664909849229,53.7396632863906],[-3.00702805498027,53.7396601044484],[-3.00702268442852,53.7394354411864],[-3.00701731395156,53.7392107779174],[-3.00739626617257,53.7392075947005],[-3.00739089367437,53.7389829313871],[-3.00738552125097,53.7387582680667],[-3.00738014890238,53.7385336047393],[-3.00775909476054,53.7385304202105],[-3.00775372039082,53.7383057568387],[-3.00813266407816,53.7383025710726],[-3.00851160769061,53.7382993841066],[-3.00889055122813,53.7382961959407],[-3.00926949469069,53.7382930065749],[-3.00927487744417,53.7385176700959],[-3.00965382292769,53.7385144795674],[-3.01003276833619,53.738511287839],[-3.01003815535655,53.7387359514275],[-3.01004354245192,53.7389606150089],[-3.0100489296223,53.7391852785834],[-3.01005431686768,53.7394099421509],[-3.00967536307516,53.7394131337302],[-3.00968074829948,53.7396377972534],[-3.00930179233586,53.7396409875955],[-3.00930717553905,53.7398656510743],[-3.00968613359878,53.7398624607695],[-3.01006509158349,53.7398592692647],[-3.01044404949314,53.7398560765599],[-3.01082300732771,53.7398528826551],[-3.01082839899039,53.740077546276],[-3.01120735884599,53.7400743512084],[-3.01158631862644,53.7400711549408],[-3.01196527833173,53.7400679574733],[-3.01234423796182,53.7400647588057],[-3.01272319751668,53.7400615589381],[-3.01272859973521,53.7402862227381],[-3.01310756131097,53.7402830217076],[-3.01348652281145,53.7402798194772],[-3.01349192929754,53.7405044833445],[-3.01387089281888,53.7405012799513],[-3.01424985626488,53.7404980753579],[-3.01462881963552,53.7404948695646],[-3.01463423248548,53.7407195335364],[-3.01501319787692,53.7407163265802],[-3.01539216319292,53.7407131184239],[-3.01577112843347,53.7407099090676],[-3.01577654764747,53.7409345731438],[-3.01615551490876,53.7409313626245],[-3.01653448209453,53.7409281509052],[-3.01653990557647,53.7411528150486],[-3.01691887478294,53.7411496021663],[-3.01729784391384,53.741146388084],[-3.01767681296914,53.7411431728016],[-3.01768224281541,53.7413678370493],[-3.01806121347639,53.7413646200219],[-3.01806664542957,53.741589284215],[-3.0184456146451,53.7415860612155],[-3.0188245837874,53.7415828370178],[-3.01883001983403,53.7418075011397],[-3.01920899091323,53.7418042757128],[-3.01958796191916,53.7418010490877],[-3.01959340143307,53.7420257125543],[-3.01997237440495,53.7420224847301],[-3.01997781562845,53.7422471478131],[-3.02035679056062,53.7422439187864],[-3.02073576541874,53.7422406885608],[-3.02074121078491,53.7424653516285],[-3.0211201876033,53.7424621202004],[-3.02112563507787,53.7426867832563],[-3.02150461385652,53.7426835506256],[-3.02188359256104,53.742680316796],[-3.02188904417846,53.7429049798366],[-3.02226802484321,53.7429017448044],[-3.02227347856917,53.7431264078332],[-3.02265246119415,53.7431231715984],[-3.0230314437449,53.7431199341646],[-3.02303690161391,53.743344597178],[-3.02341588612486,53.7433413585416],[-3.02342134610255,53.7435660215432],[-3.02380033257369,53.7435627817042],[-3.02380579466011,53.743787444694],[-3.02418478309144,53.7437842036523],[-3.02419024728665,53.7440088666303],[-3.02456923767817,53.744005624386],[-3.02456377144844,53.7437809614117],[-3.02455830529303,53.7435562984292],[-3.02493729154118,53.7435530549932],[-3.02493182342562,53.7433283920062],[-3.02531080756491,53.7433251473748],[-3.02568979162978,53.7433219015445],[-3.02569526381427,53.7435465645241],[-3.02607424983916,53.7435433174911],[-3.02607972413254,53.7437679804588],[-3.02645871211745,53.7437647322231],[-3.02646418851977,53.7439893951789],[-3.02646966499655,53.7442140581266],[-3.02609067294258,53.7442173063697],[-3.02609614745925,53.744441969313],[-3.02647514154779,53.7444387210661],[-3.02685413556182,53.7444354716202],[-3.02685961422212,53.7446601345478],[-3.0268650929569,53.7448847974672],[-3.02687057176618,53.7451094603785],[-3.02687605064995,53.7453341232816],[-3.027255052728,53.7453308726218],[-3.02726053372097,53.745555535513],[-3.02763953775916,53.7455522836503],[-3.02764502086138,53.7457769465296],[-3.02802402685971,53.745773693464],[-3.02840303278341,53.7457704391994],[-3.0284085200297,53.745995102063],[-3.0287875279135,53.7459918465955],[-3.02879301726918,53.7462165094472],[-3.02917202711309,53.7462132527768],[-3.02917751857822,53.7464379156165],[-3.02955653038222,53.7464346577432],[-3.02993554211149,53.7464313986708],[-3.02993004657676,53.7462067358387],[-3.02955103688229,53.7462099949073],[-3.02954554345705,53.7459853320632]]],[[[-2.98038572848252,53.7349371717339],[-2.98038050193099,53.7347125075431],[-2.98075942050937,53.734709411726],[-2.981138339017,53.734706314711],[-2.98151725745388,53.7347032164981],[-2.98189617581997,53.7347001170873],[-2.98190141044791,53.7349247811673],[-2.98152249006272,53.7349278806058],[-2.98114356960674,53.7349309788464],[-2.98076464908,53.7349340758891],[-2.98038572848252,53.7349371717339]]],[[[-2.95977529931052,53.7452156017136],[-2.96015431271807,53.745212567947],[-2.96014919218415,53.7449879022417],[-2.96052820349593,53.7449848673273],[-2.96090721473824,53.7449818312152],[-2.96128622591104,53.7449787939053],[-2.96129135252394,53.7452034594606],[-2.96129647920633,53.7454281250064],[-2.96167549436227,53.7454250863986],[-2.96205450944866,53.7454220465931],[-2.96243352446545,53.7454190055897],[-2.96281253941263,53.7454159633885],[-2.96319155429017,53.7454129199896],[-2.96357056909804,53.7454098753928],[-2.96357570800818,53.7456345406287],[-2.96395472477271,53.7456314947841],[-2.96395986577891,53.7458561599604],[-2.96396500685481,53.7460808251273],[-2.96434402760244,53.7460777779846],[-2.96434917077448,53.7463024430919],[-2.9647281934788,53.7462993947013],[-2.96473333874705,53.746524059749],[-2.96435431401625,53.7465271081898],[-2.96435945732775,53.7467517732781],[-2.96398043050069,53.7467548205712],[-2.9636014036039,53.7467578666663],[-2.96360654293206,53.7469825318455],[-2.96322751393903,53.7469855767929],[-2.96284848487632,53.7469886205425],[-2.96285362022104,53.7472132858123],[-2.96285875563538,53.7474379510727],[-2.96286389111934,53.7476626163236],[-2.96286902667293,53.747887281565],[-2.96324806384205,53.7478842376151],[-2.96325320149194,53.748108902797],[-2.96325833921148,53.7483335679695],[-2.96326347700067,53.7485582331324],[-2.96326861485953,53.7487828982859],[-2.96327375278804,53.7490075634299],[-2.96327889078621,53.7492322285645],[-2.96328402885404,53.7494568936896],[-2.96366308014076,53.7494538481911],[-2.96366822030512,53.7496785132566],[-2.96367336053917,53.7499031783127],[-2.96367850084291,53.7501278433593],[-2.96368364120189,53.7503525085928],[-2.96330458180537,53.7503555542981],[-2.96292552233907,53.7503585988055],[-2.9629306586975,53.7505832642743],[-2.96255159713139,53.7505863076369],[-2.96254646280302,53.750361642115],[-2.96216740319724,53.7503646842266],[-2.9621622709553,53.7501400187667],[-2.96178321330929,53.7501430596235],[-2.96177808314015,53.7499183943265],[-2.96177295304057,53.74969372902],[-2.9613938993788,53.7496967685788],[-2.96138877137563,53.7494721032128],[-2.961383643442,53.7492474378373],[-2.96137851557789,53.7490227724523],[-2.9613733877833,53.7487981070579],[-2.96099434215929,53.7488011452185],[-2.96098921646098,53.7485764797646],[-2.96098409083217,53.7483518143012],[-2.96097896527284,53.7481271488284],[-2.96097383978301,53.7479024833461],[-2.96059480219636,53.7479055201086],[-2.96058967880267,53.7476808545668],[-2.96058455547844,53.7474561890156],[-2.96020552187558,53.7474592244801],[-2.96020040064741,53.7472345588694],[-2.96019527948867,53.7470098932492],[-2.96019015839935,53.7467852276195],[-2.95981113080675,53.7467882617361],[-2.95980601181338,53.746563596047],[-2.95980089288942,53.7463389303484],[-2.95942186928039,53.7463419631672],[-2.95904284560197,53.7463449947881],[-2.95866382185417,53.7463480252112],[-2.95828479803703,53.7463510544364],[-2.95790577415056,53.7463540824638],[-2.95752675019481,53.7463571092933],[-2.9571477261698,53.746360134925],[-2.95676870207555,53.7463631593588],[-2.95638967791209,53.7463661825948],[-2.95638457729574,53.7461415164371],[-2.95676359943273,53.7461384932511],[-2.9571426215005,53.7461354688672],[-2.95752164349905,53.7461324432854],[-2.95790066542833,53.7461294165058],[-2.95827968728832,53.7461263885284],[-2.9582745766089,53.745901722611],[-2.95865359637314,53.7458986934857],[-2.95903261606803,53.7458956631626],[-2.95941163569355,53.7458926316416],[-2.95979065524967,53.7458895989229],[-2.96016967473637,53.7458865650063],[-2.96016455399418,53.7456618993293],[-2.95978553653389,53.7456649331959],[-2.95978041788751,53.7454402674595],[-2.95977529931052,53.7452156017136]]],[[[-2.96043088781258,53.740716219872],[-2.96042576659619,53.7404915543727],[-2.96080473734654,53.7404885191562],[-2.96118370802754,53.7404854827417],[-2.96118883328606,53.7407101481761],[-2.96156780591874,53.740707110531],[-2.9615729332677,53.740931775924],[-2.96157806068604,53.7411564413079],[-2.96119908401115,53.7411594790179],[-2.96082010726687,53.7411625155299],[-2.96081498389077,53.740937850081],[-2.96080986058399,53.7407131846231],[-2.96043088781258,53.740716219872]]],[[[-2.98201466959502,53.7560462752674],[-2.98201990878371,53.7562709386497],[-2.98239902096254,53.7562678365921],[-2.98240426223808,53.7564924999329],[-2.98240950358438,53.7567171632647],[-2.98203038737327,53.7567202653873],[-2.98165127109141,53.7567233663111],[-2.98164603377741,53.7564987029143],[-2.98126691944097,53.7565018026068],[-2.9812616842138,53.7562771391685],[-2.98164079653412,53.7562740395085],[-2.98163555936153,53.7560493760936],[-2.98201466959502,53.7560462752674]]],[[[-2.96235140862589,53.7418243581964],[-2.96235654034957,53.7420490236613],[-2.96197755572508,53.7420520639137],[-2.96159857103103,53.7420551029685],[-2.96159344335733,53.7418304374058],[-2.96158831573085,53.7416057720488],[-2.96196729637865,53.7416027330757],[-2.96196216680039,53.7413780677422],[-2.96234114535758,53.7413750276035],[-2.96234627695701,53.7415996929045],[-2.96272525746591,53.7415966515351],[-2.96273039115598,53.7418213167946],[-2.96235140862589,53.7418243581964]]],[[[-3.00506895586343,53.736980044794],[-3.00469002415305,53.736983221185],[-3.00431109236804,53.7369863963762],[-3.00393216050842,53.7369895703675],[-3.00355322857423,53.736992743159],[-3.0035478777816,53.7367680801491],[-3.00392680762004,53.7367649073203],[-3.0043057373839,53.7367617332915],[-3.00468466707316,53.736758558063],[-3.00506359668778,53.7367553816345],[-3.00544252622774,53.7367522040063],[-3.00582145569301,53.7367490251781],[-3.00582681906018,53.7369736884123],[-3.00544788749915,53.7369768672031],[-3.00506895586343,53.736980044794]]],[[[-3.00811653513033,53.7376285808032],[-3.00773759773064,53.7376317666812],[-3.00735866025609,53.7376349513593],[-3.00735328828153,53.7374102879968],[-3.00697435282797,53.7374134715124],[-3.00696898302401,53.7371888081801],[-3.00734791638176,53.7371856246272],[-3.00772684966468,53.7371824398745],[-3.00773222366025,53.7374071032814],[-3.0081111589641,53.7374039173661],[-3.00811653513033,53.7376285808032]]],[[[-3.02988608498865,53.7444094328874],[-3.02989157992567,53.7446340957849],[-3.03027057530251,53.7446308355438],[-3.03027607234885,53.7448554984293],[-3.03065506968552,53.7448522369854],[-3.03066056884124,53.7450768998589],[-3.03066606807172,53.7453015627243],[-3.03028706666575,53.7453048241759],[-3.03028156946993,53.7450801613067],[-3.02990257002384,53.7450834215554],[-3.0298970749374,53.7448587586742],[-3.02951807745119,53.7448620177201],[-3.02913907989025,53.7448652755668],[-3.02913358894775,53.7446406126699],[-3.02912809807991,53.7444159497648],[-3.02912260728671,53.7441912868515],[-3.02950159874389,53.7441880290161],[-3.02950709157164,53.7444126919256],[-3.02988608498865,53.7444094328874]]]]}}