{"type":"Feature","properties":{"code":"E63005145","name":"Bracknell"},"geometry":{"type":"MultiPolygon","coordinates":[[[[-0.790265937701517,51.4142237136233],[-0.789906543762919,51.4142200088484],[-0.789900610263457,51.4144447535909],[-0.789541214551983,51.4144410476149],[-0.789181818920377,51.4144373405394],[-0.789187756125275,51.4142125959999],[-0.789547149904163,51.4142163029739],[-0.789553085176437,51.4139915583214],[-0.789912477182497,51.4139952640943],[-0.7902718692684,51.4139989687677],[-0.790265937701517,51.4142237136233]]],[[[-0.790265937701517,51.4142237136233],[-0.790625331719934,51.4142274172987],[-0.790619401925914,51.4144521622443],[-0.790613472052057,51.4146769071784],[-0.790972869855738,51.4146806099573],[-0.790966941754813,51.4149053549814],[-0.790961013574072,51.415130099994],[-0.791320415163093,51.4151338018764],[-0.791314488755354,51.415358546979],[-0.791673892276947,51.4153622478634],[-0.791667967642257,51.415586993056],[-0.792027373096424,51.4155906929423],[-0.792033295878268,51.4153659476482],[-0.792392699559294,51.4153696463333],[-0.792398620408568,51.4151449009262],[-0.79240454117812,51.4149201555076],[-0.79241046186795,51.4146954100775],[-0.792416382478061,51.4144706646359],[-0.792056986208184,51.4144669663566],[-0.792062908591305,51.414242221005],[-0.792068830894685,51.4140174756419],[-0.792428223459129,51.4140211737181],[-0.792434143830089,51.413796428242],[-0.792074753118326,51.4137927302672],[-0.79208067526223,51.4135679848811],[-0.792086597326396,51.4133432394835],[-0.792092519310828,51.4131184940744],[-0.79245190446469,51.4131221917447],[-0.792811289698219,51.4131258883155],[-0.793170675011391,51.4131295837869],[-0.793176591358325,51.4129048380619],[-0.792817207897743,51.412901142692],[-0.792823126017581,51.4126763970569],[-0.792829044057736,51.4124516514104],[-0.793188423813212,51.4124553465773],[-0.793547803648303,51.4124590406448],[-0.793553717903738,51.4122342947839],[-0.793913095965899,51.4122379876504],[-0.793919008289203,51.4120132416765],[-0.79427838457843,51.4120169333422],[-0.794637760947197,51.4120206239085],[-0.794631852328891,51.4122453700852],[-0.794991230629674,51.4122490596534],[-0.794985323784331,51.4124738059201],[-0.794979416859447,51.4126985521753],[-0.795338798944799,51.4127022408468],[-0.795698181109623,51.4127059284189],[-0.795704084329406,51.4124811819609],[-0.796063464721125,51.4124848683321],[-0.796057563353895,51.4127096148915],[-0.796416945677589,51.4127133002645],[-0.796422845192265,51.4124885536038],[-0.796428744627496,51.4122638069315],[-0.796788123325502,51.4122674910024],[-0.797147502102881,51.4122711739737],[-0.797506880959608,51.4122748558456],[-0.797500987081977,51.412499602822],[-0.797495093124971,51.4127243497868],[-0.797489199088589,51.4129490967402],[-0.797129814674188,51.4129454145642],[-0.797123918705823,51.4131701614048],[-0.79676453251817,51.4131664780279],[-0.796758634617775,51.4133912247556],[-0.796399246656873,51.4133875401779],[-0.7963933468244,51.4136122867927],[-0.796033957090253,51.4136086010141],[-0.796028055325655,51.4138333475161],[-0.796387446912475,51.4138370333961],[-0.796381546921096,51.4140617799879],[-0.79602215348158,51.4140580940065],[-0.795662760121496,51.4140544069256],[-0.795303366840867,51.4140507187451],[-0.794943973639718,51.4140470294651],[-0.794938066158013,51.4142717756399],[-0.794578671183653,51.4142680851589],[-0.794572761769659,51.4144928312208],[-0.794213365022092,51.4144891395388],[-0.794219276288823,51.4142643935784],[-0.793859881473545,51.4142607008983],[-0.793865794513389,51.4140359550279],[-0.793871707473611,51.4138112091459],[-0.793512316443309,51.4138075155692],[-0.793152925492604,51.413803820893],[-0.79314700882701,51.4140285665721],[-0.793141092081748,51.4142533122396],[-0.793500486737846,51.4142570071187],[-0.793494571765646,51.4144817528763],[-0.7934886567138,51.4147064986223],[-0.793848055154991,51.4147101926048],[-0.794207453675762,51.4147138854877],[-0.79420154224983,51.4149386314251],[-0.794560942702941,51.41494232331],[-0.794920343235585,51.4149460140952],[-0.795279743847739,51.4149497037809],[-0.795639144539377,51.414953392367],[-0.795645048554166,51.4147286460238],[-0.795650952489447,51.4145038996693],[-0.796010349554992,51.414507586953],[-0.796369746699971,51.4145112731371],[-0.796363846470222,51.4147360196945],[-0.796357946161014,51.4149607662404],[-0.796352045772345,51.4151855127748],[-0.796711448555111,51.4151891981636],[-0.796705549939819,51.4154139447879],[-0.797064954654815,51.4154176291784],[-0.797059057812949,51.4156423758926],[-0.796699651245088,51.4156386914007],[-0.79634024475662,51.4156350058092],[-0.796334344129561,51.4158597523091],[-0.795974935867625,51.4158560655166],[-0.795615527685131,51.4158523776245],[-0.795609623272789,51.4160771239102],[-0.795969033308191,51.4160808119037],[-0.795963130669265,51.4163055582793],[-0.796322542637043,51.4163092452746],[-0.796681954684242,51.4163129311703],[-0.796676055671738,51.4165376777372],[-0.797035469651293,51.4165413626346],[-0.797394883710223,51.4165450464323],[-0.79738898832424,51.4167697931905],[-0.797383092858855,51.4169945399372],[-0.797742510703129,51.416998222838],[-0.797736616466639,51.4172229701442],[-0.79773071998772,51.4174477193019],[-0.797724823427121,51.4176724684474],[-0.797718926784842,51.4178972175805],[-0.798078352301343,51.4179008999051],[-0.798072457500458,51.418125649152],[-0.798066562617913,51.4183503983867],[-0.797707133255235,51.41834671581],[-0.797347703974206,51.4183430321344],[-0.796988274774852,51.4183393473598],[-0.796628845657196,51.4183356614864],[-0.796269416621265,51.418331974514],[-0.795909987667083,51.4183282864428],[-0.795550558794676,51.4183245972726],[-0.795556467138893,51.4180998489208],[-0.795197040271375,51.4180961587779],[-0.795202950456829,51.4178714105399],[-0.794843525594199,51.4178677194242],[-0.79484943762084,51.4176429713001],[-0.794855349565606,51.4174182231637],[-0.794495928630877,51.4174145312015],[-0.794501842416758,51.4171897831789],[-0.794507752963389,51.4169650371425],[-0.794148335834159,51.4169613443448],[-0.793788918784498,51.4169576504474],[-0.793783004638909,51.4171823962102],[-0.793423585872851,51.4171787010776],[-0.793064167142909,51.4171750048717],[-0.792704748479088,51.4171713075739],[-0.792698825185778,51.4173960549076],[-0.792692901702948,51.4176208022869],[-0.792333479336807,51.4176171036053],[-0.791974057052689,51.4176134038249],[-0.791614634850617,51.4176097029456],[-0.791608705516679,51.4178344499339],[-0.791249281473653,51.4178307478296],[-0.791243350134568,51.4180554946793],[-0.791602776100644,51.4180591969099],[-0.791596846602511,51.4182839438736],[-0.791956274573739,51.4182876451316],[-0.791950346916608,51.4185123922093],[-0.791944419177401,51.4187371392745],[-0.791584987359949,51.4187334377641],[-0.791579057615515,51.4189581846908],[-0.791573127788979,51.4191829316052],[-0.791932563452753,51.4191866333682],[-0.792291999198585,51.4191903340322],[-0.79228607313634,51.4194150811868],[-0.792280146992038,51.4196398283291],[-0.791920707399784,51.4196361274126],[-0.791926635467309,51.4194113803965],[-0.791567197880337,51.4194076785073],[-0.791561267889589,51.4196324253971],[-0.791555337816734,51.4198571722746],[-0.791914779250176,51.4198608744163],[-0.791908851018482,51.4200856214077],[-0.79154940766177,51.4200819191398],[-0.791543477424695,51.4203066659926],[-0.791537547105509,51.4205314128331],[-0.791896994308837,51.4205351153536],[-0.791891065830881,51.420759862308],[-0.79153161670421,51.4207561596613],[-0.791172167659631,51.4207524559156],[-0.791178099984273,51.4205277092137],[-0.790818652945152,51.4205240044953],[-0.790459205988172,51.4205202986779],[-0.790453269816849,51.4207450451273],[-0.790093821018697,51.4207413380847],[-0.789734372302737,51.4207376299431],[-0.789740312320736,51.4205128837463],[-0.78938086561033,51.4205091746321],[-0.789386807469404,51.4202844285493],[-0.78939274924622,51.4200596824541],[-0.789033306464651,51.4200559724936],[-0.788673863765345,51.420052261434],[-0.788679809306425,51.4198275155792],[-0.788320368612667,51.4198238035471],[-0.788326315994677,51.4195990578062],[-0.788685754765201,51.419602769712],[-0.788691700141675,51.4193780238325],[-0.789051137071275,51.4193817345131],[-0.789410574083135,51.4193854440947],[-0.789416515530934,51.4191606979503],[-0.789775950701839,51.4191644063067],[-0.789770011177229,51.4193891525775],[-0.789764071570392,51.4196138988359],[-0.790123510669911,51.419617606346],[-0.790117572904083,51.4198423527184],[-0.79011163505605,51.4200670990784],[-0.790105697125809,51.4202918454262],[-0.790465142077309,51.4202955522162],[-0.79047107808426,51.4200708057422],[-0.790477014009028,51.4198460592558],[-0.790482949851615,51.4196213127572],[-0.790842389115479,51.4196250180694],[-0.790848322952667,51.4194002714322],[-0.790488885612021,51.4193965662462],[-0.790494821290247,51.4191718197229],[-0.7908542567077,51.4191755247826],[-0.791213692207286,51.4191792287434],[-0.791219623956994,51.4189544819552],[-0.791225555624576,51.4187297351547],[-0.790866123971307,51.4187260314464],[-0.790872057479885,51.4185012847599],[-0.790512627831866,51.418497580079],[-0.79051856318139,51.4182728335064],[-0.79015913553862,51.4182691278529],[-0.789799707978026,51.4182654211005],[-0.789793768782314,51.4184901674205],[-0.790153198266001,51.4184938742992],[-0.790147260911184,51.4187186207332],[-0.78978782950438,51.4187149137282],[-0.789781890144222,51.4189396600236],[-0.789422456896482,51.4189359517935],[-0.789063023730974,51.4189322424645],[-0.789068966937411,51.4187074964217],[-0.788709535777297,51.41870378612],[-0.788715480824576,51.4184790401912],[-0.788721425789559,51.4182542942501],[-0.788361998557926,51.4182505831022],[-0.788367945363678,51.4180258372751],[-0.788008520137409,51.4180221251547],[-0.788002571408595,51.4182468708555],[-0.787643144341591,51.4182431575099],[-0.787637193607349,51.4184679030721],[-0.787277764699616,51.4184641885013],[-0.787271811959898,51.4186889339248],[-0.786912381211438,51.4186852181287],[-0.786906426466195,51.4189099634135],[-0.786546993877012,51.4189062463923],[-0.786541037126196,51.4191309915384],[-0.786535080292935,51.4193557366721],[-0.786175643939856,51.4193520182992],[-0.786169685100947,51.4195767632943],[-0.78581024690713,51.4195730436961],[-0.7854508087958,51.419569322999],[-0.785091370766983,51.419565601203],[-0.785085406075934,51.4197903458066],[-0.784725965790869,51.4197866215508],[-0.784366524740735,51.4197828936879],[-0.784007083767285,51.419779164723],[-0.784001113620096,51.4200039090855],[-0.783641670977826,51.420000178983],[-0.783282228412286,51.4199964477785],[-0.783276254697287,51.42022119206],[-0.782916810462954,51.4202174597178],[-0.782557366305397,51.4202137262736],[-0.782551389022501,51.4204384704741],[-0.782191943196177,51.4204347358922],[-0.781832497446676,51.4204310002083],[-0.781826516595797,51.4206557443278],[-0.781467069177555,51.4206520075061],[-0.781107621836182,51.4206482695825],[-0.780748174571701,51.4206445305569],[-0.780754160659333,51.420419786545],[-0.780394715217348,51.4204160464534],[-0.780388727384134,51.4206407904294],[-0.780029280273503,51.4206370491999],[-0.780023290617742,51.4208617931307],[-0.779663841838469,51.4208580507634],[-0.779304393136179,51.4208543072941],[-0.779298399912201,51.4210790511438],[-0.778938949541294,51.4210753065366],[-0.778579499247418,51.4210715608275],[-0.778220049030593,51.4210678140165],[-0.77821405049267,51.4212925577489],[-0.778208051877661,51.4215173014721],[-0.777848598246608,51.4215135534872],[-0.777842597808827,51.421738297165],[-0.778202053185566,51.4217420451859],[-0.778561508639384,51.4217457921048],[-0.778920964170257,51.4217495379217],[-0.778914968892495,51.421974281698],[-0.77890897353769,51.422199025465],[-0.778549514515372,51.4221952795763],[-0.778543517337765,51.422420023298],[-0.778902978105839,51.4224237692227],[-0.778896982596941,51.4226485129711],[-0.778890987010997,51.4228732567101],[-0.778884991348003,51.4230980004397],[-0.778878995607959,51.4233227441601],[-0.778872999790863,51.4235474878711],[-0.778513530293669,51.4235437417667],[-0.778507532653628,51.4237684854324],[-0.77814806148761,51.42376473819],[-0.777788590398683,51.4237609898456],[-0.777429119386867,51.423757240399],[-0.777069648452188,51.4237534898505],[-0.777063643751425,51.423978233363],[-0.777057638973494,51.4242029768662],[-0.776698164624134,51.4241992251436],[-0.77669215802308,51.4244239686015],[-0.776686151344832,51.4246487120501],[-0.776326673580728,51.4246449591534],[-0.776320665079288,51.4248697025566],[-0.775961185646396,51.4248659485219],[-0.775601706290737,51.424862193385],[-0.775607718284168,51.4246374500538],[-0.775248240751757,51.4246336938508],[-0.775254254413896,51.4244089505463],[-0.77489477870473,51.4244051932773],[-0.77490079403553,51.4241804499994],[-0.774541320149607,51.4241766916644],[-0.774181846341002,51.4241729322272],[-0.773822372609738,51.424169171688],[-0.773816352041105,51.4243939148577],[-0.773456876641263,51.4243901531804],[-0.773450854249292,51.4246148963047],[-0.773444831779921,51.4248396394197],[-0.773804310671714,51.4248434011691],[-0.773798289870952,51.4250681443108],[-0.774157770586123,51.4250719049942],[-0.77451725137864,51.4250756645756],[-0.774511233992567,51.42530040778],[-0.774870716608443,51.4253041662953],[-0.775230199301622,51.4253079237084],[-0.77558968207208,51.4253116800194],[-0.775583669719929,51.4255364232783],[-0.775224185217558,51.4255326669353],[-0.775218170012059,51.4257574097798],[-0.774858683796958,51.4257536522743],[-0.774852666721084,51.4259783950473],[-0.774846649566371,51.4262031378102],[-0.77448715984696,51.4261993790808],[-0.774481140821802,51.4264241217723],[-0.774121649389646,51.4264203618803],[-0.774115628493995,51.4266451045003],[-0.773756135349096,51.4266413434457],[-0.773750112582907,51.4268660859942],[-0.773744089737804,51.4270908285325],[-0.773384593088494,51.427087066254],[-0.773378568372782,51.4273118087208],[-0.773019070010714,51.4273080452797],[-0.773013043424347,51.427532787675],[-0.772653543349522,51.4275290230712],[-0.772647514892454,51.427753765395],[-0.772288013104876,51.4277499996285],[-0.772281982777061,51.4279747418808],[-0.771922479276733,51.4279709749517],[-0.771916447078125,51.4281957171324],[-0.771556941865049,51.4281919490405],[-0.771550907795601,51.4284166911498],[-0.771191400869781,51.4284129218952],[-0.771185364929447,51.4286376639328],[-0.770825856290885,51.4286338935155],[-0.77046634773143,51.4286301219967],[-0.770106839251105,51.4286263493765],[-0.769747330849932,51.428622575655],[-0.769753373957551,51.4283978338628],[-0.769393867427373,51.4283940591013],[-0.769034360976392,51.4283902832384],[-0.768674854604632,51.4283865062741],[-0.768680903008455,51.4281617646559],[-0.76832139850773,51.4281579866517],[-0.768327448624077,51.4279332450848],[-0.767967948625904,51.427929463628],[-0.767974000394517,51.4277047221817],[-0.767980052082965,51.4274799807252],[-0.768339548618973,51.4274837619204],[-0.768699047744464,51.4274875397404],[-0.768705095831317,51.4272627980814],[-0.769064593244348,51.4272665747386],[-0.769070639460286,51.4270418330081],[-0.769430135160852,51.4270456085026],[-0.76943617950592,51.4268208667005],[-0.76979567349402,51.4268246410322],[-0.770155167561285,51.4268284142626],[-0.770161208243895,51.4266036723275],[-0.770520700598666,51.4266074443953],[-0.770526739410521,51.4263827023886],[-0.770532778143257,51.4261579603717],[-0.770173289371689,51.4261541884268],[-0.769813800679259,51.4261504153805],[-0.769807758363344,51.4263751572746],[-0.769448267958488,51.4263713830656],[-0.769442223771799,51.4265961248881],[-0.769082731654519,51.4265923495165],[-0.769076685597009,51.4268170912674],[-0.768717191767309,51.426813314733],[-0.768357698016844,51.4268095370973],[-0.768351648296815,51.4270342787152],[-0.767992155219376,51.4270304977815],[-0.767986103691252,51.4272552392585],[-0.767626611057711,51.4272514552084],[-0.767267118504354,51.427247670057],[-0.767273173667861,51.4270229287048],[-0.7669136830124,51.4270191425145],[-0.766919739913366,51.4267944012145],[-0.766925796734103,51.4265696599043],[-0.766931853474614,51.4263449185838],[-0.767291338677148,51.4263487045869],[-0.767297393519837,51.4261239631939],[-0.767656876984975,51.4261277480333],[-0.76766292992989,51.4259030065676],[-0.76802241165763,51.4259067902434],[-0.768381896104381,51.4259105705238],[-0.768387945428126,51.4256858288549],[-0.768747430220676,51.4256896061835],[-0.769106915092454,51.4256933824109],[-0.76911296039192,51.425468640451],[-0.769472443591593,51.4254724155341],[-0.769478485499681,51.4252476728444],[-0.769119004046047,51.4252438977975],[-0.768759522670076,51.4252401216484],[-0.768753477269912,51.4254648642657],[-0.768393994225591,51.4254610869784],[-0.768400041371791,51.4252363443973],[-0.768406088440271,51.4250116018068],[-0.768046610648615,51.4250078219921],[-0.768052659276593,51.4247830795033],[-0.768058707829911,51.4245583370045],[-0.767699236278233,51.4245545536582],[-0.767339764801222,51.4245507692105],[-0.7669802933989,51.4245469836613],[-0.766974239882098,51.4247717259938],[-0.766614766899993,51.4247679392877],[-0.766608711653954,51.4249926815546],[-0.766968186290571,51.4249964683162],[-0.766962132624319,51.4252212106286],[-0.766602656333166,51.4252174238116],[-0.76659660093763,51.4254421660585],[-0.76695607888334,51.425445952931],[-0.766950023214796,51.4256706945611],[-0.766943966714959,51.4258954359122],[-0.766937910134898,51.4261201772532],[-0.766578426830184,51.4261163902112],[-0.766218943605718,51.426112602068],[-0.765859460461522,51.4261088128236],[-0.765853398348458,51.426333553967],[-0.765493913466968,51.4263297635589],[-0.765499977397621,51.4261050224779],[-0.765506041247957,51.4258802813866],[-0.76514656008194,51.4258764900021],[-0.765140494414038,51.4261012310309],[-0.764781011510798,51.4260974384827],[-0.764421528687923,51.4260936448333],[-0.764062045945437,51.4260898500826],[-0.763702563283364,51.4260860542306],[-0.76369649026478,51.4263107949993],[-0.763337005865562,51.4263069979837],[-0.762977521546805,51.4263031998668],[-0.76298359820055,51.4260784592231],[-0.762624115779857,51.4260746600674],[-0.762264633439671,51.4260708598105],[-0.762258553150769,51.4262956003292],[-0.761899069073537,51.4262917989085],[-0.761539585076861,51.4262879963866],[-0.761545669000915,51.426063255993],[-0.761186186902391,51.4260594524324],[-0.761180101160765,51.4262841927634],[-0.760820617325271,51.426280388039],[-0.760461133570403,51.4262765822134],[-0.760101649896187,51.4262727752865],[-0.760095558621178,51.4264975154197],[-0.759736073210044,51.426493707329],[-0.75972998003675,51.4267184473893],[-0.759370492888701,51.4267146381348],[-0.759364397817076,51.4269393781223],[-0.759004908932115,51.4269355677039],[-0.758998811962112,51.4271603076186],[-0.758639321340243,51.4271564960363],[-0.758633222471814,51.4273812358781],[-0.75827373011304,51.427377423132],[-0.75826762934614,51.427602162901],[-0.757908135250463,51.4275983489909],[-0.757902032585045,51.427823088687],[-0.757542536752469,51.427819273613],[-0.757536432188485,51.4280440132362],[-0.757530327543658,51.4282687528492],[-0.757170828156418,51.4282649365487],[-0.757164721612955,51.4284896760888],[-0.756805220488799,51.4284858586242],[-0.756799112046653,51.4287105980914],[-0.756793003523612,51.4289353375484],[-0.756433498844709,51.4289315188572],[-0.756427388422914,51.4291562582412],[-0.75606788200708,51.429152438386],[-0.756061769686484,51.4293771776972],[-0.755702261533722,51.429373356678],[-0.755696147314278,51.4295980959161],[-0.755336637424591,51.4295942737329],[-0.754977127615906,51.4295904504483],[-0.75498324547115,51.4293657113355],[-0.754623737561388,51.4293618870122],[-0.754617617888245,51.4295866260623],[-0.754258108241633,51.429582800575],[-0.753898598676093,51.4295789739863],[-0.753539089191649,51.4295751462963],[-0.753179579788325,51.4295713175049],[-0.752820070466144,51.4295674876122],[-0.752813941622373,51.4297922263383],[-0.753173452762469,51.4297960562938],[-0.753167325655477,51.4300207950725],[-0.753161198467351,51.4302455338408],[-0.752801683691355,51.4302417037598],[-0.752795554604106,51.4304664424552],[-0.752789425435695,51.4306911811404],[-0.752783296186121,51.4309159198153],[-0.752423776037275,51.4309120884446],[-0.752064255969628,51.4309082559725],[-0.752070388855261,51.4306835174232],[-0.752076521659684,51.4304587788636],[-0.752082654382899,51.4302340402937],[-0.752088787024906,51.4300093017136],[-0.752094919585708,51.4297845631232],[-0.752101052065305,51.4295598245226],[-0.751741542986694,51.4295559913258],[-0.751382030996482,51.4295521561846],[-0.751022514003952,51.4295483185101],[-0.751016376432083,51.4297730570156],[-0.7506568580502,51.4297692182688],[-0.750297339737343,51.4297653784174],[-0.750303480225934,51.4295406398472],[-0.74994396344048,51.4295367988589],[-0.749950105318373,51.4293120602494],[-0.74959059006032,51.4293082181242],[-0.749231074871346,51.4293043748944],[-0.748871559751469,51.4293005305601],[-0.748512044700707,51.4292966851211],[-0.74815252971908,51.4292928385775],[-0.747793014806604,51.4292889909294],[-0.7474334999633,51.4292851421767],[-0.747073985189184,51.4292812923193],[-0.746714470484276,51.4292774413574],[-0.746354955848593,51.4292735892909],[-0.746361112240563,51.4290488503519],[-0.746001599132431,51.4290449971486],[-0.74564208609356,51.4290411428407],[-0.745635926784976,51.4292658818441],[-0.74527641235708,51.4292620264638],[-0.744916897998482,51.4292581699789],[-0.744557383709201,51.4292543123895],[-0.744563547392696,51.4290295732896],[-0.744923060223674,51.4290334309112],[-0.744929222379534,51.4288086918364],[-0.744569711006839,51.4288048341826],[-0.744210199703477,51.4288009754243],[-0.743850688469466,51.4287971155613],[-0.743491177304825,51.4287932545937],[-0.743131666209572,51.4287893925216],[-0.743137835587404,51.4285646532791],[-0.742778326019815,51.4285607900703],[-0.74241881652165,51.4285569257569],[-0.742412644227304,51.4287816650637],[-0.742406471863489,51.4290064043634],[-0.742046959518236,51.4290025390097],[-0.741687447242445,51.4289986725514],[-0.741327935036135,51.4289948049884],[-0.740968422899324,51.428990936321],[-0.740974601096232,51.4287661968928],[-0.740615090487208,51.4287623270887],[-0.740621270072817,51.4285375876215],[-0.740627449588859,51.4283128481473],[-0.7409869572814,51.4283167180156],[-0.740993135269664,51.4280919785665],[-0.740999313188381,51.4278672391104],[-0.741358818034034,51.4278711079383],[-0.741364994425034,51.4276463685072],[-0.741371170746511,51.4274216290692],[-0.74173067274533,51.4274254968567],[-0.741736847539151,51.4272007574438],[-0.741377346998466,51.4271968896242],[-0.741017846527271,51.4271930207],[-0.740658346125584,51.4271891506714],[-0.740652166957366,51.4274138901806],[-0.740645987719585,51.4276386296828],[-0.740286484471145,51.4276347586137],[-0.740280303705631,51.427859498141],[-0.739920799068568,51.4278556259994],[-0.739914616775282,51.4280803655517],[-0.739555110749599,51.4280764923377],[-0.739548926928499,51.4283012319151],[-0.739189419514196,51.4282973576285],[-0.739183234165244,51.4285220972309],[-0.738823725362322,51.4285182218718],[-0.738464216629025,51.4285143454081],[-0.738470404894426,51.4282896057417],[-0.738476593090141,51.4280648660683],[-0.73883609890701,51.428068742596],[-0.738842285574857,51.4278440029476],[-0.738848472173039,51.4276192632922],[-0.738854658701559,51.4273945236298],[-0.738495157259183,51.4273906470061],[-0.738488969272518,51.4276153867005],[-0.738129466441636,51.4276115090042],[-0.737769963680411,51.4276076302034],[-0.737410460988862,51.4276037502981],[-0.737404268558029,51.4278284900815],[-0.737763772707739,51.4278323699548],[-0.737757581665344,51.4280571096993],[-0.737751390553224,51.4282818494367],[-0.737391883487132,51.4282779696273],[-0.737385690847067,51.4285027093897],[-0.737379498137256,51.4287274491451],[-0.737373305357696,51.4289521888935],[-0.737013793986585,51.4289483080755],[-0.737019988224403,51.4287235682952],[-0.736660478381268,51.4287196863406],[-0.736654282685192,51.428944426153],[-0.736294771453537,51.4289405431258],[-0.735935260291637,51.428936658994],[-0.735575749199511,51.4289327737577],[-0.735216238177177,51.4289288874167],[-0.735222439706273,51.4287041474765],[-0.735228641165501,51.4284794075294],[-0.735234842554864,51.4282546675752],[-0.735241043874364,51.4280299276141],[-0.735600549063804,51.4280338140828],[-0.735606748855266,51.4278090741466],[-0.735247245124,51.4278051876459],[-0.734887741462538,51.4278013000407],[-0.7345282439558,51.4277974209837],[-0.734534448174499,51.4275726808403],[-0.734174953183037,51.4275688018619],[-0.733815458270882,51.4275649217821],[-0.733821665872508,51.4273401817511],[-0.733462172770816,51.4273363006313],[-0.733102679748475,51.4273324184101],[-0.733096468684585,51.4275571583186],[-0.732736974010486,51.4275532749349],[-0.732377479415785,51.4275493904499],[-0.732017984900502,51.4275455048635],[-0.73165849046466,51.4275416181759],[-0.731298996108282,51.4275377303869],[-0.730939501831391,51.4275338414966],[-0.730580007634007,51.427529951505],[-0.730586230815781,51.4273052120256],[-0.730592453917963,51.427080472536],[-0.730598676940558,51.4268557330361],[-0.730604899883566,51.4266309935261],[-0.730245412690061,51.4266271026785],[-0.730239188016,51.4268518421273],[-0.73023296326233,51.4270765815658],[-0.730226738429048,51.427301320994],[-0.730220513516154,51.4275260604121],[-0.730214288523647,51.4277507998199],[-0.730208063451524,51.4279755392175],[-0.729848565950918,51.4279716469007],[-0.729842339067993,51.4281963862267],[-0.729836112105427,51.4284211255425],[-0.729829885063219,51.4286458648481],[-0.730189387757453,51.428649757349],[-0.730548890531247,51.4286536487486],[-0.730908393384578,51.4286575390469],[-0.731267896317424,51.4286614282438],[-0.731627399329763,51.4286653163393],[-0.731986902421572,51.4286692033335],[-0.73234640559283,51.4286730892263],[-0.732705908843514,51.4286769740178],[-0.732699695571735,51.4289017138037],[-0.732693482220493,51.4291264535794],[-0.733052989013132,51.429130337392],[-0.733059200633087,51.4289055975551],[-0.7330654121736,51.4286808577079],[-0.733071623634673,51.4284561178505],[-0.733431125312897,51.428460000378],[-0.733790627070478,51.4284638818041],[-0.734150128907395,51.4284677621289],[-0.734143922640058,51.4286925021701],[-0.734503426287536,51.4286963814547],[-0.734862930212001,51.4287002599991],[-0.734856727224653,51.4289249999712],[-0.734497221672097,51.4289211215469],[-0.734491016977306,51.4291458616289],[-0.734484812203161,51.4293706017007],[-0.734478607349662,51.4295953417623],[-0.734472402416807,51.4298200818137],[-0.734112890112752,51.4298162022227],[-0.733753377888018,51.4298123215305],[-0.733393865742627,51.4298084397367],[-0.733034353676602,51.4298045568416],[-0.732674841689964,51.4298006728451],[-0.732315329782737,51.4297967877472],[-0.731955817954943,51.4297929015479],[-0.731962035007293,51.4295681619255],[-0.731602524990304,51.4295642746861],[-0.731243015052791,51.4295603863453],[-0.730883505194777,51.4295564969031],[-0.730523995416283,51.4295526063595],[-0.730530219314426,51.4293278669721],[-0.730170711346797,51.4293239753885],[-0.730164485717331,51.4295487147145],[-0.729804976097945,51.4295448219682],[-0.729811203458733,51.4293200827035],[-0.729817430739873,51.4290953434286],[-0.729823657941368,51.4288706041434],[-0.729464153595464,51.4288667104798],[-0.729457924662693,51.4290914497036],[-0.729451695650255,51.4293161889171],[-0.729445466558146,51.4295409281205],[-0.729085957097958,51.4295370331713],[-0.729079726194838,51.4297617723031],[-0.728720215082941,51.4297578761912],[-0.7283607040507,51.4297539789779],[-0.7283669384165,51.429529239969],[-0.728007429195275,51.4295253417157],[-0.727647920053748,51.4295214423611],[-0.727641682225275,51.4297461812472],[-0.727635444317018,51.4299709201231],[-0.727629206328974,51.4301956589889],[-0.727269692073097,51.4301917583486],[-0.727275931792521,51.4299670195443],[-0.726916419347771,51.4299631178641],[-0.726922660718742,51.429738379111],[-0.726928902009883,51.4295136403476],[-0.726935143221197,51.4292889015741],[-0.726575636050211,51.4292849989767],[-0.726569393107589,51.4295097376888],[-0.726209884285083,51.4295058339287],[-0.725850375542388,51.4295019290672],[-0.725844129057255,51.4297266676462],[-0.725484618663065,51.4297227616218],[-0.725125108348732,51.4297188544961],[-0.72513135829652,51.42949411604],[-0.725137608164367,51.4292693775737],[-0.725143857952275,51.4290446390971],[-0.725503363072695,51.4290485460385],[-0.725509611049406,51.4288238074902],[-0.725150107660245,51.4288199006103],[-0.724790604350957,51.4288159926291],[-0.724431101121566,51.4288120835466],[-0.724071597972092,51.4288081733626],[-0.723712094902559,51.4288042620774],[-0.723705838269567,51.4290290003182],[-0.723346333548745,51.4290250878701],[-0.72298682890791,51.4290211743207],[-0.722627324347084,51.4290172596699],[-0.72263358617383,51.4287925216136],[-0.722639847920482,51.4285677835471],[-0.722280346902162,51.428563867918],[-0.722286610299924,51.4283391299027],[-0.722292873617572,51.4281143918773],[-0.721933376141685,51.42811047527],[-0.721939641110378,51.4278857372958],[-0.721580145445716,51.4278818196487],[-0.721220649861146,51.4278779009003],[-0.72086115435669,51.4278739810507],[-0.72050165893237,51.4278700600997],[-0.720495387039062,51.4280947978276],[-0.720135889963751,51.4280908757137],[-0.720142163588209,51.4278661380474],[-0.719782668324228,51.4278622148938],[-0.719776392968622,51.4280869524986],[-0.719416896053697,51.4280830281821],[-0.719057399218999,51.4280791027643],[-0.719063678036899,51.4278543652828],[-0.718704183013596,51.4278504388253],[-0.718344688070562,51.4278465112666],[-0.717985191099552,51.4278425816839],[-0.71799147508643,51.4276178443961],[-0.717631978235653,51.4276139130233],[-0.717272481464546,51.4276099805485],[-0.71727876879588,51.4273852433376],[-0.717285056047457,51.4271605061171],[-0.716925562780183,51.427156572627],[-0.716931851664042,51.4269318354402],[-0.716572360188517,51.4269279008914],[-0.716212868792722,51.4269239652408],[-0.716219161020832,51.426699228131],[-0.716225453169122,51.4264744910115],[-0.716231745237594,51.4262497538824],[-0.71623803722625,51.4260250167438],[-0.71624432913509,51.4258002795955],[-0.715884846378883,51.4257963430595],[-0.715891139919809,51.4255716059449],[-0.715897432512512,51.4253468691608],[-0.715903724703192,51.4251221324926],[-0.71591001681181,51.4248973958152],[-0.715916308838365,51.4246726591284],[-0.71592260078286,51.4244479224324],[-0.715928892645296,51.424223185727],[-0.715935184425675,51.4239984490123],[-0.715941476123997,51.4237737122883],[-0.715947767740264,51.423548975555],[-0.715954059274478,51.4233242388123],[-0.715594596026381,51.4233203015785],[-0.715600889253747,51.4230955648616],[-0.715607182399038,51.4228708281354],[-0.715247722783324,51.4228668898696],[-0.714888263249631,51.4228629505018],[-0.714894559863162,51.4226382138363],[-0.714535102186667,51.4226342734016],[-0.714175644592239,51.4226303318648],[-0.714181944673912,51.4224055952602],[-0.713822488936701,51.4224016526565],[-0.713463033281601,51.4223977089508],[-0.713103577708634,51.4223937641431],[-0.713109883033457,51.4221690276345],[-0.712750429317748,51.4221650817599],[-0.712390975684216,51.4221611347833],[-0.712397284476965,51.4219363983356],[-0.712403593187441,51.4217116618786],[-0.712409901815645,51.4214869254123],[-0.712769350124016,51.4214908722835],[-0.712775656894943,51.4212661357727],[-0.713135103510479,51.4212700815069],[-0.713141408424175,51.4210453449517],[-0.713500853346874,51.4210492895488],[-0.713507156403383,51.4208245529491],[-0.713513459377696,51.4205998163402],[-0.713872900832611,51.4206037597652],[-0.713879201949808,51.4203790231118],[-0.714238641711902,51.4203829653998],[-0.714244940972029,51.420158228702],[-0.714604379041298,51.420162169853],[-0.714610676444401,51.4199374331109],[-0.714970112820842,51.4199413731248],[-0.714963817192617,51.420166109902],[-0.715323255425964,51.4201700488491],[-0.715316961490541,51.4203947856521],[-0.715676401580798,51.4203987235323],[-0.715682693741317,51.4201739866943],[-0.716042132138651,51.4201779234376],[-0.716401570617944,51.420181859079],[-0.716407859146641,51.4199571221616],[-0.716767295932985,51.419961056666],[-0.716761009179173,51.4201857936184],[-0.716754722343375,51.4204105305615],[-0.717114162761427,51.420414464034],[-0.717473603261371,51.4204183964046],[-0.717833043843183,51.4204223276733],[-0.717839325354247,51.4201975906252],[-0.717845606783394,51.4199728535678],[-0.718205043822141,51.4199767837925],[-0.718211323378411,51.4197520467437],[-0.718217602856512,51.4195273096915],[-0.718223882256443,51.4193025726359],[-0.718583313084136,51.4193065043462],[-0.718589590737324,51.4190817674212],[-0.718595868312368,51.4188570304927],[-0.718955295881003,51.4188609613632],[-0.718949019974514,51.4190856981577],[-0.719308449289753,51.4190896277864],[-0.719302174973718,51.4193143644436],[-0.719661606035564,51.4193182928305],[-0.719655333310028,51.4195430293503],[-0.720014766118485,51.4195469564954],[-0.72037419900493,51.4195508825328],[-0.720367929538561,51.4197756187812],[-0.7207273641716,51.4197795435767],[-0.720721096295841,51.4200042796877],[-0.721080532675477,51.4200082032414],[-0.72107426639037,51.4202329392149],[-0.721433704516605,51.4202368615268],[-0.721427439822195,51.4204615973629],[-0.721421175049809,51.4206863331956],[-0.721061733586162,51.4206824111518],[-0.720702292200446,51.4206784880001],[-0.720696024012605,51.4209032240975],[-0.721055467067058,51.4209071471151],[-0.721414910199443,51.4209110690249],[-0.721408645271097,51.4211358048508],[-0.721768090150154,51.4211397255187],[-0.72176182681261,51.4213644612071],[-0.721755563397105,51.4215891968922],[-0.721749299903638,51.4218139325738],[-0.721743036332207,51.422038668252],[-0.722102487964425,51.4220425872759],[-0.722096225983902,51.4222673228166],[-0.721736772682812,51.4222634039268],[-0.721730508955449,51.4224881395983],[-0.722089963925435,51.422492058354],[-0.722449418973297,51.4224959760018],[-0.722808874099015,51.4224998925417],[-0.723168329302566,51.4225038079737],[-0.723527784583931,51.4225077222978],[-0.723887239943086,51.422511635514],[-0.724246695380012,51.4225155476222],[-0.724606150894686,51.4225194586226],[-0.724612401270857,51.4222947240239],[-0.724618651569236,51.4220699894218],[-0.724259199392347,51.4220660781532],[-0.723899747293204,51.4220621657767],[-0.723906000851511,51.4218374309029],[-0.723546550498993,51.4218335172844],[-0.723552805648304,51.4216087822732],[-0.723559060719761,51.4213840472585],[-0.723199613782676,51.421380132264],[-0.723205870445072,51.4211553971118],[-0.722846425254582,51.4211514808753],[-0.722852683507873,51.4209267455856],[-0.722858941683272,51.4207020102926],[-0.722499499908117,51.4206980926801],[-0.722140058210807,51.4206941739598],[-0.722146319645757,51.4204694383952],[-0.721786879695033,51.420465518433],[-0.721793142720746,51.4202407827309],[-0.721799405668505,51.4200160470254],[-0.721439969133038,51.4200121256873],[-0.721446233671496,51.4197873898444],[-0.721086798882586,51.4197834672645],[-0.7210930650117,51.4195587312841],[-0.720733631969342,51.4195548074624],[-0.720739899689068,51.4193300713446],[-0.720746167330779,51.4191053352235],[-0.720752434894478,51.4188805990989],[-0.721111862931082,51.4188845233227],[-0.721118128748228,51.4186597873288],[-0.721477555194211,51.4186637105788],[-0.721836981718092,51.4186676327211],[-0.721843244120208,51.4184428969918],[-0.72184950644438,51.4182181612591],[-0.721490083257519,51.4182142388488],[-0.721130660148554,51.4182103153307],[-0.720771237117505,51.4182063907048],[-0.720777504369162,51.4179816545667],[-0.720783771542813,51.4177569184251],[-0.720790038638459,51.4175321822801],[-0.720796305656101,51.4173074461317],[-0.720802573358125,51.4170827149973],[-0.720443158833124,51.4170787888089],[-0.720449429271972,51.416854064312],[-0.720090016620844,51.4168501369041],[-0.720096288768938,51.4166254122903],[-0.720455699628489,51.4166293398109],[-0.720461969902676,51.4164046153057],[-0.72082137905294,51.4164085418322],[-0.721180788285449,51.4164124672518],[-0.721540197600179,51.4164163915645],[-0.721899606997106,51.4164203147703],[-0.722259016476208,51.4164242368693],[-0.722618426037462,51.4164281578614],[-0.722977835680844,51.4164320777466],[-0.722971577947578,51.4166568014628],[-0.72333098946463,51.4166607201284],[-0.723690401063766,51.4166646376871],[-0.72368414683151,51.4168893611736],[-0.724043560304297,51.4168932775127],[-0.724402973859123,51.4168971927449],[-0.724409224508195,51.416672469484],[-0.72441547507519,51.4164477462189],[-0.724774885128865,51.4164516605699],[-0.725134295264528,51.4164555738139],[-0.725128048280677,51.4166802968534],[-0.725487460289881,51.4166842088778],[-0.725481215015596,51.4169089318003],[-0.725474969659303,51.4171336547187],[-0.725115554066882,51.4171297429199],[-0.725109307080887,51.4173544749656],[-0.725468724371687,51.4173583868351],[-0.725828141740141,51.4173622975969],[-0.725821898080348,51.4175870318684],[-0.726181317194861,51.4175909413884],[-0.726175075125819,51.4178156755224],[-0.726168832979101,51.4180404096529],[-0.726162590754703,51.41826514378],[-0.726156348452625,51.4184898779037],[-0.726150106072866,51.418714612024],[-0.725790678615886,51.4187107031747],[-0.725431251236547,51.4187067932176],[-0.725071823934869,51.4187028821529],[-0.725065576471755,51.4189276166721],[-0.724706147579206,51.4189237046337],[-0.724346718764364,51.4189197914875],[-0.724340467886347,51.4191445262715],[-0.724334216930537,51.4193692610522],[-0.724693649082553,51.4193731739301],[-0.725053081312277,51.4193770857003],[-0.725412513619688,51.4193809963628],[-0.725406267591943,51.4196057307376],[-0.725400021486466,51.4198304651091],[-0.725759457208812,51.4198343743955],[-0.726118893008804,51.4198382825741],[-0.726125135776989,51.4196135484709],[-0.725765701645644,51.4196096401581],[-0.725771946004765,51.4193849059174],[-0.725778190286179,51.4191601716733],[-0.726137621080298,51.4191640802543],[-0.726143863615424,51.4189393461409],[-0.726503292818583,51.4189432537483],[-0.726509533607465,51.4187185197656],[-0.726868961219661,51.4187224263994],[-0.727228388909434,51.4187263319255],[-0.727587816676762,51.4187302363439],[-0.727947244521623,51.4187341396545],[-0.728306672443996,51.4187380418575],[-0.728312904812507,51.4185133085422],[-0.728672331143824,51.4185172097716],[-0.72903175755261,51.4185211098932],[-0.729391184038843,51.4185250089072],[-0.7297506106025,51.4185289068134],[-0.729756836219355,51.4183041740316],[-0.729763061758749,51.4180794412462],[-0.729769287220683,51.4178547084575],[-0.729775512605158,51.4176299756653],[-0.729781737912176,51.4174052428697],[-0.72942231969094,51.4174013442924],[-0.729416092715482,51.4176260772222],[-0.729056672903226,51.4176221776714],[-0.729062901547123,51.4173974446073],[-0.728703483480747,51.4173935438147],[-0.728709713675909,51.4171688110983],[-0.728715942907557,51.4169440891957],[-0.729075357526766,51.4169479900387],[-0.729434772227689,51.4169518897748],[-0.729440997794312,51.4167271680938],[-0.729447223279181,51.4165024464086],[-0.729087812161461,51.4164985464467],[-0.729094039356144,51.4162738246444],[-0.729100266469054,51.416049102838],[-0.729106493500191,51.4158243810274],[-0.729112720449557,51.4155996592126],[-0.729118947317153,51.4153749373936],[-0.729478349477272,51.4153788379201],[-0.729484574471649,51.4151541162098],[-0.729490799384281,51.4149293944955],[-0.729850198043198,51.4149332941409],[-0.729856421082682,51.4147085725353],[-0.730215818031845,51.4147124711869],[-0.730575215062638,51.4147163687317],[-0.730581434437633,51.4144916473477],[-0.730222039198226,51.41448774969],[-0.730228260282914,51.4142630281888],[-0.73023448128591,51.4140383066836],[-0.729875089710831,51.4140344076932],[-0.729515698217402,51.4140305075961],[-0.729521922721336,51.4138057858608],[-0.729528147143535,51.4135810641214],[-0.729534371484,51.4133563423778],[-0.729893757603556,51.4133602428136],[-0.730253143804757,51.4133641421427],[-0.730259364480997,51.4131394206207],[-0.729899980071043,51.4131355211787],[-0.729540595742732,51.41313162063],[-0.729546819919732,51.412906898878],[-0.729187437464307,51.4129029971097],[-0.729181211496086,51.4131277189746],[-0.729174985446111,51.4133524408353],[-0.728815599489913,51.413348538186],[-0.728456213615429,51.4133446344301],[-0.728462443247887,51.4131199123436],[-0.728468672798545,51.412895190253],[-0.728109290588254,51.4128912851646],[-0.72774990845972,51.4128873789695],[-0.727390526412968,51.4128834716677],[-0.727396761255402,51.4126587492344],[-0.72740299601597,51.4124340267969],[-0.727409230694672,51.4122093043552],[-0.72741546529151,51.4119845819093],[-0.727056090491179,51.4119806730495],[-0.726696715772669,51.411976763083],[-0.726702953869837,51.4117520404073],[-0.726343581024266,51.4117481292213],[-0.726337341136005,51.4119728520098],[-0.726331101165811,51.4121975747942],[-0.726324861113685,51.4124222975743],[-0.726318620979624,51.4126470203503],[-0.725959241051411,51.4126431085089],[-0.725952999044229,51.4128678313935],[-0.725946756955086,51.413092554274],[-0.725587373526379,51.4130886415515],[-0.725227990179593,51.4130847277223],[-0.724868606914752,51.4130808127863],[-0.72487485437751,51.4128560895675],[-0.724515472985839,51.412852173412],[-0.724156091676157,51.4128482561498],[-0.723796710448489,51.4128443377809],[-0.723437329302857,51.4128404183053],[-0.723443583848293,51.4126156946313],[-0.723449838311609,51.4123909709531],[-0.723809215874915,51.4123948906542],[-0.723815468464983,51.4121701670845],[-0.724174844319191,51.4121740857917],[-0.724181095036058,51.4119493623307],[-0.724187345670854,51.4117246388655],[-0.724193596223581,51.4114999153961],[-0.724552966786541,51.4115038333349],[-0.724559215466162,51.4112791099741],[-0.724565464063739,51.4110543866092],[-0.724571712579275,51.4108296632401],[-0.724931077851163,51.4108335804105],[-0.724937324493687,51.41060885715],[-0.725296688056556,51.4106127733265],[-0.725302932826114,51.4103880501747],[-0.725662294679961,51.4103919653573],[-0.7256685375766,51.4101672423141],[-0.725309177513682,51.4101633270186],[-0.72494981753269,51.4101594106166],[-0.724956063929171,51.4099346873436],[-0.724596705821031,51.4099307697222],[-0.724237347794863,51.4099268509942],[-0.72424359769109,51.4097021274915],[-0.723884241537793,51.4096982075442],[-0.723524885466513,51.4096942864902],[-0.723518631988534,51.4099190102183],[-0.723159274208418,51.4099150881705],[-0.723153018857439,51.4101398120072],[-0.722793659368492,51.4101358889654],[-0.722787402144466,51.4103606129107],[-0.722781144838287,51.4105853368517],[-0.722774887449954,51.4108100607887],[-0.723134252311724,51.4108139834922],[-0.723493617255566,51.4108179050892],[-0.723487363367054,51.4110426287965],[-0.723846730183932,51.411046549174],[-0.724206097082834,51.4110504684449],[-0.724199846694241,51.4112751919226],[-0.723840478004323,51.4112712727644],[-0.723834225742625,51.4114959963507],[-0.723827973398837,51.4117207199328],[-0.723468601208849,51.4117167998935],[-0.723462346991886,51.4119415235842],[-0.723102973092868,51.4119376025509],[-0.723096717002685,51.4121623263502],[-0.722737341394641,51.4121584043229],[-0.722731083431192,51.4123831282308],[-0.722371706114125,51.4123792052096],[-0.722365446277361,51.412603929226],[-0.722006067251275,51.4126000052108],[-0.721999805541152,51.4128247293357],[-0.721993543748815,51.4130494534565],[-0.721634161222521,51.41304552856],[-0.721627897556754,51.4132702527894],[-0.721621633808748,51.4134949770146],[-0.7216153699785,51.4137197012356],[-0.721609106066009,51.4139444254525],[-0.721249716456902,51.4139404999001],[-0.721243450670862,51.4141652242255],[-0.721237184802553,51.4143899485468],[-0.721596577994293,51.4143938738739],[-0.721955971268218,51.4143977980941],[-0.721949708900343,51.4146225221859],[-0.722309104047784,51.4146264451866],[-0.72230284338906,51.4148511691615],[-0.722296582648133,51.4150758931322],[-0.722290321824999,51.4153006170988],[-0.722649722428785,51.4153045386545],[-0.722643463314893,51.4155292625042],[-0.722637204118816,51.4157539863497],[-0.722630944840553,51.4159787101911],[-0.722271538862356,51.4159747889735],[-0.721912132966307,51.4159708666491],[-0.72155272715243,51.4159669432178],[-0.721193321420749,51.4159630186797],[-0.720833915771285,51.4159590930347],[-0.720474510204063,51.4159551662829],[-0.720468240094533,51.4161798907964],[-0.720108832818068,51.4161759630504],[-0.719749425623892,51.4161720341975],[-0.719755699316437,51.4159473094587],[-0.71976197292661,51.4157225847157],[-0.719402569397734,51.4157186545306],[-0.719043165951191,51.4157147232387],[-0.719036888758055,51.415939448207],[-0.718677483602388,51.4159355159208],[-0.718318078529103,51.4159315825278],[-0.717958673406845,51.4159276507448],[-0.717964955959208,51.4157029253514],[-0.717605552601866,51.415698993928],[-0.717611836833467,51.4154742683997],[-0.71761812098364,51.4152495428678],[-0.717258721228931,51.4152456100738],[-0.717252435318137,51.4154703357372],[-0.717246149325892,51.4156950613971],[-0.716886746131309,51.4156911277587],[-0.716880458296947,51.4159158535466],[-0.716521053423116,51.4159119189322],[-0.716514763746592,51.4161366448481],[-0.716155357193514,51.4161327092576],[-0.716149065674781,51.4163574353016],[-0.71578965744246,51.4163534987351],[-0.715795950721899,51.4161287725596],[-0.715802243919792,51.4159040463806],[-0.716161648630723,51.4159079832102],[-0.716167939986411,51.4156832571592],[-0.716527343018141,51.4156871930127],[-0.716533632531669,51.4154624670898],[-0.716539921963701,51.4152377411634],[-0.71689932155561,51.4152416761724],[-0.716905609145551,51.415016950374],[-0.716911896654021,51.4147922245722],[-0.717271292806172,51.4147961587367],[-0.717277578472621,51.4145714330629],[-0.716918184081022,51.4145674987669],[-0.716924471426555,51.4143427729581],[-0.716565078876891,51.4143388374232],[-0.716205686408654,51.4143349007807],[-0.716211977193728,51.4141101747055],[-0.715852586567445,51.4141062368241],[-0.715493196022635,51.4141022978352],[-0.715499490247153,51.4138775714936],[-0.715140101544314,51.4138736312658],[-0.715146397447731,51.4136489047892],[-0.715152693269571,51.4134241783092],[-0.715158989009836,51.4131994518257],[-0.715165284668528,51.4129747253387],[-0.715171580245648,51.4127499988483],[-0.715177875741196,51.4125252723544],[-0.715537253881658,51.4125292133709],[-0.715896632103605,51.41253315328],[-0.716256010407016,51.4125370920817],[-0.716615388791867,51.412541029776],[-0.716974767258136,51.4125449663628],[-0.7173341458058,51.4125489018423],[-0.717693524434837,51.4125528362144],[-0.718052903145222,51.4125567694791],[-0.718412281512528,51.412560704189],[-0.718771659716063,51.4125646392715],[-0.718777937464226,51.4123399141284],[-0.718418561051824,51.4123359789333],[-0.718424840508677,51.4121112536735],[-0.718784215129971,51.4121151889811],[-0.718790492713297,51.4118904638298],[-0.71914986562586,51.4118943981434],[-0.719156141335707,51.4116696731005],[-0.718796770214208,51.4116657386742],[-0.718803047632704,51.4114410135146],[-0.718809324968788,51.4112162883507],[-0.718815602222459,51.4109915631828],[-0.718821879393719,51.4107668380107],[-0.71918124335119,51.4107707728874],[-0.719187518649092,51.4105460478238],[-0.71882815648257,51.4105421128344],[-0.718834433489015,51.4103173876541],[-0.718840710413052,51.4100926624695],[-0.719200068997745,51.4100965976841],[-0.719206344048498,51.409871872608],[-0.719212619016871,51.4096471475278],[-0.719218893902864,51.4094224224435],[-0.719578247197302,51.4094263568893],[-0.719584520210106,51.4092016319134],[-0.719590793140557,51.4089769069334],[-0.719950142935685,51.4089808404979],[-0.719956412758122,51.4087561176471],[-0.720315760901855,51.4087600500432],[-0.72032202702368,51.4085353300758],[-0.720681373467439,51.408539261261],[-0.721040719993092,51.4085431913474],[-0.721046982469185,51.4083184711433],[-0.721406327294837,51.4083224000188],[-0.721765672202335,51.4083263277956],[-0.722125017191655,51.4083302544738],[-0.722484362262776,51.4083341800532],[-0.722478106914177,51.4085589007064],[-0.722837453848951,51.4085628252995],[-0.722843707415674,51.408338104534],[-0.723203052650324,51.4083420279161],[-0.723196800865481,51.4085667487938],[-0.723556147963743,51.4085706711895],[-0.723915495143714,51.4085745924865],[-0.72427484240537,51.4085785126848],[-0.72463418974869,51.4085824317844],[-0.724640434406006,51.4083577104577],[-0.72428108884457,51.4083537914704],[-0.723921743364796,51.4083498713843],[-0.723562397966707,51.4083459501995],[-0.723568647887885,51.4081212291976],[-0.723574897727281,51.4078965081836],[-0.723581147484893,51.4076717871576],[-0.723940487537477,51.4076757080056],[-0.723946735431519,51.4074509868554],[-0.723587397160725,51.4074470661196],[-0.723593646754777,51.4072223450696],[-0.72323431034745,51.4072184233474],[-0.722874974021847,51.4072145005265],[-0.722881227097603,51.406989779689],[-0.722521892635486,51.4069858558818],[-0.722162558255137,51.4069819309759],[-0.72180322395658,51.4069780049715],[-0.721809482295659,51.4067532844587],[-0.721450149860628,51.4067493574679],[-0.721456409899506,51.4065246370555],[-0.721815740552848,51.406528563934],[-0.721821998728148,51.4063038433972],[-0.721828256821561,51.4060791228485],[-0.721834514833088,51.4058544022877],[-0.721475189524676,51.405850475746],[-0.721481449235916,51.4056257552855],[-0.721122125790931,51.4056218277575],[-0.721115864298095,51.4058465481058],[-0.721109602723329,51.406071268442],[-0.72110334106663,51.4062959887662],[-0.720744012358645,51.4062920598027],[-0.72073774883835,51.4065167800026],[-0.720731485236098,51.4067415001905],[-0.720372153046645,51.4067375699039],[-0.720012820939098,51.4067336385187],[-0.720019088104718,51.4065089185554],[-0.719659757860781,51.4065049861839],[-0.719300427698795,51.4065010527138],[-0.718941097618781,51.4064971181451],[-0.718581767620764,51.4064931824778],[-0.718222437704766,51.406489245712],[-0.717863107381341,51.406485309387],[-0.717503777084024,51.4064813721394],[-0.717510056761695,51.4062566525637],[-0.717150728390367,51.4062527141332],[-0.71679140010326,51.4062487745975],[-0.716432071900395,51.4062448339565],[-0.716072743781799,51.4062408922103],[-0.715713415747493,51.4062369493589],[-0.715354087797503,51.4062330054022],[-0.714994759931852,51.4062290603402],[-0.715001052417613,51.4060043402157],[-0.715007344818939,51.4057796200857],[-0.715366669001091,51.4057835653029],[-0.71537295947627,51.4055588452453],[-0.715379249867042,51.4053341251822],[-0.715385540173407,51.4051094051139],[-0.715391830395368,51.4048846850401],[-0.715398120532926,51.404659964961],[-0.71575743559107,51.4046639094611],[-0.71611675073352,51.404667852856],[-0.716476065960251,51.4046717951457],[-0.71683538127124,51.4046757363302],[-0.717194696666461,51.4046796764096],[-0.717554012145893,51.4046836153838],[-0.71791332770951,51.4046875532528],[-0.717907050463334,51.4049122727884],[-0.718266367923653,51.4049162095646],[-0.718625685368558,51.404920145544],[-0.718985002895473,51.4049240804248],[-0.719344320504374,51.4049280142071],[-0.719703638195239,51.4049319468909],[-0.720062955968043,51.4049358784762],[-0.720422273822766,51.4049398089629],[-0.720416009012663,51.4051645291226],[-0.720775328730803,51.4051684586231],[-0.720781591759382,51.4049437383511],[-0.72114090977787,51.4049476666408],[-0.721147170942998,51.4047229462445],[-0.721153432026202,51.4044982258362],[-0.721512746563553,51.4045021528027],[-0.721519005783378,51.4042774322701],[-0.721525264921305,51.4040527117256],[-0.721531523977335,51.4038279911689],[-0.721890833252198,51.4038319167002],[-0.721897090444943,51.4036071960193],[-0.721903347555818,51.4033824753264],[-0.722262653349715,51.4033863995346],[-0.722268908597374,51.4031616787174],[-0.722275163763189,51.4029369578882],[-0.722634466076183,51.4029408807735],[-0.722640719378853,51.40271615982],[-0.722646972599703,51.4024914388546],[-0.723006271431857,51.4024953604169],[-0.723365570345729,51.4024992808808],[-0.723724869341295,51.4025032002461],[-0.723731117136552,51.402278478932],[-0.723371819922246,51.4022745596788],[-0.723378069416994,51.4020498384649],[-0.723384318829972,51.401825117239],[-0.723390568161183,51.4016003960011],[-0.723396817410627,51.4013756747511],[-0.723403066578307,51.4011509534892],[-0.723409315664224,51.4009262322152],[-0.723768602191452,51.4009301507951],[-0.723774849414508,51.400705429397],[-0.723781097355116,51.4004807055354],[-0.723787349712472,51.4002559678684],[-0.724146630972489,51.4002598852385],[-0.724152881546202,51.4000351473945],[-0.724159132040871,51.3998104095367],[-0.724165382456496,51.3995856716651],[-0.724524658681848,51.3995895874489],[-0.724530907313922,51.3993648494003],[-0.724890181913733,51.3993687639242],[-0.724896428762301,51.3991440256986],[-0.724902675531873,51.3989192874592],[-0.725261946801673,51.39892320056],[-0.725268191787807,51.3986984621437],[-0.725274436694971,51.3984737237135],[-0.725633704634822,51.3984776353913],[-0.725639947758615,51.3982528967842],[-0.72599921407296,51.3982568072022],[-0.726005455413427,51.3980320684181],[-0.726011696674972,51.3978073296202],[-0.726370959659447,51.3978112386152],[-0.726377199137734,51.3975864996404],[-0.726383438537125,51.3973617606518],[-0.726742698191793,51.3973656682239],[-0.726748935807993,51.3971409290584],[-0.726755173345321,51.3969161898791],[-0.727114429670243,51.3969200960283],[-0.727120665424448,51.396695356672],[-0.727126901099808,51.396470617302],[-0.727486154095044,51.3964745220284],[-0.727492387987349,51.3962497824815],[-0.727498621800832,51.3960250429208],[-0.727857871466445,51.3960289462244],[-0.72821712121081,51.3960328484314],[-0.728576371033902,51.3960367495419],[-0.728582599656063,51.3958120094781],[-0.728941847853692,51.395815909329],[-0.729301096130004,51.3958198080833],[-0.729660344484978,51.3958237057411],[-0.730019592918591,51.3958276023024],[-0.730013371113117,51.3960523430186],[-0.730372621329524,51.3960562386464],[-0.730731871624526,51.3960601331777],[-0.730725653148783,51.3962848742063],[-0.730719434594417,51.3965096152211],[-0.731078688376417,51.3965135089819],[-0.731072471447672,51.3967382501461],[-0.731066254440325,51.3969629912964],[-0.731060037354373,51.397187732433],[-0.731053820189815,51.3974124735559],[-0.731047602946652,51.397637214665],[-0.731406865328657,51.3976411081445],[-0.731413080867487,51.3974163668724],[-0.731419296327732,51.3971916255865],[-0.731425511709393,51.3969668842868],[-0.731431727012473,51.3967421429734],[-0.731437942236972,51.3965174016462],[-0.731797196176061,51.3965212932139],[-0.731803409617756,51.3962965517099],[-0.731809622980896,51.3960718101922],[-0.731815836265481,51.3958470686608],[-0.731456587439,51.3958431775822],[-0.73146280234919,51.3956184362],[-0.731103555305395,51.3956145441879],[-0.731109771841146,51.3953898029551],[-0.730750526580035,51.3953859100095],[-0.730744308340151,51.3956106510793],[-0.730385061453479,51.3956067568742],[-0.730025814645401,51.3956028615725],[-0.729666567915939,51.3955989651743],[-0.729672791268216,51.3953742245936],[-0.730032036293548,51.3953781208288],[-0.730038257863034,51.3951533800713],[-0.730397501262873,51.3951572750469],[-0.730403721049612,51.3949325341126],[-0.73004447935386,51.3949286393001],[-0.729685237736719,51.3949247433911],[-0.729325996198213,51.3949208463856],[-0.728966754738362,51.3949169482836],[-0.728960528135286,51.3951416885656],[-0.728601285050033,51.395137789204],[-0.72860751335719,51.3949130490852],[-0.728248272054718,51.3949091487902],[-0.727889030830967,51.3949052473988],[-0.727895262467491,51.3946805075923],[-0.727901494025223,51.3944557677722],[-0.727907725504167,51.3942310279382],[-0.728266961615817,51.3942349288403],[-0.728273191311983,51.3940101888295],[-0.728279420929385,51.3937854488049],[-0.728285650468025,51.3935607087665],[-0.728644881546485,51.3935646080829],[-0.728651109302439,51.3933398678677],[-0.729010338755667,51.3933437659245],[-0.729016564728979,51.3931190255324],[-0.72937579255697,51.3931229223297],[-0.729382016747685,51.3928981817608],[-0.729741242950438,51.3929020772987],[-0.7297474653586,51.3926773365529],[-0.730106689936112,51.3926812308313],[-0.730465914592223,51.3926851240132],[-0.730472133514034,51.3924603829276],[-0.730831356544879,51.3924642748501],[-0.730837573684248,51.3922395335877],[-0.731196795089823,51.3922434242508],[-0.731556016573929,51.3922473138174],[-0.731562230802486,51.3920225712603],[-0.73192145060887,51.3920264596809],[-0.731927663233518,51.39180171669],[-0.732286881361101,51.3918056039766],[-0.73264609956907,51.3918094901624],[-0.732652308594893,51.3915847470962],[-0.733011525124034,51.391588632148],[-0.733370741733513,51.391592516099],[-0.733376947160598,51.3913677729576],[-0.733736162091223,51.3913716557747],[-0.733742365678806,51.3911469125911],[-0.733748569186057,51.3909221693983],[-0.733389357773703,51.3909182866472],[-0.733395562959726,51.3906935434781],[-0.733754772612978,51.3906974261962],[-0.734113982346517,51.3907013078135],[-0.734473192160321,51.3907051883299],[-0.734466992251607,51.3909299315979],[-0.734460792262609,51.3911546748567],[-0.734454592193326,51.3913794181062],[-0.734813807364757,51.3913832976206],[-0.734807608974359,51.3916080408939],[-0.73516682975665,51.3916119180573],[-0.735526051101476,51.3916157939554],[-0.735519856005647,51.3918405373182],[-0.735879079151089,51.3918444121527],[-0.736238302375396,51.3918482858865],[-0.736232110644147,51.3920730293142],[-0.736591335669052,51.3920769019843],[-0.736585145731877,51.392301645336],[-0.736944372560038,51.3923055169348],[-0.737303599466857,51.3923093874325],[-0.737297413019121,51.3925341307424],[-0.737656641722301,51.3925380001682],[-0.737650456913632,51.3927627434981],[-0.738009687413175,51.392766611852],[-0.738368917991312,51.3927704791049],[-0.738375099364484,51.3925457357167],[-0.738015870504096,51.392541868493],[-0.738022053516382,51.3923171251248],[-0.738028236556664,51.3920923816572],[-0.737669011216607,51.3920885133901],[-0.737675196060826,51.391863769814],[-0.738034419679122,51.391867638044],[-0.738393643376151,51.3918715051731],[-0.738399824698097,51.3916467615134],[-0.738759046752093,51.3916506275048],[-0.738765226273575,51.3914258837986],[-0.739124446684536,51.3914297486521],[-0.739483667174159,51.3914336124049],[-0.739489843173519,51.3912088686152],[-0.739849062020082,51.3912127312302],[-0.739855236219086,51.390987987394],[-0.740214453422586,51.3909918488712],[-0.740573670704679,51.3909957092477],[-0.740579841381714,51.3907709653281],[-0.74058601198014,51.3905462213991],[-0.740226798141342,51.3905423610967],[-0.740232970382777,51.3903176171953],[-0.740239142545583,51.3900928732846],[-0.739879932228578,51.3900890119556],[-0.739520721990182,51.3900851495259],[-0.739514546384197,51.3903098933625],[-0.739155334502845,51.390306029795],[-0.73879612270015,51.3903021651269],[-0.738436910976132,51.390298299358],[-0.738430730126649,51.390523043074],[-0.738071516759726,51.3905191761674],[-0.738065334109874,51.3907439198369],[-0.737706119100047,51.3907400517924],[-0.737346904168966,51.3907361826472],[-0.737340717997053,51.3909609262332],[-0.736981501423095,51.3909570559502],[-0.73662228492793,51.3909531845664],[-0.736628474543135,51.3907284410547],[-0.736269259848428,51.3907245686073],[-0.7362754511064,51.3904998251233],[-0.736281642285498,51.39027508163],[-0.736287833385722,51.3900503381272],[-0.736647042915631,51.3900542104631],[-0.73700625252435,51.3900580816984],[-0.737012440102592,51.389833338112],[-0.737371648068541,51.3898372082095],[-0.737730856113254,51.3898410772063],[-0.737737040169599,51.3896163335363],[-0.738096246571516,51.3896202013953],[-0.738455453052151,51.3896240681536],[-0.738461633586684,51.3893993244],[-0.738820838424497,51.3894031900206],[-0.739180043340983,51.3894070545405],[-0.739186220353791,51.3891823107034],[-0.739545423627428,51.3891861740856],[-0.739904626979693,51.3891900363671],[-0.73991080047086,51.3889652924465],[-0.740270002180251,51.3889691535903],[-0.740629203968222,51.3889730136335],[-0.740635373937835,51.3887482696294],[-0.740994574082906,51.3887521285349],[-0.741000742252486,51.3885273844844],[-0.741359940754656,51.3885312422523],[-0.741719139335337,51.3885350989194],[-0.741725303983514,51.3883103547856],[-0.742084500921267,51.3883142103151],[-0.742443697937485,51.388318064744],[-0.742802895032148,51.3883219180723],[-0.742796735548229,51.3885466623171],[-0.743155934442735,51.3885505145817],[-0.743162092205233,51.3883257703],[-0.743168249889293,51.3881010260088],[-0.743174407494919,51.3878762817083],[-0.743533601303623,51.3878801327614],[-0.743892795190703,51.3878839827138],[-0.744251989156135,51.3878878315657],[-0.744611183199896,51.3878916793169],[-0.744617333841656,51.3876669348592],[-0.744976526242365,51.3876707814729],[-0.745335718721358,51.387674626986],[-0.745694911278615,51.3876784713985],[-0.745688765800943,51.3879032159669],[-0.746047960157805,51.3879070593157],[-0.74605410391411,51.3876823147104],[-0.746413296627825,51.3876861569216],[-0.746772489419735,51.3876899980322],[-0.747131682289819,51.3876938380423],[-0.747125543697617,51.3879185827583],[-0.747119405027227,51.3881433274649],[-0.747113266278648,51.3883680721621],[-0.747472464391063,51.3883719111821],[-0.747478601418227,51.388147166448],[-0.747484738367223,51.3879224217045],[-0.747490875238054,51.3876976769517],[-0.747497012030721,51.3874729321895],[-0.747856203335737,51.3874767699614],[-0.748215394718858,51.3874806066327],[-0.748574586180063,51.3874844422035],[-0.748933777719329,51.3874882766736],[-0.749292969336635,51.3874921100431],[-0.749299097444489,51.3872673650873],[-0.749658287418478,51.3872711973194],[-0.750017477470461,51.3872750284509],[-0.750376667600415,51.3872788584818],[-0.750735857808319,51.3872826874121],[-0.751095048094149,51.3872865152418],[-0.751454238457885,51.3872903419709],[-0.751813430317494,51.3872941658707],[-0.752172622536023,51.3872979883272],[-0.752178736732953,51.3870732431474],[-0.752537927260404,51.3870770645265],[-0.752897117867348,51.3870808848029],[-0.753256308553763,51.3870847039765],[-0.753615499319626,51.3870885220475],[-0.753974690164914,51.3870923390157],[-0.753968584820977,51.3873170840689],[-0.753962479397604,51.3875418291148],[-0.754321673863522,51.3875456449296],[-0.754315570131359,51.3877703899429],[-0.754674766447309,51.3877742046297],[-0.754668664406402,51.3879989496104],[-0.755027862572386,51.3880027631691],[-0.755021762222781,51.3882275081172],[-0.755015661793802,51.388452253058],[-0.755374863580545,51.3884560654632],[-0.755368764842935,51.3886808103714],[-0.755727968479742,51.3886846216485],[-0.756087172195845,51.3886884318228],[-0.756093267391963,51.3884636869653],[-0.756452469416592,51.3884674960622],[-0.756811671520472,51.3884713040564],[-0.756817763095831,51.3882465592425],[-0.75717696350821,51.3882503661593],[-0.757183053233606,51.3880256213635],[-0.757189142879766,51.3878008765605],[-0.757195232446693,51.3875761317502],[-0.757201321934387,51.3873513869327],[-0.75756051534328,51.3873551928484],[-0.757919708831347,51.3873589976614],[-0.758278902398566,51.3873628013717],[-0.758272818222789,51.3875875461129],[-0.758632013639779,51.3875913486951],[-0.758991209135875,51.3875951501745],[-0.759350404711056,51.3875989505511],[-0.759344325768113,51.3878236952088],[-0.759703523193024,51.3878274944573],[-0.760062720696975,51.387831292603],[-0.760421918279941,51.387835089646],[-0.760415844569981,51.38805983422],[-0.760775044002638,51.3880636301347],[-0.761134243514267,51.3880674249468],[-0.761128173266716,51.3882921694624],[-0.761487374628016,51.3882959631462],[-0.761846576068243,51.3882997557273],[-0.762205777587376,51.3883035472056],[-0.76256497918539,51.3883073375811],[-0.762924180862264,51.3883111268539],[-0.762930242256196,51.3880863824659],[-0.763289442241179,51.3880901706615],[-0.763648642304973,51.3880939577544],[-0.764007842447556,51.3880977437445],[-0.764367042668907,51.3881015286319],[-0.764726242968999,51.3881053124166],[-0.764732295430522,51.3878805681493],[-0.765091494038624,51.3878843508568],[-0.765450692725423,51.3878881324616],[-0.765809891490893,51.3878919129637],[-0.766169090335015,51.387895692363],[-0.76617513563502,51.3876709481909],[-0.766534332787075,51.3876747265131],[-0.766528289257764,51.3878994706596],[-0.766887488259117,51.3879032478535],[-0.767246687339053,51.3879070239446],[-0.767605886497547,51.3879107989331],[-0.767965085734577,51.3879145728188],[-0.767971122181097,51.387689828775],[-0.768330317986119,51.3876935994905],[-0.768324283378517,51.3879183435894],[-0.768683478651122,51.3879221103079],[-0.768677445733171,51.3881468543676],[-0.769036642852243,51.388150619951],[-0.769030611623989,51.3883753639715],[-0.76902458031734,51.3886001079849],[-0.769018548932298,51.3888248519912],[-0.769012517468858,51.3890495959905],[-0.769006485927022,51.3892743399828],[-0.769000454306786,51.389499083968],[-0.769359662113237,51.3895028482553],[-0.769365691965245,51.3892781043023],[-0.769371721738877,51.3890533603422],[-0.769377751434135,51.3888286163751],[-0.769383781051019,51.388603872401],[-0.769389810589531,51.3883791284197],[-0.769749009633408,51.3883828917651],[-0.769755037325434,51.388158147809],[-0.769395840049672,51.3881543844315],[-0.769401869431444,51.3879296404362],[-0.769042674002105,51.3879258759235],[-0.769048705073576,51.387701131889],[-0.769407898734847,51.3877048964338],[-0.769413927959884,51.3874801524244],[-0.76977311993144,51.3874839158985],[-0.770132311981302,51.3874876782697],[-0.770138337591926,51.3872629343176],[-0.770497527952047,51.387266695618],[-0.770856718390428,51.3872704558156],[-0.770862740386725,51.3870457119209],[-0.771221929135338,51.3870494710477],[-0.771581117962163,51.3870532290717],[-0.771940306867177,51.3870569859927],[-0.77229949585036,51.3870607418108],[-0.772658684911687,51.3870644965261],[-0.772652671755432,51.3872892402595],[-0.772293480926094,51.3872854855766],[-0.772287465923646,51.3875102293353],[-0.772646658521018,51.387513983986],[-0.772640645208444,51.3877387277053],[-0.772999839651998,51.3877424812209],[-0.773005851196513,51.3875177375337],[-0.773365043950111,51.3875214899786],[-0.773724236781786,51.3875252413205],[-0.774083429691517,51.3875289915596],[-0.774089435853781,51.3873042479623],[-0.774448627073504,51.3873079971307],[-0.774807818371235,51.3873117451962],[-0.774801815745053,51.3875364887288],[-0.775161008888813,51.3875402356591],[-0.775155007952674,51.3877649791524],[-0.775149006938534,51.3879897226386],[-0.775508203696416,51.3879934684013],[-0.775502204372385,51.3882182118481],[-0.775496204970373,51.3884429552879],[-0.775490205490379,51.3886676987207],[-0.775131003428089,51.388663953055],[-0.775125002101928,51.388888696513],[-0.774765798349429,51.3888849497767],[-0.774406594674925,51.3888812019374],[-0.774400589734352,51.389105945453],[-0.774041384369665,51.3891021965431],[-0.774047391078439,51.3888774529952],[-0.773688187559993,51.3888737029499],[-0.77368217908302,51.3890984465301],[-0.773676170527946,51.3893231901033],[-0.774035377582812,51.3893269400839],[-0.774029370717881,51.3895516836178],[-0.774023363774869,51.3897764271445],[-0.774017356753774,51.3900011706642],[-0.774011349654596,51.3902259141769],[-0.774370563860627,51.3902296629253],[-0.774376569191491,51.3900049194449],[-0.774382574444294,51.3897801759575],[-0.774741785191742,51.3897839236675],[-0.77510099601719,51.3897876702745],[-0.775094994300974,51.3900124136973],[-0.775454206972695,51.3900161591689],[-0.775813419722372,51.3900199035376],[-0.776172632549982,51.3900236468032],[-0.776531845455502,51.3900273889658],[-0.776537840098527,51.3898026456724],[-0.776897051313633,51.3898063867644],[-0.777256262606602,51.3898101267534],[-0.777615473977412,51.3898138656393],[-0.777621463237676,51.3895891224361],[-0.77798067291802,51.3895928602514],[-0.777974685426038,51.3898176034223],[-0.778333896952459,51.3898213401022],[-0.778327911150953,51.3900460832336],[-0.778687124523453,51.3900498187781],[-0.778681140412467,51.3902745618701],[-0.778675156223693,51.3904993049549],[-0.778669171957129,51.3907240480328],[-0.77830995327957,51.3907203125855],[-0.777950734679786,51.3907165760352],[-0.777944746798635,51.3909413191708],[-0.777585526508256,51.3909375815498],[-0.777226306295701,51.3909338428258],[-0.777220314799875,51.3911585860191],[-0.777579536780849,51.3911623247107],[-0.777573546975579,51.3913870678646],[-0.777567557092447,51.3916118110114],[-0.777561567131449,51.3918365541512],[-0.777555577092586,51.3920612972839],[-0.777549587128753,51.3922860399238],[-0.777908818030972,51.3922897773567],[-0.777902829922888,51.3925145194519],[-0.777896841737266,51.3927392615384],[-0.777890853474104,51.3929640036162],[-0.7778848651334,51.3931887456853],[-0.77824410315053,51.3931924820829],[-0.778238116491693,51.3934172241599],[-0.778232129755336,51.3936419662281],[-0.778226142941457,51.3938667082877],[-0.778585386314369,51.3938704436334],[-0.778579401182444,51.3940951857008],[-0.778573415973018,51.3943199277595],[-0.778932662942377,51.3943236620367],[-0.778926679414973,51.3945484041032],[-0.778920695810086,51.3947731461611],[-0.778914712127716,51.3949978882103],[-0.778908728367861,51.3952226302507],[-0.77890274453052,51.3954473722825],[-0.779262000375186,51.3954511055408],[-0.779256018219998,51.3956758475804],[-0.779250035987344,51.3959005896113],[-0.778890776623373,51.39589685632],[-0.778884792553566,51.3961215983258],[-0.778878808406267,51.3963463403228],[-0.779238071289633,51.3963500736471],[-0.779232088824573,51.3965748156519],[-0.779591353545104,51.396578547891],[-0.779585372762329,51.3968032899037],[-0.779944639320028,51.3968070210577],[-0.779938660219583,51.3970317630782],[-0.780297928614453,51.397035493147],[-0.780291951196383,51.3972602351753],[-0.780651221428426,51.397263964159],[-0.780645245692777,51.397488706195],[-0.780639269879743,51.3977134482224],[-0.780998543708814,51.3977171761373],[-0.780992569578268,51.3979419181725],[-0.781351845244542,51.3979456450022],[-0.781357817615211,51.3977209029506],[-0.781717091598911,51.3977246286622],[-0.782076365659892,51.3977283532721],[-0.782082334433509,51.3975036111789],[-0.782441606811889,51.3975073346707],[-0.782447573748376,51.3972825925524],[-0.782806844444155,51.3972863149261],[-0.783166115217143,51.3972900361981],[-0.783525386067318,51.3972937563685],[-0.783519424410343,51.3975184985361],[-0.783878697097522,51.3975222176212],[-0.784237969861844,51.3975259356046],[-0.784232011647393,51.3977506777963],[-0.784226053355782,51.3979754199793],[-0.784220094987011,51.3982001621536],[-0.784579373108117,51.3982038790845],[-0.784573416422117,51.3984286212664],[-0.784567459658976,51.3986533634397],[-0.784926738436462,51.3986570797766],[-0.784920783566704,51.3988818219271],[-0.785280054352222,51.3988855387826],[-0.785274101159482,51.3991102809574],[-0.785633373775795,51.3991139967454],[-0.785992646468945,51.3991177114323],[-0.785986696707228,51.3993424536651],[-0.786345971231154,51.3993461672843],[-0.78634002314657,51.3995709095415],[-0.786334074985155,51.3997956517893],[-0.786328126746906,51.4000203940279],[-0.786322178431823,51.4002451362573],[-0.786316230039905,51.4004698784773],[-0.785956946745826,51.4004661646901],[-0.78595099650065,51.4006909068575],[-0.785945046172447,51.4009156490127],[-0.78593909576707,51.4011403911581],[-0.786298384349427,51.4011441050827],[-0.786292435630436,51.4013688472652],[-0.786286486834292,51.4015935894379],[-0.786645779020912,51.401597302355],[-0.786639831911221,51.4018220445647],[-0.786633884724396,51.4020467867648],[-0.786627937460437,51.4022715289551],[-0.786621990119342,51.4024962711358],[-0.786616042701109,51.4027210133068],[-0.786610095205737,51.402945755468],[-0.786604147633224,51.4031704976196],[-0.786963452242685,51.4031742097625],[-0.786957506356801,51.403398951951],[-0.786598199983571,51.4033952397615],[-0.786592252256774,51.4036199818937],[-0.786586304452834,51.4038447240162],[-0.786945614353671,51.403848436299],[-0.786939668236422,51.4040731784585],[-0.78693372204205,51.4042979206083],[-0.786927775770552,51.4045226627484],[-0.786921829421928,51.4047474048788],[-0.786915882996176,51.4049721469995],[-0.78727520179352,51.4049758584147],[-0.787269257054592,51.4052006005724],[-0.787263312238555,51.4054253427203],[-0.787257367345411,51.4056500848586],[-0.787616691511753,51.4056537953128],[-0.78761074830552,51.405878537488],[-0.787970074312937,51.4058822468878],[-0.787964132793662,51.4061069891],[-0.787958191197319,51.4063317313025],[-0.787952249523907,51.4065564734953],[-0.787946307773426,51.4067812156784],[-0.787586974709686,51.4067775060921],[-0.787581031117995,51.4070022482189],[-0.787575087449209,51.407226990336],[-0.787569143703326,51.4074517324434],[-0.787209805424164,51.4074480216162],[-0.787203859836978,51.4076727636673],[-0.786844519870695,51.4076690516923],[-0.786838572442161,51.407893793687],[-0.786479230788759,51.4078900805643],[-0.78611988921249,51.4078863663405],[-0.786113938178314,51.4081111082322],[-0.785754594914952,51.4081073928606],[-0.785748642039316,51.4083321346959],[-0.785389297088866,51.4083284181766],[-0.785383342371723,51.4085531599555],[-0.785023995734186,51.4085494422884],[-0.78501803917549,51.4087741840109],[-0.784658685539407,51.4087704633695],[-0.78465272640456,51.4089952061551],[-0.785012081940897,51.4089989270092],[-0.785371432153916,51.4090026448394],[-0.785365476413246,51.409227388526],[-0.785359520592417,51.4094521322011],[-0.785000166675061,51.4094484141676],[-0.784994208921866,51.4096731577296],[-0.785353564691426,51.4096768758647],[-0.785347608710272,51.4099016195168],[-0.785341652648955,51.4101263631574],[-0.785335696507471,51.4103511067864],[-0.784976335181158,51.4103473883464],[-0.784616968232335,51.4103436663996],[-0.784611008277965,51.4105684097296],[-0.784251636429129,51.4105646851528],[-0.783892264654285,51.4105609594778],[-0.783532892953452,51.4105572327046],[-0.783526927929238,51.4107819756195],[-0.783886301295349,51.4107857025269],[-0.783880337862365,51.4110104455634],[-0.784239712967792,51.4110141715067],[-0.784233751126082,51.4112389146648],[-0.783874374355332,51.4112351885873],[-0.783514997658597,51.4112314614115],[-0.7831556210359,51.4112277331375],[-0.783149654124128,51.4114524758804],[-0.782790275910148,51.4114487463739],[-0.782430897770249,51.411445015769],[-0.782071519704453,51.4114412840659],[-0.782065547722498,51.4116660263936],[-0.782424927453655,51.411669758231],[-0.782418957062921,51.4118945006803],[-0.782778338533567,51.4118982315536],[-0.782772369734097,51.4121229741245],[-0.782766400860506,51.4123477166829],[-0.783125785736072,51.4123514467262],[-0.783485170685704,51.4123551756711],[-0.783844555709379,51.4123589035177],[-0.783850519586679,51.4121341605568],[-0.784209903018943,51.4121378871709],[-0.784569286525207,51.4121416126867],[-0.784563325978774,51.4123663559159],[-0.784557365358329,51.4125910991325],[-0.784197978521174,51.4125873733484],[-0.783838591758022,51.412583646466],[-0.783479205068894,51.4125799184852],[-0.78311981845381,51.4125761894061],[-0.783113851097445,51.4128009320734],[-0.783473239378003,51.4128046612867],[-0.783467273613032,51.4130294040756],[-0.783461307773977,51.4132541468519],[-0.783820699459597,51.4132578752353],[-0.783814735212,51.4134826181331],[-0.78417412863719,51.4134863455522],[-0.784168165981093,51.4137110885717],[-0.784162203250954,51.4139358315785],[-0.784521600081303,51.4139395581676],[-0.784515638942729,51.414164301296],[-0.784875037017007,51.4141680265502],[-0.78488099637419,51.4139432832186],[-0.785240387340118,51.413947003285],[-0.785246344764435,51.4137222598402],[-0.785605733957863,51.4137259787055],[-0.785611689449362,51.4135012351476],[-0.785617644860699,51.4132764915781],[-0.785623600191874,51.4130517479971],[-0.785629555442889,51.4128270044046],[-0.785635510613747,51.4126022608006],[-0.785994890624378,51.4126059780583],[-0.786354270715108,51.4126096942164],[-0.786360222100779,51.4123849503977],[-0.786719600419067,51.4123886653548],[-0.786725549872136,51.4121639214229],[-0.786366173406342,51.4121602065674],[-0.786372124631798,51.4119354627255],[-0.786731499245122,51.4119391774794],[-0.787090873938492,51.4119428911339],[-0.78709682137895,51.4117181470773],[-0.78710276873935,51.4114934030093],[-0.787108716019695,51.4112686589297],[-0.787468085235812,51.41127237118],[-0.787827454531923,51.4112760823308],[-0.787833398027457,51.4110513380366],[-0.788192765551157,51.4110550479864],[-0.788198707114328,51.4108303035791],[-0.787839341442985,51.4108265937308],[-0.78784528477851,51.4106018494135],[-0.787851228034032,51.4103771050847],[-0.788210590000732,51.4103808147299],[-0.788569952047372,51.4103845232757],[-0.788929314173928,51.4103882307221],[-0.788935251792588,51.4101634860771],[-0.789294612146746,51.4101671923226],[-0.789653972580769,51.4101708974687],[-0.790013333094635,51.4101746015155],[-0.790019265076562,51.4099498565544],[-0.790378623817976,51.4099535594003],[-0.790737982639182,51.4099572611468],[-0.790732054361797,51.410182006311],[-0.791091415115045,51.4101857070597],[-0.791450775948038,51.410189406709],[-0.791444851295438,51.4104141520646],[-0.791804214060453,51.410417850716],[-0.792163576905166,51.4104215482681],[-0.792522939829554,51.4104252447207],[-0.792528858925251,51.4102004990606],[-0.792888220076986,51.4102041943125],[-0.792882302833592,51.410428940074],[-0.792876385510529,51.410653685824],[-0.792870468107794,51.4108784315625],[-0.792511101399077,51.4108747360063],[-0.792505182064295,51.4110994816319],[-0.792145813582858,51.4110957848749],[-0.792139892315981,51.4113205303875],[-0.791780522061827,51.4113168324295],[-0.791774598862807,51.4115415778291],[-0.79141522683594,51.4115378786703],[-0.791409301704731,51.4117626239569],[-0.791049927905153,51.4117589235971],[-0.791044000841708,51.4119836687708],[-0.790684625269423,51.4119799672101],[-0.790325249776918,51.4119762645499],[-0.789965874364219,51.4119725607903],[-0.789606499031349,51.4119688559312],[-0.789247123778331,51.4119651499728],[-0.788887748605191,51.4119614429149],[-0.788881810347052,51.4121861874678],[-0.788522433401335,51.4121824792089],[-0.788528373511952,51.4119577347575],[-0.788168998498639,51.4119540255008],[-0.787809623565275,51.4119503151446],[-0.787803679749706,51.4121750593928],[-0.787444303043842,51.4121713478356],[-0.787438357295764,51.4123960919707],[-0.787432411467648,51.4126208360943],[-0.78779179187853,51.4126245478547],[-0.787785847822921,51.4128492920684],[-0.787779903687295,51.4130740362706],[-0.787420519571299,51.413070324307],[-0.787414573503063,51.4132950683961],[-0.787773959471651,51.4132987804613],[-0.787768015175988,51.4135235246404],[-0.787408627354785,51.4135198124737],[-0.787402681126462,51.4137445565397],[-0.787762070800305,51.4137482688081],[-0.788121460554132,51.413751979977],[-0.78848085038792,51.4137556900463],[-0.788840240301645,51.4137593990162],[-0.789199630295281,51.4137631068866],[-0.789193693250242,51.413987851449],[-0.788834301403937,51.4139841434771],[-0.788474909637545,51.4139804344056],[-0.788468968807195,51.4142051787534],[-0.788463027896867,51.4144299230897],[-0.788822423368663,51.4144336323643],[-0.789181818920377,51.4144373405394],[-0.789175881635549,51.4146620850673],[-0.788816484231096,51.4146583767907],[-0.788810545013571,51.4148831212055],[-0.788451145836274,51.4148794117278],[-0.788091746738921,51.4148757011505],[-0.788085803735869,51.4151004453507],[-0.788445204686006,51.4151041560296],[-0.788804605716089,51.4151078656089],[-0.789164006826092,51.4151115740886],[-0.789523408015991,51.4151152814688],[-0.789529343607898,51.4148905368624],[-0.789888743024881,51.4148942430415],[-0.789894676684112,51.4146694983219],[-0.789900610263457,51.4144447535909],[-0.790260006054775,51.4144484584674],[-0.790265937701517,51.4142237136233]]],[[[-0.779262000375186,51.3954511055408],[-0.779267982452908,51.3952263634924],[-0.779273964453168,51.3950016214355],[-0.779279946375965,51.3947768793698],[-0.779639197019266,51.3947806114769],[-0.779998447739968,51.3947843424824],[-0.77999246933632,51.3950090845811],[-0.780351721893975,51.3950128145016],[-0.78034574517251,51.3952375566081],[-0.779986490855256,51.3952338266711],[-0.779980512296773,51.3954585687524],[-0.779974533660872,51.395683310825],[-0.779615275901732,51.3956795797535],[-0.779621256297278,51.3954548376974],[-0.779262000375186,51.3954511055408]]],[[[-0.77798067291802,51.3895928602514],[-0.777986660332172,51.3893681170735],[-0.777627452420087,51.3893643792257],[-0.777633441524647,51.3891396360084],[-0.777639430551358,51.3889148927839],[-0.77764541950022,51.3886901495524],[-0.777651408371234,51.3884654063139],[-0.77801060921051,51.3884691442912],[-0.778004622107663,51.3886938874974],[-0.778363824792895,51.3886976243393],[-0.778357839380417,51.388922367506],[-0.778351853890135,51.3891471106657],[-0.778711060189542,51.3891508463398],[-0.779070266566693,51.389154580911],[-0.779429473021567,51.3891583143793],[-0.779423492758202,51.3893830574346],[-0.779064284535087,51.3893793239988],[-0.779058302425721,51.3896040670795],[-0.778699092512066,51.3896003325731],[-0.778339882676157,51.3895965969637],[-0.77798067291802,51.3895928602514]]],[[[-0.741000742252486,51.3885273844844],[-0.740641543828851,51.388523525616],[-0.740282345483772,51.3885196656469],[-0.740288517017607,51.3882949216611],[-0.739929320472517,51.3882910606284],[-0.739935493649125,51.3880663166703],[-0.739941666747097,51.3878415727028],[-0.740300859849431,51.3878454336614],[-0.74066005303034,51.3878492935194],[-0.740666222606987,51.3876245494685],[-0.741025414145101,51.3876284081888],[-0.741384605761744,51.3876322658086],[-0.741390771817152,51.3874075216742],[-0.741031581921835,51.3874036640915],[-0.740672392105045,51.3873998054082],[-0.740678561524515,51.3871750613384],[-0.740684730865399,51.3869503172593],[-0.740690900127698,51.3867255731709],[-0.741050084780649,51.3867294317431],[-0.741409269512123,51.3867332892149],[-0.74140310369234,51.3869580333774],[-0.741762290223575,51.3869618897855],[-0.741756126046534,51.3871866339756],[-0.742115314377534,51.3871904893202],[-0.74210915184328,51.387415233538],[-0.741749961790975,51.3874113781564],[-0.741743797456894,51.3876361223278],[-0.741737633044291,51.3878608664898],[-0.742096826539275,51.3878647219453],[-0.742090663769522,51.3880894661349],[-0.741731468553165,51.3880856106424],[-0.741372273415294,51.3880817540492],[-0.741366107124249,51.3883064981554],[-0.741006910343495,51.3883026404246],[-0.741000742252486,51.3885273844844]]],[[[-0.742096826539275,51.3878647219453],[-0.742102989230527,51.3876399777463],[-0.742462181082622,51.3876438320643],[-0.742468341974045,51.3874190878189],[-0.742827532183249,51.3874229409993],[-0.74318672247087,51.387426793079],[-0.743545912836885,51.3874306440582],[-0.743905103281271,51.3874344939368],[-0.744264293804009,51.3874383427148],[-0.744258141519254,51.3876630871449],[-0.743898949275182,51.38765923833],[-0.74353975710946,51.3876553884145],[-0.743180565022111,51.3876515373984],[-0.742821373013158,51.3876476852816],[-0.742815213764611,51.3878724295546],[-0.742456020112722,51.3878685763002],[-0.742096826539275,51.3878647219453]]],[[[-0.740672392105045,51.3873998054082],[-0.740666222606987,51.3876245494685],[-0.740307031147424,51.3876206896475],[-0.739947839766433,51.3876168287259],[-0.739941666747097,51.3878415727028],[-0.739582473723358,51.3878377106436],[-0.739223280778239,51.3878338474838],[-0.73886408791176,51.3878299832233],[-0.73887026609512,51.3876052393576],[-0.73887644419978,51.3873804954825],[-0.739235633623601,51.3873843596688],[-0.739241809928266,51.3871596157473],[-0.739600997709429,51.387163478796],[-0.739594823126061,51.3873882227546],[-0.739954012707136,51.3873920847397],[-0.740313202366805,51.3873959456242],[-0.740672392105045,51.3873998054082]]],[[[-0.720347090691063,51.407636450086],[-0.720706430007485,51.4076403808218],[-0.720712693937582,51.407415660682],[-0.720718957785715,51.4071909405302],[-0.721078293620492,51.4071948699428],[-0.721437629537131,51.4071987982568],[-0.721431369252509,51.4074235186332],[-0.721790707032745,51.4074274459609],[-0.721784448447988,51.4076521664376],[-0.721425108885971,51.4076482389977],[-0.721418848437513,51.4078729593501],[-0.721059507175535,51.4078690306992],[-0.721053244863332,51.4080937509273],[-0.720693901901397,51.4080898210654],[-0.720700165995424,51.4078651009496],[-0.720340824897202,51.4078611701015],[-0.720347090691063,51.407636450086]]],[[[-0.726553216928154,51.4171453834738],[-0.726193801089962,51.4171414749956],[-0.72620004286301,51.4169167523029],[-0.726206284554097,51.4166920296061],[-0.726212526163221,51.416467306905],[-0.726218767690386,51.4162425841998],[-0.726578176362218,51.4162464931293],[-0.726937585115922,51.416250400952],[-0.726943822978062,51.4160256784683],[-0.726950060758292,51.4158009559805],[-0.727309466010797,51.415804862922],[-0.727668871345124,51.4158087687567],[-0.72766263714792,51.4160334910188],[-0.727656402868851,51.4162582132768],[-0.728015811868029,51.4162621177789],[-0.728009579298655,51.4164868399199],[-0.728368990171175,51.4164907432023],[-0.728362759311541,51.4167154652262],[-0.728356528370084,51.4169401872459],[-0.727997113914371,51.4169362841892],[-0.72763769954044,51.4169323800257],[-0.727278285248316,51.4169284747553],[-0.726918871038021,51.416924568378],[-0.726912632848222,51.417149290845],[-0.726553216928154,51.4171453834738]]],[[[-0.72903798650652,51.4182963768429],[-0.72867856176626,51.418292476587],[-0.728684792311169,51.4180677433991],[-0.728325369316877,51.4180638419013],[-0.727965946400073,51.4180599392958],[-0.727972180204416,51.4178352058361],[-0.72797841393119,51.4176104723729],[-0.728337833511059,51.4176143752467],[-0.728697253168411,51.4176182770129],[-0.728691022778552,51.4178430102077],[-0.729050444181827,51.417846910732],[-0.729409865662544,51.4178508101486],[-0.729403638532126,51.4180755430716],[-0.729397411324226,51.4183002759911],[-0.72903798650652,51.4182963768429]]],[[[-0.746797049891944,51.386791019222],[-0.746803189814484,51.386566274496],[-0.747162374078056,51.3865701143217],[-0.747168512201159,51.3863453695495],[-0.74752769482164,51.3863492082377],[-0.74753383114535,51.3861244634192],[-0.747174650246083,51.3861206247678],[-0.74718078821283,51.3858958799768],[-0.7471869261014,51.3856711351765],[-0.747193063911796,51.3854463903667],[-0.747199201644019,51.3852216455476],[-0.747558375658653,51.3852254840516],[-0.747552239647554,51.3854502289075],[-0.747911415461429,51.3854540663478],[-0.747917549751401,51.385229321455],[-0.748276723922242,51.3852331577579],[-0.748270591353398,51.3854579026876],[-0.748629767323438,51.3854617379268],[-0.748623636397638,51.3856864828839],[-0.748982814166881,51.3856903170594],[-0.748976684884171,51.385915062044],[-0.748970555523396,51.3861398070192],[-0.748611374311782,51.38613597277],[-0.748605243151723,51.386360717699],[-0.748246060296944,51.3863568823125],[-0.748239927337555,51.3865816271953],[-0.748233794300053,51.3868063720687],[-0.748227661184437,51.3870311169328],[-0.748221527990706,51.3872558617874],[-0.747862338328913,51.3872520251529],[-0.747503148745226,51.3872481874178],[-0.747509285381568,51.3870234426369],[-0.747150097597311,51.3870196038381],[-0.746790909891201,51.3870157639386],[-0.746797049891944,51.386791019222]]],[[[-0.769680851440074,51.4310947346961],[-0.769321323406558,51.4310909591977],[-0.768961795452254,51.4310871825979],[-0.768967843015048,51.4308624410406],[-0.768973890498604,51.4306376994732],[-0.768979937902924,51.4304129578956],[-0.768620415403996,51.4304091803785],[-0.76862646452108,51.4301844388522],[-0.768632513558908,51.4299596973156],[-0.768992032473859,51.4299634747098],[-0.768998079640478,51.4297387331016],[-0.769357596842705,51.429742509333],[-0.769363642138162,51.4295177676532],[-0.769723157627661,51.4295215427217],[-0.770082673196341,51.4295253166889],[-0.770088714828769,51.4293005748761],[-0.770094756382038,51.4290758330531],[-0.769735244397157,51.4290720592088],[-0.769375732491455,51.429068284263],[-0.769381777549296,51.4288435425526],[-0.769741287663135,51.428847317437],[-0.770100797856149,51.4288510912199],[-0.770460308128319,51.4288548639015],[-0.770454268446074,51.429079605796],[-0.770448228684695,51.4293043476804],[-0.77044218884418,51.4295290895546],[-0.770801704571154,51.4295328613188],[-0.770795666443439,51.4297576032442],[-0.770789628236609,51.4299823451594],[-0.770783589950662,51.4302070870643],[-0.770777551585596,51.4304318289591],[-0.770771513141412,51.4306565708437],[-0.770765474618106,51.4308813127181],[-0.770759436015678,51.4311060545823],[-0.770399907744658,51.4311022823884],[-0.770040379552782,51.431098509093],[-0.769680851440074,51.4310947346961]]],[[[-0.773383072810797,51.3868472589718],[-0.773023885361242,51.3868435064301],[-0.772664697989784,51.3868397527855],[-0.772670710989725,51.386615009038],[-0.772676723911512,51.3863902652833],[-0.773035907747059,51.3863940189925],[-0.773395091660701,51.3863977715987],[-0.773754275652415,51.3864015231021],[-0.773748268034464,51.3866262667599],[-0.773742260338427,51.3868510104106],[-0.773736252564303,51.3870757540543],[-0.773377063268681,51.3870720026478],[-0.773383072810797,51.3868472589718]]],[[[-0.773732043810853,51.4275403135785],[-0.773738066813787,51.4273155710606],[-0.774097565333704,51.427319332299],[-0.774103586466025,51.4270945897096],[-0.774109607519455,51.4268698471101],[-0.77446910253489,51.4268736071246],[-0.774828597629188,51.4268773660378],[-0.774822580159107,51.4271021087599],[-0.775182077123922,51.427105866633],[-0.775176061366696,51.4273306094062],[-0.775170045530646,51.4275553521693],[-0.774810544982409,51.4275515941736],[-0.774804527275788,51.4277763368652],[-0.77444502501465,51.427772577707],[-0.774439005437411,51.4279973203271],[-0.774079501463376,51.4279935600061],[-0.77408552283238,51.4277688174473],[-0.773726020729003,51.4277650560863],[-0.773732043810853,51.4275403135785]]],[[[-0.780824485654523,51.3907464375526],[-0.78118370487588,51.3907501652786],[-0.781177732910356,51.3909749081222],[-0.78081851192059,51.3909711804286],[-0.780459291008442,51.3909674516321],[-0.780100070173936,51.3909637217325],[-0.780106047444681,51.3907389787915],[-0.779746828456242,51.3907352477563],[-0.779740849417093,51.3909599907298],[-0.77973487030022,51.3911847336962],[-0.779375647852638,51.3911810016229],[-0.779381628737936,51.3909562586241],[-0.779022408136489,51.3909525254153],[-0.779028390712444,51.390727782377],[-0.779034373210629,51.3905030393316],[-0.779040355631049,51.3902782962791],[-0.779046337973703,51.3900535532196],[-0.779405551501681,51.3900572865581],[-0.779399570927359,51.3902820295852],[-0.779758786301375,51.3902857617883],[-0.780118001753074,51.3902894928883],[-0.780477217282432,51.3902932228853],[-0.780483192551746,51.3900684799555],[-0.780842406390403,51.390072208882],[-0.780836432889428,51.3902969517792],[-0.780830459310802,51.3905216946694],[-0.780824485654523,51.3907464375526]]],[[[-0.78924983929874,51.3982521238295],[-0.789243905629317,51.3984768664014],[-0.788884637507445,51.3984731617256],[-0.788878702007473,51.3986979042547],[-0.788872766430834,51.3989226467745],[-0.788866830777526,51.3991473892851],[-0.788860895047548,51.3993721317864],[-0.788854959240898,51.3995968742784],[-0.788495682425908,51.3995931683338],[-0.788489744788568,51.3998179107831],[-0.788849023357575,51.3998216167612],[-0.789208302003219,51.3998253216381],[-0.789202367797263,51.4000500641452],[-0.789196433514655,51.400274806643],[-0.788837151360906,51.400271101699],[-0.788477869283797,51.4002673956538],[-0.788118587283348,51.4002636885074],[-0.787759305359585,51.4002599802598],[-0.787765246658441,51.4000352378962],[-0.787771187880553,51.3998104955233],[-0.78813046629622,51.3998142037038],[-0.788136405687575,51.3995894612881],[-0.787777129025923,51.3995857531411],[-0.787783070094553,51.3993610107497],[-0.787423795263594,51.3993573015351],[-0.78706452050936,51.3993535912194],[-0.78705857593275,51.3995783335436],[-0.786699299501275,51.3995746220931],[-0.786705245831872,51.3993498798024],[-0.786711192085662,51.3991251375025],[-0.786717138262645,51.3989003951932],[-0.787076409432224,51.398904106543],[-0.787082353778483,51.398679364191],[-0.78708829804796,51.3984546218296],[-0.787094242240657,51.3982298794591],[-0.787453508225286,51.398233589607],[-0.787459450587352,51.3980088471936],[-0.787818714894843,51.3980125562068],[-0.787824655426323,51.3977878137506],[-0.788183918056675,51.3977915216291],[-0.788177979279029,51.3980162641189],[-0.788537243739885,51.3980199709298],[-0.788531306639386,51.3982447134439],[-0.78889057293075,51.3982484191873],[-0.78924983929874,51.3982521238295]]],[[[-0.791160302763929,51.4212019492825],[-0.791154370192866,51.4214266959475],[-0.791513825007619,51.421430400072],[-0.791873279904468,51.4214341030975],[-0.791867351098144,51.4216588500027],[-0.791861422209723,51.4218835968955],[-0.791855493239205,51.4221083437761],[-0.791849564186589,51.4223330906443],[-0.791490101595827,51.4223293871138],[-0.791130639087168,51.4223256824843],[-0.791136571986812,51.4221009358686],[-0.790777111483792,51.4220972302663],[-0.790417651062922,51.4220935235649],[-0.790423587727392,51.4218687771895],[-0.790429524309667,51.4216440308017],[-0.790435460809749,51.4214192844016],[-0.790441397227639,51.4211945379892],[-0.790447333563339,51.4209697915644],[-0.790806784367022,51.4209734976343],[-0.79116623525285,51.4209772026053],[-0.791160302763929,51.4212019492825]]],[[[-0.797518668476751,51.4118253618585],[-0.797524562116266,51.4116006148477],[-0.797530455676412,51.4113758678254],[-0.797889827202556,51.4113795481925],[-0.797895718830916,51.4111548010574],[-0.797901610379934,51.4109300539108],[-0.797542242558602,51.4109263737464],[-0.797548135880648,51.4107016266897],[-0.79755402912333,51.4104768796215],[-0.797194665086027,51.4104731985604],[-0.797200560101669,51.4102484515821],[-0.796841197996023,51.4102447695229],[-0.796847094784576,51.4100200226345],[-0.797206455037926,51.4100237045923],[-0.797212349894798,51.409798957591],[-0.797571708375208,51.409802638348],[-0.797931066934925,51.4098063180057],[-0.797925175782602,51.4100310652097],[-0.798284536273881,51.4100347438693],[-0.798290425573928,51.409809996564],[-0.798649784292191,51.4098136740229],[-0.799009143089691,51.4098173503824],[-0.799003257494203,51.4100420978904],[-0.79899737181945,51.4102668453868],[-0.799356734400748,51.4102705208496],[-0.799350850499057,51.4104952684358],[-0.799344966518121,51.4107200160107],[-0.79933908245794,51.410944763574],[-0.79969845067549,51.4109484382412],[-0.799692568388463,51.4111731858943],[-0.799686686022211,51.411397933536],[-0.799680803576733,51.4116226811662],[-0.79932142980191,51.4116190061951],[-0.798962056106286,51.4116153301245],[-0.798602682489886,51.4116116529545],[-0.798608570492704,51.4113869056282],[-0.798614458416224,51.4111621582905],[-0.798255088583936,51.4111584802236],[-0.798249198807995,51.4113832274601],[-0.798243308952733,51.411607974685],[-0.798237419018149,51.4118327218985],[-0.798596794407769,51.4118364002693],[-0.798590906246354,51.4120611475726],[-0.798231529004242,51.4120574691005],[-0.797872151841404,51.4120537895289],[-0.797878043707802,51.4118290424282],[-0.797518668476751,51.4118253618585]]]]}}