{"type":"Feature","properties":{"code":"E63005396","name":"Wrotham Heath"},"geometry":{"type":"MultiPolygon","coordinates":[[[[0.348952197229107,51.299796157194],[0.349310485866714,51.2997889682027],[0.349299013084325,51.2995643588358],[0.349287540449963,51.2993397494578],[0.349276067963627,51.2991151400685],[0.349264595625314,51.298890530668],[0.349622877137299,51.2988833408578],[0.349981158501274,51.2988761499528],[0.349992634328329,51.2991007592154],[0.350004110303452,51.2993253684667],[0.349645825450715,51.2993325595096],[0.349657299829495,51.2995571688187],[0.349668774356324,51.2997817781165],[0.349680249031207,51.3000063874032],[0.349691723854146,51.3002309966786],[0.349703198825143,51.3004556059428],[0.34934490510208,51.3004627962359],[0.349356378275344,51.3006874046708],[0.34971467374929,51.3006802143495],[0.350072969075572,51.3006730229338],[0.350061492400179,51.3004484145549],[0.350050015684677,51.3002238053597],[0.35040830736716,51.300216612946],[0.35039682905526,51.2999920038086],[0.350385350891459,51.2997673946599],[0.350743638936941,51.2997602012894],[0.351101926834334,51.2997530068241],[0.351460214583617,51.299745811264],[0.351471697980773,51.2999704202056],[0.351483181526098,51.3001950291359],[0.351494665219593,51.3004196380551],[0.351852958054152,51.3004124411931],[0.352211250740549,51.3004052432363],[0.352222737931047,51.3006298514537],[0.352581032223049,51.3006226523762],[0.35256954327876,51.3003980441846],[0.352927835668764,51.3003908440382],[0.352916344997315,51.3001662353952],[0.352904854474129,51.2999416267411],[0.352893364099199,51.2997170180757],[0.353251651107594,51.2997098170416],[0.353240159136505,51.299485208434],[0.353228667313692,51.2992605998153],[0.353217175639151,51.2990359911853],[0.353575457266133,51.2990287892636],[0.353563963995518,51.2988041806915],[0.353552470873193,51.2985795721081],[0.353910748863253,51.2985723692299],[0.354269026705036,51.298565165257],[0.354280523315999,51.2987897737022],[0.354638802753797,51.2987825685654],[0.354997082043271,51.2987753623339],[0.355008582291239,51.2989999706296],[0.355366863176698,51.2989927632342],[0.355725143913785,51.2989855547441],[0.355736647798843,51.2992101628904],[0.356094930131885,51.2992029532364],[0.356453212316507,51.2991957424876],[0.356464719838736,51.2994203504843],[0.356823003619285,51.2994131385716],[0.357181287251366,51.2994059255642],[0.357169776240404,51.2991813177057],[0.357528057979635,51.2991741036726],[0.357886339570355,51.2991668885448],[0.357897854070037,51.2993914962649],[0.357909368718286,51.2996161039738],[0.357920883515105,51.2998407116714],[0.357932398460496,51.3000653193578],[0.357574109892203,51.3000725347624],[0.357585623241721,51.3002971425067],[0.357943913554462,51.300289927033],[0.357955428797005,51.300514534697],[0.358313720705672,51.3005073180592],[0.35867201246577,51.3005001003267],[0.359030304077276,51.3004928814994],[0.359018783601333,51.3002682740431],[0.359007263274035,51.3000436665755],[0.359365551248026,51.3000364467918],[0.359377073319763,51.3002610541901],[0.359735362889559,51.3002538332424],[0.359723839073385,51.3000292259133],[0.360082126750091,51.3000220039401],[0.360070601338193,51.299797396669],[0.360059076075002,51.2995727893866],[0.360047550960515,51.299348182093],[0.360405833255385,51.2993409592327],[0.360394306545259,51.2991163519971],[0.360382779983854,51.2988917447503],[0.360024501177645,51.2988989674721],[0.360012976509257,51.2986743601448],[0.360001451989563,51.2984497528062],[0.35998992761856,51.2982251454564],[0.359978403396247,51.2980005380954],[0.359620131418437,51.2980077594456],[0.359631653896518,51.2982323668758],[0.359273380025842,51.2982395872005],[0.359284900908333,51.2984641946887],[0.359296421939471,51.2986888021658],[0.358938144431643,51.2986960215341],[0.358949663867126,51.2989206290691],[0.358961183451238,51.2991452365929],[0.35860290230618,51.2991524550049],[0.358244621012545,51.2991596723223],[0.358233104917093,51.2989350646601],[0.357874825219238,51.2989422808135],[0.357516545372855,51.2989494958721],[0.357505032914614,51.2987248880604],[0.357863311016684,51.2987176730709],[0.357851796962687,51.2984930653171],[0.358210073171941,51.2984858493021],[0.358198557522237,51.2982612416062],[0.358187042021108,51.2980366338992],[0.357828769300367,51.2980438497758],[0.357817255692035,51.2978192419883],[0.357458984566999,51.297826456701],[0.357100713293469,51.2978336703191],[0.356742441871467,51.2978408828424],[0.356730933644299,51.2976162748361],[0.356372663818058,51.2976234861956],[0.356384170301016,51.297848094271],[0.356025898582138,51.297855304605],[0.355667626714858,51.2978625138442],[0.355656123720325,51.2976379056305],[0.355297853448879,51.2976451137059],[0.354939583029077,51.2976523206866],[0.354581312460939,51.2976595265725],[0.354569814847413,51.2974349181403],[0.354211545875166,51.2974421228625],[0.353853276754631,51.29744932649],[0.353495007485833,51.2974565290228],[0.353136738068792,51.2974637304609],[0.353148228705494,51.2976883391694],[0.35315971949045,51.2979129478668],[0.352801446436743,51.2979201483483],[0.3528129356257,51.2981447571035],[0.35245466067953,51.2981519565594],[0.352096385585178,51.2981591549205],[0.352084899884744,51.2979345460272],[0.352443173234833,51.2979273477351],[0.352431685938349,51.2977027388996],[0.352420198790075,51.2974781300529],[0.352061928928443,51.2974853282069],[0.352050443672571,51.29726071928],[0.351692175406984,51.2972679162702],[0.35133390699327,51.2972751121658],[0.351345388760743,51.2974997212308],[0.350987118454722,51.2975069161007],[0.350628848000615,51.2975141098759],[0.350640326427776,51.2977387190677],[0.350282054081378,51.2977459118172],[0.349923781586934,51.2977531034719],[0.349565508944472,51.2977602940319],[0.349207236154012,51.2977674834973],[0.348848963215577,51.2977746718678],[0.348490690129189,51.2977818591437],[0.348502158238895,51.2980064687382],[0.348143883285479,51.2980136548979],[0.347785608197882,51.2980208399135],[0.34777414357525,51.2977962301834],[0.347415870082532,51.2978034140391],[0.347427332962502,51.2980280238342],[0.347069057579359,51.2980352066599],[0.346710782048476,51.2980423883906],[0.346352506369876,51.2980495690263],[0.345994230543581,51.298056748567],[0.346005686600582,51.2982813586109],[0.345647408883917,51.2982885371215],[0.345289131019598,51.2982957145371],[0.345300583738866,51.2985203246998],[0.3453120366058,51.2987449348515],[0.345323489620402,51.2989695449923],[0.345334942782674,51.2991941551221],[0.345346396092619,51.299418765241],[0.345704682670773,51.2994115875009],[0.346062969101262,51.2994044086658],[0.346074426044549,51.2996290186439],[0.346432714070178,51.2996218386488],[0.346791001948096,51.2996146575586],[0.347149289678277,51.2996074753734],[0.347137827506509,51.2993828655901],[0.34712636548253,51.2991582557958],[0.347114903606334,51.2989336459905],[0.347473185960361,51.2989264629051],[0.347831468166615,51.2989192787246],[0.348189750225073,51.2989120934491],[0.348201217329592,51.2991367030595],[0.348212684581961,51.299361312659],[0.348224151982189,51.2995859222475],[0.348582439150021,51.2995787355857],[0.348593908443524,51.2998033450905],[0.348952197229107,51.299796157194]]],[[[0.357054674298971,51.2969352385033],[0.357066183824847,51.2971598464741],[0.35742444986583,51.2971526330635],[0.357782715758328,51.2971454185583],[0.358140981502316,51.2971382029585],[0.358152496409161,51.2973628107105],[0.35851076374877,51.2973555939467],[0.358869030939823,51.2973483760883],[0.359227297982297,51.2973411571352],[0.359215777843002,51.2971165495907],[0.358857512544676,51.2971237684747],[0.358499247097773,51.2971309862639],[0.358487730595362,51.2969063785698],[0.358845994298138,51.2968991608498],[0.358834476200207,51.2966745532137],[0.358476214241536,51.2966817708645],[0.358117952134316,51.2966889874207],[0.358106437673157,51.2964643796349],[0.358464698036292,51.2964571631479],[0.35882295825088,51.2964499455663],[0.358811440450155,51.2962253379077],[0.35879992279803,51.2960007302379],[0.358441666071539,51.2960079476812],[0.358083409196506,51.2960151640298],[0.358094923360554,51.296239771838],[0.357736664592962,51.2962469871611],[0.357378405676869,51.2962542013896],[0.357366895000908,51.2960295934431],[0.357008637680387,51.2960368065078],[0.356650380211414,51.2960440184779],[0.356661887399277,51.2962686265628],[0.356673394735605,51.2964932346364],[0.356315133630075,51.2965004456501],[0.356326639370772,51.2967250537817],[0.3566849022204,51.2967178426988],[0.356696409853664,51.29694245075],[0.357054674298971,51.2969352385033]]],[[[0.334853401579366,51.297604934984],[0.334864803170566,51.2978295470685],[0.335223080078811,51.2978224016025],[0.335234483559744,51.2980470136115],[0.335592762063718,51.2980398669859],[0.335951040420673,51.2980327192652],[0.335939633454293,51.2978081073855],[0.336297909921485,51.2978009586345],[0.336656186241616,51.2977938087884],[0.336644775936915,51.2975691970272],[0.336633365779329,51.2973445852549],[0.336275092944566,51.2973517349716],[0.336263684676743,51.2971271231238],[0.335905413437575,51.2971342716808],[0.335547142051376,51.2971414191429],[0.335188870518166,51.2971485655099],[0.335200273558024,51.2973731775517],[0.335211676744905,51.2975977895826],[0.334853401579366,51.297604934984]]],[[[0.336633365779329,51.2973445852549],[0.336991638467012,51.2973374344433],[0.337003050367268,51.2975620461508],[0.337361324650516,51.2975548941794],[0.337719598786638,51.2975477411131],[0.337731014319408,51.2977723526803],[0.3373727384406,51.2977795058113],[0.337384152377845,51.2980041174323],[0.337395566462254,51.2982287290423],[0.337406980693831,51.2984533406414],[0.337048699439689,51.2984604928715],[0.337060112075655,51.2986851045244],[0.337071524858771,51.2989097161663],[0.337429809598497,51.2989025638068],[0.33778809419108,51.2988954103522],[0.338146378636498,51.2988882558026],[0.338504662934729,51.2988811001579],[0.338493243180419,51.2986564887748],[0.338481823573349,51.2984318773808],[0.33884010423881,51.2984247207706],[0.339198384757043,51.2984175630653],[0.339209807849651,51.2986421743298],[0.3395680899634,51.2986350154648],[0.339926371929876,51.2986278555047],[0.339914945351741,51.2984032443696],[0.34027322542816,51.2983960833792],[0.340631505357262,51.2983889212939],[0.340620075440982,51.2981643102774],[0.340978353480013,51.2981571471618],[0.341336631371687,51.2981499829511],[0.341694909115978,51.2981428176454],[0.342053186712865,51.2981356512448],[0.342411464162327,51.2981284837491],[0.34276974146434,51.2981213151584],[0.343128018618883,51.2981141454727],[0.343486295625932,51.298106974692],[0.343844572485466,51.2980998028163],[0.343833127032256,51.2978751923722],[0.343821681726613,51.2976505819172],[0.343810236568538,51.2974259714512],[0.343451964937007,51.2974331431324],[0.343440521669118,51.2972085325906],[0.343798791558026,51.2972013609743],[0.344157061299407,51.297194188263],[0.344515330893237,51.2971870144567],[0.344526779388987,51.2974116248039],[0.344168508052539,51.2974187986751],[0.344179954953257,51.2976434090762],[0.344191402001563,51.2978680194664],[0.344202849197461,51.2980926298456],[0.344561125761896,51.2980854557799],[0.344919402178747,51.2980782806192],[0.345277678447993,51.2980711043635],[0.345635954569612,51.2980639270127],[0.345624500402991,51.297839316893],[0.345982774634283,51.2978321385122],[0.345971318872691,51.2976075284465],[0.34561304638405,51.2976147067624],[0.345601592512786,51.2973900966208],[0.345243321619133,51.2973972737768],[0.344885050577859,51.2974044498379],[0.344873600339494,51.2971798395555],[0.345231869638156,51.2971726635593],[0.345590138789199,51.2971654864682],[0.345948407792603,51.2971583082821],[0.345959863258798,51.2973829183697],[0.346318133857144,51.2973757390238],[0.346676404307803,51.2973685585828],[0.347034674610751,51.2973613770469],[0.347392944765967,51.297354194416],[0.347381482329367,51.297129584588],[0.347739750594234,51.2971224009271],[0.348098018711325,51.2971152161713],[0.348086552937369,51.2968906064622],[0.348075087311239,51.2966659967422],[0.348063621832934,51.2964413870112],[0.347705358943486,51.2964485715722],[0.347693895355507,51.2962239617653],[0.347335634060796,51.2962311451665],[0.347324172363097,51.2960065352837],[0.347312710813171,51.29578192539],[0.346954452855666,51.2957891075663],[0.346596194750446,51.2957962886478],[0.346237936497534,51.2958034686343],[0.346226480322707,51.2955788585349],[0.34621502429558,51.2953542484244],[0.345856769379872,51.2953614271863],[0.34549851431652,51.2953686048532],[0.345140259105548,51.2953757814252],[0.344782003746978,51.2953829569024],[0.344793452804388,51.2956075672724],[0.344435195555808,51.2956147417195],[0.344446643018371,51.2958393521434],[0.344088383879774,51.2958465255605],[0.344099829747444,51.2960711360383],[0.343741568718827,51.2960783084253],[0.34375301299156,51.296302918957],[0.343394750072917,51.2963100903139],[0.343036487006779,51.2963172605759],[0.343047927941995,51.2965418712263],[0.343059369024719,51.2967664818658],[0.342701102326009,51.2967736511625],[0.342712541813662,51.2969982618559],[0.342723981448805,51.2972228725383],[0.342365711117447,51.2972300408697],[0.34200744063865,51.2972372081061],[0.341649170012437,51.2972443742476],[0.34129089923883,51.2972515392941],[0.340932628317852,51.2972587032456],[0.340574357249526,51.2972658661021],[0.340216086033873,51.2972730278636],[0.339857814670916,51.2972801885302],[0.339846388976703,51.2970555773295],[0.339834963429802,51.2968309661178],[0.340193231307532,51.2968238055808],[0.340181804165359,51.2965991944229],[0.340170377170516,51.2963745832541],[0.340528641415813,51.2963674217516],[0.340517212825763,51.2961428106366],[0.340158950322999,51.2961499720744],[0.340147523622806,51.2959253608837],[0.339789262715264,51.2959325211617],[0.339777837904883,51.2957079098953],[0.339419578592567,51.2957150690136],[0.339408155671953,51.2954904576715],[0.339049897954869,51.2954976156302],[0.339038476923978,51.2952730042124],[0.339027056040333,51.2950483927837],[0.338668801660916,51.295055549518],[0.338657382666924,51.2948309380136],[0.338299129882729,51.2948380935883],[0.338287712778344,51.2946134820083],[0.337929461589375,51.2946206364234],[0.337918046374553,51.2943960247677],[0.337906631306901,51.2941714131011],[0.337548383455511,51.2941785662919],[0.337536970277353,51.2939539545496],[0.337525557246334,51.2937293427964],[0.337514144362456,51.2935047310322],[0.337502731625716,51.2932801192571],[0.337860972507935,51.2932729663251],[0.337849558176092,51.2930483546037],[0.337838143991402,51.2928237428714],[0.337826729953866,51.2925991311282],[0.337468494298289,51.2926062838661],[0.337110258495617,51.2926134355093],[0.336752022545873,51.2926205860576],[0.336763431356828,51.2928451979949],[0.336774840314868,51.2930698099212],[0.336786249419994,51.2932944218366],[0.337144490596395,51.2932872710943],[0.337155901590874,51.2935118829341],[0.337167312732469,51.2937364947629],[0.33717872402118,51.2939611065808],[0.336820477617921,51.2939682575172],[0.336831887311421,51.2941928693889],[0.33684329715202,51.2944174812496],[0.337201547039964,51.2944103301838],[0.337212958770041,51.2946349419689],[0.337224370647246,51.2948595537431],[0.33723578267158,51.2950841655063],[0.33759403763962,51.2950770131516],[0.337605451553526,51.2953016248391],[0.33761686561459,51.2955262365158],[0.337975123920406,51.2955190829368],[0.337986539871112,51.2957436945377],[0.337997955969003,51.2959683061278],[0.338356217612653,51.2959611513244],[0.338367635600257,51.2961857628388],[0.338725898839253,51.2961786068758],[0.338737318716614,51.2964032183145],[0.33874873874121,51.2966278297423],[0.338760158913046,51.2968524411591],[0.338771579232125,51.297077052565],[0.338782999698447,51.29730166396],[0.338424727746498,51.2973088202466],[0.338413309022812,51.2970842087869],[0.338055038666309,51.2970913639139],[0.33769676816264,51.2970985179458],[0.337338497511826,51.2971056708828],[0.336980226713891,51.2971128227248],[0.336621955768855,51.2971199734718],[0.336633365779329,51.2973445852549]]],[[[0.340631505357262,51.2983889212939],[0.340642935420914,51.2986135322994],[0.340654365631939,51.2988381432939],[0.340296082217301,51.2988453055089],[0.3403075108329,51.2990699165573],[0.339949225528134,51.2990770777419],[0.339590940076067,51.2990842378315],[0.339232654476721,51.2990913968261],[0.339244078011189,51.2993160080578],[0.338885790521751,51.299323166022],[0.338874368730119,51.2990985547256],[0.338516082836281,51.29910571153],[0.338527502885078,51.2993303228912],[0.33853892308112,51.2995549342414],[0.338180633554371,51.2995620900803],[0.338192052154778,51.2997867014843],[0.338203470902415,51.3000113128774],[0.337845177742674,51.3000184677506],[0.337856594894611,51.3002430791974],[0.337498299844759,51.3002502330402],[0.337140004647749,51.3002573857879],[0.337151418460983,51.3004819973532],[0.336793121373876,51.3004891490705],[0.33680453342286,51.3007137597946],[0.336446234440542,51.3007209104491],[0.336457644845871,51.300945520967],[0.336099343975895,51.3009526705972],[0.335741042958992,51.3009598191326],[0.335729636035088,51.3007352084739],[0.33571822922996,51.3005105976516],[0.335706822388589,51.3002859858276],[0.335348526456131,51.3002931330998],[0.33499023037665,51.3003002792769],[0.335001633732075,51.3005248912302],[0.334643335762618,51.3005320363768],[0.334285037646179,51.3005391804282],[0.334296437461533,51.3007637913864],[0.334307837422558,51.3009884023268],[0.333949535671355,51.3009955453884],[0.333960934038481,51.3012201563879],[0.334319237530432,51.3012130132559],[0.334330637785156,51.3014376241737],[0.334342038186733,51.3016622350801],[0.334700345013426,51.3016550907125],[0.335058651693273,51.3016479452501],[0.335047247810116,51.3014233344845],[0.335405552602311,51.3014161879977],[0.335763857247618,51.3014090404162],[0.335752450029834,51.3011844297801],[0.336110752787473,51.3011772811742],[0.336469055398183,51.3011701314735],[0.33682735786194,51.3011629806781],[0.336838770301991,51.3013875911029],[0.337197074359525,51.3013804391423],[0.33720848868736,51.3016050494853],[0.337566794338665,51.3015978963594],[0.337925099842947,51.3015907421387],[0.337913682033573,51.3013661319366],[0.338271985650042,51.3013589766917],[0.338260566247002,51.3011343665488],[0.338618867975665,51.3011272102796],[0.33897716955724,51.3011200529156],[0.338965746819864,51.3008954429024],[0.339324046513617,51.3008882845141],[0.339312622182689,51.3006636745602],[0.339301197892953,51.3004390640522],[0.339289773622003,51.3002144528752],[0.339278349498352,51.2999898416873],[0.338920056780277,51.2999969998457],[0.338561763914957,51.3000041569091],[0.338550343424413,51.2997795455807],[0.338908634546828,51.2997723885821],[0.339266925522002,51.2997652304884],[0.339255501692949,51.2995406192786],[0.339613790777981,51.2995334601545],[0.33997207971573,51.2995262999354],[0.340330368506172,51.2995191386212],[0.340688657149285,51.2995119762119],[0.341046945645047,51.2995048127076],[0.341405233993435,51.2994976481082],[0.341416668279713,51.2997222589294],[0.341774958223567,51.2997150931702],[0.341763522194427,51.2994904824138],[0.342121810248,51.2994833156243],[0.342480098154132,51.2994761477397],[0.342468658786772,51.299251537102],[0.342110372623475,51.2992587049217],[0.34209893514642,51.2990340942082],[0.342087497816834,51.2988094834838],[0.341729214991705,51.2988166500789],[0.341370932019165,51.2988238155789],[0.341359498322587,51.2985992047139],[0.341001216945432,51.2986063690542],[0.340989785139026,51.2983817581134],[0.340631505357262,51.2983889212939]]],[[[0.345761960150083,51.3005346376064],[0.345773415820487,51.3007592463249],[0.345784871630994,51.3009838549969],[0.34614317026614,51.3009766757379],[0.34650146875373,51.3009694953842],[0.346859767093742,51.3009623139358],[0.346848306061245,51.300737705476],[0.346836845141574,51.3005130968421],[0.346478550292126,51.300520278192],[0.346120255294954,51.3005274584467],[0.345761960150083,51.3005346376064]]],[[[0.344271535472392,51.2994402918909],[0.343913248303802,51.2994474652508],[0.343554960987658,51.2994546375156],[0.34356640573107,51.2996792479479],[0.34392469479006,51.2996720756182],[0.343936141423907,51.2998966859746],[0.344294432078209,51.299889512485],[0.34465272258493,51.2998823379004],[0.345011012944048,51.2998751622206],[0.345022464954146,51.3000997723715],[0.345033917111906,51.3003243825115],[0.345392210809185,51.3003172056069],[0.34575050435881,51.3003100276072],[0.345739048715245,51.3000854175971],[0.345380756908521,51.3000925955318],[0.34536930315554,51.2998679854458],[0.345727593219385,51.299860807576],[0.345716137871228,51.2996361975439],[0.345357849550241,51.2996433753489],[0.344999561081608,51.2996505520588],[0.344641272465352,51.2996577276737],[0.344629822493407,51.299433117436],[0.344271535472392,51.2994402918909]]],[[[0.344572574848093,51.2983100660833],[0.344214296540951,51.2983172402139],[0.343856018086246,51.2983244132494],[0.343497739484,51.29833158519],[0.343509183489621,51.298556195677],[0.343520627642793,51.2987808061531],[0.343532071943522,51.2990054166182],[0.343890355774039,51.2989982444831],[0.344248639457008,51.2989910712529],[0.344606922992406,51.2989838969278],[0.344595473463346,51.2987592866572],[0.344584024081909,51.2985346763757],[0.344572574848093,51.2983100660833]]],[[[0.332242973384664,51.2956334088101],[0.33225436145534,51.2958580214453],[0.332265749672843,51.2960826340695],[0.332277138037173,51.2963072466829],[0.332635403775168,51.296300109334],[0.332646794028917,51.2965247218718],[0.332658184429521,51.2967493343987],[0.333016453505889,51.2967421958258],[0.333027845795981,51.2969668082771],[0.333386116468129,51.2969596685446],[0.333744386993405,51.2969525277171],[0.33373299121806,51.2967279153949],[0.33372159558964,51.2965033030618],[0.333710200108143,51.2962786907178],[0.333698804773565,51.2960540783628],[0.333340541218657,51.2960612189319],[0.332982277516885,51.2960683584061],[0.3329708858143,51.295843745911],[0.333329147773533,51.2958366065014],[0.333687409585906,51.2958294659969],[0.333676014545162,51.2956048536201],[0.334034274468143,51.2955977120852],[0.33439253424422,51.2955905694554],[0.334381135865414,51.2953659571969],[0.334369737633564,51.2951413449274],[0.334011481342436,51.2951484874279],[0.334000084999979,51.2949238750829],[0.33398868880445,51.2946992627269],[0.333977292755846,51.29447465036],[0.333965896854165,51.2942500379822],[0.333954501099403,51.2940254255934],[0.334312748678552,51.2940182834159],[0.334324146175664,51.2942428957401],[0.334335543819719,51.2944675080533],[0.334693794736679,51.2944603646517],[0.335052045506705,51.2944532201552],[0.335410296129773,51.2944460745639],[0.335421699147946,51.2946706866723],[0.335779951366419,51.2946635399214],[0.336138203437888,51.2946563920756],[0.33649645536233,51.2946492431349],[0.336485047117007,51.2944246312205],[0.336126796934946,51.2944317800965],[0.336115390579061,51.2942071681064],[0.336103984370231,51.2939825561055],[0.335745737525845,51.2939897037573],[0.335734333206383,51.2937650916807],[0.335376087957318,51.293772238173],[0.335387490534462,51.2939968503142],[0.335029243396103,51.2940039957763],[0.335017842561281,51.2937793835705],[0.334659597018294,51.2937865278731],[0.334648198072756,51.2935619155916],[0.334289954125145,51.2935690587347],[0.33430135132838,51.2937936710808],[0.33394310549156,51.2938008131937],[0.333584859507857,51.2938079542117],[0.333226613377294,51.2938150941348],[0.332868367099893,51.2938222329631],[0.332510120675675,51.2938293706966],[0.33252150931418,51.2940539833546],[0.332163261000829,51.2940611200577],[0.332174648043798,51.2942857327694],[0.331816397841308,51.2942928684423],[0.331458147745766,51.2943000030328],[0.331446764206826,51.2940753902011],[0.331088515822357,51.2940825236485],[0.33107713418386,51.2938579107537],[0.330718887405015,51.2938650430524],[0.330360640478811,51.2938721742556],[0.330372018611291,51.2940967872563],[0.330013769784738,51.2941039174168],[0.329655520810869,51.2941110464816],[0.329666895584648,51.2943356595779],[0.329308644710445,51.2943427876001],[0.329320017878491,51.2945674007391],[0.328961765103949,51.2945745277185],[0.328973136666216,51.2947991409002],[0.328614881991331,51.2948062668369],[0.328626251947774,51.2950308800613],[0.328984508375771,51.2950237540717],[0.328995880232617,51.2952483672331],[0.329354138266488,51.295241240095],[0.329365512023783,51.2954658531933],[0.329723771663523,51.2954587249066],[0.329712396153076,51.2952341118613],[0.330070653892357,51.2952269825319],[0.330082031155954,51.2954515955243],[0.330440290501054,51.2954444650463],[0.330451669665185,51.2956690779756],[0.330809930616099,51.295661946349],[0.3307985496988,51.2954373334726],[0.33115680874917,51.2954302008033],[0.331145426226137,51.2952055879696],[0.331503683375967,51.2951984542576],[0.331492299247246,51.2949738414667],[0.331850554623838,51.2949667067055],[0.331861940511599,51.295191319438],[0.332220197683777,51.295184183507],[0.33257845470917,51.295177046481],[0.332589844228679,51.2954016590735],[0.33223158546081,51.295408796164],[0.332242973384664,51.2956334088101]]],[[[0.336179208743254,51.3025249443986],[0.335820895540728,51.3025320934272],[0.335462582191281,51.3025392413609],[0.335473988549864,51.3027638519996],[0.335485395055383,51.302988462627],[0.335843711886644,51.3029813145524],[0.336202028570979,51.302974165383],[0.336213438705314,51.3031987758582],[0.336571756983634,51.3031916255236],[0.336930075114979,51.303184474094],[0.336918661498776,51.3029598637597],[0.3369072480296,51.3027352534141],[0.336548933380098,51.3027424047027],[0.336190618583625,51.3027495548965],[0.336179208743254,51.3025249443986]]],[[[0.319923268739971,51.3073449262291],[0.319934601225548,51.3075695396548],[0.319945933857497,51.3077941530693],[0.319957266635822,51.3080187664727],[0.319598906508714,51.3080258663501],[0.319610237685987,51.3082504798097],[0.319968599560525,51.308243379865],[0.320326961288715,51.3082362788251],[0.320315626616584,51.3080116655001],[0.320304292090854,51.307787052164],[0.320662650177848,51.3077799501634],[0.321021008118454,51.3077728470676],[0.32137936591265,51.3077657428766],[0.321737723560415,51.3077586375903],[0.322096081061725,51.3077515312088],[0.322454438416559,51.307744423732],[0.322812795624892,51.30773731516],[0.323171152686704,51.3077302054928],[0.323529509601972,51.3077230947303],[0.323518159496308,51.3074984819894],[0.323159804328401,51.3075055926845],[0.323148456116673,51.307280979865],[0.322790102549564,51.3072880893975],[0.322431748835938,51.3072951978347],[0.32242040426542,51.3070705848694],[0.322062052152623,51.307077692144],[0.321703699893356,51.3070847983234],[0.321345347487641,51.3070919034077],[0.320986994935503,51.3070990073967],[0.320628642236962,51.3071061102905],[0.320270289392042,51.307113212089],[0.320281623478586,51.3073378254584],[0.319923268739971,51.3073449262291]]],[[[0.323518159496308,51.3074984819894],[0.323876514517651,51.3074913701991],[0.323887866370672,51.3077159828727],[0.323899218370315,51.3079405955351],[0.324257576739804,51.3079334825147],[0.324268930633474,51.3081580950987],[0.324627290603745,51.3081509809157],[0.324638646391485,51.308375593421],[0.324997007962535,51.3083684780754],[0.325355369386921,51.3083613616344],[0.325344010104348,51.3081367492639],[0.325332650968494,51.3079121368823],[0.324974293038916,51.3079192531884],[0.324962935797146,51.3076946407282],[0.324951578702068,51.307470028257],[0.324593224120553,51.3074771433329],[0.324234869392407,51.3074842573136],[0.324223515938673,51.3072596446964],[0.32386516281125,51.3072667575145],[0.323506809537242,51.3072738692373],[0.323518159496308,51.3074984819894]]],[[[0.324223515938673,51.3072596446964],[0.324581868919489,51.3072525307831],[0.324570513865088,51.3070279182222],[0.324928864951969,51.3070208032811],[0.324917508296946,51.3067961907765],[0.324906151788603,51.3065715782608],[0.325264499234296,51.3065644623594],[0.325275857489898,51.3067890748076],[0.325287215892202,51.3070136872448],[0.325298574441211,51.3072382996708],[0.32565692698207,51.3072311824719],[0.325645566685762,51.3070065701133],[0.326003917332628,51.3069994518866],[0.326015279376235,51.3072240641778],[0.326373631623679,51.3072169447884],[0.326731983724381,51.3072098243039],[0.326720618186186,51.3069852121477],[0.327078968392833,51.3069780906354],[0.327437318452697,51.306970968028],[0.327425949566764,51.3067463559956],[0.327784297732557,51.3067392323605],[0.328142645751524,51.3067321076301],[0.32813127351795,51.3065074957217],[0.328489619642833,51.3065003699637],[0.328847965620845,51.3064932431105],[0.329206311451966,51.3064861151622],[0.329564657136173,51.3064789861187],[0.329576036358672,51.306703597757],[0.329934383643167,51.3066964675508],[0.3302927307807,51.3066893362494],[0.330304113644665,51.3069139477415],[0.330662462382457,51.3069068152773],[0.33102081097324,51.306899681718],[0.331379159416991,51.3068925470635],[0.331367771311304,51.3066679357741],[0.331356383352702,51.3064433244736],[0.331714728153968,51.3064361888551],[0.33207307271682,51.3064290517688],[0.332084464160745,51.3066536629192],[0.33244281031818,51.3066465246675],[0.332431417132954,51.3064219135874],[0.332789761402348,51.3064147743111],[0.332801156328874,51.3066393853208],[0.333159502192801,51.3066322448791],[0.333148105524978,51.3064076339398],[0.333136709003975,51.3061830229891],[0.333125312629786,51.3059584120271],[0.333483653123111,51.3059512707016],[0.333841993469633,51.3059441282811],[0.333830593759807,51.3057195174486],[0.333819194196837,51.3054949066048],[0.334177530914112,51.3054877632302],[0.33416612975682,51.3052631524455],[0.333807794780722,51.3052702957497],[0.333796395511456,51.3050456848833],[0.334154728746399,51.3050385416495],[0.334513061834505,51.3050313973207],[0.334524464586077,51.3052560080463],[0.334882799268472,51.3052488625522],[0.334894203908112,51.305473473196],[0.335252540184792,51.3054663265366],[0.335241133803983,51.3052417159631],[0.335229727570114,51.3050171053783],[0.335588060217573,51.3050099577648],[0.335599468192586,51.3052345682791],[0.33595780243426,51.3052274195002],[0.336316136528981,51.3052202696264],[0.336674470476727,51.3052131186576],[0.336663057278296,51.3049885083546],[0.336651644226892,51.3047638980403],[0.336640231322513,51.3045392877147],[0.336628818565158,51.3043146773778],[0.336270491581824,51.3043218280647],[0.336259080712537,51.304097217646],[0.335900755323288,51.3041043671676],[0.335889346342024,51.3038797566672],[0.335531022546866,51.3038869050235],[0.335519615453579,51.3036622944413],[0.335161293252518,51.3036694416323],[0.335149888047164,51.3034448309684],[0.335138482988731,51.3032202202932],[0.335127078077217,51.3029956096067],[0.335115673312618,51.3027709989088],[0.334757357928493,51.3027781447233],[0.334399042397509,51.3027852894429],[0.33441044368026,51.3030099002816],[0.334052126261515,51.3030170439767],[0.334040726719691,51.3027924330677],[0.333682410895061,51.3027995755976],[0.333693808695953,51.3030241865771],[0.333335490983601,51.3030313280826],[0.333346887190363,51.3032559391211],[0.332988567590282,51.3032630796021],[0.332999962202871,51.3034876906997],[0.332641640715056,51.3034948301562],[0.332653033733425,51.3037194413128],[0.332294710357873,51.3037265797448],[0.332306101781979,51.3039511909605],[0.332317493352831,51.3041758021649],[0.33195916634848,51.3041829396428],[0.331970556325004,51.3044075509062],[0.331981946448257,51.3046321621584],[0.331623615804006,51.3046392985955],[0.331635004333052,51.3048639099174],[0.331276671760663,51.3048710450587],[0.331288058689739,51.3050956564371],[0.330929724223261,51.3051027905509],[0.330571389609772,51.3051099235696],[0.330213054849294,51.3051170554932],[0.330201673161398,51.3048924439121],[0.329843340001017,51.3048995746731],[0.329831960207163,51.3046749630133],[0.329473628646886,51.3046820926116],[0.329115296939693,51.3046892211148],[0.328756965085604,51.3046963485229],[0.328768339638316,51.3049209603852],[0.328779714337934,51.3051455722365],[0.328791089184463,51.3053701840766],[0.328802464177904,51.3055947959056],[0.328444125188598,51.3056019224887],[0.328432751942277,51.3053773105922],[0.328421378842846,51.3051526986845],[0.328063043200904,51.3051598240374],[0.328051671995439,51.3049352120512],[0.327693337953745,51.3049423362415],[0.327335003765244,51.3049494593366],[0.327346371476546,51.3051740714579],[0.327357739334668,51.3053986835681],[0.32699940150519,51.3054058057031],[0.326988035394175,51.3051811935255],[0.326976669429958,51.3049565813367],[0.326965303612537,51.3047319691368],[0.326606970877556,51.3047390899743],[0.326595606953969,51.3045144776958],[0.326584243177151,51.3042898654062],[0.326225913789501,51.3042969850136],[0.326237275819296,51.3045215973707],[0.32587894453791,51.3045287159505],[0.325520613109836,51.3045358334352],[0.325531971792278,51.304760445916],[0.325543330621423,51.3049850583858],[0.325184995552553,51.3049921749102],[0.325196352781306,51.3052167874363],[0.325207710156743,51.3054413999513],[0.325219067678868,51.3056660124551],[0.325230425347684,51.3058906249478],[0.324872083143628,51.3058977406469],[0.324883439211946,51.306122353196],[0.324894795426937,51.3063469657339],[0.324536449581836,51.3063540804727],[0.324547804196264,51.306578693067],[0.324559158957347,51.3068033056501],[0.324200809471124,51.3068104194286],[0.32421216263158,51.307035032068],[0.324223515938673,51.3072596446964]]],[[[0.334472327010807,51.2971628549591],[0.334830598837969,51.297155710782],[0.334819197687768,51.2969310986647],[0.334460927603247,51.2969382427771],[0.334449528342658,51.2967136305842],[0.334091259853817,51.296720773537],[0.334102657371784,51.2969453857946],[0.334114055036702,51.2971699980412],[0.334125452848573,51.2973946102769],[0.334483726565342,51.2973874671302],[0.334472327010807,51.2971628549591]]]]}}