{"type":"Feature","properties":{"code":"E63001305","name":"Old Trafford"},"geometry":{"type":"MultiPolygon","coordinates":[[[[-2.36071595222366,53.4653874043927],[-2.36109250897637,53.4653862626982],[-2.36146906570348,53.465385119817],[-2.3614709708512,53.4656098287742],[-2.36109441213661,53.465610971671],[-2.36109631532243,53.4658356806353],[-2.36147287602453,53.4658345377229],[-2.36147478122344,53.466059246663],[-2.36185134388746,53.4660581025484],[-2.36222790652583,53.466056957247],[-2.36222981572547,53.4662816661474],[-2.36185325109954,53.4662828114644],[-2.36185515833724,53.4665075203717],[-2.36185706560056,53.4667322292705],[-2.36185897297258,53.4669569381906],[-2.36186088100823,53.467181647332],[-2.36186278906982,53.4674063564649],[-2.36223936369554,53.4674052110863],[-2.3622412738017,53.4676299202034],[-2.36224318393384,53.467854629312],[-2.36261976257086,53.4678534827319],[-2.36299634118186,53.467852334965],[-2.36337291976682,53.4678511860111],[-2.3637494983257,53.4678500358704],[-2.36412607685848,53.4678488845427],[-2.36412415663304,53.4676241754707],[-2.36450073312104,53.4676230229635],[-2.36449881090307,53.4673983138902],[-2.36487538534627,53.4673971602035],[-2.36487730958287,53.4676218692694],[-2.36525388601853,53.4676207143884],[-2.36563046242797,53.4676195583205],[-2.36563239072804,53.4678442673632],[-2.36600896912991,53.4678431101011],[-2.36638554750551,53.4678419516521],[-2.36638747986916,53.4680666606714],[-2.36638941225908,53.4682913696823],[-2.36676599464579,53.4682902100316],[-2.36676792908071,53.4685149190266],[-2.36676986354192,53.4687396280131],[-2.36714644993981,53.4687384671606],[-2.36714451345983,53.4685137581816],[-2.36714257700617,53.468289049194],[-2.36714064057883,53.4680643401979],[-2.36713870417781,53.4678396311934],[-2.36751528247445,53.4678384691837],[-2.36789186074472,53.4678373059871],[-2.36789380118311,53.4680620149768],[-2.36789574164787,53.4682867239581],[-2.36827232521744,53.4682855602261],[-2.36827426776333,53.4685102692132],[-2.36865085472718,53.4685091050186],[-2.36865279936424,53.4687338140203],[-2.36902938836546,53.4687326486611],[-2.36903133509375,53.4689573576772],[-2.36903328184897,53.4691820666852],[-2.36865668871906,53.469183231999],[-2.36865863343682,53.4694079409761],[-2.36866057818148,53.4696326499451],[-2.36828398089584,53.4696338140262],[-2.36790738499031,53.4696349776669],[-2.36790544436729,53.4694102687367],[-2.36752885196568,53.4694114319853],[-2.36715225953769,53.4694125940469],[-2.36715032297874,53.4691878850933],[-2.36714838644611,53.4689631761312],[-2.36677179802944,53.468964336991],[-2.36639520958644,53.4689654966639],[-2.36639714208143,53.4691902056408],[-2.36602055159331,53.4691913641341],[-2.36602248209573,53.4694160731099],[-2.36639907460268,53.4694149146092],[-2.36640100715021,53.4696396235691],[-2.36602441262438,53.4696407820772],[-2.36564781807228,53.4696419393983],[-2.3656458895625,53.4694172304237],[-2.36526929700303,53.4694183865505],[-2.36527122349393,53.4696430955325],[-2.36489462888938,53.4696442504797],[-2.36489655338757,53.4698689594605],[-2.36489847791192,53.4700936684329],[-2.36452187924334,53.4700948222078],[-2.36451995673792,53.4698701132281],[-2.36414336006211,53.4698712658087],[-2.36376676336018,53.4698724172024],[-2.36339016663213,53.469873567409],[-2.36339208308076,53.4700982764107],[-2.36339399955544,53.4703229854039],[-2.36339591605618,53.4705476943886],[-2.36301931324518,53.4705488434302],[-2.36302122775296,53.4707735524137],[-2.36264462289689,53.4707747002756],[-2.36264653541166,53.4709994092579],[-2.36226992851053,53.4710005559401],[-2.3622680180148,53.4707758469505],[-2.36189141310671,53.4707769924383],[-2.36151480817265,53.4707781367391],[-2.3615167146303,53.4710028457433],[-2.36114010765125,53.4710039888644],[-2.36114201211574,53.4712286978673],[-2.36076540309171,53.4712298398086],[-2.36038879404178,53.4712309805628],[-2.360012184966,53.47123212013],[-2.36001028655872,53.4710074111054],[-2.36000838817725,53.4707827020722],[-2.36000648982159,53.4705579930306],[-2.3596298867771,53.4705591313891],[-2.35962799046625,53.4703344223317],[-2.35925138941494,53.470335559496],[-2.35924949514883,53.4701108504228],[-2.35924760090848,53.4698861413413],[-2.35924570669388,53.4696614322512],[-2.35924381250504,53.4694367231526],[-2.35962040548065,53.4694355860171],[-2.35999699843046,53.4694344476948],[-2.35999510022966,53.4692097386021],[-2.36037169113479,53.4692085991],[-2.36074828201405,53.4692074584109],[-2.36075018425256,53.4694321674891],[-2.36112677712479,53.4694310256059],[-2.36150336997111,53.4694298825356],[-2.36150527627323,53.4696545915908],[-2.36188187111249,53.4696534473264],[-2.36188377945944,53.4698781563657],[-2.36226037629164,53.469877010907],[-2.36226228668347,53.4701017199306],[-2.3626388855086,53.4701005732776],[-2.36301548430771,53.4700994254377],[-2.36301356987801,53.4698747164286],[-2.36263697309783,53.4698758642613],[-2.36263506071307,53.4696511552365],[-2.36225846592578,53.4696523018749],[-2.36225655558589,53.4694275928343],[-2.36187996279148,53.4694287382784],[-2.36187805449642,53.4692040292221],[-2.36150146369489,53.469205173472],[-2.36112487286743,53.4692063165349],[-2.36112296863596,53.4689816074555],[-2.36074637980141,53.4689827493243],[-2.36036979094097,53.4689838900061],[-2.35999320205467,53.468985029501],[-2.35961661314255,53.4689861678089],[-2.35924002420462,53.4689873049299],[-2.35886343524091,53.4689884408639],[-2.35886154314813,53.4687637317326],[-2.35923813009304,53.4687625958058],[-2.35961471701217,53.468761458692],[-2.35999130390549,53.4687603203913],[-2.35998940578211,53.4685356112731],[-2.35998750768455,53.4683109021465],[-2.35998560961278,53.4680861930113],[-2.35998371156682,53.4678614838677],[-2.36036029035939,53.467860344409],[-2.36035839032057,53.4676356352641],[-2.36035649030759,53.4674109261106],[-2.36035459032043,53.4671862169487],[-2.36035269035911,53.4669615077783],[-2.36072926105133,53.4669603671617],[-2.36072735964341,53.4667356581942],[-2.36072545834292,53.4665109492487],[-2.36072355706798,53.4662862402947],[-2.36072165581859,53.4660615313321],[-2.3603450930778,53.4660626718865],[-2.36034319384148,53.4658379628998],[-2.35996663306269,53.4658391022519],[-2.35959007225839,53.4658402404174],[-2.35959196751963,53.4660649494352],[-2.35921540470231,53.4660660864294],[-2.35921729800146,53.4662907954541],[-2.35884073317112,53.4662919312771],[-2.35846416831535,53.4662930659133],[-2.35808760343417,53.4662941993628],[-2.35771103852761,53.4662953316256],[-2.35771292390184,53.4665200407036],[-2.35771480930139,53.4667447497731],[-2.35733824039428,53.46674588088],[-2.35733635698234,53.4665211717951],[-2.35695979003752,53.4665223016998],[-2.35696167146184,53.4667470108002],[-2.35696355296901,53.4669717199194],[-2.35696543476307,53.4671964291546],[-2.35696731658271,53.4674211383812],[-2.35696919842794,53.4676458475994],[-2.3573457754077,53.467644717643],[-2.35734765929719,53.4678694268455],[-2.35734954321229,53.4680941360396],[-2.35735142715301,53.4683188452251],[-2.35735331111935,53.4685435544021],[-2.3573551951113,53.4687682635706],[-2.35735707912887,53.4689929727306],[-2.35735896317206,53.4692176818821],[-2.35773555425743,53.4692165506887],[-2.35773744034509,53.4694412598246],[-2.35811403342365,53.469440127437],[-2.35811592155584,53.4696648365572],[-2.3577393264584,53.4696659689519],[-2.35736273133529,53.4696671001597],[-2.35698613618653,53.4696682301805],[-2.35698425411099,53.4694435210388],[-2.35660766095551,53.4694446498655],[-2.35623106777444,53.4694457775052],[-2.35585447456782,53.4694469039579],[-2.35585259857445,53.4692221947863],[-2.35547600736115,53.469223320045],[-2.35509941612234,53.4692244441167],[-2.35472282485806,53.4692255670014],[-2.3547209549467,53.4690008578],[-2.35509754419215,53.4689997349224],[-2.35509567228741,53.4687750257196],[-2.35509380040812,53.4685503165082],[-2.35509192855429,53.4683256072884],[-2.35509005672592,53.4681008980601],[-2.35508818492299,53.4678761888233],[-2.35471160577131,53.4678773116655],[-2.35471347555553,53.4681020209094],[-2.3543368943597,53.4681031425717],[-2.35396031313845,53.4681042630472],[-2.35358373189181,53.4681053823357],[-2.3532071506198,53.4681065004373],[-2.35320901235454,53.468331209701],[-2.35283242903847,53.4683323266228],[-2.35283428877978,53.4685570358851],[-2.35283614854638,53.4687817451388],[-2.35245956116746,53.4687828608877],[-2.35246141894054,53.46900757014],[-2.35208482951752,53.4690086847091],[-2.35208668529703,53.4692333939599],[-2.35171009382992,53.469234507349],[-2.35133350252302,53.4692356197902],[-2.35133535429204,53.4694603290442],[-2.3517119476158,53.4694592165983],[-2.35208854110178,53.4694581032022],[-2.35209039693177,53.469682812436],[-2.3517138014269,53.4696839258392],[-2.35171565526321,53.4699086350715],[-2.3513390579049,53.4699097475262],[-2.35134090974876,53.4701344567543],[-2.35134276161756,53.4703591659738],[-2.35171936301148,53.4703580535107],[-2.35172121692343,53.4705827627176],[-2.35209782050414,53.4705816492864],[-2.35209967646033,53.4708063584777],[-2.3524762820348,53.4708052438524],[-2.35247814003529,53.4710299530282],[-2.35247999806105,53.4712546621956],[-2.35248185611208,53.4714793713544],[-2.35210524448037,53.4714804860007],[-2.35210710053753,53.4717051951581],[-2.35173048686142,53.4717063086244],[-2.35173234092466,53.4719310177803],[-2.35173419501312,53.4721557269277],[-2.35211081272759,53.4721546134473],[-2.35211266886049,53.4723793225791],[-2.35248928856891,53.4723782079046],[-2.35249114674629,53.472602917021],[-2.35286776844866,53.4726018011524],[-2.35286962867059,53.4728265102531],[-2.35324625236691,53.4728253931904],[-2.35324811463344,53.4730501022756],[-2.35362474032371,53.4730489840187],[-2.35362287603788,53.4728242749405],[-2.35362101177742,53.4725995658538],[-2.35399763340374,53.4725984464239],[-2.35437425500467,53.4725973258069],[-2.35437238673107,53.4723726167258],[-2.35474900628733,53.4723714949288],[-2.35475087658016,53.4725962040027],[-2.3551274981302,53.4725950810115],[-2.35512937046774,53.4728197900699],[-2.35550599401157,53.4728186658844],[-2.35550786839386,53.4730433749272],[-2.35550974280165,53.4732680839614],[-2.35513311521921,53.473269208161],[-2.35513498763315,53.4734939171939],[-2.35475835800588,53.4734950402135],[-2.35438172835315,53.473496162046],[-2.35438359675379,53.4737208710845],[-2.35400696505625,53.4737219917369],[-2.3540088314629,53.4739467007741],[-2.35363219772055,53.4739478202464],[-2.35325556395283,53.4739489385316],[-2.353257426346,53.4741736475743],[-2.35288079053349,53.4741747646794],[-2.35287893015976,53.4739500556296],[-2.35287706981132,53.4737253465713],[-2.35250043801233,53.4737264624751],[-2.35212380618804,53.4737275771918],[-2.35212194990366,53.4735028681109],[-2.35212009364454,53.4732781590216],[-2.35211823741066,53.4730534499237],[-2.35174161161916,53.4730545634322],[-2.35136498598929,53.4730556759375],[-2.35136683818246,53.4732803850452],[-2.35174346583371,53.4732792725371],[-2.35174532007349,53.4735039816334],[-2.35136869040058,53.4735050941444],[-2.35137054264365,53.4737298032349],[-2.35099391199687,53.4737309155823],[-2.35099206174887,53.4735062064746],[-2.35061543307221,53.4735073176178],[-2.35023880437064,53.473508427574],[-2.35023695813766,53.4732837184234],[-2.34986033140624,53.4732848271754],[-2.34948370464995,53.4732859347404],[-2.34910707786882,53.4732870411183],[-2.34910891811665,53.4735117503203],[-2.34948554689283,53.4735106439252],[-2.34986217564417,53.4735095363431],[-2.34986401990694,53.4737342455023],[-2.35024065062849,53.473733136716],[-2.35061728132514,53.4737320267427],[-2.35061912960297,53.473956735859],[-2.3509957622698,53.4739556246815],[-2.35137239491168,53.4739545123169],[-2.35137424720467,53.4741792213902],[-2.35175088294414,53.4741781088716],[-2.35212751883254,53.4741769953281],[-2.35212937519266,53.4744017043834],[-2.35213123157803,53.4746264134303],[-2.35175459165068,53.4746275269879],[-2.35137795186551,53.4746286395112],[-2.35100131323816,53.4746297519272],[-2.35062467458586,53.4746308631562],[-2.3506265229633,53.4748555722381],[-2.35024988229087,53.4748566822971],[-2.34987324159354,53.4748577911691],[-2.34987508600541,53.4750825002766],[-2.34949844328797,53.4750836079786],[-2.3491218005457,53.4750847144934],[-2.3487451577786,53.4750858198211],[-2.34874699624671,53.4753105289559],[-2.34837035145816,53.4753116331138],[-2.34799370664476,53.4753127360845],[-2.34761706180655,53.4753138378681],[-2.34724041694354,53.4753149384646],[-2.34686377205577,53.4753160378741],[-2.34648712714326,53.4753171360964],[-2.34648895367899,53.4755418452793],[-2.346112306738,53.4755429423337],[-2.34611413129463,53.4757676515273],[-2.34573748232516,53.4757687474139],[-2.34536083333102,53.4757698421133],[-2.34498418431226,53.4757709356257],[-2.34498600288207,53.4759956448683],[-2.34460935183488,53.4759967372127],[-2.34423270076311,53.47599782837],[-2.3442345153498,53.4762225376424],[-2.34385786224962,53.4762236276318],[-2.34348120912492,53.476224716434],[-2.34347939854594,53.4760000071233],[-2.3431027474006,53.4760010947192],[-2.34272609623079,53.476002181128],[-2.34272790280205,53.476226890477],[-2.34235124960395,53.4762279757178],[-2.34235305419575,53.4764526850775],[-2.34197639896934,53.4764537691503],[-2.34197820158163,53.4766784785204],[-2.34160154432692,53.4766795614252],[-2.34122488704785,53.4766806431428],[-2.34122668567663,53.4769053525426],[-2.34085002636928,53.4769064330922],[-2.34047336703763,53.4769075124546],[-2.34009670768169,53.4769085906298],[-2.34009850032288,53.4771333000783],[-2.33972183893872,53.4771343770854],[-2.33934517753034,53.4771354529053],[-2.33896851609775,53.4771365275381],[-2.33897030275119,53.4773612370352],[-2.33859363929044,53.4773623104998],[-2.33821697580553,53.4773633827772],[-2.33821875847508,53.4775880923038],[-2.33784209296204,53.4775891634131],[-2.33784387365164,53.4778138729501],[-2.33746720611044,53.4778149428912],[-2.33709053854518,53.4778160116451],[-2.33671387095588,53.4778170792117],[-2.33671564565732,53.4780417887972],[-2.33633897603993,53.4780428551956],[-2.33596230639855,53.4780439204069],[-2.33596407711577,53.4782686300217],[-2.33558740544633,53.4782696940647],[-2.33521073375295,53.4782707569204],[-2.33483406203566,53.4782718185889],[-2.33483582676442,53.478496528252],[-2.33445915296334,53.4784975888352],[-2.33408247912453,53.4784986482519],[-2.33370580526202,53.4784997064812],[-2.33370756403836,53.4787244161731],[-2.33333088816085,53.4787254732273],[-2.33295421225968,53.4787265290941],[-2.33257753633489,53.4787275837737],[-2.33257928916082,53.4789522934934],[-2.33220261122108,53.4789533469977],[-2.33182593325776,53.4789543993147],[-2.3314492552709,53.4789554504444],[-2.33145100214627,53.4791801601919],[-2.3310743221445,53.4791812101463],[-2.33069764211925,53.4791822589134],[-2.3306993850353,53.4794069686765],[-2.33032270299517,53.4794080162683],[-2.3299460209316,53.4794090626727],[-2.32994775988822,53.4796337724514],[-2.3295710758098,53.4796348176805],[-2.32956933884461,53.4794101078898],[-2.32919265673425,53.4794111519195],[-2.32919439170799,53.4796358617223],[-2.32881770758282,53.4796369045767],[-2.32844102343433,53.4796379462437],[-2.32844275444848,53.479862656062],[-2.32806606828521,53.4798636965537],[-2.32768938209866,53.479864735858],[-2.32731269588887,53.479865773975],[-2.32693600965584,53.4798668109045],[-2.32655932339962,53.4798678466467],[-2.32618263712023,53.4798688812016],[-2.32580595081769,53.479869914569],[-2.32542926449204,53.4798709467491],[-2.32505257814329,53.4798719777418],[-2.32505086505236,53.4796472678159],[-2.32504915198447,53.4794225578815],[-2.32467246959558,53.479423587663],[-2.32467418067202,53.4796482976094],[-2.32429749626865,53.4796493262154],[-2.32392081184226,53.4796503536341],[-2.32354412739289,53.4796513798654],[-2.32354583251794,53.479876089839],[-2.32316914605414,53.4798771148948],[-2.32279245956742,53.4798781387633],[-2.32241577305779,53.4798791614444],[-2.32203908652528,53.4798801829381],[-2.32203738936613,53.4796554729171],[-2.32166070480225,53.4796564932116],[-2.32128402021555,53.4796575123188],[-2.32128232706213,53.4794328022656],[-2.32090564444408,53.4794338201735],[-2.32090395330485,53.4792091101],[-2.32052727265546,53.4792101268088],[-2.32052896180326,53.4794348368941],[-2.3201522791397,53.4794358524274],[-2.32015059198332,53.4792111423302],[-2.31977391128847,53.4792121566643],[-2.31939723057094,53.479213169811],[-2.31902054983074,53.4792141817704],[-2.31864386906792,53.4792151925425],[-2.31864218989982,53.4789904823897],[-2.31864051075431,53.4787657722283],[-2.31826383395164,53.4787667817895],[-2.31826215682006,53.4785420716079],[-2.31788548198262,53.4785430799562],[-2.31750880711983,53.4785440871064],[-2.31750713399506,53.4783193768979],[-2.31713046110211,53.4783203828524],[-2.31675378818664,53.4783213876195],[-2.31675211906907,53.4780966773858],[-2.31637544812347,53.4780976809573],[-2.31637378102068,53.4778729707068],[-2.31599711204494,53.4778739730826],[-2.31562044304678,53.4778749742711],[-2.315618779951,53.4776502639955],[-2.31599544695688,53.4776492628153],[-2.31599378189122,53.4774245525395],[-2.31637044688241,53.4774235501803],[-2.31636877984692,53.4771988399042],[-2.31674544282343,53.4771978363661],[-2.31674377381817,53.4769731260898],[-2.31712043477999,53.4769721213727],[-2.31711876380501,53.4767474110963],[-2.31749542275214,53.4767464052002],[-2.3174937498075,53.4765216949237],[-2.31711709285252,53.4765227008114],[-2.31674043587503,53.4765237055119],[-2.31673876693715,53.4762989952101],[-2.31673709802173,53.4760742848999],[-2.31711375101499,53.4760732802161],[-2.31711208012996,53.4758485699056],[-2.31673542912877,53.4758495745811],[-2.31635877810511,53.4758505780693],[-2.31598212705901,53.4758515803704],[-2.31560547599048,53.4758525814841],[-2.31560713890721,53.4760772918278],[-2.31598379196782,53.4760762907058],[-2.31598545689904,53.4763010010327],[-2.31598712185266,53.476525711351],[-2.31598878682869,53.4767504216609],[-2.31599045182713,53.4769751319623],[-2.31561379079796,53.4769761331176],[-2.31561545382659,53.4772008434187],[-2.3156171168776,53.4774255537114],[-2.31524045184159,53.4774265536959],[-2.31486378678321,53.4774275524932],[-2.31448712170248,53.4774285501032],[-2.31448546462818,53.4772038397857],[-2.31410880151737,53.4772048362002],[-2.31410714645757,53.4769801258659],[-2.31373048531669,53.4769811210848],[-2.31335382415354,53.4769821151163],[-2.31335217310038,53.4767574047571],[-2.31335052206945,53.4765326943893],[-2.3129738648684,53.4765336872171],[-2.31297221585182,53.4763089768326],[-2.3125955606207,53.476309968465],[-2.31221890536739,53.47631095891],[-2.31221726035721,53.4760862485006],[-2.31184060707386,53.4760872377502],[-2.31146395376838,53.4760882258126],[-2.31108730044081,53.4760892126877],[-2.31108566142899,53.4758645022452],[-2.31070901007142,53.4758654879249],[-2.31070737307372,53.4756407774656],[-2.31070573609804,53.4754160669979],[-2.31032908870251,53.475417051474],[-2.31032745369627,53.4751923410366],[-2.30995080827222,53.4751933243168],[-2.3099491751892,53.4749686139616],[-2.30957253173793,53.4749695960466],[-2.30957090067169,53.474744885675],[-2.3091942591932,53.4747458665648],[-2.30881761769275,53.4747468462675],[-2.30881599063797,53.4745221358715],[-2.30881436360511,53.4742974254669],[-2.30843772607219,53.4742984039665],[-2.30843610105593,53.4740736935455],[-2.3080594654958,53.47407467085],[-2.3080578424961,53.4738499604126],[-2.30768120890876,53.473850936522],[-2.30767958792556,53.4736262260681],[-2.307302956311,53.4736272009825],[-2.30730133734426,53.4734024905123],[-2.30692470770249,53.4734034642316],[-2.30692309075214,53.4731787537449],[-2.30654646308316,53.4731797262693],[-2.30616983539241,53.4731806976065],[-2.30617144835358,53.4734054081089],[-2.30617306133648,53.4736301186029],[-2.30617467434111,53.4738548290883],[-2.30617628736747,53.4740795395652],[-2.30579965167646,53.4740805097468],[-2.30579804064477,53.473855799262],[-2.30542140692671,53.4738567682486],[-2.30504477318696,53.4738577360479],[-2.30504316616626,53.4736330255389],[-2.30466653439948,53.4736339921433],[-2.30466492939505,53.4734092816179],[-2.30428829960125,53.4734102470274],[-2.30391166978585,53.4734112112497],[-2.30391006879221,53.4731865007002],[-2.30390846782014,53.4729617901421],[-2.30428509364639,53.4729608259355],[-2.30428669661302,53.4731855364857],[-2.30466332441223,53.4731845710841],[-2.30503995218979,53.4731836044954],[-2.3054165799457,53.4731826367195],[-2.30541497099537,53.4729579261928],[-2.30579159673502,53.4729569572377],[-2.30578998581184,53.4727322467104],[-2.30541336206672,53.4727332156576],[-2.30503673829992,53.4727341834178],[-2.30503513138744,53.4725094728662],[-2.30465850959348,53.4725104394314],[-2.30428188777789,53.4725114048096],[-2.30428028487603,53.4722866942338],[-2.30390366503331,53.472287658417],[-2.30352704516901,53.4722886214131],[-2.30352544627765,53.4720639108133],[-2.30314882838625,53.4720648726145],[-2.30277221047333,53.4720658332287],[-2.30277061559236,53.4718411226047],[-2.30239399965237,53.471842082024],[-2.3020173836909,53.4718430402562],[-2.30201579282023,53.4716183296082],[-2.30163917883173,53.4716192866456],[-2.3012625584908,53.4716202397845],[-2.30126097158484,53.4713955290926],[-2.30088434546949,53.4713964777178],[-2.30088276061018,53.4711717670219],[-2.30050613649823,53.4711727144644],[-2.30012951236469,53.4711736607198],[-2.30012793157698,53.4709489500244],[-2.29975130944686,53.4709498950971],[-2.29974973070567,53.4707251843979],[-2.29937311057899,53.470726128288],[-2.29937153388426,53.4705014175848],[-2.298994915761,53.4705023602923],[-2.29861829761626,53.4705033018126],[-2.29861672499286,53.4702785911101],[-2.29824010885158,53.4702795314479],[-2.29823853827451,53.4700548207415],[-2.29786192413669,53.4700557598967],[-2.29748530997746,53.4700566978648],[-2.29710869579687,53.4700576346458],[-2.29710713131579,53.4698329239446],[-2.29673051913871,53.4698338595431],[-2.29635390694032,53.4698347939545],[-2.29635234653024,53.4696100832541],[-2.29597573633539,53.469611016483],[-2.29597729472063,53.4698357271788],[-2.29560068247967,53.4698366592161],[-2.29560223886129,53.4700613698989],[-2.29522562457424,53.4700623007444],[-2.29522407021749,53.4698375900662],[-2.29522251588192,53.4696128793796],[-2.29559912611928,53.4696119485248],[-2.2955975697801,53.4693872378252],[-2.29522096156756,53.4693881686846],[-2.29521940727438,53.4691634579811],[-2.29484280106542,53.4691643876581],[-2.29446619483527,53.4691653161479],[-2.2944646446128,53.4689406054453],[-2.29408804038626,53.4689415327528],[-2.29408649220966,53.4687168220464],[-2.29370988998672,53.4687177481714],[-2.29333328774268,53.4687186731095],[-2.2933317436366,53.468493962404],[-2.2929551433962,53.4684948861596],[-2.29295360133585,53.4682701754504],[-2.29257700309908,53.4682710980237],[-2.2922004048413,53.46827201941],[-2.29219886685128,53.4680473087017],[-2.29182227059716,53.4680482289057],[-2.29144567432208,53.4680491479226],[-2.29144414040228,53.4678244372153],[-2.29106754613089,53.46782535505],[-2.29106601425661,53.467600644339],[-2.29068942198892,53.4676015609914],[-2.29031282970034,53.4676024764568],[-2.29031130189609,53.4673777657469],[-2.28993471161124,53.46737868003],[-2.28993318585238,53.4671539693164],[-2.28955659757125,53.4671548824174],[-2.28918000926932,53.4671557943313],[-2.28917848757808,53.4669310836194],[-2.28880190128109,53.4669319943509],[-2.28842531496321,53.4669329038954],[-2.28842379705116,53.4667081932613],[-2.28804721273721,53.4667091016265],[-2.28767062840257,53.4667100088048],[-2.28766911456,53.4664852981777],[-2.28729253222917,53.4664862041767],[-2.2869159498777,53.4664871089887],[-2.28691444010466,53.4662623983687],[-2.28653785975703,53.4662633020014],[-2.28616127938882,53.4662642044473],[-2.28615977368519,53.4660394938343],[-2.28578319532085,53.4660403951009],[-2.28578169166214,53.4658156844873],[-2.28540511530167,53.4658165845748],[-2.2850285389207,53.4658174834753],[-2.28502703933122,53.4655927728688],[-2.28465046357482,53.4655936699509],[-2.28465196116857,53.4658183805644],[-2.28427538030781,53.465819275039],[-2.28427388470276,53.4655945644118],[-2.28389730581058,53.4655954576859],[-2.28389581221433,53.4653707470364],[-2.28389431863817,53.4651460363784],[-2.28351774370321,53.4651469284384],[-2.28351625213577,53.464922217758],[-2.28389282508209,53.4649213257118],[-2.28389133154611,53.4646966150366],[-2.28351476058839,53.4646975070692],[-2.28313818961059,53.4646983979151],[-2.28313670007184,53.464473687204],[-2.28313521055313,53.4642489764843],[-2.28275864353241,53.4642498661161],[-2.28275715602225,53.4640251553742],[-2.28238059097003,53.4640260438057],[-2.28237910546837,53.4638013330416],[-2.28200254238465,53.4638022202726],[-2.28162597928097,53.4638031063171],[-2.28124941615735,53.4638039911748],[-2.28087285301382,53.4638048748459],[-2.2804962898504,53.4638057573303],[-2.28049776540959,53.4640304681626],[-2.28012120023782,53.4640313494739],[-2.28011972666713,53.463806638628],[-2.27974316346403,53.463807518739],[-2.27974463504622,53.4640322295986],[-2.27974610664821,53.4642569404495],[-2.27936953944828,53.4642578194011],[-2.27899297222858,53.464258697166],[-2.27861640498913,53.4642595737441],[-2.27861787064526,53.4644842846273],[-2.27824130139753,53.4644851600323],[-2.27823983772996,53.4642604491356],[-2.27786327045109,53.4642613233404],[-2.27786473213011,53.4644860342507],[-2.2778661938288,53.4647107451524],[-2.27748962255312,53.4647116181976],[-2.27748816284302,53.4644869072823],[-2.27711159353628,53.4644877791272],[-2.27673502420993,53.4644886497855],[-2.27635845486398,53.464489519257],[-2.27635990860835,53.4647142302128],[-2.27598333725427,53.4647150985112],[-2.27598478902958,53.464939809472],[-2.27598624082442,53.4651645204242],[-2.27560966547356,53.4651653875628],[-2.27560821566735,53.4649406765971],[-2.27523164228561,53.4649415425354],[-2.27485506888439,53.4649424072871],[-2.27485651471333,53.4651671182798],[-2.27523309010319,53.4651662535147],[-2.27523453794023,53.4653909644854],[-2.27485796056171,53.465391829264],[-2.27448138316374,53.4653926928558],[-2.27448282704288,53.4656174038449],[-2.27410624763679,53.4656182662635],[-2.27372966821128,53.4656191274953],[-2.27373110813242,53.4658438385028],[-2.27335452669882,53.4658446985613],[-2.27335596465059,53.4660694095736],[-2.2729793812089,53.4660702684588],[-2.27260279774788,53.4660711261572],[-2.27260423174144,53.4662958371878],[-2.27222764627236,53.4662966937129],[-2.27222907829641,53.4665214047484],[-2.27185249081926,53.4665222601],[-2.27185392087375,53.4667469711404],[-2.27147733138852,53.4667478253186],[-2.27147875924356,53.4669725361602],[-2.27110216774018,53.4669733891542],[-2.27110074188408,53.46674867831],[-2.27109931580724,53.4665239672429],[-2.27109788974959,53.4662992561672],[-2.27109646371111,53.466074545083],[-2.27109503769182,53.4658498339902],[-2.27071845612333,53.4658506857413],[-2.27071988015388,53.4660753968475],[-2.27072130420358,53.4663001079451],[-2.27034471863841,53.4663009585362],[-2.27034614071846,53.4665256696386],[-2.27034756281765,53.4667503807325],[-2.27034898467522,53.466975091581],[-2.27035040542282,53.4671998013959],[-2.26997381184377,53.4672006508063],[-2.26997523059315,53.4674253605905],[-2.27035182618976,53.4674245112024],[-2.27035324697605,53.4676492210007],[-2.26997664936185,53.4676500703664],[-2.26997806814986,53.467874780134],[-2.26960146849873,53.4678756282902],[-2.26960288528842,53.4681003380272],[-2.26922628360034,53.4681011849739],[-2.26922769839165,53.4683258946802],[-2.26885109466663,53.4683267404174],[-2.26885250745951,53.468551450093],[-2.26885392027163,53.4687761597604],[-2.26847731249194,53.4687770042656],[-2.26810070469043,53.4687778475808],[-2.26810211348889,53.4690025571979],[-2.26772550219541,53.4690033976877],[-2.26772690889801,53.4692281071497],[-2.26735029546351,53.4692289462976],[-2.26697368200912,53.4692297842574],[-2.26697508449467,53.4694544934105],[-2.26735170006754,53.4694536556015],[-2.26772831562052,53.4694528166043],[-2.26772972236294,53.4696775260517],[-2.26735310469145,53.469678364898],[-2.26697648700008,53.4696792025562],[-2.26659986928885,53.4696800390263],[-2.2662232515578,53.4696808743082],[-2.26584663380695,53.469681708402],[-2.26547001603633,53.4696825413076],[-2.26546862200496,53.4694578327651],[-2.26546722799334,53.4692331242152],[-2.26509061443997,53.4692339562344],[-2.26508922256654,53.469009247828],[-2.26508783071282,53.4687845394143],[-2.26508643887882,53.4685598309933],[-2.26508504706452,53.4683351225649],[-2.26508365526994,53.4681104141292],[-2.26470705228886,53.4681112457145],[-2.2647056626323,53.4678865374223],[-2.26432906174985,53.4678873679703],[-2.26432767423126,53.4676626598216],[-2.26395107544745,53.4676634893324],[-2.26357447664401,53.4676643176552],[-2.26319787782099,53.46766514479],[-2.26319649667683,53.4674404370865],[-2.2635730933816,53.4674396098009],[-2.26394969006677,53.4674387813272],[-2.26394830470572,53.4672140733147],[-2.26357171013878,53.4672149019392],[-2.26357032691556,53.4669901940702],[-2.26319373444722,53.4669910216576],[-2.26319235104187,53.4667663114188],[-2.26319096684745,53.4665416002964],[-2.26281437839845,53.4665424267548],[-2.26281576059491,53.4667671378731],[-2.26243917012929,53.4667679631405],[-2.26244054945189,53.4669926732683],[-2.26206395692496,53.4669934972916],[-2.26206257964502,53.4667687872209],[-2.26168598914214,53.4667696101144],[-2.26168461293955,53.4665448990085],[-2.26130802441604,53.4665457207192],[-2.26130665022996,53.466321009609],[-2.26093006368582,53.466321830137],[-2.2609286915162,53.4660971190225],[-2.2609273193651,53.4658724078996],[-2.26055073679821,53.4658732272489],[-2.26054936666349,53.4656485161218],[-2.26017278607595,53.4656493342884],[-2.26017141795755,53.4654246231569],[-2.25979483934935,53.4654254401408],[-2.25979347324721,53.4652007290052],[-2.25979210716352,53.4649760178611],[-2.25941553253244,53.4649768336665],[-2.25941416846494,53.4647521225181],[-2.25941280441585,53.4645274113614],[-2.25903623376181,53.4645282259883],[-2.25903487172882,53.4643035148274],[-2.25903350971422,53.464078803658],[-2.25865694303715,53.4640796171065],[-2.25865558303857,53.4638549059329],[-2.25865422305835,53.4636301947508],[-2.25827766035816,53.4636310070209],[-2.25827630239389,53.4634062958347],[-2.25827494444795,53.4631815846401],[-2.25827358652034,53.462956873437],[-2.25789702979448,53.4629576845329],[-2.2578956738827,53.4627329733257],[-2.25789431798923,53.46250826211],[-2.25789296211406,53.4622835508859],[-2.25751641136232,53.4622843608078],[-2.25751776524004,53.4625090720276],[-2.25714121247256,53.4625098807585],[-2.2571398605923,53.4622851695429],[-2.25676330980401,53.4622859770913],[-2.2563867589975,53.4622867834529],[-2.25601020817278,53.4622875886278],[-2.25563365732989,53.462288392616],[-2.25525710646884,53.4622891954174],[-2.25488055558967,53.4622899970321],[-2.25487921571221,53.4620652858337],[-2.25450266681237,53.4620660862659],[-2.25412611789446,53.4620668855114],[-2.25412745377707,53.4622915967012],[-2.25412878967771,53.4625163078825],[-2.25375223674688,53.4625171059327],[-2.25337568379803,53.462517902796],[-2.2533743518923,53.4622931916233],[-2.25337302000455,53.4620684804423],[-2.25374956895851,53.4620676835702],[-2.25374823509134,53.4618429723763],[-2.25337168813477,53.4618437692527],[-2.25299514116022,53.4618445649424],[-2.2529938113058,53.4616198537488],[-2.25299248146934,53.4613951425468],[-2.25299115165082,53.4611704313363],[-2.25336769263333,53.4611696356336],[-2.25336636083548,53.4609449244104],[-2.2533650290556,53.4607202131788],[-2.2533636972937,53.4604955019388],[-2.25374023226643,53.4604947050363],[-2.25373889852529,53.4602699937836],[-2.25373756480216,53.4600452825223],[-2.25373623109704,53.4598205712527],[-2.25411276006019,53.4598197731506],[-2.25448928900531,53.4598189738619],[-2.25486581793236,53.4598181733866],[-2.25524234684131,53.4598173717246],[-2.25524100516567,53.4595926604293],[-2.25561753205937,53.4595918575764],[-2.25599405893493,53.4595910535369],[-2.25599271328319,53.4593663422246],[-2.25636923814347,53.4593655369942],[-2.25674576298556,53.4593647305772],[-2.25674441335783,53.4591400192479],[-2.25712093618461,53.45913921164],[-2.25749745899314,53.4591384028455],[-2.25749610538953,53.4589136914994],[-2.25787262618273,53.458912881514],[-2.25824914695762,53.4589120703421],[-2.25824778937824,53.4586873589791],[-2.25862430813778,53.4586865466163],[-2.2586229484866,53.4584618352048],[-2.25899946523405,53.4584610216607],[-2.25899810355265,53.4582363102296],[-2.25937461829092,53.4582354955102],[-2.25937325463705,53.4580107840819],[-2.25974976736615,53.4580099681872],[-2.25974840173986,53.4577852567615],[-2.26012491245979,53.4577844396916],[-2.26012354486113,53.4575597282687],[-2.26050005357188,53.4575589100236],[-2.26049868400091,53.4573341986033],[-2.26087519070249,53.457333379183],[-2.26087381915926,53.4571086677654],[-2.26125032385167,53.4571078471699],[-2.26124895033624,53.4568831357551],[-2.26162545301947,53.4568823139845],[-2.26162407753189,53.4566576025724],[-2.26200057820595,53.4566567796266],[-2.26199920074627,53.4564320682173],[-2.26237569941116,53.4564312440964],[-2.26237431997944,53.4562065326898],[-2.26275081663516,53.4562057073938],[-2.26274943523145,53.4559809959899],[-2.263125929878,53.4559801695189],[-2.26312454650235,53.4557554581178],[-2.26350103913973,53.4557546304717],[-2.2634996537922,53.4555299190734],[-2.26387614442041,53.4555290902523],[-2.26387475710105,53.4553043788568],[-2.2642512457201,53.4553035488606],[-2.26424985642896,53.4550788374679],[-2.26462634303884,53.4550780062968],[-2.26462495177598,53.4548532949068],[-2.26500143637669,53.4548524625607],[-2.26500004314217,53.4546277511736],[-2.26537652573371,53.4546269176526],[-2.26537513052757,53.4544022062682],[-2.26575161110995,53.4544013715723],[-2.26575021393225,53.4541766601908],[-2.26612669250547,53.4541758243199],[-2.26612529335626,53.4539511129412],[-2.26650176992031,53.4539502758955],[-2.26650036879965,53.4537255645197],[-2.26687684335454,53.453724726299],[-2.26687544026247,53.4535000149261],[-2.2672519128082,53.4534991755305],[-2.26725050774479,53.4532744641605],[-2.26762697828135,53.4532736235901],[-2.26762557124665,53.4530489122229],[-2.26800203977406,53.4530480704777],[-2.26800063076811,53.4528233591134],[-2.26837709720012,53.4528225161747],[-2.2683756862256,53.452597804807],[-2.26875215061997,53.4525969606778],[-2.26875073767729,53.4523722493042],[-2.26912720006551,53.4523714039914],[-2.26912578515471,53.452146692612],[-2.26950224553678,53.4521458461156],[-2.26950082865793,53.4519211347304],[-2.26987728703385,53.4519202870504],[-2.26987586818698,53.4516955756594],[-2.27025232455675,53.4516947267958],[-2.27025090374193,53.451470015399],[-2.27062735810556,53.4514691653518],[-2.27062593532283,53.4512444539492],[-2.27100238768031,53.4512436027185],[-2.27100096292974,53.4510188913102],[-2.27137741328107,53.451018038896],[-2.27137598656271,53.4507933274819],[-2.2717524349079,53.4507924738841],[-2.27175100622179,53.4505677624643],[-2.27212745256083,53.4505669076831],[-2.27250389888063,53.4505660517157],[-2.27288034518115,53.4505651945622],[-2.27325679146238,53.4505643362224],[-2.27363323772427,53.4505634766965],[-2.27400968396681,53.4505626159844],[-2.27438613018997,53.4505617540861],[-2.27476257639372,53.4505608910016],[-2.27513902257804,53.4505600267309],[-2.2755154687429,53.4505591612741],[-2.27589191488827,53.450558294631],[-2.27626836101413,53.4505574268018],[-2.27664480712044,53.4505565577864],[-2.27702125320719,53.4505556875847],[-2.27739769927434,53.4505548161969],[-2.27739624080402,53.4503301048104],[-2.27777268486465,53.4503292322393],[-2.27814912890564,53.450328358482],[-2.27852557292696,53.4503274835385],[-2.27852410853369,53.4501027720717],[-2.27890055054728,53.4501018959484],[-2.27927699254113,53.4501010186389],[-2.27965343451522,53.4501001401434],[-2.27965196418255,53.4498754286635],[-2.27965049386966,53.4496507171752],[-2.27964902357656,53.4494260056783],[-2.27964755330324,53.4492012941729],[-2.28002398730357,53.449200414524],[-2.28040042128407,53.4491995336889],[-2.28077685524473,53.4491986516678],[-2.28115328918552,53.4491977684605],[-2.2815297231064,53.4491968840672],[-2.28190615700736,53.4491959984878],[-2.28228259088837,53.4491951117223],[-2.28265902474939,53.4491942237707],[-2.28303545859041,53.4491933346331],[-2.2834118924114,53.4491924443093],[-2.28341338256921,53.4494171557324],[-2.28341487274707,53.4496418671471],[-2.28379131052491,53.4496409756207],[-2.28379280271132,53.4498656870185],[-2.28416924245758,53.4498647942977],[-2.28417073665259,53.4500895056788],[-2.28417223086753,53.450314217045],[-2.28454867457041,53.4503133231227],[-2.28455017079162,53.4505380344531],[-2.28455166703295,53.450762745775],[-2.28492811176063,53.4507618493052],[-2.28492960999727,53.4509865606081],[-2.28530605283705,53.4509856611608],[-2.28530755311647,53.4512103724642],[-2.28530905341634,53.4514350837592],[-2.28568550028038,53.4514341831431],[-2.28568700262312,53.4516588944385],[-2.28606345148907,53.4516579926448],[-2.28606495587473,53.4518827039405],[-2.28606646028089,53.4521074152279],[-2.28606796470757,53.4523321265069],[-2.28644441962038,53.4523312235531],[-2.28644592609008,53.4525559348324],[-2.28644743258032,53.4527806461034],[-2.2864489390911,53.453005357366],[-2.28682540005098,53.453004453252],[-2.28720186099029,53.4530035479517],[-2.2872033715668,53.4532282592233],[-2.28757983450809,53.4532273527453],[-2.28758134712781,53.4534520640173],[-2.28758285976816,53.4536767752809],[-2.28795932673408,53.4536758676339],[-2.28796084141773,53.4539005788978],[-2.28796235612203,53.4541252901534],[-2.28833882711267,53.4541243813373],[-2.28834034386034,53.4543490925932],[-2.28871681685302,53.4543481825993],[-2.28871833564413,53.4545728938555],[-2.28909481063884,53.4545719826839],[-2.28909633147344,53.4547966939404],[-2.28947280847019,53.4547957815909],[-2.28947433134833,53.4550204928477],[-2.28985081034712,53.4550195793205],[-2.28985233526885,53.4552442905775],[-2.29022881626968,53.4552433758724],[-2.29023034323506,53.4554680871298],[-2.29060682623792,53.4554671712468],[-2.29060835524701,53.4556918825044],[-2.29060988427695,53.4559165937536],[-2.29098637130475,53.4559156767014],[-2.29098790237847,53.4561403879508],[-2.29136439140833,53.4561394697208],[-2.2913659245259,53.4563641809704],[-2.29174241555782,53.4563632615624],[-2.29174395071928,53.4565879728123],[-2.29212044375325,53.4565870522264],[-2.29212198095866,53.4568117634765],[-2.29212351818502,53.4570364747183],[-2.29250001524411,53.4570355529629],[-2.2925015545145,53.4572602642049],[-2.29287805357567,53.4572593412716],[-2.29287959489014,53.4574840525137],[-2.29325609595339,53.4574831284024],[-2.29325763931201,53.4577078396448],[-2.29363414237733,53.4577069143554],[-2.29363568778015,53.4579316255979],[-2.29401219284755,53.4579306991305],[-2.29401374029461,53.4581554103732],[-2.29401528776277,53.4583801216076],[-2.29439179685546,53.4583791939706],[-2.2943933463681,53.4586039052024],[-2.29476985746286,53.4586029763881],[-2.29477140902973,53.458827687453],[-2.29514792212684,53.4588267574595],[-2.29514947573839,53.4590514685236],[-2.29552599083784,53.459050537351],[-2.29552754649413,53.4592752484142],[-2.29552910217163,53.459499959469],[-2.295905621297,53.4594990271248],[-2.29590717901932,53.4597237381787],[-2.29628370014706,53.4597228046553],[-2.29628525991425,53.4599475157083],[-2.29666178304435,53.4599465810056],[-2.29666334485647,53.4601712920577],[-2.29703986998894,53.4601703561759],[-2.29704143384604,53.460395067227],[-2.29704299772446,53.4606197782699],[-2.29666646854457,53.4606207141368],[-2.29628993934338,53.460621648817],[-2.29629149919561,53.4608463598365],[-2.2959149679494,53.4608472933226],[-2.29591652579911,53.4610720043262],[-2.29553999250787,53.4610729366181],[-2.2951634591954,53.4610738677232],[-2.29478692586174,53.4610747976416],[-2.29478847766127,53.4612995086143],[-2.29441194228264,53.4613004373385],[-2.29403540688286,53.4613013648759],[-2.29403695465588,53.4615260758252],[-2.29366041721116,53.4615270021684],[-2.29366196298142,53.4617517131018],[-2.29403850245001,53.4617507867662],[-2.29441504189748,53.4617498592438],[-2.29441659173659,53.4619745701839],[-2.2947931331868,53.4619736414823],[-2.29516967461585,53.461972711594],[-2.29517122852391,53.4621974225407],[-2.29554777195568,53.4621964914731],[-2.29592431536621,53.4621955592187],[-2.2963008587555,53.4621946257775],[-2.29667740212351,53.4621936911496],[-2.29705394547021,53.4621927553348],[-2.29743048879557,53.4621918183333],[-2.29780703209958,53.462190880145],[-2.29780546402413,53.461966169146],[-2.29818200528283,53.4619652297635],[-2.29855854652012,53.4619642891942],[-2.29893508773596,53.4619633474382],[-2.29931162893034,53.4619624044954],[-2.29968817010322,53.4619614603658],[-2.29968659192972,53.4617367493214],[-2.30006313105719,53.4617358039977],[-2.30043967016311,53.4617348574872],[-2.30081620924745,53.46173390979],[-2.30119274831019,53.461732960906],[-2.30119116206278,53.4615082498236],[-2.30156769457363,53.4615072977795],[-2.3019442191192,53.4615063410832],[-2.30232074364343,53.4615053832001],[-2.3026972681463,53.4615044241305],[-2.30307379262779,53.4615034638742],[-2.30307219651913,53.4612787528341],[-2.30269567401927,53.4612797130829],[-2.30269407991361,53.4610550020268],[-2.30231755937397,53.4610559610815],[-2.30194103881297,53.4610569189497],[-2.30156451823063,53.4610578756312],[-2.30156610639149,53.4612825867096],[-2.30118957583699,53.4612835387329],[-2.30081304082194,53.4612844876317],[-2.30043650578528,53.4612854353436],[-2.30005997072705,53.4612863818688],[-2.29968343564726,53.4612873272073],[-2.29968501377774,53.4615120382685],[-2.2993084766526,53.4615129824129],[-2.29893193950596,53.4615139253705],[-2.29855540233785,53.4615148671413],[-2.2981788651483,53.4615158077254],[-2.29780232793734,53.4615167471228],[-2.29780389597005,53.4617414581386],[-2.29742735671384,53.4617423963418],[-2.29705081743627,53.4617433333582],[-2.29667427813736,53.4617442691878],[-2.29629773881715,53.4617452038307],[-2.29592119947567,53.4617461372869],[-2.29554466011293,53.4617470695562],[-2.29554310422337,53.4615223585852],[-2.29591964156225,53.4615214263084],[-2.29629617887988,53.4615204928447],[-2.29629461896386,53.4612957818504],[-2.29667115423638,53.4612948471926],[-2.29704768948759,53.461293911348],[-2.29704612554523,53.4610692003303],[-2.29742265875131,53.4610682632916],[-2.29742109280649,53.4608435522581],[-2.29779762396743,53.4608426140251],[-2.29817415510699,53.4608416746055],[-2.29855068622514,53.4608407339991],[-2.29854911423041,53.4606160229349],[-2.29892564330337,53.4606150811344],[-2.29930217235486,53.4606141381472],[-2.29930059633412,53.4603894270599],[-2.29929902033486,53.4601647159642],[-2.29929744435708,53.45994000486],[-2.29967396731599,53.4599390606639],[-2.30005049025339,53.4599381152812],[-2.30004891024981,53.4597134041539],[-2.30042543114201,53.4597124575771],[-2.30080195201265,53.4597115098136],[-2.30117847286168,53.4597105608634],[-2.3011768868088,53.4594858497057],[-2.30117530077753,53.4592611385395],[-2.30155181371008,53.4592601866977],[-2.30155022574079,53.4590354755428],[-2.30192672848989,53.459034518928],[-2.30192513856054,53.458809807772],[-2.30230163930698,53.4588088499782],[-2.30267814003206,53.4588078909978],[-2.30267654616049,53.4585831798346],[-2.30305304488219,53.4585822196747],[-2.30305144903153,53.4583575083466],[-2.30342794574249,53.4583565470101],[-2.30342634792404,53.4581318356834],[-2.30380284262425,53.4581308731701],[-2.30380124283807,53.4579061618448],[-2.30417773552753,53.457905198155],[-2.30417613377367,53.457680486831],[-2.30455262445239,53.4576795219646],[-2.30492911510954,53.4576785559117],[-2.30492750939888,53.4574538445989],[-2.30530399804525,53.4574528773696],[-2.30530239036705,53.4572281660581],[-2.30567887700266,53.4572271976522],[-2.30567726735696,53.4570024863422],[-2.3056756577329,53.4567777750236],[-2.30605214036866,53.4567768054511],[-2.30642862298273,53.4567758346921],[-2.30680510557509,53.4567748627468],[-2.30718158814571,53.4567738896151],[-2.30717997058708,53.4565491783277],[-2.30755645114688,53.4565482040195],[-2.30793293168489,53.456547228525],[-2.30793455322162,53.4567719397925],[-2.30793617478016,53.4569966510515],[-2.30793779636049,53.457221362302],[-2.30756130985525,53.4572223378264],[-2.30756292946826,53.4574470490783],[-2.30756454910304,53.4576717603216],[-2.3075661687596,53.4578964715565],[-2.30756778843794,53.4581211827828],[-2.30756940813805,53.4583458940006],[-2.30719291166508,53.4583468683883],[-2.3071945293977,53.4585715796075],[-2.30719614705771,53.4587962906863],[-2.30719776472573,53.4590210017374],[-2.30719938241543,53.45924571278],[-2.30682287798599,53.4592466860135],[-2.30682449371598,53.4594713970551],[-2.30682610946764,53.4596961080883],[-2.30644960105373,53.4596970801504],[-2.30607309261817,53.459698051026],[-2.3060747044286,53.4599227620657],[-2.30569819398998,53.4599237317622],[-2.30569980384056,53.460148442801],[-2.30607631626065,53.4601474730969],[-2.30607792811429,53.4603721841196],[-2.30607953998955,53.4605968951338],[-2.30645605635102,53.4605959242281],[-2.30645444249425,53.4603712132214],[-2.30683095685256,53.4603702411367],[-2.30682934103593,53.460145530129],[-2.30645282865911,53.4601465022063],[-2.3064512148456,53.4599217911826],[-2.30682772524096,53.4599208191129],[-2.30720423561463,53.4599198458567],[-2.3075807459666,53.4599188714139],[-2.30795725629684,53.4599178957846],[-2.30795563457921,53.4596931847827],[-2.30795401288333,53.4594684737722],[-2.30795239120917,53.4592437627533],[-2.30757588682316,53.4592447383599],[-2.30757426715211,53.4590200273249],[-2.30757264750276,53.4587953162813],[-2.30794914792608,53.4587943406899],[-2.30794752630038,53.4585696296257],[-2.30794590458922,53.4583449184264],[-2.30794428289987,53.4581202072185],[-2.30794266123232,53.4578954960022],[-2.30794103958658,53.4576707847773],[-2.30831753004829,53.4576698080465],[-2.30831590643519,53.4574450968231],[-2.30831428284392,53.4572203855911],[-2.30831265927447,53.4569956743506],[-2.30868914374694,53.4569946964633],[-2.30906562819754,53.4569937173896],[-2.30944211262624,53.4569927371295],[-2.309818597033,53.456991755683],[-2.31019508141782,53.4569907730501],[-2.31019671493278,53.4572154842406],[-2.31057320128472,53.4572145004113],[-2.31057156578065,53.4569897892308],[-2.31094805012147,53.456988804225],[-2.31132453444026,53.4569878180329],[-2.31170101873699,53.4569868306543],[-2.31170266020836,53.4572115418047],[-2.3120791464721,53.4572105532297],[-2.31245563271373,53.4572095634682],[-2.31283211893321,53.4572085725204],[-2.31320860513053,53.4572075803861],[-2.31358509130565,53.4572065870654],[-2.31396157745854,53.4572055925583],[-2.31433806358919,53.4572045968648],[-2.31433971900652,53.457429307936],[-2.31471620710401,53.4574283110459],[-2.31509269517921,53.4574273129694],[-2.3150943545971,53.4576520240118],[-2.31547084463911,53.4576510247387],[-2.3154725060685,53.4578757357624],[-2.31584899807733,53.4578747352927],[-2.31584733465877,53.4576500242792],[-2.31584567126257,53.4574253132571],[-2.31546918323207,53.4574263137065],[-2.31546752184736,53.4572016026657],[-2.31509103578362,53.4572026019185],[-2.31471454969756,53.4572035999848],[-2.31471289231338,53.4569788889153],[-2.31433640819411,53.4569798857851],[-2.31395992405257,53.4569808814685],[-2.31395827066882,53.4567561703701],[-2.31395661730731,53.4565314592633],[-2.31395496396802,53.4563067481478],[-2.31357848577136,53.4563077426145],[-2.3135768344433,53.4560830314805],[-2.31320035821341,53.4560840247506],[-2.31282388196133,53.4560850168344],[-2.31282552931141,53.4563097279887],[-2.31282717668364,53.4565344391344],[-2.31282882407801,53.4567591502716],[-2.3124523418367,53.4567601411993],[-2.31207585957325,53.4567611309406],[-2.31169937728769,53.4567621194955],[-2.31132289498004,53.456763106864],[-2.31094641265032,53.4567640930461],[-2.31056993029857,53.4567650780417],[-2.31019344792482,53.4567660618511],[-2.30981696552908,53.456767044474],[-2.30944048311139,53.4567680259105],[-2.30943885361845,53.4565433146829],[-2.30906237316788,53.456544294923],[-2.30868589269542,53.4565452739767],[-2.30868426720243,53.4563205627206],[-2.30906074568588,53.4563195836769],[-2.30905911822575,53.4560948724222],[-2.30868264173131,53.456095851456],[-2.30830616521499,53.4560968293034],[-2.30830778869712,53.456321540578],[-2.30793131016996,53.456322517249],[-2.30792968867682,53.4560978059644],[-2.30792806720549,53.4558730946713],[-2.30830454175468,53.4558721180203],[-2.30868101628203,53.4558711401829],[-2.30867939085461,53.4556464289012],[-2.30905586337114,53.4556454498874],[-2.30943233586578,53.4556444696873],[-2.30943070648238,53.4554197584171],[-2.30980717696617,53.4554187770406],[-2.31018364742801,53.4554177944778],[-2.31018201408873,53.455193083219],[-2.31055848253971,53.4551920994799],[-2.31093495096867,53.4551911145544],[-2.31093331367364,53.4549664033072],[-2.31130978009171,53.4549654172055],[-2.31168624648773,53.4549644299174],[-2.31168460523704,53.4547397186818],[-2.31206106962213,53.4547387302175],[-2.31206271286166,53.4549634414431],[-2.31243917921348,53.4549624517824],[-2.31243753398512,53.4547377405669],[-2.31243588877888,53.4545130293428],[-2.31281235113093,53.454512038516],[-2.31281399832597,53.4547367497299],[-2.31319046264466,53.4547357577067],[-2.31356692694115,53.4547347644971],[-2.31356527576849,53.4545100533034],[-2.31394173805396,53.4545090589176],[-2.31431820031719,53.4545080633455],[-2.31431985546746,53.454732774519],[-2.31469631969722,53.4547317777505],[-2.31469797685857,53.4549564889054],[-2.31507444305486,53.4549554909404],[-2.31507278390468,53.4547307797957],[-2.3150711247768,53.4545060686425],[-2.31506946567123,53.4542813574807],[-2.31544592587879,53.4542803583599],[-2.31582238606399,53.4542793580528],[-2.31582072300323,53.4540546469028],[-2.31619718117731,53.4540536454196],[-2.31657363932898,53.4540526427501],[-2.31695009745822,53.4540516388943],[-2.317326555565,53.4540506338523],[-2.31732822658076,53.4542753449615],[-2.3177046866538,53.454274338723],[-2.3177030136493,53.4540496276239],[-2.31807947171109,53.4540486202093],[-2.31845592915968,53.4540476118931],[-2.3184542521959,53.4538229008163],[-2.3188307075992,53.4538218913491],[-2.31920716297984,53.4538208806958],[-2.3192088439359,53.4540455917278],[-2.31958530128999,53.4540445798659],[-2.31996175862137,53.4540435668178],[-2.31996344359243,53.4542682777963],[-2.32033990289724,53.4542672635397],[-2.3203415898872,53.4544919744871],[-2.32034327689991,53.4547166854259],[-2.32071974017436,53.4547156699381],[-2.32072142920607,53.4549403808458],[-2.32072311826055,53.4551650917449],[-2.32109958550472,53.4551640750259],[-2.32110127657828,53.4553887858939],[-2.32147774579593,53.4553877679663],[-2.32147943888861,53.4556124788031],[-2.32148113200412,53.4558371896313],[-2.3218576051916,53.4558361704725],[-2.3222340783562,53.4558351501274],[-2.3222357754873,53.456059860902],[-2.32261225062537,53.4560588393482],[-2.32261394977576,53.4562835500916],[-2.32299042688731,53.456282527329],[-2.32299212805704,53.4565072380413],[-2.32336860714206,53.4565062140699],[-2.32374508620409,53.4565051889123],[-2.32374679138968,53.4567298995708],[-2.32412327242515,53.4567288732043],[-2.32449975343759,53.4567278456516],[-2.32450146263913,53.4569525562564],[-2.32487794562499,53.4569515274948],[-2.32487965684609,53.4571762380684],[-2.32525614180536,53.457175208098],[-2.3256326267415,53.4571741769412],[-2.3260091116545,53.4571731445982],[-2.32638559654433,53.4571721110688],[-2.32676208141095,53.4571710763532],[-2.32713856625434,53.4571700404512],[-2.32714028947772,53.4573947508806],[-2.32751677629439,53.4573937137697],[-2.32751505107448,53.457169003363],[-2.32789153587134,53.4571679650884],[-2.32826802064488,53.4571669256276],[-2.32826974985786,53.457391635989],[-2.32827147909415,53.4576163463418],[-2.32827320835376,53.4578410566859],[-2.32827493763669,53.4580657670214],[-2.32789844487686,53.4580668065729],[-2.32790017218647,53.4582915169223],[-2.32790189951937,53.4585162272632],[-2.32790362666985,53.4587409377794],[-2.32790535372261,53.4589656483954],[-2.32790708079866,53.4591903590029],[-2.32790880789802,53.4594150696019],[-2.32791053502067,53.4596397801924],[-2.32791226216662,53.4598644907743],[-2.32753575340538,53.4598655292409],[-2.32715924462085,53.459866566521],[-2.32715752146952,53.4596418559225],[-2.32678101465904,53.4596428920078],[-2.32640450782532,53.4596439269066],[-2.32640278869181,53.4594192162831],[-2.32602628383217,53.4594202499871],[-2.32564977894935,53.4594212825046],[-2.32564806383355,53.4591965718561],[-2.32527156092484,53.4591976031788],[-2.32526984782941,53.4589728925136],[-2.3248933468948,53.4589739226416],[-2.32489505799299,53.459198633315],[-2.32489676911426,53.4594233439799],[-2.32527327404337,53.4594223138355],[-2.32527498718501,53.4596470244837],[-2.32565149408828,53.4596459931445],[-2.32565320925035,53.4598707037759],[-2.32527670034977,53.4598717351233],[-2.32490019142606,53.4598727652841],[-2.32452368247925,53.4598737942584],[-2.32414717350936,53.4598748220461],[-2.32377066451643,53.4598758486473],[-2.32339415550047,53.4598768740619],[-2.32301764646152,53.45987789829],[-2.3226411373996,53.4598789213316],[-2.32226462831474,53.4598799431866],[-2.32188811920697,53.459880963855],[-2.32188981441874,53.4601056745596],[-2.32226632552386,53.4601046538831],[-2.32264283660606,53.4601036320199],[-2.32301934766533,53.4601026089702],[-2.32302104889208,53.460327319642],[-2.32339756192575,53.4603262953976],[-2.32377407493642,53.4603252699666],[-2.32377236971492,53.4601005593112],[-2.3241488807052,53.4600995327018],[-2.32452539167243,53.4600985049059],[-2.32490190261658,53.4600974759235],[-2.32527841353764,53.4600964457545],[-2.32565492443556,53.4600954143989],[-2.32603143531032,53.4600943818567],[-2.32640794616191,53.460093348128],[-2.32678445699028,53.4600923132128],[-2.32716096779542,53.460091277111],[-2.32716269099323,53.4603159876925],[-2.32753920377247,53.4603149503959],[-2.32791571652842,53.4603139119127],[-2.32791744374427,53.4605386224691],[-2.32829395847429,53.4605375827911],[-2.32867047318096,53.4605365419265],[-2.32904698786427,53.4605354998753],[-2.32904525465624,53.4603107893438],[-2.3290435214716,53.4600860788037],[-2.32942003213674,53.4600850355826],[-2.32979654277847,53.4600839911749],[-2.33017305339674,53.4600829455807],[-2.33054956399153,53.4600818987999],[-2.33092607456281,53.4600808508325],[-2.33130258511056,53.4600798016786],[-2.33167909563476,53.4600787513382],[-2.33167734849214,53.459854040848],[-2.33205385699541,53.4598529893294],[-2.33243036547507,53.4598519366242],[-2.33280687393108,53.4598508827325],[-2.33318338236343,53.4598498276543],[-2.33355989077208,53.4598487713895],[-2.33356164790137,53.4600734818377],[-2.33393815828364,53.4600724243779],[-2.33431466864215,53.4600713657316],[-2.33431642978986,53.4602960761544],[-2.33469294212196,53.4602950163131],[-2.33506945419336,53.4602939559368],[-2.33507121935551,53.4605186663293],[-2.33507298454144,53.4607433767131],[-2.33507474975115,53.4609680870883],[-2.33507651498464,53.461192797455],[-2.33469999494006,53.4611938578855],[-2.33470175820405,53.4614185682573],[-2.33432523588475,53.4614196281409],[-2.33432699717501,53.4616443385126],[-2.33395047283441,53.461645397218],[-2.33395223215088,53.4618701075897],[-2.33432875848902,53.4618690488758],[-2.33433051982679,53.4620937592306],[-2.33470704813873,53.4620926993217],[-2.33470881149786,53.4623174096595],[-2.33508534150882,53.4623163491589],[-2.33508710688501,53.4625410594739],[-2.33546363882314,53.462539997863],[-2.33546187145264,53.462315287567],[-2.33546010410595,53.4620905772624],[-2.33545833678307,53.4618658669492],[-2.33583486271451,53.4618648042086],[-2.3358330934212,53.4616400939057],[-2.33583132415173,53.4614153835942],[-2.33620784607087,53.4614143197051],[-2.33620607483106,53.4611896094039],[-2.3362043036151,53.4609648990942],[-2.3358277856843,53.4609659629454],[-2.33545126772964,53.4609670256101],[-2.3354495005258,53.4607423152538],[-2.33582601648633,53.4607412526081],[-2.3358242473122,53.4605165422621],[-2.33620076125478,53.4605154784488],[-2.33619899011041,53.4602907681132],[-2.33657550203504,53.4602897031324],[-2.33695201393576,53.4602886369652],[-2.33695023882716,53.4600639266589],[-2.33694846374247,53.4598392163441],[-2.3373249716312,53.4598381490283],[-2.33732319457643,53.4596134387238],[-2.3373214175456,53.4593887284107],[-2.33769792142242,53.4593876599466],[-2.33769614242159,53.4591629496438],[-2.33807264428048,53.4591618800123],[-2.33807086330971,53.4589371697199],[-2.33844736315068,53.458936098921],[-2.33844914611536,53.4591608091943],[-2.3388256479262,53.4591597371899],[-2.33920214971298,53.459158663999],[-2.33957865147566,53.4591575896218],[-2.33958044044617,53.4593822998294],[-2.33995694417866,53.4593812242467],[-2.34033344788702,53.4593801474776],[-2.34033524086954,53.4596048576384],[-2.34071174654768,53.4596037796638],[-2.34071354154835,53.4598284897969],[-2.34109004919628,53.4598274106168],[-2.34109184621514,53.4600521207222],[-2.34146835583285,53.4600510403366],[-2.34147015486997,53.4602757504143],[-2.34184666645746,53.4602746688231],[-2.34184846751288,53.4604993788731],[-2.34222498107016,53.4604982960763],[-2.34222678414393,53.4607230060985],[-2.34260329967099,53.4607219220962],[-2.34260510476317,53.4609466320907],[-2.34298162226002,53.4609455468827],[-2.34298342937066,53.4611702568495],[-2.34335994883729,53.4611691704358],[-2.34373646827952,53.4611680828357],[-2.34373827940285,53.4613927927556],[-2.34411480081484,53.4613917039498],[-2.34449132220238,53.4613906139575],[-2.34449313733851,53.4616153238304],[-2.34486966069577,53.4616142326324],[-2.34524618402854,53.4616131402479],[-2.34524800317757,53.4618378500738],[-2.34562452848003,53.4618367564836],[-2.34600105375794,53.4618356617069],[-2.34637757901127,53.4618345657437],[-2.34637940416755,53.4620592755033],[-2.34675593139052,53.4620581783343],[-2.34713245858885,53.4620570799788],[-2.34713428775827,53.4622817896913],[-2.34751081692622,53.46228069013],[-2.34788734606947,53.4622795893821],[-2.34788917925214,53.4625042990475],[-2.3478910124595,53.4627290087044],[-2.34826754556667,53.4627279067314],[-2.3486440786491,53.4627268035719],[-2.34902061170675,53.4627256992259],[-2.3493971447396,53.4627245936932],[-2.34939898594908,53.4629493032643],[-2.34977552095146,53.4629481965258],[-2.35015205592899,53.4629470886007],[-2.35015390115203,53.4631717981245],[-2.35053043809906,53.4631706889936],[-2.35090697502118,53.463169578676],[-2.35090882425789,53.4633942881525],[-2.35128536314949,53.4633931766291],[-2.35166190241397,53.4633920644367],[-2.35166004918985,53.4631673549924],[-2.35203658667524,53.4631662419319],[-2.35203844188658,53.4633909513609],[-2.35204029712285,53.4636156607814],[-2.35241683855777,53.4636145465037],[-2.35241869580623,53.4638392559002],[-2.35279523920346,53.4638381404206],[-2.35279709846418,53.4640628497932],[-2.35317364382371,53.4640617331115],[-2.35355018915821,53.4640606152433],[-2.35392673446767,53.4640594961883],[-2.35430327975204,53.4640583759467],[-2.35430141254212,53.4638336666355],[-2.35467795581408,53.4638325452226],[-2.35467982501131,53.4640572545185],[-2.35468169423365,53.4642819638057],[-2.35505824145511,53.4642808411754],[-2.35505637024545,53.4640561319036],[-2.35543291545443,53.464055008102],[-2.35543478865142,53.4642797173585],[-2.35581133582254,53.4642785923549],[-2.35581321103205,53.4645033015874],[-2.35581508626675,53.4647280108112],[-2.35581696152665,53.4649527200266],[-2.35581883681174,53.4651774292333],[-2.35582071212202,53.4654021384314],[-2.3558225874575,53.465626847621],[-2.35582446281817,53.465851556802],[-2.35582633820404,53.4660762659744],[-2.35620290124952,53.4660751396608],[-2.35620102387611,53.4658504305038],[-2.3565775849088,53.4658493030189],[-2.35657946426975,53.4660740121604],[-2.35695602726471,53.4660728834733],[-2.35733259023438,53.4660717535995],[-2.35733070689835,53.4658470444888],[-2.35770726785515,53.4658459134437],[-2.35808382878661,53.4658447812119],[-2.35846038969268,53.4658436477934],[-2.35883695057336,53.4658425131881],[-2.35883505931259,53.4656178041307],[-2.35845850041943,53.4656189387205],[-2.35808194150086,53.4656200721236],[-2.35808005424047,53.4653953630267],[-2.35770349728401,53.4653964952276],[-2.35732694030221,53.4653976262418],[-2.35695038329508,53.4653987560692],[-2.35657382626265,53.46539988471],[-2.3565757055731,53.4656245938687],[-2.35619914652792,53.4656257213382],[-2.35619726920496,53.4654010121641],[-2.35619539190721,53.4651763029813],[-2.35619351463469,53.46495159379],[-2.35657006771749,53.4649504663668],[-2.35694662077503,53.4649493377569],[-2.35694850202241,53.4651740469174],[-2.35732505704209,53.4651729171054],[-2.35770161203644,53.4651717861066],[-2.35807816700544,53.4651706539212],[-2.35807627979576,53.4649459448071],[-2.35845283275196,53.4649448114505],[-2.35882938568275,53.4649436769072],[-2.35920593858812,53.4649425411771],[-2.35920783176008,53.4651672502448],[-2.35920972495749,53.4653919593038],[-2.35958628181228,53.4653908223561],[-2.35958438662742,53.4651661133126],[-2.35996094146928,53.4651649751937],[-2.36033749628563,53.4651638358881],[-2.36071405107644,53.4651626953958],[-2.36071595222366,53.4653874043927]]],[[[-2.3547209549467,53.4690008578],[-2.3543443656758,53.4690019794907],[-2.35396777637949,53.4690030999945],[-2.35359118705777,53.4690042193113],[-2.35321459771069,53.4690053374411],[-2.35321273589999,53.4687806282029],[-2.35321087411461,53.4685559189562],[-2.3535874594241,53.4685548008405],[-2.35396404470822,53.4685536815378],[-2.35396217891065,53.4683289722967],[-2.35433876215063,53.4683278518142],[-2.35434062996695,53.4685525610482],[-2.35434249780868,53.4687772702737],[-2.35471908506077,53.4687761485901],[-2.3547209549467,53.4690008578]]],[[[-2.35963747227837,53.4714579675336],[-2.36001408339909,53.4714568291462],[-2.36039069449397,53.4714556895718],[-2.360392594972,53.4716803985722],[-2.36039449547587,53.4719051075641],[-2.36001788034271,53.471906247153],[-2.35964126518371,53.4719073855549],[-2.35963936871815,53.4716826765485],[-2.35963747227837,53.4714579675336]]]]}}