{"type":"Feature","properties":{"code":"E63004436","name":"Smallford"},"geometry":{"type":"MultiPolygon","coordinates":[[[[-0.271196196711314,51.7548235131432],[-0.271187601288128,51.7550481955316],[-0.271179005748194,51.7552728779115],[-0.270816992041324,51.7552675516342],[-0.270808394485524,51.7554922339844],[-0.271170410091513,51.7554975602827],[-0.271161814318081,51.7557222426454],[-0.271153218427897,51.7559469249994],[-0.27151523794898,51.7559522502242],[-0.271506643841235,51.7561769325907],[-0.271868665378275,51.7561822567208],[-0.271877257586825,51.7559575743332],[-0.271885849678669,51.755732891937],[-0.272247867534076,51.7557382149093],[-0.27225645761007,51.7555135324834],[-0.272618473683037,51.7555188543189],[-0.272980489872686,51.7555241750387],[-0.273342506178994,51.7555294946428],[-0.273333921800459,51.7557541771317],[-0.273695940122555,51.7557594956411],[-0.273687357526595,51.7559841781424],[-0.273325337305317,51.755978859612],[-0.272963317200677,51.7559735399659],[-0.272601297212698,51.7559682192041],[-0.272592708802544,51.7561929016338],[-0.272954730689724,51.7561982224166],[-0.272946144062137,51.7564229048587],[-0.273308167965209,51.7564282245469],[-0.273299583120237,51.7566529070014],[-0.272937557317914,51.7566475872923],[-0.272575531632258,51.7566422664673],[-0.272566942872122,51.7568669488712],[-0.272928970457052,51.7568722697172],[-0.272920383479549,51.7570969521335],[-0.27328241308045,51.7571022718847],[-0.273273827885629,51.7573269543135],[-0.273265242574189,51.7575516367337],[-0.273627276090415,51.7575569554111],[-0.273618692561729,51.7577816378437],[-0.273610108916442,51.7580063202677],[-0.273972146348074,51.7580116378714],[-0.274334183896311,51.7580169543593],[-0.274342763742791,51.7577922718933],[-0.274704799508203,51.7577975872444],[-0.275066835390168,51.7578029014797],[-0.275075411321331,51.7575782189631],[-0.275437445420439,51.7575835320616],[-0.27544601933574,51.7573588495155],[-0.275808051651986,51.7573641614772],[-0.275799479636049,51.7575888440443],[-0.276161513968135,51.7575941549112],[-0.276152943735136,51.7578188374907],[-0.276144373385707,51.7580435200615],[-0.275782335254816,51.7580382091527],[-0.275773762889518,51.758262891694],[-0.275765190407761,51.7584875742267],[-0.275403148594454,51.7584822621601],[-0.275041106897656,51.7584769489778],[-0.274679065317393,51.7584716346796],[-0.274670487020726,51.7586963171408],[-0.274308443657543,51.7586910017057],[-0.273946400410947,51.7586856851549],[-0.273937823397772,51.7589103663943],[-0.273575778035642,51.7589050487824],[-0.27321373279414,51.7588997300536],[-0.273222314267614,51.7586750487056],[-0.273230900162185,51.7584503663284],[-0.27286885916497,51.758445046451],[-0.272860271370927,51.7586697288072],[-0.272498228590925,51.758664407793],[-0.272136185927636,51.7586590856629],[-0.272127597793666,51.7588837671662],[-0.271765553034938,51.75887844397],[-0.271403508396969,51.758873119657],[-0.271394924812068,51.7590977992151],[-0.271032878309914,51.7590924737856],[-0.271024292619201,51.7593171533365],[-0.270662244252867,51.7593118267906],[-0.270300196007374,51.7593064991277],[-0.26993814788275,51.759301170348],[-0.269946739528437,51.759076490796],[-0.269955331053207,51.7588518112364],[-0.269593287019425,51.7588464813391],[-0.269601890554604,51.7586217995091],[-0.269239848825897,51.7586164684524],[-0.269248455614541,51.7583917863069],[-0.268886415902218,51.7583864541555],[-0.268895024473387,51.7581617720226],[-0.269257062286285,51.7581671041529],[-0.269265668841134,51.7579424219903],[-0.269627704871561,51.7579477529837],[-0.269989741018891,51.7579530828613],[-0.269998343658087,51.7577284006478],[-0.270360378022915,51.7577337293885],[-0.270368978645911,51.7575090471454],[-0.270006946180441,51.7575037184258],[-0.270015548585952,51.7572790361952],[-0.270024150874625,51.7570543539559],[-0.270032753046459,51.7568296717081],[-0.270394779814003,51.7568350003644],[-0.270756806698391,51.7568403279049],[-0.271118833699599,51.7568456543297],[-0.271127430056812,51.75662097201],[-0.270765404954868,51.7566156456063],[-0.270403379969742,51.7566103180869],[-0.270411980008673,51.7563856358008],[-0.270049957039624,51.7563803071866],[-0.270058558860958,51.756155624913],[-0.269696537907984,51.7561502952043],[-0.269705141511674,51.7559256129432],[-0.26934312257477,51.7559202821398],[-0.269351727960767,51.7556955998912],[-0.26936033322989,51.755470917634],[-0.269722348368501,51.7554762483951],[-0.269730951621642,51.7552515661082],[-0.270092964978023,51.7552568957326],[-0.270101566215231,51.755032213416],[-0.270110167335619,51.7548075310908],[-0.270118768339191,51.754582848757],[-0.269756760679999,51.754577519196],[-0.269748157777389,51.7548022015087],[-0.269739554757938,51.7550268838127],[-0.269377543417521,51.7550215530938],[-0.269015532194008,51.7550162212592],[-0.269006925259544,51.7552409035124],[-0.268644912253876,51.755235570541],[-0.268282899365162,51.7552302364539],[-0.268274288515595,51.7554549186562],[-0.268636303303412,51.7554602527645],[-0.268627694236027,51.7556849349795],[-0.268989711039931,51.7556902679932],[-0.268981103754777,51.7559149502207],[-0.268972496352723,51.7561396324395],[-0.269334517071897,51.7561449643798],[-0.269325911452146,51.7563696466112],[-0.269317305715515,51.756594328834],[-0.269308699862003,51.7568190110482],[-0.269300093891605,51.7570436932538],[-0.269291487804322,51.7572683754508],[-0.26928288160015,51.7574930576392],[-0.268920849485379,51.7574877255723],[-0.268558817487558,51.7574823923895],[-0.268196785945002,51.7574770580223],[-0.26820539777833,51.7572523759109],[-0.267843370478035,51.7572470399941],[-0.267851984035784,51.7570223579047],[-0.267860597479441,51.7567976758061],[-0.267498573970226,51.7567923388359],[-0.267507189138233,51.7565676567592],[-0.267145167581605,51.7565623187046],[-0.267153784473916,51.7563376366498],[-0.267162401252095,51.7561129545859],[-0.266800383486438,51.7561076154779],[-0.26680900198885,51.755882933436],[-0.266817620377111,51.7556582513849],[-0.266455606402345,51.7556529112236],[-0.26646422651477,51.7554282291944],[-0.266472846513023,51.7552035471563],[-0.26611083632907,51.7551982059416],[-0.266119458051419,51.7549735239253],[-0.266128079659576,51.7547488418999],[-0.266136701153542,51.7545241598655],[-0.265774696598539,51.7545188176285],[-0.26578331981651,51.754294135616],[-0.265791942920271,51.7540694535944],[-0.265800565909826,51.7538447715637],[-0.265809188785173,51.753620089524],[-0.265447191697037,51.7536147462957],[-0.265455816296276,51.753390064278],[-0.26546444078129,51.7531653822511],[-0.265102447483581,51.7531600379696],[-0.264740454300157,51.753154692573],[-0.264731826139007,51.7533793745379],[-0.264369831231827,51.7533740279951],[-0.264361201118314,51.7535987099199],[-0.263999204487383,51.7535933622309],[-0.263637207970811,51.7535880134268],[-0.263645841760497,51.7533633315641],[-0.263283847196394,51.7533579816758],[-0.263292482709794,51.753133299835],[-0.263301118108828,51.7529086179852],[-0.262939127335223,51.7529032670439],[-0.262947764457903,51.752678585216],[-0.262956401466196,51.752453903379],[-0.262965038360106,51.752229221533],[-0.263327023619753,51.7522345723812],[-0.263335658561342,51.7520098904951],[-0.263697642097444,51.7520152401971],[-0.264059625747918,51.7520205887841],[-0.264068256899315,51.7517959068268],[-0.264430238826216,51.7518012542676],[-0.26443886802541,51.7515765722703],[-0.264800848228732,51.7515819185651],[-0.26516282854635,51.7515872637447],[-0.26517145395551,51.7513625816763],[-0.26553343254952,51.7513679257099],[-0.265542056006593,51.7511432436015],[-0.265180079250439,51.7511378995989],[-0.265188704431137,51.7509132175123],[-0.265197329497609,51.7506885354168],[-0.265559302578124,51.7506938793574],[-0.265921275772878,51.750699222183],[-0.265929897051437,51.7504745401032],[-0.2659385182536,51.7502498597228],[-0.266300487915324,51.7502552013352],[-0.266291868522393,51.7504798817402],[-0.266653840106182,51.7504852222619],[-0.267015811805643,51.75049056171],[-0.267377783619321,51.7504959000444],[-0.267386397577378,51.7502712194804],[-0.26774836769028,51.7502765566315],[-0.268110337915916,51.7502818926673],[-0.268472308708045,51.7502872274466],[-0.268834279878078,51.750292561028],[-0.268842886482006,51.7500678804482],[-0.269204855938934,51.7500732128963],[-0.269566825509326,51.7500785442287],[-0.269928795193159,51.7500838744455],[-0.270290764990409,51.7500892035466],[-0.270652734901054,51.7500945315321],[-0.270644137430122,51.7503192122004],[-0.27100610928074,51.7503245390879],[-0.270997513741769,51.7505492202947],[-0.270988918637768,51.7507739028254],[-0.271350894367394,51.7507792286812],[-0.271342301045292,51.7510039112244],[-0.27133370760648,51.7512285937589],[-0.271695687250136,51.7512339185413],[-0.271687095593295,51.7514586010884],[-0.272049077252353,51.7514639247763],[-0.272040487377528,51.7516886073358],[-0.272402471051992,51.7516939299292],[-0.272393882959236,51.7519186125012],[-0.272385294749834,51.7521432950645],[-0.272747282338468,51.7521486165844],[-0.272738695911206,51.7523732991602],[-0.272730109367318,51.7525979817274],[-0.272721522706805,51.752822664286],[-0.273083516108525,51.7528279847535],[-0.273074931230242,51.7530526673245],[-0.273436926647458,51.7530579866973],[-0.273798922181283,51.7530633049546],[-0.273790340984171,51.7532879875591],[-0.273781759670498,51.7535126701549],[-0.273773178240263,51.7537373527422],[-0.273411177009699,51.753732034422],[-0.273049175895751,51.7537267149861],[-0.273040590551032,51.7539513975227],[-0.272678587654768,51.7539460769502],[-0.272316584875171,51.753940755262],[-0.272307995615876,51.7541654377479],[-0.271945991053995,51.754160114923],[-0.271583986608835,51.7541547909825],[-0.271575393434872,51.7543794734178],[-0.271213387207458,51.7543741483405],[-0.270851381096816,51.7543688221475],[-0.270842784008095,51.7545935045321],[-0.270834186802607,51.754818186908],[-0.271196196711314,51.7548235131432]]],[[[-0.275126864461873,51.7562301236833],[-0.274764841875083,51.7562248095949],[-0.274402819404833,51.7562194943907],[-0.274411398318961,51.755994811856],[-0.274419977116553,51.7557701293126],[-0.274428555797613,51.7555454467607],[-0.274790572570301,51.7555507619019],[-0.274799149235692,51.7553260793204],[-0.274807725784578,51.7551013967303],[-0.274445712810141,51.755096081631],[-0.274454291141613,51.7548713990533],[-0.274462869356561,51.754646716467],[-0.274471447454986,51.7544220338721],[-0.274833454732227,51.7544273489084],[-0.275195462125991,51.754432662829],[-0.27518688782565,51.7546573454659],[-0.275178313408835,51.7548820280941],[-0.275169738875543,51.7551067107138],[-0.275161164225774,51.7553313933249],[-0.275152589459524,51.7555560759274],[-0.275144014576792,51.7557807585213],[-0.275135439577575,51.7560054411066],[-0.275126864461873,51.7562301236833]]],[[[-0.27800592915589,51.7567219616866],[-0.27836795658895,51.7567272657752],[-0.278359398217446,51.7569519485145],[-0.278350839729667,51.7571766312452],[-0.27834228112561,51.7574013139674],[-0.277980247994563,51.7573960098161],[-0.27797168737485,51.7576206925088],[-0.277609652460752,51.7576153872209],[-0.277601089825333,51.757840069884],[-0.27723905312819,51.7578347634594],[-0.276877016547426,51.757829455919],[-0.276514980083066,51.7578241472627],[-0.276523548416674,51.7575994646623],[-0.276532116633878,51.7573747820534],[-0.276540684734681,51.7571500994358],[-0.276902715500932,51.7571554080292],[-0.27726474638358,51.7571607155069],[-0.277273310569341,51.7569360328389],[-0.277635339669038,51.7569413391799],[-0.27764390183915,51.7567166564823],[-0.27800592915589,51.7567219616866]]]]}}