{"type":"Feature","properties":{"code":"E63001986","name":"Whitchurch (Shropshire)"},"geometry":{"type":"MultiPolygon","coordinates":[[[[-2.65764775061401,52.9645554225625],[-2.6576443345892,52.9643307112672],[-2.65801650846393,52.9643286457953],[-2.65838868229321,52.9643265791581],[-2.6583921021762,52.9645512904177],[-2.6583955221046,52.9647760016685],[-2.65802334441711,52.9647780683415],[-2.65802676246177,52.9650027796015],[-2.65803018055181,52.9652274908529],[-2.65803359868724,52.9654522020955],[-2.65766141516679,52.9654542676568],[-2.65766483141838,52.9656789789087],[-2.65729264592328,52.9656810433225],[-2.65729606029098,52.9659057545836],[-2.65692387282123,52.96590781785],[-2.6565516853061,52.9659098799511],[-2.6565482747969,52.9656851686544],[-2.65654486433299,52.9654604573489],[-2.65654145391435,52.9652357460348],[-2.65616927214155,52.9652378069171],[-2.65616586369736,52.9650130955765],[-2.65653804354099,52.965011034712],[-2.65691022333927,52.9650089726823],[-2.65690681108205,52.9647842613687],[-2.65690339887013,52.9645595500464],[-2.65727557476477,52.9645574868871],[-2.65764775061401,52.9645554225625]]],[[[-2.65913987734313,52.9647718648268],[-2.65876769974662,52.9647739338303],[-2.6587642778891,52.9645492225973],[-2.65876085607702,52.9643245113557],[-2.65913302981533,52.964322442388],[-2.65950520350811,52.9643203722551],[-2.65950862917837,52.9645450834609],[-2.65988080475469,52.9645430121448],[-2.65988423239956,52.964767723324],[-2.65951205489412,52.9647697946581],[-2.65913987734313,52.9647718648268]]],[[[-2.69329370044556,52.9591835966435],[-2.69329730260434,52.9594083081598],[-2.69366943629902,52.9594061351936],[-2.69367304050077,52.9596308467395],[-2.69404517614018,52.9596286726444],[-2.69404878238495,52.95985338422],[-2.69405238867884,52.960078095788],[-2.69405599502185,52.9603028073483],[-2.69405960141399,52.960527518901],[-2.6936874577987,52.960529692847],[-2.69369106224593,52.9607544043548],[-2.69331891658743,52.9607565770974],[-2.69332251908969,52.9609812885603],[-2.69295037138798,52.9609834600994],[-2.69295397194523,52.9612081715174],[-2.69258182220031,52.9612103418531],[-2.69258542081249,52.9614350532261],[-2.69221326902436,52.9614372223583],[-2.69221686569141,52.9616619336864],[-2.69184471186006,52.961664101615],[-2.69184830658195,52.9618888128982],[-2.69147615070738,52.9618909796233],[-2.69147974348403,52.9621156908615],[-2.69110758556625,52.9621178563831],[-2.69110399478379,52.9618931451822],[-2.69073183881121,52.9618953095749],[-2.69073542759947,52.9621200207385],[-2.69036326958373,52.9621221839276],[-2.69036685642665,52.9623468950461],[-2.68999469636774,52.9623490570317],[-2.68962253625991,52.962351217851],[-2.68962611916319,52.9625759288871],[-2.68925395701222,52.9625780885028],[-2.68925753797004,52.962802799494],[-2.68926111897664,52.9630275104775],[-2.68926470003204,52.9632522214533],[-2.68889253184928,52.9632543797906],[-2.6888961109591,52.9634790907214],[-2.68852394073314,52.963481247855],[-2.68852751789734,52.9637059587408],[-2.68815534562818,52.9637081146707],[-2.68815892084671,52.9639328255115],[-2.68778674653434,52.9639349802377],[-2.68779031980714,52.9641596910334],[-2.68816249611395,52.9641575363446],[-2.6881660714299,52.96438224717],[-2.6885382496824,52.9643800913524],[-2.68854182704156,52.9646048022076],[-2.68891400723974,52.9646026452611],[-2.68928618738906,52.9646004871482],[-2.68928260604091,52.9643757762181],[-2.68965478414687,52.9643736169015],[-2.69002696220394,52.9643714564186],[-2.69039914021209,52.9643692947693],[-2.69039555292933,52.9641445837195],[-2.69076772889406,52.9641424208666],[-2.69113990480982,52.9641402568474],[-2.69151208067657,52.9641380916619],[-2.69150848745938,52.9639133804924],[-2.69188066128267,52.9639112141032],[-2.69225283505691,52.9639090465478],[-2.69225643226297,52.9641337577919],[-2.6918842564943,52.9641359253101],[-2.69188785175491,52.9643606365093],[-2.6918914470645,52.9645853477009],[-2.69151926725782,52.964587513978],[-2.69114708740212,52.9645896790889],[-2.69115067877166,52.9648143901981],[-2.69077849687243,52.9648165541053],[-2.69040631492423,52.9648187168461],[-2.69040990235361,52.965043427873],[-2.69003771836191,52.9650455894102],[-2.69004130384561,52.9652703003921],[-2.68966911781041,52.9652724607255],[-2.68929693172632,52.9652746198925],[-2.68930051326966,52.965499330792],[-2.6889283251421,52.9655014887554],[-2.68855613696568,52.9655036455523],[-2.68818394874045,52.9655058011829],[-2.68818752434872,52.9657305119625],[-2.68855971456858,52.9657283563694],[-2.68856329222022,52.9659530671788],[-2.68893548438591,52.9659509104567],[-2.68930767650276,52.9659487525682],[-2.68967986857073,52.9659465935133],[-2.69005206058979,52.9659444332921],[-2.6900556462689,52.9661691442435],[-2.69042784023371,52.9661669828932],[-2.69080003414957,52.9661648203766],[-2.69117222801644,52.9661626566936],[-2.69154442183431,52.9661604918441],[-2.69191661560314,52.9661583258283],[-2.6922888093229,52.9661561586461],[-2.69228521167575,52.9659314474706],[-2.69265740335176,52.9659292790847],[-2.69302959497865,52.9659271095324],[-2.69340178655639,52.9659249388137],[-2.69377397808497,52.9659227669287],[-2.69377037250826,52.9656980555963],[-2.694142561993,52.9656958825076],[-2.6941389544708,52.9654711711304],[-2.6945111419117,52.965468996838],[-2.69488332930336,52.9654668213793],[-2.69525551664574,52.9654646447542],[-2.69525190318892,52.9652399332575],[-2.69524828978132,52.9650152217532],[-2.69562047308526,52.9650130438873],[-2.69562408848741,52.9652377554288],[-2.69599627373658,52.9652355764337],[-2.69599265633987,52.965010864855],[-2.69598903899243,52.9647861532686],[-2.69636122020316,52.9647839730328],[-2.69673340136451,52.9647817916305],[-2.69710558247645,52.964779609062],[-2.69747776353897,52.9647774253271],[-2.69784994455202,52.9647752404259],[-2.69784631728134,52.9645505286459],[-2.69821849625041,52.9645483425411],[-2.69859067516997,52.96454615527],[-2.69858704395975,52.9643214434081],[-2.6989592208353,52.9643192549335],[-2.69933139766128,52.9643170652926],[-2.69932776251164,52.9640923533487],[-2.6993241274115,52.9638676413972],[-2.69932049236086,52.9636429294381],[-2.69969266315401,52.9636407385195],[-2.69968902615852,52.9634160265156],[-2.69968538921256,52.9631913145041],[-2.70005755596738,52.9631891223449],[-2.70006119490768,52.9634138343936],[-2.70043336360721,52.9634116411052],[-2.70080553225706,52.9634094466506],[-2.70117770085723,52.9634072510297],[-2.70118134583016,52.963631963182],[-2.70118499085273,52.9638566753267],[-2.70118863592495,52.9640813874638],[-2.70081646134162,52.9640835829734],[-2.70082010446904,52.9643082950658],[-2.70044792784158,52.964310489372],[-2.70045156902414,52.9645352014196],[-2.70007939035254,52.9645373945224],[-2.70008302959019,52.9647621065253],[-2.69971084887446,52.9647642984246],[-2.6993386681091,52.9647664891575],[-2.69934230340727,52.9649912010785],[-2.69971448616715,52.9649890103827],[-2.69971812350938,52.9652137223332],[-2.69972176090116,52.9654384342762],[-2.69972539834246,52.9656631462114],[-2.69935320959886,52.9656653367958],[-2.69898102080567,52.9656675262139],[-2.69898465430726,52.9658922380672],[-2.69935684509508,52.9658900486864],[-2.69936048064082,52.9661147605693],[-2.6997326733737,52.9661125700591],[-2.69973631096363,52.9663372819715],[-2.69973994860311,52.9665619938763],[-2.69974358629212,52.9667867057735],[-2.69937138757512,52.9667888961722],[-2.69937502320606,52.96701360816],[-2.69937865817964,52.9672383209873],[-2.6997508608318,52.9672361306529],[-2.69974722391871,52.9670114177888],[-2.70011942458281,52.9670092262512],[-2.7001157849595,52.9667845142083],[-2.70048798357722,52.9667823214768],[-2.70048434189874,52.9665576095053],[-2.70085653847205,52.9665554155702],[-2.70086018214526,52.9667801275788],[-2.70123238066359,52.9667779325143],[-2.70123602628357,52.9670026446397],[-2.70160822746377,52.9670004496838],[-2.70161187404381,52.9672251627426],[-2.70198407742451,52.9672229672959],[-2.70198772592988,52.9674476803721],[-2.70199137448268,52.9676723934405],[-2.70236358157179,52.9676701968783],[-2.70273578861336,52.9676679991499],[-2.70310799560739,52.9676658002552],[-2.7031043414207,52.9674410871107],[-2.70347654648919,52.9674388870245],[-2.70384875151007,52.967436685772],[-2.70384509361501,52.967211972569],[-2.70384143576749,52.9669872593583],[-2.7042136369849,52.9669850568889],[-2.70458583815467,52.9669828532533],[-2.70495803926315,52.9669806484627],[-2.70495437426321,52.9667559364553],[-2.70458217508113,52.966758141238],[-2.70457851205442,52.9665334292157],[-2.70457484907621,52.9663087171848],[-2.70494704440894,52.966306512415],[-2.70531923969304,52.9663043064797],[-2.7056914349285,52.9663020993788],[-2.70569510368068,52.9665268113902],[-2.70606730079212,52.9665246031172],[-2.70607097151758,52.9667493151136],[-2.70569877248145,52.9667515233931],[-2.70570244133082,52.9669762353875],[-2.70607464229165,52.9669740271015],[-2.70644684320378,52.9669718176499],[-2.70645051428074,52.9671965309698],[-2.70682271704198,52.9671943203621],[-2.70682638996051,52.9674190337673],[-2.70645418532133,52.9674212443497],[-2.70608198063435,52.9674234537659],[-2.70608564984472,52.9676481671127],[-2.70608931910279,52.9678728804516],[-2.70609298840856,52.9680975937827],[-2.70572077803986,52.9680998019569],[-2.7057244455153,52.9683245152548],[-2.70535223322082,52.9683267222375],[-2.7049800208786,52.9683289280538],[-2.70460780848868,52.9683311327039],[-2.70460414664734,52.9681064194817],[-2.70460048485361,52.9678817062518],[-2.70422827617206,52.9678839097861],[-2.70423193608778,52.9681086229908],[-2.70423559605109,52.9683333361877],[-2.70423925606197,52.9685580493767],[-2.70424291612043,52.9687827625578],[-2.70424657622647,52.9690074757311],[-2.70387435810695,52.9690096779727],[-2.70387801638243,52.9692343911128],[-2.70350579633715,52.9692365921628],[-2.70313357624426,52.9692387920464],[-2.70276135610378,52.9692409907638],[-2.70276500879233,52.9694657038201],[-2.70239278672613,52.9694679013457],[-2.70202056461239,52.9694700977051],[-2.70202421359203,52.9696948107028],[-2.70202786261911,52.9699195236927],[-2.70165563670146,52.969921718835],[-2.70128341079664,52.9699239131885],[-2.70091118506284,52.9699261077478],[-2.70091482842561,52.970150820623],[-2.70054260070335,52.9701530139789],[-2.70054624217482,52.9703777268097],[-2.70017401246408,52.9703799189623],[-2.7001776520442,52.9706046317487],[-2.69980542034498,52.9706068226979],[-2.69980905803369,52.9708315354399],[-2.69943682434601,52.9708337251858],[-2.69906459060978,52.9708359137651],[-2.69869235682504,52.9708381011777],[-2.69832012299182,52.9708402874238],[-2.69794788911014,52.9708424725033],[-2.69757565518003,52.9708446564162],[-2.69757928127757,52.9710693689297],[-2.6972070453591,52.9710715516392],[-2.69683480939225,52.971073733182],[-2.69646257337705,52.9710759135583],[-2.69609033731351,52.9710780927679],[-2.69571810120167,52.9710802708109],[-2.69572171764768,52.9713049831325],[-2.69572533414188,52.9715296954464],[-2.69609757413369,52.9715275174771],[-2.6964698140772,52.9715253383412],[-2.69684205397238,52.9715231580387],[-2.6972142938192,52.9715209765696],[-2.69758653361763,52.9715187939338],[-2.69759015986016,52.9717435064244],[-2.69759378615102,52.9719682189074],[-2.69796602978112,52.9719660351786],[-2.69796965806039,52.9721907476908],[-2.69797328638802,52.9724154601953],[-2.69834553384985,52.9724132753736],[-2.69834916416596,52.9726379879074],[-2.69835279453046,52.9728627004335],[-2.6987250458241,52.9728605145187],[-2.69872867817717,52.973085227074],[-2.69835642494335,52.9730874129519],[-2.69836005540463,52.9733121254628],[-2.69873231057865,52.9733099396217],[-2.69910456570417,52.9733077526139],[-2.69910093136249,52.9730830400294],[-2.69947318449929,52.9730808518181],[-2.69946954826588,52.9728561391892],[-2.69984179941396,52.9728539497744],[-2.69984543758755,52.9730786624401],[-2.70021769062724,52.9730764718954],[-2.70058994361833,52.973074280184],[-2.7005863015644,52.9728495674448],[-2.70095855256669,52.9728473745299],[-2.70133080352034,52.9728451804484],[-2.70132715763466,52.972620467628],[-2.70169940618578,52.9726182737973],[-2.70207165464402,52.9726160789595],[-2.70244390305473,52.9726138829552],[-2.70244025157989,52.9723891700341],[-2.70281249806454,52.972386972838],[-2.7028161514179,52.9726116857844],[-2.7031883997335,52.9726094874472],[-2.70319205501289,52.9728342004111],[-2.70356430515944,52.9728320009328],[-2.70393655525836,52.972829800288],[-2.70394021434241,52.9730545132948],[-2.70394387347403,52.9732792262937],[-2.70394753265322,52.9735039392847],[-2.70431978834027,52.9735017375494],[-2.70469204397965,52.9734995346476],[-2.70469570696369,52.9737242476814],[-2.70469936999536,52.9739489607074],[-2.70432711059868,52.9739511635586],[-2.70395485115433,52.9739533652433],[-2.70358259166232,52.9739555657615],[-2.70358624910554,52.9741802787037],[-2.70321398768721,52.97418247803],[-2.70321764329926,52.974407190939],[-2.70284537995462,52.9744093890735],[-2.70247311656239,52.9744115860414],[-2.70210085312262,52.9744137818428],[-2.70209720314673,52.9741890690099],[-2.70172494153814,52.9741912636701],[-2.70135267985492,52.9741934572105],[-2.70098041725987,52.9741956510716],[-2.70060815461616,52.9741978437658],[-2.70061179696137,52.9744225564593],[-2.70061543935513,52.9746472691452],[-2.70061908179744,52.9748719818234],[-2.70024681328405,52.9748741732406],[-2.69987454472206,52.974876363491],[-2.69950227611148,52.9748785525747],[-2.69949863949031,52.9746538400068],[-2.69949500291761,52.9744291274313],[-2.69912273813922,52.9744313154218],[-2.69875047331231,52.9744335022456],[-2.6983782084369,52.9744356879026],[-2.69838183918853,52.9746604003677],[-2.6987541060043,52.9746582147475],[-2.69875773874471,52.9748829272417],[-2.69876137153354,52.9751076397284],[-2.69838910083698,52.9751098252749],[-2.69838546998855,52.9748851128251],[-2.69801320118393,52.9748872972417],[-2.69764093233085,52.9748894804915],[-2.69763730541159,52.9746647681078],[-2.69726503845048,52.9746669502277],[-2.69726141351993,52.9744422378731],[-2.69688914845078,52.9744444188632],[-2.69651688333326,52.9744465986864],[-2.69651326233169,52.974221886398],[-2.69614099910616,52.9742240650914],[-2.6961446181674,52.9744487773429],[-2.69577235295322,52.9744509548327],[-2.69577597012233,52.9746756670398],[-2.6954037029195,52.9746778433259],[-2.69540731819643,52.9749025554885],[-2.69503504900494,52.9749047305709],[-2.69466277976521,52.9749069044867],[-2.69465916836905,52.9746821923979],[-2.6942869010215,52.9746843651838],[-2.69428329161385,52.9744596531244],[-2.6942796822543,52.9742349410573],[-2.69390741873927,52.9742371127503],[-2.69391102615847,52.9744618247805],[-2.69353876065493,52.9744639952698],[-2.69354236618184,52.9746887072553],[-2.6931700986898,52.9746908765409],[-2.69279783114964,52.9746930446598],[-2.6924255635614,52.9746952116119],[-2.69242916331519,52.9749199234789],[-2.6920568937385,52.9749220892273],[-2.69206049159985,52.9751468010497],[-2.69206408924386,52.975371513508],[-2.69243636269162,52.9753693478109],[-2.69243996145055,52.9755940622229],[-2.69281223670973,52.975591895404],[-2.69318451192243,52.9755897274182],[-2.69318811444358,52.9758144419131],[-2.69356039146767,52.9758122728055],[-2.69356399589321,52.976036987338],[-2.6939362747287,52.9760348171086],[-2.69393988105868,52.9762595316789],[-2.69431216170556,52.9762573603277],[-2.69468444230585,52.9762551878094],[-2.6946880523983,52.9764799024625],[-2.69431576994002,52.9764820749356],[-2.694319378221,52.976706789536],[-2.69394709385811,52.9767089607969],[-2.69395070032758,52.9769336753447],[-2.69357841406009,52.9769358453934],[-2.69358201871799,52.9771605598886],[-2.6932097305459,52.9771627287251],[-2.69283744232728,52.9771648963946],[-2.69284104331548,52.9773896107919],[-2.69246875319227,52.9773917772492],[-2.69247235236878,52.9776164915939],[-2.69210006034099,52.9776186568389],[-2.69210365770576,52.9778433711309],[-2.69210725511691,52.9780680854154],[-2.69173495932636,52.9780702494029],[-2.69173855492569,52.9782949636347],[-2.69136625723052,52.97829712641],[-2.691369851018,52.9785218405891],[-2.6913734448518,52.9787465547607],[-2.69137703873194,52.9789712689249],[-2.69100473541563,52.9789734303973],[-2.69063243205295,52.9789755907028],[-2.69026012864391,52.978977749841],[-2.69025654033858,52.9787530358127],[-2.68988423874148,52.9787551938291],[-2.68951193709807,52.9787573506785],[-2.68913963540839,52.9787595063608],[-2.68913605272406,52.9785347924607],[-2.6891324700859,52.9783100785532],[-2.68876017206643,52.978312233159],[-2.68876375284636,52.9785369470212],[-2.68839145292244,52.9785391004147],[-2.68838787400073,52.9783143865977],[-2.68801557588883,52.9783165388694],[-2.68801199887145,52.9780918250903],[-2.68800842190018,52.9778671113037],[-2.68838071629571,52.9778649589414],[-2.6883771375124,52.977640245102],[-2.68874943000357,52.9776380915274],[-2.68875301064504,52.9778628054121],[-2.68912530494814,52.9778606507157],[-2.68912172244853,52.9776359367857],[-2.68911813999509,52.9774112228483],[-2.68911455758782,52.9771865089033],[-2.6887422688591,52.9771886637356],[-2.68836998008414,52.9771908174008],[-2.68799769126298,52.977192969899],[-2.68799411447612,52.9769682560825],[-2.68762182746686,52.976970407459],[-2.68761825258415,52.9767456936803],[-2.68799053773536,52.9767435422585],[-2.68798696104069,52.976518828427],[-2.6883592442877,52.9765166757929],[-2.68835566578113,52.9762919619086],[-2.68835208732068,52.9760672480168],[-2.68872436680552,52.9760650941251],[-2.68872078653324,52.9758403801806],[-2.68871720630711,52.9756156662286],[-2.68871362612713,52.9753909522691],[-2.68871004578727,52.9751662399479],[-2.68870646538977,52.9749415284587],[-2.68833419533389,52.9749436825396],[-2.68796192523024,52.9749458354536],[-2.68795834876127,52.974721124031],[-2.68833061692451,52.9747189710799],[-2.68832703856284,52.9744942596125],[-2.68832346024885,52.9742695481376],[-2.68795119596634,52.9742717011629],[-2.68794761964038,52.9740469897174],[-2.6879440433621,52.9738222782642],[-2.68757178291247,52.973824430197],[-2.68756820862213,52.9735997187733],[-2.68719595006506,52.9736018695765],[-2.68682369146031,52.973604019213],[-2.68682012109811,52.9733793078558],[-2.68644786438594,52.9733814563628],[-2.68645143280788,52.9736061676828],[-2.68607917410782,52.9736083149859],[-2.68570691536014,52.9736104611223],[-2.68533465656486,52.973612606092],[-2.68496239772203,52.973614749895],[-2.68459014057651,52.9736168943489],[-2.68458658192247,52.9733921832656],[-2.68458302331649,52.9731674721741],[-2.68421077428174,52.9731696198705],[-2.6842072176967,52.972944908781],[-2.68383497058674,52.9729470553214],[-2.68383141602259,52.9727223442341],[-2.68382786150645,52.9724976331386],[-2.68420010467071,52.9724954865777],[-2.68457234778687,52.9724933388507],[-2.6845687893731,52.9722686277266],[-2.68494103446845,52.9722664827518],[-2.68531328167013,52.9722643387258],[-2.68568552882424,52.9722621935332],[-2.68605777593077,52.9722600471739],[-2.6860542097343,52.9720353358452],[-2.68642645485312,52.9720331882822],[-2.6867986999243,52.9720310395525],[-2.68679512989521,52.9718063281419],[-2.6864228867641,52.9718084769087],[-2.68605064358536,52.9718106245088],[-2.68567840035901,52.9718127709423],[-2.68530615708507,52.9718149162093],[-2.68493391376358,52.9718170603095],[-2.68456167268973,52.9718192054539],[-2.68456523100739,52.9720439165943],[-2.68419299183683,52.9720460643418],[-2.68418943549192,52.9718213532116],[-2.68381719824602,52.9718234998031],[-2.68381364392187,52.971598788675],[-2.68344140860063,52.9716009341107],[-2.68344496095204,52.9718256452286],[-2.68307272361001,52.9718277894879],[-2.68307627403664,52.9720525005874],[-2.68344851335142,52.9720503563383],[-2.68345206579878,52.9722750674399],[-2.68345561829411,52.9724997785333],[-2.68308337503372,52.9725019227619],[-2.68308692560419,52.972726633837],[-2.6830904762226,52.9729513449038],[-2.68271822896848,52.9729534879458],[-2.68272177766195,52.9731781989942],[-2.68272532640335,52.9734029100345],[-2.68235307515542,52.9734050518898],[-2.68235662197179,52.9736297629117],[-2.68198436870294,52.9736319035905],[-2.68198791359424,52.973856614594],[-2.68161565830446,52.9738587540964],[-2.68161920127064,52.9740834650813],[-2.68162274428466,52.9743081760582],[-2.68125048500094,52.9743103143738],[-2.68125402608976,52.9745350253322],[-2.68088176478508,52.9745371624713],[-2.68088530394864,52.9747618734112],[-2.68088884316001,52.974986584343],[-2.68089238241918,52.9752112952666],[-2.68089592197336,52.9754360072082],[-2.6805236527263,52.9754381431317],[-2.68015138343116,52.975440277888],[-2.67977911408798,52.9754424114771],[-2.67978264794807,52.9756671241185],[-2.67978618185611,52.9758918367527],[-2.6794139084952,52.9758939690583],[-2.67941744046629,52.976118681627],[-2.67978971581209,52.9761165493796],[-2.67979324981601,52.9763412619993],[-2.6801655270987,52.9763391286429],[-2.68053780433334,52.9763369941193],[-2.68054134235509,52.976561706848],[-2.6809136215266,52.9765595712154],[-2.68128590065,52.9765574344155],[-2.68128944268969,52.9767821472534],[-2.68129298477743,52.977006860084],[-2.68092070168408,52.9770089967675],[-2.68092424183486,52.9772337095327],[-2.68092778203367,52.9774584222906],[-2.68055549492214,52.9774605576906],[-2.68018320776253,52.9774626919233],[-2.68017967153381,52.9772379792817],[-2.6798073863112,52.9772401124053],[-2.67943510104056,52.9772422443617],[-2.67906281572191,52.9772443751509],[-2.6786905303553,52.9772465047728],[-2.67868700211464,52.9770217923568],[-2.67868347392186,52.9767970799335],[-2.67831119247732,52.9767992085047],[-2.67830766631739,52.9765744961324],[-2.67830414020529,52.9763497837528],[-2.67793186268275,52.9763519112732],[-2.67755958511232,52.9763540376264],[-2.67755606301791,52.9761293253561],[-2.67755254097129,52.9759046130785],[-2.67754901897246,52.9756799007937],[-2.67754549702141,52.9754551885016],[-2.67754197525193,52.9752304767593],[-2.67716970755036,52.975232602205],[-2.67716618802256,52.975007891385],[-2.67679392224652,52.9750100156749],[-2.67679743980117,52.9752347264845],[-2.67680095761605,52.9754594381725],[-2.67642868784165,52.9754615612571],[-2.67643220383816,52.9756862733744],[-2.67605993203113,52.9756883952337],[-2.67568766017635,52.9756905159258],[-2.67531538827384,52.9756926354507],[-2.67531187823186,52.9754679235082],[-2.67493960826649,52.9754700419243],[-2.67456733825345,52.9754721591732],[-2.67419506819277,52.9754742752549],[-2.67419156422599,52.9752495637863],[-2.67418806048336,52.9750248530498],[-2.67418455678805,52.9748001423051],[-2.67418105314008,52.9745754315522],[-2.67417754953944,52.9743507207913],[-2.67454980972873,52.9743486046335],[-2.67454630420237,52.9741238938539],[-2.67454279872336,52.9738991830661],[-2.6745392932917,52.9736744722702],[-2.67453578790739,52.9734497614661],[-2.67453228257043,52.9732250506538],[-2.67490453284735,52.9732229332776],[-2.67490102558483,52.9729982224467],[-2.67527327384138,52.9729961038938],[-2.67526976465335,52.9727713930443],[-2.67489751836968,52.9727735116076],[-2.6748940112019,52.9725488007604],[-2.6748905040815,52.972324089905],[-2.67526274641948,52.9723219713208],[-2.67525923737365,52.9720972604468],[-2.67525572837521,52.9718725495647],[-2.67488348998281,52.9718746681698],[-2.67487998300452,52.9716499572899],[-2.67450774653744,52.9716520747394],[-2.67413551002294,52.9716541910228],[-2.67376327346106,52.9716563061401],[-2.67339103685182,52.9716584200913],[-2.67339453593908,52.9718831309293],[-2.67376677452108,52.9718810169885],[-2.6737702756284,52.9721057278288],[-2.67339803507361,52.9721078417591],[-2.67340153425541,52.9723325525807],[-2.67340503348447,52.9725572633941],[-2.67340853276081,52.9727819741994],[-2.67341203208441,52.9730066849966],[-2.67303978359089,52.9730087977187],[-2.67304328098884,52.9732335084972],[-2.67267103047509,52.9732356200426],[-2.67266753505006,52.9730109092747],[-2.67229528646194,52.9730130196645],[-2.67192303782656,52.9730151288882],[-2.67155078914395,52.9730172369457],[-2.6715472996848,52.9727925262011],[-2.67117505292787,52.9727946331031],[-2.67080280612377,52.9727967388389],[-2.67079932065749,52.9725720281073],[-2.67117156548873,52.9725699223609],[-2.6711680780967,52.9723452116106],[-2.67116459075178,52.9721205008521],[-2.67116110345396,52.9718957900855],[-2.67115761620326,52.9716710793107],[-2.67152985309611,52.9716689723561],[-2.67152636391978,52.9714442615625],[-2.67152287479058,52.9712195507609],[-2.67115064184317,52.9712216577366],[-2.67114715473378,52.9709969469374],[-2.6711436676715,52.9707722361299],[-2.67151589667357,52.9707701291331],[-2.67151240768576,52.9705454183069],[-2.67150891874508,52.9703207074726],[-2.67150542985153,52.9700959966301],[-2.6715019410051,52.9698712857795],[-2.6714984522058,52.9696465749207],[-2.67187067129778,52.9696444667051],[-2.67186718057311,52.9694197558276],[-2.67186368989559,52.9691950449419],[-2.67149147474858,52.9691971531786],[-2.67148798609066,52.9689724422954],[-2.67111577286892,52.9689745493766],[-2.67111228623054,52.9687498384957],[-2.67074007493405,52.9687519444215],[-2.67036786359042,52.9687540491814],[-2.66999565219968,52.9687561527753],[-2.66999217152559,52.9685314419179],[-2.66961996206017,52.9685335443564],[-2.66924775254768,52.968535645629],[-2.66887554298817,52.9685377457356],[-2.66887206827822,52.9683130349019],[-2.6688685936152,52.96808832406],[-2.66886511899913,52.9678636132099],[-2.66886164442999,52.9676389023517],[-2.66885816990779,52.9674141914853],[-2.66885469543252,52.9671894806108],[-2.66848249765986,52.9671915796151],[-2.66811029984022,52.9671936774535],[-2.66773810208665,52.9671957745282],[-2.66736590431582,52.9671978705409],[-2.66736243770412,52.9669731596478],[-2.66699024182273,52.9669752544683],[-2.66661804589525,52.9669773481233],[-2.66624584992174,52.966979440613],[-2.66587365390219,52.9669815319374],[-2.66587711277074,52.9672062429393],[-2.66624931072621,52.9672041515875],[-2.66625277157429,52.9674288625567],[-2.66625623246842,52.9676535735169],[-2.6662596934086,52.9678782844684],[-2.66588748964902,52.967880375897],[-2.66551528584335,52.9678824661604],[-2.6651430819916,52.9678845552585],[-2.6651396268556,52.9676598442303],[-2.66476742489253,52.9676619321375],[-2.66476397173721,52.9674372210748],[-2.66513617176557,52.9674351331931],[-2.66513271672153,52.9672104221472],[-2.66512926172346,52.9669857110924],[-2.66550145783645,52.9669836220967],[-2.66549800079617,52.966758911274],[-2.66512580661402,52.9667610002496],[-2.66475361238592,52.9667630880598],[-2.66475015925001,52.9665383771927],[-2.66437796690533,52.9665404638195],[-2.66400577451476,52.966542549281],[-2.66400232528332,52.9663178383691],[-2.66363013477619,52.9663199226472],[-2.66325794422322,52.96632200576],[-2.66288575362444,52.9663240877075],[-2.66288919706794,52.9665487986735],[-2.66251700449405,52.9665508794736],[-2.6621448118744,52.9665529591084],[-2.66177261920901,52.9665550375778],[-2.66140042649791,52.966557114882],[-2.66102823374112,52.9665591910207],[-2.66065604093867,52.9665612659941],[-2.66028384809058,52.9665633398022],[-2.66028727807441,52.9667880508853],[-2.65991508325136,52.9667901235459],[-2.65991165519688,52.9665654124449],[-2.6595394622576,52.9665674839223],[-2.65953603617796,52.9663427727947],[-2.65990822718792,52.9663407013353],[-2.65990479922447,52.9661159902169],[-2.65990137130653,52.9658912790898],[-2.65989794343411,52.965666567954],[-2.66027012861068,52.965664495383],[-2.66026669885456,52.9654397842565],[-2.66026326914397,52.9652150731213],[-2.66063545041653,52.9652129994208],[-2.66063201882232,52.9649882882949],[-2.66025983947893,52.9649903619774],[-2.66025640985941,52.9647656508248],[-2.66062858727367,52.9647635771602],[-2.6610007646423,52.9647615023304],[-2.6609973312101,52.964536791205],[-2.66099389782348,52.9643120800709],[-2.66136607128825,52.9643100041117],[-2.66136263601817,52.9640852929868],[-2.6617348075082,52.9640832158804],[-2.66173137035469,52.9638585047648],[-2.66210353986999,52.9638564265111],[-2.66210010083311,52.9636317154048],[-2.66247226837367,52.9636296360039],[-2.66284443586848,52.9636275554377],[-2.6628409930193,52.9634028443587],[-2.66321315853935,52.9634007626453],[-2.66320971380692,52.9631760515756],[-2.66358187735222,52.963173968715],[-2.66395404085169,52.9631718846892],[-2.66395059230714,52.9629471736469],[-2.6635784307366,52.9629492576546],[-2.66320626912023,52.9629513404972],[-2.66283410745806,52.9629534221746],[-2.66246194575011,52.9629555026868],[-2.66245850496696,52.9627307915637],[-2.66208634514217,52.9627328708927],[-2.66171418527165,52.9627349490565],[-2.66171074839194,52.9625102378888],[-2.66170731155786,52.9622855267124],[-2.66207946757065,52.9622834485845],[-2.66207602885337,52.9620587374173],[-2.66244818289161,52.9620566581423],[-2.6628203368841,52.9620545777021],[-2.66281689435488,52.9618298665622],[-2.66281345187136,52.9616051554136],[-2.66318560196051,52.9616030738443],[-2.66318215759395,52.961378362705],[-2.66355430570855,52.9613762799885],[-2.66392645377733,52.961374196107],[-2.66392300559905,52.961149484995],[-2.66429515169327,52.9611473999664],[-2.66429170163208,52.9609226888638],[-2.66466384575173,52.960920602688],[-2.66503598982547,52.9609185153471],[-2.66503944374405,52.9611432264136],[-2.66541158970056,52.9611411378896],[-2.66541504559371,52.9613658489293],[-2.66578719343299,52.9613637592221],[-2.66579065130076,52.9615884702351],[-2.6661628010228,52.9615863793447],[-2.66616626086525,52.9618110903309],[-2.66653841247006,52.9618089982572],[-2.66691056402884,52.9618069050185],[-2.66690710032886,52.9615821940685],[-2.66727924991282,52.9615800996827],[-2.66727578433009,52.9613553887421],[-2.66764793193923,52.9613532932093],[-2.6676444644738,52.9611285822781],[-2.66801661010812,52.9611264855983],[-2.66838875555391,52.9611243879497],[-2.66838528426927,52.9608996770345],[-2.6687574277233,52.9608975782382],[-2.66876090094643,52.9611222891453],[-2.66913304629258,52.9611201891757],[-2.66950519159235,52.9611180880407],[-2.66950866873881,52.9613427989234],[-2.66988081593068,52.9613406966152],[-2.66988429506204,52.9615654074813],[-2.67025644414601,52.9615633039998],[-2.6706285931835,52.9615611993529],[-2.67063207623837,52.9617859101946],[-2.67100422716794,52.9617838043743],[-2.67100771220783,52.9620085151994],[-2.67063555933967,52.9620106210277],[-2.67026340642502,52.9620127256906],[-2.67026688763413,52.9622374365232],[-2.66989473273438,52.9622395400288],[-2.66989821205125,52.9624642508609],[-2.6699016914145,52.9626889616845],[-2.66990517082412,52.9629136724997],[-2.66953301006191,52.9629157748639],[-2.6695364875792,52.9631404856785],[-2.66990865028013,52.9631383833062],[-2.66991212978252,52.9633630941043],[-2.67028429437575,52.9633609905587],[-2.6702877758633,52.9635857013403],[-2.66991560933129,52.9635878048939],[-2.66991908892645,52.963812515675],[-2.67029125739726,52.9638104121133],[-2.67066342582159,52.9638083073862],[-2.67066690934078,52.9640330181428],[-2.67103907965743,52.9640309122423],[-2.67141124992756,52.9640288051763],[-2.67141473737088,52.9642535159083],[-2.6714182248607,52.9644782266317],[-2.67142171239701,52.9647029373466],[-2.6714251999798,52.9649276480531],[-2.67142868760909,52.965152358751],[-2.67143217528487,52.9653770694404],[-2.67143566300715,52.9656017801213],[-2.67143915077591,52.9658264907937],[-2.67144263859118,52.9660512014576],[-2.67144612645293,52.9662759121129],[-2.67144961436119,52.9665006227598],[-2.67145310231594,52.9667253333981],[-2.67145659031719,52.966950044028],[-2.67146007852365,52.9671747549353],[-2.67108788108054,52.9671768621009],[-2.67109136738926,52.9674015730389],[-2.67109485374508,52.9676262839688],[-2.67109834014798,52.9678509948905],[-2.67110182659798,52.9680757058041],[-2.6707296212186,52.9680778117616],[-2.67073310574335,52.9683025226564],[-2.67110531309507,52.9683004167094],[-2.67147752039963,52.9682983095965],[-2.67147403193019,52.9680735986806],[-2.67147054350788,52.9678488877565],[-2.67146705513268,52.9676241768243],[-2.67146356680461,52.9673994658839],[-2.67183576617276,52.9673973575629],[-2.67183227591956,52.9671726466038],[-2.67182878574781,52.966947935692],[-2.6718252958074,52.9667232250702],[-2.67219748925226,52.9667211155767],[-2.67219399741925,52.9664964049544],[-2.67219050563278,52.9662716943237],[-2.67256269515279,52.9662695836808],[-2.67255920147379,52.9660448730496],[-2.67255570784137,52.9658201624099],[-2.6729278934366,52.9658180506176],[-2.67292439791172,52.9655933399775],[-2.67292090243344,52.9653686293289],[-2.67329308410398,52.9653665163873],[-2.67328958673332,52.9651418057383],[-2.67328608940928,52.9649170950807],[-2.67328259213186,52.9646923844146],[-2.67365476793887,52.9646902703319],[-2.67365126876918,52.9644655596654],[-2.67364776964612,52.9642408489904],[-2.67364427056971,52.9640161383069],[-2.6740164405134,52.964014023083],[-2.67438861041036,52.9640119066937],[-2.67438510750295,52.9637871960179],[-2.67401293954482,52.9637893123991],[-2.6740094386229,52.9635646017067],[-2.67400593774765,52.9633398910057],[-2.67400243691907,52.9631151802963],[-2.67437459906091,52.9631130639395],[-2.67437109634028,52.9628883532296],[-2.67399893613716,52.9628904695783],[-2.6739954354019,52.9626657588519],[-2.67399193471332,52.9624410481169],[-2.67436409103909,52.9624389317844],[-2.6747362473181,52.9624368142866],[-2.67510840355034,52.9624346956234],[-2.67548055973576,52.9624325757949],[-2.67547705133929,52.9622078650839],[-2.67547354298959,52.9619831543644],[-2.67584569525094,52.9619810333868],[-2.67621784746543,52.9619789112439],[-2.67622135969235,52.9622036219471],[-2.67622487196608,52.9624283326417],[-2.67622838428663,52.9626530433279],[-2.676231896654,52.9628777540055],[-2.67660405657618,52.9628756306646],[-2.67697621645145,52.9628735061583],[-2.67697270020672,52.962648795497],[-2.67734485809637,52.9626466698335],[-2.67771701593905,52.9626445430047],[-2.67771349586388,52.9624198323513],[-2.67808565172092,52.9624177043653],[-2.67845780753094,52.962415575214],[-2.67882996329392,52.9624134448973],[-2.67882643744978,52.96218873426],[-2.67919859122707,52.9621866027862],[-2.67957074495727,52.9621844701471],[-2.67956721528294,52.9619597595178],[-2.67993936702741,52.9619576257216],[-2.68031151872475,52.9619554907601],[-2.68068367037492,52.9619533546332],[-2.68068013493192,52.9617286440202],[-2.68030798522032,52.9617307801388],[-2.68030445176299,52.961506069509],[-2.68030091835275,52.9612813588708],[-2.68029738498961,52.961056648224],[-2.68066952888566,52.9610545121302],[-2.68067306418729,52.9612792227687],[-2.68104520997463,52.9612770855014],[-2.6810487472619,52.9615017961231],[-2.68105228459632,52.9617265067363],[-2.6814244342135,52.961724368287],[-2.68142089494054,52.9614996576821],[-2.68179304257194,52.9614975180759],[-2.68216519015606,52.9614953773043],[-2.68253733769289,52.9614932353674],[-2.68253379265155,52.9612685247789],[-2.68290593820254,52.9612663816851],[-2.68327808370619,52.9612642374259],[-2.68327453483513,52.9610395268456],[-2.68364667835291,52.9610373814295],[-2.6840188218233,52.9610352348481],[-2.68439096524626,52.9610330871014],[-2.68438741060712,52.9608083765377],[-2.68475955293093,52.9608062283162],[-2.6851316997131,52.9608040823953],[-2.6855038464467,52.9608019353082],[-2.68550028586844,52.9605772246227],[-2.68587243055941,52.960575076332],[-2.68624457520176,52.9605729268752],[-2.68624101068396,52.9603482161071],[-2.68661315328365,52.9603460654467],[-2.68698529583466,52.9603439136201],[-2.68735743833699,52.9603417606274],[-2.68735386788577,52.9601170497394],[-2.68772600834538,52.9601148955431],[-2.68809814875624,52.9601127401807],[-2.68809457436573,52.9598880292101],[-2.68846671273386,52.9598858726442],[-2.68883885105318,52.9598837149121],[-2.68921098932368,52.9598815560139],[-2.68920740900005,52.9596568449236],[-2.68957954522776,52.9596546848218],[-2.68995168140659,52.959652523554],[-2.69032381753652,52.9596503611201],[-2.69032740384197,52.9598750723226],[-2.6906995419169,52.9598729087599],[-2.69070313026517,52.9600976199921],[-2.6910752702851,52.9600954553006],[-2.69107886067624,52.9603201665625],[-2.69145100264118,52.9603180007423],[-2.6918231445571,52.9603158337558],[-2.69181955017799,52.9600911224193],[-2.69219169005089,52.9600889542294],[-2.69218809372678,52.9598642428479],[-2.69256023155665,52.9598620734546],[-2.6925566332876,52.9596373620281],[-2.69292876907445,52.9596351914314],[-2.69292516886051,52.95941047996],[-2.69255303506756,52.959412650594],[-2.69254943689654,52.9591879391523],[-2.69217730504838,52.9591901086575],[-2.69217370892023,52.9589653972455],[-2.69254583877453,52.9589632277029],[-2.69291796857975,52.9589610569943],[-2.69292156869561,52.959185768481],[-2.69329370044556,52.9591835966435]]],[[[-2.68913963540839,52.9787595063608],[-2.6891432181389,52.9789842202534],[-2.68951552168686,52.9789820646164],[-2.68951910632185,52.9792067785467],[-2.68952269100305,52.9794314924696],[-2.68952627573046,52.979656206385],[-2.68915396660753,52.9796583618862],[-2.68878165743835,52.9796605162202],[-2.68877807642763,52.9794358023954],[-2.68840576907056,52.9794379556076],[-2.68803346166728,52.9794401076527],[-2.68802988441938,52.979215393911],[-2.68802630721758,52.9789906801618],[-2.68802273006189,52.9787659664051],[-2.68839503189027,52.9787638142241],[-2.68876733367244,52.978761660876],[-2.68913963540839,52.9787595063608]]],[[[-2.68421077428174,52.9731696198705],[-2.6842143309148,52.9733943309517],[-2.6842178875959,52.9736190420248],[-2.68422144432503,52.9738437530898],[-2.68422500110219,52.9740684641466],[-2.68385274412751,52.9740706106358],[-2.68384918932335,52.9738458995893],[-2.68347693427358,52.9738480449226],[-2.68347338149039,52.9736233338781],[-2.68346982875518,52.9733986228255],[-2.68384207985903,52.9733964774717],[-2.68383852519888,52.9731717664007],[-2.68421077428174,52.9731696198705]]],[[[-2.67100422716794,52.9617838043743],[-2.6710007421745,52.9615590935407],[-2.67099725722752,52.9613343826986],[-2.67099377232698,52.961109671848],[-2.6709902874729,52.9608849609889],[-2.67098680266527,52.9606602501213],[-2.67098331790409,52.9604355392451],[-2.67135545715613,52.9604334323078],[-2.67172759636162,52.9604313242053],[-2.67173108499968,52.9606560350653],[-2.67210322609704,52.9606539257894],[-2.67247536714781,52.9606518153482],[-2.67284750815195,52.9606497037418],[-2.67285100265189,52.9608744145691],[-2.67322314554785,52.9608723017893],[-2.67322664203284,52.9610970126],[-2.67359878682061,52.9610948986468],[-2.67360228529073,52.961319609441],[-2.6739744319703,52.9613174943144],[-2.67397793242558,52.9615422050919],[-2.67398143292752,52.9617669158609],[-2.67360928237086,52.9617690310037],[-2.67361278098087,52.9619937417723],[-2.67361627963752,52.9622184525324],[-2.67324412515695,52.9622205665261],[-2.6732476219216,52.9624452772858],[-2.67287546545571,52.9624473901222],[-2.67250330894317,52.9624495017933],[-2.6724998160558,52.9622247910174],[-2.67212766143527,52.9622269015151],[-2.67212417053307,52.9620021907227],[-2.67175201780456,52.9620043000469],[-2.67137986502947,52.9620064082058],[-2.67137637805099,52.9617816973888],[-2.67100422716794,52.9617838043743]]],[[[-2.68952627573046,52.979656206385],[-2.6898985848071,52.9796540497168],[-2.69027089383743,52.9796518918814],[-2.69027448232779,52.9798766058798],[-2.69064679317016,52.9798744469226],[-2.69065038356518,52.9800991609588],[-2.69065397400648,52.9803238749876],[-2.6902816594473,52.9803260338544],[-2.68990934484178,52.980328191554],[-2.68990575811731,52.9801034776157],[-2.6895334453239,52.9801056341934],[-2.68952986050408,52.979880920293],[-2.68952627573046,52.979656206385]]]]}}