{"type":"Feature","properties":{"code":"E63000651","name":"Fleetwood"},"geometry":{"type":"MultiPolygon","coordinates":[[[[-3.04809061562826,53.8970521240387],[-3.04809623989289,53.8972767778063],[-3.04810186423298,53.8975014315659],[-3.04810748864854,53.8977260853174],[-3.04811311313957,53.897950739061],[-3.04811873770607,53.8981753927965],[-3.04812436234804,53.898400046524],[-3.04812998706549,53.8986247002434],[-3.04813561185841,53.8988493539549],[-3.04851600486837,53.8988460294807],[-3.04852163174843,53.8990706831844],[-3.04890202669451,53.8990673575046],[-3.04890765566177,53.8992920112006],[-3.04891328470455,53.8995166648886],[-3.04891891382288,53.8997413185686],[-3.04892454301674,53.8999659722406],[-3.04854414002374,53.8999692979192],[-3.04854976728134,53.9001939515828],[-3.04893017228613,53.9001906259045],[-3.0489358048687,53.9004152795333],[-3.04894143767881,53.900639933151],[-3.0493218465332,53.900636606153],[-3.04932748140506,53.9008612597021],[-3.04933311635175,53.9010859132414],[-3.04933875137328,53.9013105667709],[-3.04934438646964,53.9015352202907],[-3.04935002164084,53.9017598738008],[-3.04935565688688,53.901984527301],[-3.0497360775884,53.9019811987457],[-3.04974171489638,53.9022058521773],[-3.04936129220776,53.9022091807915],[-3.04936692760348,53.9024338342722],[-3.04937256307404,53.9026584877431],[-3.04975298973694,53.9026551590113],[-3.04975862726953,53.9028798124136],[-3.04976426487699,53.9031044658062],[-3.04976990255933,53.903329119189],[-3.04977554031654,53.903553772562],[-3.04978117814863,53.9037784259252],[-3.0497868160556,53.9040030792787],[-3.04979245403744,53.9042277326224],[-3.04979809209417,53.9044523859564],[-3.05017853458033,53.9044490555493],[-3.05018417469934,53.9046737088146],[-3.05018981489326,53.9048983620702],[-3.05019545516209,53.9051230153159],[-3.05020109550583,53.9053476685519],[-3.05020673592449,53.9055723217781],[-3.05021237641807,53.9057969749946],[-3.05021801698656,53.9060216282013],[-3.05022365762997,53.9062462813982],[-3.05022929834831,53.9064709345854],[-3.05060975864703,53.906467602444],[-3.05061540142793,53.9066922555625],[-3.05062104428377,53.9069169086712],[-3.05062668721457,53.9071415617702],[-3.05063233022032,53.9073662148594],[-3.05063797330103,53.9075908679388],[-3.05064361645669,53.9078155210084],[-3.05064925968731,53.9080401740683],[-3.05065490299288,53.9082648271184],[-3.05066054637342,53.9084894801587],[-3.05104102448686,53.9084861462829],[-3.05104667057363,53.9087107991819],[-3.05105231690578,53.908935452053],[-3.05067183474419,53.9089387859916],[-3.05067747911807,53.9091634388828],[-3.05105796331432,53.9091601049151],[-3.05106360979922,53.9093847577683],[-3.05106925636051,53.9096094106127],[-3.05107490299818,53.9098340634481],[-3.05108054971222,53.9100587162747],[-3.05108619650265,53.9102833690923],[-3.05109184336946,53.9105080219012],[-3.05109749031265,53.910732674701],[-3.05110313733224,53.910957327492],[-3.0511087844282,53.9111819802742],[-3.05111443160056,53.9114066330474],[-3.05112007884931,53.9116312858117],[-3.05112572617445,53.9118559385671],[-3.05113137357598,53.9120805913137],[-3.05113702105391,53.9123052440513],[-3.05114266860823,53.9125298967801],[-3.05114831623895,53.9127545495],[-3.05115396394607,53.912979202211],[-3.05115961172959,53.9132038549131],[-3.05116525958951,53.9134285076063],[-3.05117090752584,53.9136531602906],[-3.05117655553857,53.913877812966],[-3.0511822036277,53.9141024656326],[-3.05118785179324,53.9143271182902],[-3.05119350003519,53.9145517709389],[-3.05119914835355,53.9147764235788],[-3.05120479674832,53.9150010762098],[-3.0512104452195,53.9152257288319],[-3.0512160937671,53.9154503814451],[-3.05122174239111,53.9156750340494],[-3.050841199178,53.9156783688629],[-3.05084684584295,53.9159030214875],[-3.0508524925843,53.9161276741032],[-3.05085813940203,53.91635232671],[-3.05123868872166,53.9163489918089],[-3.05124433765135,53.9165736443777],[-3.05086378629616,53.9165769793079],[-3.05086943326668,53.9168016318969],[-3.05087508043963,53.9170262844669],[-3.05088072773898,53.9172509370241],[-3.05088637511513,53.9174755895723],[-3.05089202256809,53.9177002421116],[-3.05089767009785,53.917924894642],[-3.05090331770443,53.9181495471636],[-3.05090896538781,53.9183741996762],[-3.05052839758103,53.9183775336371],[-3.05053404329171,53.9186021861705],[-3.05053968907918,53.9188268386949],[-3.05054533494344,53.9190514912105],[-3.05016476091118,53.9190548240545],[-3.05017040480263,53.9192794765908],[-3.05017604877084,53.9195041291183],[-3.04979547056252,53.9195074608157],[-3.04978982864393,53.9192828082586],[-3.04978418680208,53.9190581556926],[-3.04977854503696,53.9188335031177],[-3.05015911709649,53.9188301715093],[-3.05015347335856,53.9186055189552],[-3.05014782969739,53.9183808663921],[-3.05014218611297,53.9181562138202],[-3.05013654260531,53.9179315612393],[-3.0501308991744,53.9177069086495],[-3.05012525582025,53.9174822560509],[-3.05011961254284,53.9172576034433],[-3.05011396934218,53.9170329508268],[-3.05010832625574,53.9168082981982],[-3.05010268335641,53.9165836455508],[-3.0504832348645,53.9165803130323],[-3.05047759000594,53.9163556604052],[-3.05047194522374,53.9161310077692],[-3.05046630051791,53.9159063551244],[-3.05046065588844,53.9156817024706],[-3.05045501133533,53.915457049808],[-3.05044936685858,53.9152323971365],[-3.05044372245819,53.9150077444561],[-3.05043807813416,53.9147830917668],[-3.05043243388648,53.9145584390686],[-3.05042678971516,53.9143337863615],[-3.05042114562019,53.9141091336455],[-3.05041550160158,53.9138844809207],[-3.05040985765931,53.9136598281869],[-3.05040421379339,53.9134351754443],[-3.05039857000382,53.9132105226928],[-3.05077909090493,53.9132071894058],[-3.05077344515656,53.9129825366745],[-3.05076779948456,53.9127578839343],[-3.05076215388893,53.9125332311853],[-3.05075650836967,53.9123085784274],[-3.05037599560899,53.9123119115978],[-3.05037035220114,53.9120872588018],[-3.05036470886962,53.9118626059969],[-3.05035906561445,53.9116379531832],[-3.05035342243561,53.9114133003605],[-3.0503477793331,53.911188647529],[-3.05034213630693,53.9109639946885],[-3.05033649335709,53.9107393418392],[-3.05033085048359,53.910514688981],[-3.05032520768641,53.9102900361139],[-3.05031956496556,53.9100653832379],[-3.05031392232103,53.9098407303531],[-3.05030827975283,53.9096160774593],[-3.05030263726096,53.9093914245566],[-3.0502969948454,53.9091667716451],[-3.05029135250617,53.9089421187246],[-3.05028571024326,53.9087174657953],[-3.05028006818496,53.90849281283],[-3.05027442679228,53.9082681597308],[-3.05026878547453,53.9080435066218],[-3.05026314423172,53.9078188535031],[-3.05025750306383,53.9075942003745],[-3.04987703275164,53.9075975316057],[-3.04987139364643,53.9073728784086],[-3.04986575461613,53.9071482252016],[-3.04986011566072,53.9069235719849],[-3.04985447678021,53.9066989187585],[-3.04984883797459,53.9064742655222],[-3.04984319924388,53.9062496122762],[-3.04983756058805,53.9060249590204],[-3.04983192200712,53.9058003057549],[-3.04982628350107,53.9055756524795],[-3.04982064506992,53.9053509991944],[-3.04944019455905,53.9053543286325],[-3.04943455819027,53.9051296752788],[-3.04942892189634,53.9049050219153],[-3.04942328567727,53.904680368542],[-3.04941764953306,53.904455715159],[-3.0494120134637,53.9042310617662],[-3.0494063774692,53.9040064083637],[-3.04940074154955,53.9037817549513],[-3.04939510570475,53.9035571015292],[-3.04901467101805,53.9035604292921],[-3.04902030487556,53.903785082773],[-3.04902593880789,53.9040097362442],[-3.04903157281504,53.9042343897056],[-3.04903720689703,53.9044590431572],[-3.04904284105384,53.9046836965991],[-3.04904847528548,53.9049083500312],[-3.04905410959195,53.9051330034535],[-3.04905974397326,53.9053576568661],[-3.04867929331256,53.9053609838952],[-3.04868492578119,53.9055856373569],[-3.04869055832463,53.9058102908087],[-3.04869619094288,53.9060349442508],[-3.04870182363593,53.9062595976832],[-3.0487074564038,53.9064842511057],[-3.04908791700232,53.9064809237824],[-3.04909355183264,53.9067055771363],[-3.04909918673781,53.9069302304805],[-3.04910482171782,53.9071548838149],[-3.04911045677268,53.9073795371396],[-3.04911609190238,53.9076041904545],[-3.04912172710693,53.9078288437596],[-3.04912736238633,53.9080534970549],[-3.04913299774058,53.9082781503405],[-3.0495134741661,53.9082748213419],[-3.04951911158306,53.9084994745588],[-3.04952474960734,53.9087241275868],[-3.049530387801,53.9089487805744],[-3.04953602607093,53.9091734335531],[-3.04954166441712,53.9093980865229],[-3.04916117788069,53.9094014156977],[-3.04916681426843,53.9096260686878],[-3.04917245073242,53.909850721669],[-3.04955294133831,53.9098473924359],[-3.04955857991331,53.910072045379],[-3.04956421856458,53.9102966983133],[-3.04994471316368,53.9102933678164],[-3.04995035392604,53.9105180207126],[-3.0499559947647,53.9107426736],[-3.04996163567966,53.9109673264784],[-3.04996727667094,53.911191979348],[-3.04997291773851,53.9114166322087],[-3.04997855888239,53.9116412850605],[-3.04998420010259,53.9118659379034],[-3.04960369125917,53.9118692686042],[-3.04960933052066,53.9120939214673],[-3.04961496985843,53.9123185743216],[-3.04962060927249,53.912543227167],[-3.04924009424759,53.9125465567496],[-3.04924573170284,53.9127712096152],[-3.04925136923435,53.9129958624719],[-3.0488708500629,53.9129991909071],[-3.04887648563551,53.913223843784],[-3.0484959643526,53.9132271710426],[-3.04850159796627,53.9134518239398],[-3.0481210745719,53.9134551500218],[-3.04812670622656,53.9136798029391],[-3.04774618072073,53.9136831278445],[-3.04775181041633,53.9139077807821],[-3.04737128279903,53.9139111045109],[-3.04737691053552,53.9141357574687],[-3.04699638080675,53.9141390800208],[-3.04700200658407,53.9143637329988],[-3.04662147474382,53.9143670543742],[-3.04662709856192,53.9145917073724],[-3.04624656461019,53.9145950275711],[-3.04625218646901,53.9148196805894],[-3.04587165040581,53.9148229996115],[-3.04587727030529,53.9150476526499],[-3.04549673213061,53.9150509704953],[-3.0455023500707,53.9152756235539],[-3.04512180978453,53.9152789402225],[-3.04512742576518,53.9155035933012],[-3.04474688336752,53.915506908793],[-3.04475249738866,53.9157315618919],[-3.04437195287951,53.9157348762069],[-3.0443775649411,53.9159595293259],[-3.04399701832046,53.9159628424641],[-3.04400262842244,53.9161874956032],[-3.04400823860031,53.9164121487334],[-3.04362768783261,53.9164154607238],[-3.04363329605079,53.9166401138741],[-3.04325274317156,53.9166434246876],[-3.04325834942876,53.916868077858],[-3.0432639556647,53.9170927310155],[-3.04326956197688,53.9173173841642],[-3.04327516836531,53.917542037304],[-3.04328077482999,53.9177666904349],[-3.04290021163986,53.9177700001894],[-3.04251964837345,53.9177733087381],[-3.04252525081546,53.917997961919],[-3.04253085333367,53.9182226150911],[-3.04215028589205,53.9182259224928],[-3.04176971837418,53.9182292286886],[-3.04177531686956,53.9184538819106],[-3.04178091544108,53.9186785351237],[-3.04140034374793,53.9186818401725],[-3.04140594034603,53.9189064934062],[-3.04141153702024,53.919131146631],[-3.04179211281256,53.9191278415233],[-3.04179771161253,53.9193524947098],[-3.04180331048864,53.9195771478873],[-3.0418089094409,53.919801801056],[-3.04142832749961,53.9198051062519],[-3.04104774548213,53.9198084102419],[-3.04105334041112,53.9200330634606],[-3.04105893541621,53.9202577166703],[-3.04106453049739,53.9204823698711],[-3.04107012565468,53.9207070230631],[-3.04107572088807,53.9209316762461],[-3.04108131619757,53.9211563294202],[-3.04108691158316,53.9213809825855],[-3.04109250704487,53.9216056357418],[-3.04109810258268,53.9218302888893],[-3.04110369819661,53.9220549420278],[-3.04072309560455,53.9220582451061],[-3.04072868924459,53.9222828982652],[-3.04073428296071,53.9225075514153],[-3.04035367619248,53.9225108533463],[-3.04035926793464,53.922735506517],[-3.04036485975286,53.9229601596788],[-3.03998424880837,53.9229634604625],[-3.03960363778778,53.9229667600402],[-3.03960922558185,53.9231914132518],[-3.03922861243507,53.9231947116527],[-3.03884799921225,53.9231980088475],[-3.03885358298204,53.9234226621091],[-3.03847296763306,53.9234259581271],[-3.03847854942863,53.9236506114091],[-3.03848413130012,53.9238752646823],[-3.03886475074947,53.9238719686055],[-3.0392453701228,53.9238686713226],[-3.03923978415091,53.9236440181082],[-3.03962040139799,53.9236407196486],[-3.04000101856899,53.9236374199828],[-3.04038163566388,53.9236341191109],[-3.04038722778635,53.9238587722371],[-3.04000660864126,53.9238620731384],[-3.04001219878958,53.9240867262851],[-3.03963157751816,53.9240900260097],[-3.03925095617067,53.9240933245281],[-3.03887033474712,53.9240966218404],[-3.03848971324755,53.9240999179465],[-3.03810909167198,53.9241032128465],[-3.03811467164508,53.9243278661312],[-3.0384952952709,53.9243245712019],[-3.03850087737018,53.9245492244483],[-3.03812025169408,53.924552519407],[-3.037739625942,53.9245558131595],[-3.03773404794328,53.9243311598543],[-3.03735342416554,53.9243344523713],[-3.03697280031189,53.9243377436821],[-3.03696722648956,53.9241130903094],[-3.03696165274305,53.9238884369277],[-3.03695607907236,53.9236637835372],[-3.03657546129351,53.9236670735539],[-3.036581032914,53.9238917269738],[-3.03620041300909,53.9238950158136],[-3.03581979302836,53.9238983034473],[-3.03543917297182,53.9239015898748],[-3.0354447385174,53.9241262433737],[-3.03506411633485,53.9241295286243],[-3.03468349407006,53.9241328126604],[-3.03430287115164,53.9241360947373],[-3.03392224815868,53.9241393756088],[-3.03392780566687,53.9243640292805],[-3.03354718058894,53.9243673090027],[-3.03355273616106,53.9245919627208],[-3.03317210899815,53.9245952412937],[-3.03279148176078,53.9245985186612],[-3.03279703338624,53.9248231724817],[-3.03241640406391,53.9248264486999],[-3.03203577466719,53.9248297237126],[-3.03204132234588,53.9250543776355],[-3.03166069086421,53.9250576514989],[-3.03165514519609,53.9248329975199],[-3.03127451565064,53.9248362701218],[-3.03126897206733,53.9246116160772],[-3.03088834445811,53.9246148874176],[-3.03088280295955,53.9243902333073],[-3.03050217728656,53.9243935033864],[-3.03012155153931,53.9243967722601],[-3.02974092571782,53.9244000399283],[-3.02974646118483,53.9246246942066],[-3.02936583327862,53.9246279607254],[-3.02936029982213,53.9244033063912],[-3.02897967385226,53.9244065716486],[-3.02859904780824,53.9244098357007],[-3.0282184216901,53.9244130985473],[-3.02783779549786,53.9244163601886],[-3.02745716923154,53.9244196206244],[-3.02746269263542,53.9246442752383],[-3.02708206428454,53.9246475345246],[-3.02670143585964,53.9246507926055],[-3.02632080736076,53.924654049481],[-3.02594017878791,53.9246573051511],[-3.02555955014113,53.9246605596157],[-3.02517892142044,53.9246638128749],[-3.02479829262588,53.9246670649287],[-3.02480380202981,53.9248917199241],[-3.02442317115083,53.9248949708283],[-3.02404254019801,53.9248982205271],[-3.0236619091714,53.9249014690204],[-3.02328127807102,53.9249047163083],[-3.02290064689689,53.9249079623907],[-3.02252001564905,53.9249112072677],[-3.02213938432751,53.9249144509393],[-3.02214487973106,53.9251391063157],[-3.02176424632526,53.9251423488376],[-3.02138361284582,53.925145590154],[-3.02100297929277,53.925148830265],[-3.02062234566614,53.9251520691705],[-3.0206278329372,53.9253767243981],[-3.02024719721352,53.9253799621366],[-3.01986656141595,53.9253831986692],[-3.01948592554453,53.9253864339959],[-3.01910528959928,53.9253896681168],[-3.01911076881056,53.9256143234117],[-3.01911624809556,53.9258389786973],[-3.01912172745429,53.9260636339736],[-3.01950236946832,53.9260603997256],[-3.01949688808663,53.9258357444916],[-3.01987752800388,53.9258325090801],[-3.02025816784726,53.9258292724627],[-3.02063880761677,53.9258260346395],[-3.02101944731236,53.9258227956104],[-3.02101395791274,53.9255981405367],[-3.02139459551148,53.9255949003442],[-3.02177523303625,53.9255916589457],[-3.02176973966471,53.9253670039477],[-3.0221503750926,53.9253637613858],[-3.02253101044647,53.9253605176182],[-3.02253650786379,53.9255851725313],[-3.02254200535508,53.9258098274352],[-3.0221613659554,53.9258130712878],[-3.02216686149772,53.9260377262249],[-3.02178622000108,53.9260409689141],[-3.02140557843045,53.9260442103973],[-3.02102493678585,53.9260474506747],[-3.02103042633319,53.9262721057298],[-3.02064978259168,53.9262753448438],[-3.02026913877625,53.9262785827518],[-3.02027462435146,53.9265032378824],[-3.01989397843913,53.926506474627],[-3.01951333245295,53.9265097101656],[-3.0195188140559,53.9267343653718],[-3.01913816597285,53.9267375997469],[-3.018757517816,53.9267408329161],[-3.01876299544658,53.9269654881977],[-3.01838234519288,53.9269687202033],[-3.01800169465661,53.9269719507826],[-3.01800716836896,53.9271966061976],[-3.01762651231804,53.9271998320206],[-3.01763198411893,53.9274244875246],[-3.01725132601144,53.9274277122433],[-3.0168706678314,53.9274309357576],[-3.01687613573674,53.9276555914507],[-3.01649547550014,53.9276588138606],[-3.01611481519105,53.9276620350663],[-3.01612027920073,53.9278866909483],[-3.01573961683511,53.9278899110495],[-3.01535895439703,53.9278931299465],[-3.01536441451095,53.9281177860173],[-3.01498375001637,53.9281210038099],[-3.0146030854494,53.9281242203981],[-3.01460854166743,53.9283488766578],[-3.01422787504397,53.9283520921415],[-3.01384720834817,53.9283553064209],[-3.01384175609837,53.9281306499614],[-3.01346109131438,53.9281338629366],[-3.01308042645809,53.9281370747075],[-3.01269976152955,53.928140285274],[-3.01231909652877,53.9281434946361],[-3.01193843145579,53.928146702794],[-3.01155776631062,53.9281499097474],[-3.0111771010933,53.9281531154966],[-3.01118253945424,53.9283777726547],[-3.01080187218067,53.9283809772993],[-3.01042120483499,53.9283841807395],[-3.01042663929967,53.9286088380863],[-3.01004596989776,53.9286120404219],[-3.00966530042381,53.9286152415531],[-3.0096707309921,53.9288398990886],[-3.00929005946194,53.9288430991152],[-3.00928463087783,53.92861844148],[-3.00890396125986,53.9286216402025],[-3.00852329156992,53.9286248377205],[-3.00814262180803,53.9286280340343],[-3.00813719924832,53.928403376089],[-3.00775653139869,53.9284065710986],[-3.00737586347717,53.9284097649039],[-3.00737044495757,53.9281851067484],[-3.00736502650974,53.927960448582],[-3.00698436248462,53.9279636409835],[-3.00660369838767,53.9279668321806],[-3.00622303421891,53.9279700221734],[-3.00622844671439,53.9281946806389],[-3.00584778048974,53.9281978695269],[-3.00584236997838,53.9279732109619],[-3.00583695953868,53.9277485523859],[-3.00621762179512,53.9277453636971],[-3.00621220944302,53.9275207052099],[-3.00583154917064,53.927523893799],[-3.00582613887426,53.9272992352013],[-3.00544548051417,53.9273024224865],[-3.00544007227347,53.9270777637782],[-3.00505941582567,53.9270809497594],[-3.00505400964059,53.9268562909406],[-3.0050486035271,53.926631632111],[-3.00466795097556,53.9266348166886],[-3.00466254691761,53.9264101577485],[-3.00465714293123,53.9261854987974],[-3.00465173901643,53.9259608398355],[-3.0046463351732,53.9257361808628],[-3.00426569048556,53.9257393638377],[-3.00426028869772,53.9255147047544],[-3.00425488698143,53.9252900456603],[-3.00387424618979,53.9252932272317],[-3.00386884786841,53.9250685688932],[-3.00424948666763,53.92506538741],[-3.00424408734818,53.9248407297418],[-3.00423868810226,53.9246160720642],[-3.00423328892986,53.9243914143773],[-3.00422788983099,53.924166756681],[-3.00384725924745,53.9241699379861],[-3.00384186227595,53.923945280236],[-3.0034612336727,53.9239484602908],[-3.00308060499592,53.9239516391399],[-3.00307521220556,53.9237269812915],[-3.00345583882852,53.9237238024869],[-3.0034504440578,53.9234991446737],[-3.00383106855342,53.9234959647079],[-3.00421169297548,53.9234927835364],[-3.00459231732395,53.9234896011592],[-3.00458691646538,53.9232649434703],[-3.00458151568036,53.923040285772],[-3.00457611496888,53.9228156280644],[-3.00495673308251,53.922812444615],[-3.00495133039089,53.9225877869426],[-3.00494592777283,53.9223631292609],[-3.00532654170549,53.922359944695],[-3.00532113710738,53.9221352870486],[-3.00531573258286,53.9219106293927],[-3.00531032813193,53.9216859717276],[-3.00569093583013,53.9216827860898],[-3.00568552939925,53.9214581284599],[-3.00606613497023,53.9214549416609],[-3.00606072655945,53.9212302840663],[-3.0064413300032,53.9212270961063],[-3.00643591961259,53.9210024385469],[-3.00681652092911,53.9209992494258],[-3.00719712217185,53.9209960590992],[-3.00719170774801,53.9207714016197],[-3.00757230686351,53.920768210132],[-3.00795290590518,53.9207650174388],[-3.00794748744821,53.9205403600392],[-3.00832808436261,53.9205371661849],[-3.00870868120313,53.9205339711252],[-3.00908927796974,53.9205307748598],[-3.00908385342638,53.9203061175847],[-3.00946444806567,53.9203029201584],[-3.00984504263099,53.9202997215265],[-3.01022563712232,53.9202965216891],[-3.01060623153963,53.920293320646],[-3.01098682588289,53.9202901183974],[-3.01136742015207,53.9202869149433],[-3.01136198336245,53.920062257927],[-3.01174257550418,53.9200590533119],[-3.01212316757178,53.9200558474913],[-3.01211772674954,53.9198311905552],[-3.01249831668966,53.9198279835737],[-3.0124928738882,53.919603326673],[-3.01211228600137,53.9196065336097],[-3.01173169804038,53.9196097393408],[-3.01172625941957,53.9193850823412],[-3.01134567343772,53.9193882868221],[-3.01134023694419,53.9191636297685],[-3.01095965294148,53.9191668329992],[-3.01057906886471,53.9191700350243],[-3.01057363655163,53.918945377872],[-3.01019305445403,53.9189485786469],[-3.0101984847139,53.9191732358439],[-3.00981790048907,53.919176435458],[-3.00981247228242,53.9189517782163],[-3.00943189003683,53.9189549765802],[-3.00942646395728,53.9187303192845],[-3.00942103795161,53.9185056619795],[-3.00904045973841,53.9185088590486],[-3.00903503585975,53.9182842016896],[-3.00865445962577,53.9182873975086],[-3.00864903787407,53.9180627400956],[-3.00864361619619,53.9178380826733],[-3.00863819459213,53.9176134252417],[-3.00863277306188,53.9173887678008],[-3.00862735160545,53.9171641103505],[-3.00862193022283,53.9169394528909],[-3.00861651117621,53.9167147966788],[-3.00861109330987,53.9164901410731],[-3.00860567552208,53.916265485462],[-3.00860025781283,53.9160408298453],[-3.00859484018212,53.9158161742232],[-3.00897539310053,53.9158129782863],[-3.00896997332899,53.9155883225677],[-3.00896455363601,53.9153636668437],[-3.00858400515632,53.9153668629626],[-3.00857858776123,53.9151422073241],[-3.00857317044467,53.9149175516801],[-3.00856775320665,53.9146928960306],[-3.00856233604716,53.9144682403757],[-3.0085569189662,53.9142435847152],[-3.00817638150423,53.9142467800798],[-3.00817096672098,53.9140221245049],[-3.00816555201622,53.9137974689245],[-3.00854608503988,53.913794273378],[-3.0085406681945,53.9135696177012],[-3.00853525142765,53.9133449620188],[-3.00852983473933,53.9131203063311],[-3.00852441812953,53.9128956506378],[-3.00851900159825,53.9126709949391],[-3.00851358514549,53.9124463392349],[-3.00889410477633,53.9124431419334],[-3.00927462432856,53.9124399434228],[-3.00928004521925,53.912664599309],[-3.00966056691181,53.9126613996803],[-3.0100410885257,53.9126581988425],[-3.01042161006089,53.9126549967956],[-3.01042703768712,53.9128796529491],[-3.01080756136257,53.912876449784],[-3.01118808495925,53.9128732454099],[-3.01156860847715,53.9128700398266],[-3.01194913191622,53.9128668330343],[-3.01232965527644,53.9128636250328],[-3.01271017855777,53.9128604158222],[-3.01271561957675,53.9130850725155],[-3.01309614499817,53.9130818621867],[-3.01310158831504,53.9133065189654],[-3.01348211587655,53.9133033075183],[-3.01348756149136,53.9135279643824],[-3.01386809119296,53.913524751817],[-3.01424862081555,53.9135215380425],[-3.01425407094746,53.9137461950828],[-3.01387353910577,53.9137494087665],[-3.01387898709753,53.9139740657105],[-3.01349845295771,53.9139772780943],[-3.01350389880926,53.914201934942],[-3.0131233623713,53.9142051460257],[-3.01312880608258,53.9144298027771],[-3.01313424987275,53.914654459523],[-3.0135147907491,53.914651248621],[-3.01352023683739,53.9148759054524],[-3.01352568300461,53.9151005622782],[-3.01353112925074,53.9153252190987],[-3.01391167670592,53.91532200726],[-3.01390622824048,53.9150973503488],[-3.01428677339734,53.91509413721],[-3.01466731847514,53.9150909228621],[-3.01504786347386,53.915087707305],[-3.01542840839347,53.9150844905386],[-3.01580895323393,53.915081272563],[-3.01618949799522,53.9150780533782],[-3.01618403629314,53.9148533959167],[-3.01656457875597,53.9148501754319],[-3.01655911491378,53.9146255178741],[-3.01655365115075,53.9144008603108],[-3.01693418909591,53.9143976384353],[-3.01692872319286,53.9141729807758],[-3.0173092588396,53.9141697576003],[-3.01730379079659,53.9139450998446],[-3.0172983228328,53.9137204420835],[-3.01767885396199,53.9137172175174],[-3.01767338385833,53.91349255966],[-3.01729285494821,53.9134957843169],[-3.01691232595881,53.9134990077646],[-3.01653179689015,53.9135022300032],[-3.01615126774227,53.9135054510326],[-3.01577073851519,53.9135086708529],[-3.01576527958602,53.9132840134439],[-3.01538475249884,53.9132872321458],[-3.01500422533252,53.9132904496386],[-3.01462369808711,53.9132936659222],[-3.01424317076262,53.9132968809967],[-3.01423772078865,53.9130722239455],[-3.01461824589411,53.9130690087802],[-3.01461279378011,53.9128443516327],[-3.0149933165875,53.9128411351675],[-3.01498786233352,53.9126164779237],[-3.01498240815857,53.9123918206745],[-3.01497695406264,53.9121671634198],[-3.01535747013412,53.9121639454731],[-3.01573798612646,53.9121607263172],[-3.0157325276718,53.9119360688755],[-3.01611304136611,53.9119328484198],[-3.01610758077168,53.9117081908819],[-3.01648809216797,53.9117049691264],[-3.01649355498125,53.911929626755],[-3.01687406851716,53.9119264038812],[-3.01687953362846,53.9121510615952],[-3.01688499881892,53.9123757193037],[-3.01650448084522,53.9123789419961],[-3.01650994389592,53.9126035996084],[-3.01689046408855,53.9126003770068],[-3.01727098420193,53.9125971531961],[-3.01726551671336,53.9123724954023],[-3.017260049304,53.912147837603],[-3.01764056490027,53.9121446124017],[-3.01802108041723,53.9121413859913],[-3.01802655228594,53.9123660439687],[-3.01803202423549,53.9125907019349],[-3.01841254589076,53.9125874740065],[-3.01841801991452,53.9128121318724],[-3.01842349401133,53.9130367897278],[-3.0188040195959,53.913033560416],[-3.01918454510732,53.9130303299003],[-3.01917906700807,53.9128056722243],[-3.01917358898192,53.9125810145378],[-3.01955411041775,53.9125777829975],[-3.0195595904451,53.9128024405943],[-3.01994011380892,53.9127992077604],[-3.02032063709951,53.9127959737225],[-3.02070116031684,53.9127927384807],[-3.02069567428592,53.9125680811531],[-3.02107619542877,53.9125648447971],[-3.0210707074699,53.9123401875485],[-3.02145122653828,53.9123369500784],[-3.02144573665151,53.912112292909],[-3.02182625364543,53.9121090543247],[-3.02220677056598,53.9121058145364],[-3.02220127675025,53.9118811575359],[-3.02219578300784,53.9116565005248],[-3.02219028933873,53.9114318435031],[-3.02257080018268,53.9114286027803],[-3.02256530458586,53.9112039458377],[-3.02255980906237,53.9109792888845],[-3.02294031583089,53.9109760471374],[-3.02293481837978,53.9107513902633],[-3.02292932100202,53.9105267333786],[-3.02330982369521,53.9105234906073],[-3.0233043243899,53.9102988338018],[-3.02368482500872,53.9102955899165],[-3.02367932377591,53.9100709331901],[-3.02405982232037,53.9100676881908],[-3.02405431916012,53.9098430315436],[-3.02404881607331,53.9096183748857],[-3.02442931054258,53.9096151288623],[-3.02443481563022,53.9098397854303],[-3.02481531202677,53.9098365381132],[-3.02519580834976,53.9098332895923],[-3.02520131751255,53.91005794597],[-3.02558181576279,53.9100546961554],[-3.02596231393941,53.9100514451371],[-3.02596782717746,53.9102761013244],[-3.0263483272813,53.9102728490123],[-3.02634281204238,53.9100481929149],[-3.02633729687706,53.9098235368068],[-3.02633178178534,53.9095988806881],[-3.02595128768403,53.9096021327305],[-3.02594577466669,53.9093774765113],[-3.02556528249252,53.90938072726],[-3.02518479024473,53.909383976805],[-3.02517928130249,53.9091593203954],[-3.02479879098187,53.9091625686467],[-3.02479328411388,53.9089379121367],[-3.02478777731936,53.9087132556159],[-3.02478227121456,53.908488599437],[-3.02477676766108,53.9082639446648],[-3.02477126418583,53.9080392898854],[-3.02476576078883,53.9078146350989],[-3.02476025747005,53.9075899803053],[-3.0247547542295,53.9073653255044],[-3.02513522773105,53.907362077369],[-3.02512972240355,53.9071374225303],[-3.02512421715431,53.9069127676845],[-3.02474374798309,53.9069160158813],[-3.02473824497723,53.906691361059],[-3.02473274204959,53.9064667062296],[-3.02472723920017,53.9062420513929],[-3.02510770187611,53.906238803104],[-3.02510219693987,53.9060141482295],[-3.02509669208189,53.9057894933479],[-3.02509118730216,53.9055648384591],[-3.02547164340475,53.9055615888711],[-3.02546613653832,53.9053369339445],[-3.02546062975016,53.9051122790107],[-3.02584108144455,53.9051090281542],[-3.02583557256977,53.9048843731826],[-3.0258300637733,53.9046597182038],[-3.02621051105958,53.904656466079],[-3.02620500017657,53.9044318110624],[-3.02619948937189,53.9042071560387],[-3.02657993225015,53.9042039026456],[-3.02658544521963,53.9044285576999],[-3.02659095826747,53.9046532127472],[-3.02697140539694,53.9046499582083],[-3.02697692068799,53.9048746132789],[-3.02698243605743,53.9050992683425],[-3.02698795150525,53.9053239233989],[-3.02699346703147,53.9055485784481],[-3.02699898263608,53.9057732334901],[-3.02700449831909,53.905997888525],[-3.02701001408048,53.9062225435528],[-3.0273904762861,53.9062192880212],[-3.02738495835967,53.9059946329628],[-3.02776541832177,53.9059913761935],[-3.02775989830876,53.9057667210974],[-3.02775437837421,53.9055420659941],[-3.02774885851811,53.9053174108836],[-3.02774333874046,53.905092755766],[-3.02736288743818,53.9050960126578],[-3.02735736990386,53.9048713575636],[-3.02735185244796,53.9046467024623],[-3.0277322994205,53.9046434455093],[-3.02772677987818,53.9044187903702],[-3.02772126041431,53.904194135224],[-3.02771574102888,53.9039694800706],[-3.02809618142853,53.9039662218188],[-3.02847662174965,53.9039629623599],[-3.02885706199219,53.903959701694],[-3.028851536191,53.9037350464417],[-3.02923197419023,53.9037317845383],[-3.02961241211083,53.9037285214278],[-3.02999284995278,53.9037252571103],[-3.02998731773601,53.9035006017592],[-3.03036775333458,53.9034973362041],[-3.03074818885443,53.9034940694421],[-3.03112862429555,53.9034908014731],[-3.03112308566339,53.9032661460232],[-3.03150351886108,53.9032628768167],[-3.03149797814298,53.9030382213291],[-3.03187840909723,53.9030349508851],[-3.03225883997266,53.9030316792341],[-3.03226438502002,53.9032563347827],[-3.03264481798123,53.9032530619552],[-3.03302525086354,53.9032497879207],[-3.03301970148691,53.9030251323112],[-3.03301415218913,53.9028004766945],[-3.0333945806633,53.9027972013921],[-3.03338902927978,53.9025725457378],[-3.03376945551044,53.902569269198],[-3.03376390204125,53.9023446135061],[-3.03375834865096,53.9021199578071],[-3.0341387704736,53.9021166799994],[-3.03413321499772,53.9018920242628],[-3.03451363457688,53.9018887452177],[-3.03450807701547,53.9016640894435],[-3.03488849557007,53.9016608085307],[-3.0348829359814,53.9014361527822],[-3.0352633535492,53.9014328701668],[-3.0352577920473,53.9012082144669],[-3.03563820755415,53.9012049307058],[-3.03563264413907,53.9009802750546],[-3.03601305758497,53.9009769901476],[-3.03600749225676,53.9007523345452],[-3.03638790364171,53.9007490484924],[-3.03638233640043,53.9005243929388],[-3.03600192700243,53.9005276789331],[-3.03599636182198,53.9003030233112],[-3.03561595433695,53.9003063080428],[-3.03561039348253,53.9000816534381],[-3.03522998786118,53.9000849369077],[-3.03522443109195,53.899860283253],[-3.03484402740782,53.8998635655173],[-3.03446362579561,53.8998668462633],[-3.03445807326686,53.8996421926246],[-3.03407767525743,53.8996454719934],[-3.03407212496741,53.8994208183994],[-3.03406657475618,53.8991961647989],[-3.03368618098773,53.8991994430629],[-3.03368063301514,53.8989747895072],[-3.0336750851213,53.8987501359448],[-3.03329469559376,53.898753413104],[-3.03328914993847,53.8985287595865],[-3.0332836043619,53.8983041060623],[-3.03290321907518,53.8983073821168],[-3.03289767573708,53.8980827286374],[-3.03289213247766,53.8978580751515],[-3.03251175143168,53.8978613501012],[-3.03250621041064,53.8976366966601],[-3.03212583144565,53.8976399704537],[-3.03174545240199,53.89764324304],[-3.03175098910363,53.8978678963785],[-3.03137060782162,53.8978711677061],[-3.03136507327968,53.897646514419],[-3.03098469407876,53.8976497845907],[-3.03097916177505,53.8974251313484],[-3.03097362954989,53.8972004780995],[-3.0313540044315,53.8971972078251],[-3.03134847012525,53.8969725545183],[-3.03096809740326,53.8969758248441],[-3.03096256533516,53.8967511715821],[-3.03134293589757,53.896747901205],[-3.03172330638137,53.8967446296206],[-3.03210367678653,53.896741356829],[-3.0320981383183,53.8965167034064],[-3.03209259992869,53.8962920499773],[-3.03247296593611,53.8962887758757],[-3.03285333186483,53.8962855005668],[-3.03285887457348,53.8965101540986],[-3.033239242583,53.8965068776337],[-3.03324478752988,53.8967315312102],[-3.03325033255547,53.8969561847802],[-3.03325587765976,53.8971808383436],[-3.03363625206925,53.8971775608253],[-3.03364179941189,53.8974022144334],[-3.03364734683327,53.897626868035],[-3.03402772548327,53.897623589412],[-3.03440810405444,53.8976203095817],[-3.03478848393223,53.8976170285368],[-3.03516886749966,53.8976137462659],[-3.03554925099251,53.8976104627891],[-3.03554369303173,53.8973858090456],[-3.03553813514552,53.8971611552941],[-3.03591851454074,53.8971578706102],[-3.03592407443845,53.8973825243623],[-3.03592963441074,53.8976071781065],[-3.03631001775432,53.897603892218],[-3.03669040102323,53.8976006051236],[-3.03668483702791,53.8973759513782],[-3.03667927310724,53.8971512976248],[-3.0366737092612,53.8969266438634],[-3.03666814548982,53.8967019900939],[-3.03666258179307,53.8964773363164],[-3.03665701817096,53.8962526825309],[-3.03665145462348,53.8960280287374],[-3.03664589115065,53.8958033749359],[-3.03626552397308,53.8958066620353],[-3.03625996258617,53.8955820082263],[-3.03625440127387,53.8953573544094],[-3.03663476442888,53.8953540673087],[-3.0370151275092,53.8953507790023],[-3.03739549051481,53.8953474894902],[-3.03777585344568,53.8953441987723],[-3.03815621630178,53.8953409068486],[-3.03853657908309,53.8953376137191],[-3.03853100577798,53.8951129598906],[-3.03891136647323,53.8951096655548],[-3.03929172709364,53.8951063700132],[-3.03929730442121,53.8953310238429],[-3.03930288182361,53.8955556776646],[-3.03930845930084,53.8957803314783],[-3.03931403685289,53.8960049852839],[-3.03893366818739,53.8960082808233],[-3.03893924380293,53.8962329346203],[-3.03894481949328,53.8964575884094],[-3.03895039525842,53.8966822421904],[-3.03933076995801,53.8966789466528],[-3.03932519218147,53.8964542928712],[-3.03970556479479,53.8964509961272],[-3.03969998508172,53.896226342337],[-3.0396944054435,53.8960016885388],[-3.03968882588014,53.8957770347326],[-3.03968324639163,53.8955523809184],[-3.03967766697797,53.8953277270962],[-3.03967208763917,53.8951030732659],[-3.03966650837522,53.8948784194277],[-3.03966092918611,53.8946537655814],[-3.03965535007185,53.8944291117271],[-3.03964977103244,53.8942044578647],[-3.04003012345844,53.8942011599095],[-3.04002454248278,53.8939765060386],[-3.04001896158199,53.8937518521597],[-3.04001338075608,53.8935271982728],[-3.04000780000503,53.8933025443778],[-3.04000221932884,53.8930778904748],[-3.04038256162474,53.8930745913113],[-3.0407629038457,53.8930712909421],[-3.04114324599168,53.8930679893672],[-3.04113765935751,53.8928433354546],[-3.04113207279829,53.892618681534],[-3.04112648631401,53.8923940276054],[-3.04112089990467,53.8921693736688],[-3.04150123393203,53.8921660708863],[-3.04188156788437,53.8921627668981],[-3.04226190176166,53.8921594617043],[-3.04264223556387,53.8921561553049],[-3.04302256929099,53.8921528476999],[-3.04340290294297,53.8921495388892],[-3.0437832365198,53.8921462288729],[-3.04416357002144,53.892142917651],[-3.04454390344787,53.8921396052235],[-3.04492423679906,53.8921362915903],[-3.04530457007499,53.8921329767515],[-3.04568490327563,53.8921296607071],[-3.04567929281126,53.8919050067571],[-3.04605962392576,53.8919016895067],[-3.0464399549649,53.8918983710506],[-3.04682028592868,53.891895051389],[-3.04720061681705,53.8918917305217],[-3.04720623532469,53.8921163844731],[-3.04721185390772,53.8923410384165],[-3.04759218874232,53.8923377163443],[-3.0475978094116,53.89256237028],[-3.04797814618162,53.8925590470025],[-3.0479837689372,53.8927837009305],[-3.04798939176822,53.8930083548505],[-3.04799501467469,53.8932330087625],[-3.04800063765659,53.8934576626664],[-3.04800626071394,53.8936823165623],[-3.04801188384673,53.8939069704502],[-3.04801750705497,53.8941316243301],[-3.04802313033865,53.894356278202],[-3.04802875369779,53.8945809320658],[-3.04803437713237,53.8948055859217],[-3.04804000064241,53.8950302397695],[-3.04804562422789,53.8952548936092],[-3.04805124788883,53.895479547441],[-3.04805687162523,53.8957042012647],[-3.04806249543709,53.8959288550805],[-3.04844286229793,53.8959255306021],[-3.04844848819655,53.8961501844101],[-3.04845411417066,53.8963748382101],[-3.04845974022025,53.8965994920021],[-3.04846536634534,53.896824145786],[-3.04847099254591,53.897048799562],[-3.04809061562826,53.8970521240387]]],[[[-3.02619948937189,53.9042071560387],[-3.02581904641524,53.9042104082248],[-3.02582455505512,53.9044350632179],[-3.0258300637733,53.9046597182038],[-3.02544961640865,53.9046629691216],[-3.02506916896568,53.9046662188323],[-3.02507467343243,53.9048908737498],[-3.02545512304027,53.9048876240697],[-3.02546062975016,53.9051122790107],[-3.02508017797743,53.9051155286601],[-3.0246997261264,53.9051187771024],[-3.0246942237463,53.9048941222228],[-3.0246887214444,53.904669467336],[-3.02468321922072,53.9044448124421],[-3.02467771707526,53.904220157541],[-3.024672215008,53.9039955026328],[-3.02429177390287,53.9039987500215],[-3.02428627407857,53.9037740951368],[-3.02428077433244,53.9035494402449],[-3.02427527466449,53.9033247853459],[-3.02389483997529,53.9033280316197],[-3.02388934255018,53.9031033767442],[-3.02388384520321,53.9028787218616],[-3.02387834793438,53.9026540669718],[-3.02349791966089,53.9026573121307],[-3.02349242463478,53.9024326572644],[-3.02348692968678,53.902208002391],[-3.02348143481689,53.9019833475104],[-3.02310101295887,53.9019865915546],[-3.02309552033158,53.9017619366975],[-3.02309002778237,53.9015372818333],[-3.02347044531143,53.9015340377277],[-3.02346495067586,53.9013093828256],[-3.02308453531123,53.9013126269619],[-3.02270411986847,53.9013158698913],[-3.02269862963982,53.9010912150435],[-3.02231821628336,53.9010944567968],[-3.02231272829713,53.9008698019726],[-3.02230724038891,53.9006451471411],[-3.02192683128311,53.900648387749],[-3.02192134561723,53.9004237329412],[-3.02154093859772,53.900426972373],[-3.02153545517411,53.9002023175887],[-3.02152997598654,53.8999776656917],[-3.02114957315332,53.8999809039568],[-3.0211440962237,53.8997562521189],[-3.02076369547266,53.8997594892281],[-3.02075822078081,53.8995348374352],[-3.02037782211194,53.8995380733888],[-3.0203723496578,53.8993134216409],[-3.0203668772814,53.8990887698866],[-3.01998648285463,53.899092004736],[-3.01998101271585,53.8988673530267],[-3.01960062037123,53.8988705867204],[-3.01959515247002,53.8986459350562],[-3.01921476220756,53.8986491675942],[-3.01920929654385,53.8984245159751],[-3.01882890836356,53.8984277473574],[-3.0188234449373,53.8982030957834],[-3.01844305883917,53.8982063260101],[-3.01806267266342,53.8982095550294],[-3.01805721363434,53.8979849035522],[-3.01767683264586,53.897988133303],[-3.01767137578847,53.897763481816],[-3.01729099707979,53.8977667105154],[-3.01728554233161,53.8975420589789],[-3.01690516558424,53.8975452864334],[-3.01689971294521,53.8973206348475],[-3.01651933815914,53.897323861057],[-3.01613896329917,53.8973270860619],[-3.01613351480445,53.8971024343864],[-3.01575314190582,53.8971056581464],[-3.01537276893335,53.8971088807018],[-3.01536732458282,53.8968842289366],[-3.01498695357173,53.8968874502472],[-3.01498151133013,53.8966627984326],[-3.01460114228041,53.8966660184983],[-3.01422077315693,53.8966692373594],[-3.01421533505934,53.8964445854553],[-3.01383496789727,53.8964478030716],[-3.01382953190847,53.8962231511181],[-3.01382409599335,53.8959984991555],[-3.01420445908525,53.8959952816195],[-3.01419902120875,53.8957706296878],[-3.01419358340594,53.8955459777468],[-3.01457394235407,53.8955427590866],[-3.01456850258996,53.8953181071766],[-3.01494885942935,53.895314887352],[-3.014943417704,53.895090235473],[-3.0149379760524,53.8948655835848],[-3.01493253447455,53.8946409316874],[-3.01455218373995,53.8946441513915],[-3.01417183293162,53.8946473698911],[-3.01416639549726,53.8944227179041],[-3.01378604665009,53.894425935159],[-3.01340569772924,53.8944291512093],[-3.01340026443827,53.8942044991329],[-3.01339483122092,53.8939798470472],[-3.01338939807721,53.8937551949523],[-3.01338396500712,53.8935305428483],[-3.01337853201065,53.893305890735],[-3.01337309908781,53.8930812386125],[-3.01336766623859,53.8928565864808],[-3.01336223346299,53.89263193434],[-3.013356800761,53.8924072821899],[-3.01335136813264,53.8921826300306],[-3.01373169670621,53.8921794143817],[-3.0141120252061,53.8921761975284],[-3.0144923536323,53.8921729794706],[-3.01487268198477,53.8921697602085],[-3.01525301026349,53.8921665397418],[-3.01563333846843,53.8921633180708],[-3.01601366659956,53.8921600951953],[-3.01639399465686,53.8921568711154],[-3.01677432264029,53.8921536458311],[-3.01715465054984,53.8921504193423],[-3.01753497838546,53.8921471916492],[-3.01791530614714,53.8921439627516],[-3.01792076319066,53.8923686144285],[-3.01792622030813,53.8925932660962],[-3.01830655238904,53.8925900358168],[-3.01831201171632,53.8928146875034],[-3.01831747112114,53.8930393391834],[-3.01869780755171,53.8930361077681],[-3.01870326919323,53.8932607594932],[-3.01870873091232,53.8934854112118],[-3.01871419270901,53.8937100629237],[-3.01871965458327,53.8939347146291],[-3.01833930951597,53.8939379458377],[-3.01834476930856,53.8941625974848],[-3.01835022917872,53.8943872491254],[-3.01835568912643,53.8946119007594],[-3.01836114915171,53.8948365523869],[-3.01836660925454,53.8950612040077],[-3.01837206943495,53.895285855622],[-3.01837752969291,53.8955105072298],[-3.01838299002845,53.8957351588309],[-3.01838845044155,53.8959598104255],[-3.01876881494321,53.895956579682],[-3.0187742775934,53.8961812313217],[-3.01915464417694,53.8961779994227],[-3.01916010906428,53.8964026511075],[-3.01954047772971,53.8963994180528],[-3.01954594485425,53.8966240697827],[-3.01992631560156,53.8966208355725],[-3.01993178496336,53.8968454873475],[-3.02031215779256,53.8968422519816],[-3.020692530544,53.8968390154085],[-3.02069800430275,53.8970636672802],[-3.02107837913603,53.8970604295514],[-3.02108385513218,53.8972850814681],[-3.02070347813924,53.8972883191453],[-3.02070895205349,53.8975129710038],[-3.02108933120611,53.8975097333783],[-3.02109480735783,53.8977343852819],[-3.02147518859235,53.8977311465007],[-3.02148066698158,53.8979557984493],[-3.021861050298,53.8979525585124],[-3.02186653092481,53.8981772105061],[-3.02224691632312,53.8981739694134],[-3.02262730164351,53.8981707271134],[-3.02262181669717,53.8979460750165],[-3.02300219977986,53.8979428314576],[-3.02300768688597,53.898167483606],[-3.02338807205046,53.8981642388914],[-3.02376845713696,53.8981609929693],[-3.02414884214543,53.89815774584],[-3.02452922707585,53.8981544975033],[-3.02453472289904,53.8983791498514],[-3.02491510991115,53.8983759003589],[-3.02492060797221,53.8986005527519],[-3.02530099706602,53.8985973021035],[-3.02529549684515,53.898372649659],[-3.0252899967024,53.8981479972079],[-3.02567038139847,53.8981447452491],[-3.02605076601637,53.8981414920831],[-3.02643115055607,53.8981382377097],[-3.02681153501753,53.8981349821289],[-3.02719191940073,53.8981317253408],[-3.02718640853733,53.8979070726257],[-3.0275667906825,53.8979038145788],[-3.02794717274934,53.8979005553246],[-3.02832755473783,53.897897294863],[-3.02833307208046,53.8981219477324],[-3.02833858950142,53.8983466005953],[-3.02795820319342,53.898349860954],[-3.02757781680706,53.8983531201054],[-3.02719743034238,53.8983563780494],[-3.0268170437994,53.898359634786],[-3.02643665717816,53.8983628903153],[-3.02644216387845,53.8985875429143],[-3.02644767065694,53.8988121955068],[-3.02645317751362,53.8990368480927],[-3.02607278433464,53.8990401022602],[-3.02607828910962,53.8992647547881],[-3.02608379396278,53.8994894073094],[-3.02608929889411,53.8997140598242],[-3.02609480390362,53.8999387123324],[-3.02571440200667,53.8999419650865],[-3.02533400003154,53.8999452166332],[-3.0253395007992,53.9001698690318],[-3.02571990493434,53.9001666175367],[-3.02572541151541,53.9003912722467],[-3.02610581767488,53.9003880195396],[-3.02611132714823,53.9006126746851],[-3.02649173539365,53.9006094208017],[-3.02649724710964,53.9008340759706],[-3.02650275890395,53.9010587311324],[-3.02650827077661,53.901283386287],[-3.02651378272759,53.9015080414345],[-3.02651929475692,53.9017326965748],[-3.02652480686458,53.901957351708],[-3.02690522801804,53.9019540968015],[-3.02691074236856,53.9021787519581],[-3.02691625679744,53.9024034071075],[-3.02692177130469,53.9026280622498],[-3.02692728589032,53.902852717385],[-3.02693280055432,53.9030773725129],[-3.02693831529669,53.9033020276337],[-3.02694383011745,53.9035266827474],[-3.02656339381182,53.9035299374395],[-3.02656890654625,53.9037545925153],[-3.02657441935902,53.903979247584],[-3.02619397864553,53.9039825010078],[-3.02619948937189,53.9042071560387]]],[[[-3.020692530544,53.8968390154085],[-3.02068705686301,53.8966143635302],[-3.02068158325976,53.8963897116454],[-3.02106195161426,53.8963864737618],[-3.02105647592923,53.8961618218188],[-3.02105100032196,53.8959371698692],[-3.02143136427961,53.8959339306751],[-3.02143684204638,53.8961585826763],[-3.02181720808571,53.8961553423265],[-3.02219757404717,53.8961521007695],[-3.02220305621081,53.8963767528673],[-3.02182268808982,53.8963799943727],[-3.02182816817176,53.8966046464124],[-3.02144779781334,53.8966078866589],[-3.02106742737708,53.8966111256982],[-3.02107290321767,53.8968357776281],[-3.020692530544,53.8968390154085]]],[[[-3.0239883081596,53.9071471634074],[-3.02399380699155,53.907371818154],[-3.02361333325522,53.907375062668],[-3.02361883000012,53.9075997173767],[-3.02323835402037,53.9076029606528],[-3.02324384867817,53.9078276153236],[-3.02324934341408,53.9080522699873],[-3.02286886302563,53.9080555119948],[-3.02287435567436,53.9082801666206],[-3.02287984840117,53.9085048212391],[-3.02249936360393,53.908508061978],[-3.02250485786056,53.9087327187671],[-3.02212437102704,53.9087359584125],[-3.02174388412016,53.9087391968541],[-3.02174937490895,53.9089638540933],[-3.02212986381655,53.9089606155619],[-3.02213535667935,53.9091852727006],[-3.021754865771,53.9091885113218],[-3.02176035670632,53.9094131685397],[-3.02137986372384,53.9094164060468],[-3.02138535273163,53.9096410633438],[-3.02100485767503,53.9096442997369],[-3.02062436254514,53.9096475349262],[-3.0206298476245,53.9098721923921],[-3.0202493504205,53.9098754264673],[-3.02025483357219,53.9101000840122],[-3.01987433429409,53.9101033169734],[-3.01949383494278,53.9101065487307],[-3.01948835579282,53.9098818910063],[-3.01910785836919,53.9098851214701],[-3.01910238129318,53.9096604636453],[-3.01872188579723,53.9096636928156],[-3.0187164107951,53.9094390348906],[-3.01833591722683,53.9094422627674],[-3.01833044429855,53.909217604742],[-3.01794995361603,53.9092208317457],[-3.01794448287834,53.9089961736887],[-3.01756399842286,53.9089994013691],[-3.01755852998286,53.9087747433974],[-3.01717804766655,53.9087779699595],[-3.01717258152418,53.908553312073],[-3.01679210134704,53.908556537517],[-3.01678664266451,53.9083318830673],[-3.01678118464922,53.9081072289938],[-3.01716166062801,53.9081040035249],[-3.01715620055279,53.9078793494076],[-3.01753667431797,53.9078761226945],[-3.01753121218286,53.9076514685333],[-3.01791168373443,53.907648240576],[-3.01790621953951,53.907423586371],[-3.01828669274907,53.9074203591128],[-3.01828122639509,53.9071957048279],[-3.01866169905831,53.9071924771833],[-3.01865623061688,53.9069678228604],[-3.01903670103712,53.9069645939777],[-3.0190312305083,53.9067399396169],[-3.01941169868554,53.9067367094962],[-3.0194062260694,53.9065120550974],[-3.01978669200366,53.9065088237388],[-3.01978121730025,53.906284169302],[-3.01977574267468,53.906059514858],[-3.0201562042009,53.9060562822306],[-3.02015072748815,53.9058316277487],[-3.02053118677142,53.9058283938834],[-3.02052570797154,53.9056037393635],[-3.02090616501186,53.9056005042604],[-3.02090068412491,53.9053758497025],[-3.02089520331589,53.9051511951374],[-3.02088972258479,53.9049265405652],[-3.02088424193161,53.9047018859858],[-3.02087876135636,53.9044772313992],[-3.02087328085902,53.9042525768055],[-3.02086780043961,53.9040279222046],[-3.02048735855344,53.9040311575233],[-3.02010691658933,53.9040343916349],[-3.01972647454732,53.9040376245395],[-3.01972100070011,53.9038129700238],[-3.01971552693074,53.903588315501],[-3.01971005323919,53.903363660971],[-3.01970457962547,53.9031390064339],[-3.01932414616446,53.9031422382548],[-3.01931867479322,53.9029175837413],[-3.01969910608957,53.9029143518896],[-3.02007953730805,53.9029111188309],[-3.02045996844862,53.9029078845653],[-3.02046544631382,53.9031325391712],[-3.02047092425689,53.90335719377],[-3.02085135964886,53.903353958359],[-3.02123179496285,53.903350721741],[-3.02123727731323,53.9035753763941],[-3.02161771471393,53.9035721385999],[-3.02162319930698,53.9037967932767],[-3.02200363879438,53.9037935543063],[-3.02238407820373,53.9037903141289],[-3.02276451753499,53.9037870727445],[-3.02314495678814,53.903783830153],[-3.02352539596313,53.9037805863546],[-3.02353089145794,53.9040052411779],[-3.02391133271951,53.9040019962032],[-3.02391683045721,53.9042266510501],[-3.02392232827306,53.9044513058898],[-3.02392782616707,53.9046759607223],[-3.02393332413923,53.9049006155477],[-3.02431377398188,53.9048973694888],[-3.02431927419709,53.9051220243376],[-3.02432477449049,53.9053466791794],[-3.02433027486207,53.905571334014],[-3.02433577531185,53.9057959888414],[-3.02434127583981,53.9060206436616],[-3.02396081517239,53.906023889567],[-3.0239663136135,53.9062485443494],[-3.02397181213278,53.9064731991247],[-3.02397731073022,53.9066978538927],[-3.02398280940583,53.9069225086536],[-3.0239883081596,53.9071471634074]]],[[[-3.01679210134704,53.908556537517],[-3.01679756527098,53.9087811953128],[-3.01717804766655,53.9087779699595],[-3.01718351388809,53.9090026278406],[-3.01756399842286,53.9089994013691],[-3.01756946694206,53.9092240593355],[-3.01794995361603,53.9092208317457],[-3.01795542443295,53.9094454897973],[-3.01833591722683,53.9094422627674],[-3.01834139022814,53.9096669207821],[-3.01834686330247,53.9098915787862],[-3.0187273608724,53.90988835073],[-3.01873283602062,53.9101130086338],[-3.01911333551828,53.9101097792841],[-3.01911881274045,53.9103344370876],[-3.01912429003571,53.9105590948804],[-3.01874378653623,53.9105623244095],[-3.0187383112419,53.910337666527],[-3.01835780967021,53.9103408947625],[-3.01797730849308,53.9103441219492],[-3.01759681072624,53.9103473490853],[-3.01759134181098,53.9101226911463],[-3.01721084618348,53.9101259171641],[-3.01720537956604,53.9099012593103],[-3.01682488607789,53.9099044842099],[-3.0168194217582,53.9096798264414],[-3.0164389304094,53.9096830502227],[-3.01643346838741,53.9094583925395],[-3.01642800644455,53.9092337348508],[-3.01642254458081,53.9090090771567],[-3.01641708279619,53.9087844194571],[-3.01641162109068,53.908559761752],[-3.01679210134704,53.908556537517]]],[[[-3.02837169567239,53.899694517635],[-3.02836617778136,53.8994698648114],[-3.02874657481027,53.8994666035025],[-3.02874105483768,53.899241950621],[-3.02912144962825,53.8992386880532],[-3.02950184434038,53.8992354242781],[-3.02988223897403,53.8992321592955],[-3.02988776542635,53.8994568123313],[-3.0302681621414,53.8994535461928],[-3.03064855877791,53.8994502788468],[-3.03102895533585,53.8994470102934],[-3.0314093518152,53.8994437405326],[-3.03178974821592,53.8994404695644],[-3.03179528554638,53.8996651228505],[-3.03217568402838,53.8996618507262],[-3.0321812235974,53.899886504057],[-3.03256162416067,53.8998832307767],[-3.03256716596832,53.9001078841523],[-3.03294756861285,53.9001046097158],[-3.03295311511657,53.9003292644387],[-3.03257271037217,53.9003325388693],[-3.03257825663852,53.9005571945342],[-3.03258380298367,53.900781850192],[-3.03220339383181,53.9007851233547],[-3.03220893809142,53.9010097789749],[-3.03182852669638,53.9010130509003],[-3.03183406887038,53.9012377064827],[-3.03145365523215,53.9012409771708],[-3.03145919532049,53.9014656327156],[-3.03107877943908,53.9014689021662],[-3.03108431744171,53.9016935576733],[-3.0307038993171,53.9016968258865],[-3.03070943523395,53.901921481356],[-3.03032901486615,53.9019247483317],[-3.03033454869717,53.9021494037636],[-3.03034008260682,53.9023740591882],[-3.0299596578313,53.9023773248959],[-3.02996518965503,53.9026019802829],[-3.02997072155736,53.9028266356627],[-3.02959029237403,53.9028299001024],[-3.02920986311206,53.902833163335],[-3.02882943377147,53.9028364253608],[-3.02882390836289,53.9026117700727],[-3.02881838303283,53.9023871147774],[-3.02881285778129,53.9021624594749],[-3.02919328062821,53.9021591973575],[-3.02918775329068,53.9019345420173],[-3.02880733260826,53.9019378041653],[-3.02842691184726,53.9019410651064],[-3.02842138891722,53.9017164098202],[-3.02804097024214,53.901719669585],[-3.02803544955503,53.9014950143222],[-3.02802992894636,53.9012703590523],[-3.02764951452163,53.9012736176713],[-3.0276439961558,53.9010489624249],[-3.0276384778684,53.9008243071713],[-3.02801888796439,53.900821048491],[-3.02801336759108,53.9005963931996],[-3.02800784729622,53.9003717379011],[-3.02838825298507,53.9003684779528],[-3.02838273168948,53.9001438232625],[-3.02837721364176,53.899919170452],[-3.02875761499058,53.8999159092459],[-3.02875209486124,53.8996912563775],[-3.02837169567239,53.899694517635]]],[[[-3.02871897573105,53.8983433390293],[-3.02871345615031,53.8981186861149],[-3.02870793664795,53.8978940331941],[-3.02870241722394,53.8976693802666],[-3.02908279689594,53.897666117339],[-3.02908831847965,53.8978907703178],[-3.02946870023292,53.8978875062342],[-3.02947422405476,53.8981121592579],[-3.02909384014176,53.8981154232901],[-3.02909936188226,53.8983400762558],[-3.02871897573105,53.8983433390293]]]]}}