{"type":"Feature","properties":{"code":"E63004611","name":"Radlett"},"geometry":{"type":"Polygon","coordinates":[[[-0.323088250280041,51.6739719396083],[-0.323449633558383,51.6739771006291],[-0.323811016951402,51.6739822605376],[-0.323819307687761,51.6737575753315],[-0.324180689261042,51.6737627341035],[-0.324542070948948,51.6737678917631],[-0.324550357701858,51.6735432064997],[-0.324911737569994,51.6735483630228],[-0.3252731175527,51.6735535184337],[-0.325634497649954,51.6735586727323],[-0.325995877861729,51.6735638259186],[-0.326357258187999,51.6735689779927],[-0.32671863862874,51.6735741289545],[-0.327080019183925,51.673579278804],[-0.327071745971643,51.6738039642371],[-0.327433128575632,51.6738091129986],[-0.327424857183265,51.6740337984471],[-0.32778624183606,51.6740389461205],[-0.327794511294017,51.6738142606478],[-0.327802780637529,51.6735895751663],[-0.328164161535898,51.673594721679],[-0.328172428830604,51.6733700361645],[-0.328533807908951,51.6733751815408],[-0.328525542548609,51.6735998670795],[-0.328886923675639,51.6736050113676],[-0.329248304916961,51.6736101545436],[-0.329256566408567,51.6733854689566],[-0.329264827785831,51.6731607833608],[-0.329626205272704,51.6731659253762],[-0.329634464601307,51.6729412397475],[-0.329642723815596,51.67271655411],[-0.330004097548083,51.6727216949648],[-0.330012354713786,51.6724970092944],[-0.330373726626207,51.6725021490129],[-0.330735098652808,51.6725072876191],[-0.331096470793565,51.6725124251131],[-0.331088219430696,51.6727371108558],[-0.331079967953615,51.6729617965898],[-0.331071716362318,51.673186482315],[-0.330710338418646,51.6731813447487],[-0.330702084778779,51.673406030441],[-0.331063464656805,51.6734111680314],[-0.33142484464897,51.6734163045096],[-0.331433094420126,51.6731916187691],[-0.331794472592045,51.6731967541109],[-0.33215585087805,51.6732018883404],[-0.332517229278115,51.6732070214577],[-0.332508985310039,51.6734317072705],[-0.332500741227842,51.6736563930746],[-0.332492497031523,51.6738810788698],[-0.332484252721079,51.6741057646563],[-0.332845638972783,51.6741108967576],[-0.332837396482677,51.6743355825594],[-0.332829153878466,51.6745602683523],[-0.33282091116015,51.6747849541366],[-0.332459519104984,51.674779821963],[-0.332098127163866,51.6747746886772],[-0.332106373751204,51.6745500029411],[-0.331744983858669,51.674544868567],[-0.331383594080232,51.6745397330806],[-0.331022204415916,51.6745345964819],[-0.330660814865749,51.6745294587709],[-0.330299425429757,51.6745243199475],[-0.330291169169898,51.674749005563],[-0.330652560540391,51.6747541444105],[-0.330644306100777,51.6749788300414],[-0.330636051546906,51.6752035156635],[-0.330627796878776,51.6754282012768],[-0.330989194167098,51.6754333390843],[-0.331350591569577,51.6754384757794],[-0.331342347272622,51.6756631632901],[-0.331334104938854,51.6758878513792],[-0.330972702687385,51.6758827145317],[-0.330964457834856,51.6761074025589],[-0.331325862470302,51.6761125394584],[-0.331317619866963,51.6763372275275],[-0.331679027021081,51.6763423633677],[-0.33204043430983,51.6763474980968],[-0.33203219633978,51.6765721862596],[-0.332393606147173,51.6765773199294],[-0.33238537042646,51.676802008134],[-0.332377134571041,51.6770266963285],[-0.332738549281181,51.6770318289909],[-0.333099964125866,51.6770369605422],[-0.333091732904005,51.6772616488303],[-0.333453150267338,51.6772667793223],[-0.333444921294989,51.6774914676522],[-0.333806341176973,51.6774965970848],[-0.333798114454195,51.6777212854566],[-0.334159536854832,51.6777264138298],[-0.334151312381683,51.6779511022433],[-0.334512737300974,51.6779562295572],[-0.334504515077513,51.6781809180125],[-0.33486594251546,51.6781860442669],[-0.335227366217886,51.6781911710555],[-0.33521914827732,51.6784158595506],[-0.335580573566988,51.6784209854361],[-0.3355723573917,51.6786456739598],[-0.335933784669073,51.6786507987713],[-0.335925570259111,51.6788754873236],[-0.336286999524191,51.6788806110613],[-0.336278786879604,51.6791052996421],[-0.336270574123783,51.6793299882135],[-0.336632007253232,51.6793351109152],[-0.336623796262855,51.6795597995152],[-0.336615585161264,51.6797844881057],[-0.336607373948455,51.6800091766868],[-0.336245935188888,51.6800040538713],[-0.335884496540408,51.6799989299439],[-0.335876281462874,51.6802236184397],[-0.335514841048755,51.6802184933624],[-0.335506623983178,51.6804431818108],[-0.335145181803425,51.6804380555836],[-0.334783736724628,51.6804329287854],[-0.334422285442452,51.6804278020129],[-0.334414061738848,51.6806524903577],[-0.334052608206512,51.6806473624221],[-0.334044381983727,51.6808720507051],[-0.333682926201237,51.6808669216064],[-0.333674697459211,51.6810916098275],[-0.333313239426578,51.6810864795657],[-0.333305008165255,51.6813111677249],[-0.332943547882484,51.6813060362999],[-0.332582087734273,51.6813009037636],[-0.332573851568905,51.681525591809],[-0.332212389170599,51.6815204581096],[-0.332204150485791,51.6817451460931],[-0.332195911666224,51.6819698340666],[-0.331834444633091,51.6819646991521],[-0.331826203293993,51.6821893870637],[-0.332187672711895,51.6821945220301],[-0.332179433622803,51.6824192099835],[-0.332540905560138,51.6824243438904],[-0.332549142264429,51.6821996558851],[-0.332910611951564,51.6822047886288],[-0.333272081773266,51.6822099202612],[-0.333263849838583,51.6824346083702],[-0.333255617769222,51.6826592964691],[-0.332894143177879,51.6826541647331],[-0.332885908588973,51.6828788527701],[-0.332524431747341,51.6828737198708],[-0.332516194638832,51.6830984078459],[-0.332154715546919,51.6830932737834],[-0.331793236589649,51.6830881386095],[-0.331784994576564,51.6833128264709],[-0.331423513369055,51.6833076901337],[-0.331415268836224,51.6835323779331],[-0.331053785378485,51.6835272404327],[-0.331045538325849,51.6837519281701],[-0.33103729948497,51.6839766169142],[-0.331029064549101,51.6842013061389],[-0.330667574427475,51.6841961673637],[-0.330659337376474,51.6844208565435],[-0.33029784537386,51.6844157166205],[-0.330289606207678,51.6846404057553],[-0.330281366924291,51.6848650948809],[-0.330642862922941,51.6848702348753],[-0.330634625520404,51.6850949240272],[-0.330273127523699,51.6850897839971],[-0.32991162964402,51.6850846428548],[-0.329903388128142,51.6853093319261],[-0.329895146495028,51.685534020988],[-0.329533644736223,51.6855288786621],[-0.329525400987744,51.6857535676791],[-0.329517157122001,51.6859782566867],[-0.329155651484003,51.6859731131772],[-0.329147405502818,51.6861978021398],[-0.329139159404338,51.6864224910932],[-0.328777649887081,51.6864173464],[-0.328769401673081,51.6866420353083],[-0.328761153341758,51.6868667242073],[-0.328752904893109,51.687091413097],[-0.328744656327134,51.6873161019774],[-0.328383138933979,51.687310956029],[-0.32837488825235,51.6875356448644],[-0.328013368978054,51.687530497768],[-0.327651849820964,51.6875253495594],[-0.327290330781107,51.6875202002384],[-0.327282073987088,51.6877448889572],[-0.327273817075634,51.6879695776667],[-0.327265560046743,51.688194266367],[-0.327257302900415,51.6884189550579],[-0.327618829933793,51.6884241045219],[-0.327980357084412,51.6884292528735],[-0.327972103817532,51.6886539416266],[-0.327963850433259,51.6888786303704],[-0.328325381698015,51.6888837776812],[-0.328686913079964,51.6888889238796],[-0.328678663575296,51.6891136126855],[-0.328670413953282,51.6893383014821],[-0.328308878574307,51.6893331552123],[-0.328300626836394,51.6895578439639],[-0.32866216421392,51.6895629902695],[-0.328653914357208,51.6897876790475],[-0.328645664383145,51.6900123678162],[-0.329007205875026,51.6900175130808],[-0.328998957782238,51.6902422018759],[-0.3293605013899,51.6902473460638],[-0.329722045114689,51.6902524891392],[-0.329713800901885,51.6904771779964],[-0.329705556571798,51.6907018668443],[-0.330067104411033,51.6907070088788],[-0.330058861962373,51.690931697753],[-0.330420411917399,51.6909368387107],[-0.330428652367346,51.6907121498007],[-0.33079020044071,51.6907172896103],[-0.330798438774733,51.6904926006553],[-0.331159984966431,51.6904977393167],[-0.331521531275124,51.6905028768658],[-0.331513296938487,51.690727565892],[-0.331505062484692,51.690952254909],[-0.331143512178585,51.6909471172887],[-0.331135275608886,51.6911718062606],[-0.330773723421037,51.6911666674922],[-0.330765484735383,51.6913913564193],[-0.330403930665798,51.6913862165027],[-0.330395689864139,51.6916109053848],[-0.330034133912822,51.6916057643201],[-0.330025890995106,51.6918304531571],[-0.329664333162064,51.6918253109443],[-0.329656088128242,51.6920499997363],[-0.329647832861651,51.6922746871074],[-0.329286271914351,51.6922695438188],[-0.329278005903205,51.6924942299432],[-0.328916443690012,51.6924890855945],[-0.328908176237559,51.6927137717705],[-0.328546612758475,51.6927086263619],[-0.328538343864676,51.6929333125895],[-0.328176779119701,51.6929281661208],[-0.32816850878452,51.6931528524001],[-0.328160238361538,51.6933775386743],[-0.327798670997052,51.6933723912023],[-0.327790399132629,51.6935970775281],[-0.327428830502236,51.693591928996],[-0.327420557196333,51.6938166153735],[-0.327412283802586,51.6940413017459],[-0.327404010320993,51.6942659881132],[-0.327042437717329,51.6942608386343],[-0.327034162794178,51.6944855250533],[-0.327025887783159,51.6947102114671],[-0.327017612684271,51.694934897876],[-0.326656036107192,51.6949297474503],[-0.326647759566667,51.6951544339107],[-0.326286181723612,51.6951492824248],[-0.326277903741412,51.6953739689369],[-0.325916324632383,51.6953688163908],[-0.325554745611177,51.6953636627279],[-0.325546464833466,51.6955883493481],[-0.325184884546305,51.695583194625],[-0.325176602326826,51.6958078812969],[-0.324815020773709,51.6958027255135],[-0.324806737112424,51.6960274122369],[-0.324445154293353,51.6960222553932],[-0.324436869190224,51.6962469421682],[-0.324075285105199,51.6962417842643],[-0.324083571562178,51.6960170974327],[-0.324091857931128,51.6957924105961],[-0.323730276641696,51.6957872514621],[-0.323738564276429,51.6955625645638],[-0.323746851823116,51.6953378776604],[-0.32375513928176,51.695113190752],[-0.32339356214163,51.6951080303313],[-0.323401850865982,51.6948833433612],[-0.323410139502276,51.6946586563861],[-0.323418428050511,51.6944339694059],[-0.32305685505952,51.6944288076986],[-0.323065144873392,51.6942041206568],[-0.323073434599189,51.6939794336099],[-0.323081724236914,51.693754746558],[-0.3227201553949,51.6937495835641],[-0.322728446298188,51.6935248964506],[-0.322366878897776,51.6935197322834],[-0.322005311585345,51.6935145669994],[-0.321997017974787,51.6937392542261],[-0.321635449396722,51.6937340878819],[-0.321273880906673,51.6937289204209],[-0.320912312504658,51.6937237518431],[-0.320904014745023,51.6939484392343],[-0.32054244507741,51.6939432695962],[-0.320180875497866,51.6939380988413],[-0.319819306006407,51.6939329269695],[-0.319457736603049,51.693927753981],[-0.319096167287811,51.6939225798756],[-0.318734598060707,51.6939174046534],[-0.318373028921756,51.6939122283144],[-0.318011460341618,51.6939070503918],[-0.317649892157987,51.6939018710694],[-0.317288324088227,51.693896690633],[-0.317296636811188,51.6936720028488],[-0.31693507076492,51.6936668213013],[-0.316573504832571,51.6936616386398],[-0.316581821260626,51.6934369508539],[-0.316220257351789,51.6934317670813],[-0.315858693556919,51.6934265821947],[-0.315867013689964,51.6932018944071],[-0.315505451918625,51.6931967084095],[-0.315143890261301,51.6931915212979],[-0.315152214099233,51.6929668335087],[-0.31479065446546,51.6929616452861],[-0.31442909494575,51.6929564559494],[-0.314437422488465,51.6927317681586],[-0.314075864992326,51.692726577711],[-0.313714307610299,51.6927213861494],[-0.313352750342409,51.6927161934738],[-0.31299119318868,51.6927109996841],[-0.312999528254977,51.692486311898],[-0.313361083499255,51.6924915056845],[-0.313369416541798,51.6922668178874],[-0.313007863206947,51.692261624104],[-0.313016201093064,51.6920369369437],[-0.312654650095597,51.6920317421152],[-0.312293099227434,51.6920265461759],[-0.312301444078042,51.691801859699],[-0.311939895574063,51.6917966627201],[-0.311578347199446,51.6917914646303],[-0.311586696390249,51.691566778285],[-0.311225150379839,51.6915615791556],[-0.311233501675935,51.6913368928705],[-0.310871958029731,51.6913316927015],[-0.310880311431064,51.6911070064767],[-0.31088866470285,51.690882320241],[-0.310897017845093,51.6906576339943],[-0.310905370857794,51.6904329477367],[-0.310913723740955,51.6902082614681],[-0.311275256213645,51.6902134612809],[-0.311283606732649,51.6899887749302],[-0.311645137100122,51.689993973561],[-0.311653485255025,51.6897692871281],[-0.311661833280449,51.6895446006842],[-0.311300307382138,51.6895394021958],[-0.311308657512627,51.6893147158122],[-0.310947133978252,51.6893095162843],[-0.310585610573303,51.6893043156456],[-0.310593965043308,51.6890796293936],[-0.31023244400232,51.6890744277154],[-0.310240800577249,51.6888497415236],[-0.30987928190022,51.688844538806],[-0.309517763352702,51.6888393349778],[-0.309156244934725,51.6888341300388],[-0.308794726646318,51.6888289239891],[-0.308803092029444,51.6886042380714],[-0.308441576105077,51.6885990309822],[-0.308080060310337,51.6885938227824],[-0.308088430032595,51.6883691369964],[-0.308449943592926,51.6883743451249],[-0.308811457282884,51.6883795521427],[-0.308819822406638,51.6881548662031],[-0.30882818740071,51.6879301802526],[-0.308466678179491,51.6879249733773],[-0.308475045278211,51.6877002874871],[-0.308836552265102,51.687705494291],[-0.308844916999817,51.6874808083186],[-0.308853281604855,51.6872561223351],[-0.308491779086537,51.6872509156737],[-0.308500145796147,51.6870262297506],[-0.308138645641685,51.6870210220499],[-0.307777145616864,51.6870158132385],[-0.307785516665203,51.686791127447],[-0.307424019004265,51.6867859175963],[-0.307432392157035,51.6865612318652],[-0.307070896859975,51.6865560209752],[-0.307062521473025,51.686780706635],[-0.306701024071514,51.686775494563],[-0.306339526799762,51.6867702813805],[-0.305978029657799,51.6867650670873],[-0.305616532645653,51.6867598516835],[-0.305255035763356,51.6867546351691],[-0.304893539010937,51.686749417544],[-0.304901927802921,51.6865247323123],[-0.304540433414573,51.6865195136481],[-0.304548824310723,51.6862948284768],[-0.304187332286445,51.6862896087733],[-0.303825840392131,51.6862843879593],[-0.303834235626496,51.6860597029198],[-0.303842630730812,51.6858350178694],[-0.304204118156946,51.6858402385406],[-0.304212510897168,51.6856155534078],[-0.304220903507374,51.6853908682641],[-0.304229295987566,51.6851661831094],[-0.304590776841587,51.6851714024559],[-0.304599166957799,51.6849467172189],[-0.304237688337746,51.6849414979437],[-0.304246080557916,51.684716812767],[-0.304607556944029,51.6847220319708],[-0.304615946800279,51.6844973467119],[-0.304977421082393,51.6845025647337],[-0.304985808574778,51.6842778793924],[-0.305347280752886,51.6842830962324],[-0.305355665881461,51.6840584108088],[-0.305717135955556,51.6840636264669],[-0.305725518720377,51.6838389409609],[-0.306086986690452,51.6838441554372],[-0.306095380666731,51.6836194708418],[-0.306103775772594,51.6833947863278],[-0.306465239695588,51.683399999582],[-0.306473632788744,51.6831753150168],[-0.30683509492755,51.6831805271175],[-0.306843486008048,51.6829558425012],[-0.30720494636266,51.6829610534484],[-0.307213335430548,51.6827363687808],[-0.307221724384245,51.6825116841037],[-0.30686026782639,51.6825064732396],[-0.306868658564238,51.6822817885945],[-0.306507204018939,51.6822765766602],[-0.30651559654089,51.6820518920471],[-0.306154144008144,51.6820466790427],[-0.306162538314149,51.6818219944616],[-0.306523988948606,51.6818272074245],[-0.306532381242088,51.6816025227922],[-0.306893830092513,51.6816077346017],[-0.306902220373521,51.6813830499183],[-0.307263667439908,51.6813882605743],[-0.307272055708491,51.6811635758397],[-0.307633500990837,51.6811687853424],[-0.307994946387336,51.6811739937333],[-0.308356391897965,51.6811792010124],[-0.308348009324056,51.6814038858718],[-0.308709456847017,51.6814090920807],[-0.309070904484061,51.6814142971778],[-0.309432352235161,51.6814195011632],[-0.309423975241908,51.6816441861377],[-0.309785425005299,51.6816493890528],[-0.309793800100292,51.6814247040368],[-0.309802175081275,51.6812000190112],[-0.310163621162178,51.6812052207315],[-0.31052506735706,51.68121042134],[-0.310516696172552,51.6814351064486],[-0.31087814437963,51.6814403059868],[-0.311239592700641,51.6814455044132],[-0.311231225198703,51.6816701895953],[-0.31159267553189,51.6816753869514],[-0.311954125978961,51.6816805831957],[-0.311945762159695,51.6819052684512],[-0.312307214618924,51.6819104636252],[-0.312668667191989,51.6819156576874],[-0.313030119878868,51.6819208506378],[-0.313391572679533,51.6819260424764],[-0.313399928905599,51.6817013570551],[-0.313408285017895,51.6814766716242],[-0.313769734135737,51.6814818622681],[-0.313778088236009,51.6812571767862],[-0.313416641016424,51.6812519861837],[-0.313424996901187,51.6810273007337],[-0.313433352672187,51.6808026152741],[-0.313441708329423,51.680577929805],[-0.313450063872902,51.6803532443262],[-0.313458419302622,51.6801285588379],[-0.3130969816877,51.6801233673309],[-0.313105338901773,51.6798986818745],[-0.312743903298729,51.6798934892972],[-0.312752262297106,51.6796688038727],[-0.312390828705937,51.6796636102251],[-0.312029395228585,51.6796584154659],[-0.312037757909272,51.6794337301147],[-0.31239918948857,51.6794389248325],[-0.312760621181683,51.6794441184386],[-0.313122052988587,51.6794493109329],[-0.313130409861331,51.6792246254478],[-0.313138766620303,51.6789999399531],[-0.313147123265504,51.6787752544488],[-0.313155479796938,51.678550568935],[-0.313163836214606,51.6783258834115],[-0.312802413897628,51.6783206911244],[-0.312810772099443,51.6780960056329],[-0.312819130187472,51.6778713201318],[-0.312827488161715,51.6776466346211],[-0.312835846022176,51.6774219491008],[-0.312844203768857,51.677197263571],[-0.313205616596516,51.6772024556509],[-0.313213972331626,51.67697777007],[-0.312852561401758,51.6769725780316],[-0.312491150585658,51.6769673848816],[-0.312499510002547,51.6767426993741],[-0.312138101198003,51.676737505154],[-0.312146462398831,51.6765128196783],[-0.311785055605841,51.676507624388],[-0.311793418590559,51.6762829389443],[-0.311432013809117,51.6762777425839],[-0.311423648926688,51.6765024279862],[-0.3110622423614,51.6764972304727],[-0.310700835910002,51.6764920318476],[-0.31069246711824,51.6767167171573],[-0.310331058883026,51.6767115173791],[-0.310339429572516,51.676486832111],[-0.309978023348969,51.6764816312627],[-0.309986395822218,51.6762569460265],[-0.309994768181502,51.6760322607807],[-0.310003140426823,51.6758075755254],[-0.309641740010267,51.6758023736901],[-0.309650114039253,51.6755776884667],[-0.310011512558183,51.6755828902605],[-0.310372911191067,51.6755880909426],[-0.310381278097558,51.6753634061151],[-0.310742675024912,51.6753686056395],[-0.311104072070427,51.6753738040512],[-0.311465469234079,51.6753790013501],[-0.311826866515841,51.6753841975361],[-0.311818506861661,51.6756088825558],[-0.312179906063949,51.6756140776802],[-0.312188263915686,51.6753893926094],[-0.31219661838566,51.6751647080615],[-0.312558013913463,51.6751699020077],[-0.312566366275268,51.6749452174372],[-0.312574718519007,51.6747205328584],[-0.312583070644683,51.6744958482713],[-0.31294446032036,51.6745010410616],[-0.313305850114033,51.6745062327392],[-0.313297501968414,51.674730917355],[-0.31328915370478,51.6749556019624],[-0.313650547596511,51.6749607925558],[-0.314011941606192,51.6749659820365],[-0.314373335733794,51.6749711704044],[-0.314364993322396,51.6751958550463],[-0.314356650793055,51.67542053968],[-0.314348303666747,51.6756452250837],[-0.314339954307069,51.6758699108463],[-0.314701356203134,51.6758750982312],[-0.315062758212833,51.6758802845045],[-0.315424160336143,51.6758854696662],[-0.315415816555833,51.6761101555434],[-0.31577722069041,51.6761153396349],[-0.316138624938549,51.6761205226149],[-0.316500029300225,51.6761257044832],[-0.316861433775414,51.67613088524],[-0.31722283836409,51.6761360648852],[-0.317584243066229,51.6761412434188],[-0.317945647881805,51.6761464208408],[-0.318307052254508,51.67615159728],[-0.318298723692664,51.6763762834656],[-0.318660128362607,51.6763814593578],[-0.319021533168339,51.6763866341389],[-0.319029856962284,51.6761619478489],[-0.319391259519819,51.6761671214667],[-0.319399580794061,51.6759424351145],[-0.319760981103391,51.675947607569],[-0.320122381548409,51.6759527789125],[-0.320130697919106,51.6757280924459],[-0.320139014154117,51.6755034059692],[-0.320500409967013,51.6755085760973],[-0.320508719256265,51.6752838910572],[-0.320147325289518,51.6752787209919],[-0.320155636059484,51.6750540360819],[-0.320163946714475,51.6748293511631],[-0.319802556731653,51.6748241800343],[-0.319810869206139,51.6745994951311],[-0.319449481272721,51.6745943229143],[-0.319457795566652,51.6743696380267],[-0.319466109745565,51.6741449531303],[-0.319827493810128,51.6741501252983],[-0.319835805939636,51.6739254403687],[-0.320197188184739,51.6739306114],[-0.320558570544748,51.673935781319],[-0.320550262284028,51.6741604662973],[-0.320911646693315,51.6741656351284],[-0.320903340252074,51.6743903201223],[-0.320895033695915,51.6746150051075],[-0.320886727024836,51.6748396900838],[-0.321248117352323,51.6748448578757],[-0.321239812500817,51.6750695428676],[-0.321601204877642,51.6750747095715],[-0.321609507794648,51.6748500245553],[-0.321970898351785,51.6748551901225],[-0.32197919921944,51.6746305050731],[-0.322340587956886,51.6746356695037],[-0.322701976809092,51.674640832822],[-0.32271027369299,51.6744161477152],[-0.323071660725471,51.6744213098969],[-0.323079955560141,51.674196624757],[-0.323088250280041,51.6739719396083]]]}}