{"type":"Feature","properties":{"code":"E63006440","name":"Wickham"},"geometry":{"type":"MultiPolygon","coordinates":[[[[-1.19613619708425,50.899751712053],[-1.19613232374307,50.8999764999548],[-1.19612845035316,50.90020128785],[-1.195772974499,50.9001988472352],[-1.19576909939348,50.9004236352138],[-1.19541362192119,50.9004211936041],[-1.19540974481539,50.9006459809136],[-1.19505426571945,50.9006435382963],[-1.19505038642828,50.9008683244523],[-1.19504650708754,50.9010931105998],[-1.19540198958682,50.9010955532117],[-1.19575747213563,50.9010979947406],[-1.19611295473394,50.9011004351868],[-1.19646843738173,50.9011028745501],[-1.19647230991574,50.9008780884136],[-1.19647618240028,50.9006533022687],[-1.19683166169418,50.9006557405548],[-1.19683553210271,50.9004309535346],[-1.19719100976983,50.9004333908054],[-1.19719487820788,50.9002086031862],[-1.19755035425679,50.9002110394622],[-1.19755422097932,50.8999862519264],[-1.19790969541002,50.8999886872076],[-1.19791356041707,50.8997638997552],[-1.1979174253755,50.8995391122963],[-1.1979212902853,50.8993143248309],[-1.19792515514647,50.899089537359],[-1.19792901995902,50.8988647498806],[-1.1982844861044,50.8988671845265],[-1.19828834920161,50.8986423971315],[-1.19864381372886,50.8986448307827],[-1.19863995229838,50.8988696180878],[-1.19899541854091,50.8988720505645],[-1.19899155872859,50.8990968377732],[-1.1989876988677,50.8993216249754],[-1.19898383895826,50.8995464121711],[-1.19933931024963,50.8995488432934],[-1.19933545195842,50.8997736303926],[-1.19933159361868,50.8999984174854],[-1.1996870682922,50.9000008473431],[-1.19969092496512,50.8997760603403],[-1.19969478158952,50.899551273331],[-1.20005025297791,50.8995537022839],[-1.20040572441479,50.8995561301521],[-1.20040187112401,50.8997809169816],[-1.20039801778475,50.9000057038045],[-1.20004254301424,50.9000032761161],[-1.20003868795965,50.9002280630225],[-1.19968321157077,50.9002256343394],[-1.1996793548008,50.9004504213292],[-1.19932387679355,50.9004479916514],[-1.19932001813454,50.9006727782383],[-1.19967549782333,50.9006752078619],[-1.19967164065378,50.9008999939813],[-1.20002712209351,50.9009024225191],[-1.20002326657637,50.9011272086273],[-1.20037874976703,50.9011296360794],[-1.20038260358247,50.9009048499741],[-1.20073808512065,50.9009072763463],[-1.20074193718518,50.9006824902355],[-1.20074578911351,50.9004577038545],[-1.2003903109608,50.9004552774308],[-1.20039416439702,50.9002304906209],[-1.20074964088285,50.9002329171346],[-1.20110511741712,50.9002353425636],[-1.20110126731465,50.9004601291936],[-1.20145674555889,50.9004625534153],[-1.20145289700311,50.9006873397194],[-1.20144904834409,50.9009121258386],[-1.20109356670803,50.9009097016357],[-1.20108971629598,50.9011344877352],[-1.20144519963423,50.9011369119388],[-1.20180068284691,50.9011393337032],[-1.20179683580132,50.9013641197792],[-1.2014413508747,50.901361698027],[-1.201437502066,50.9015864841068],[-1.20143365320812,50.9018112701782],[-1.20178914156202,50.9018136919076],[-1.20214462995938,50.9018161124949],[-1.20214847539145,50.9015913264622],[-1.20215232077415,50.9013665404215],[-1.20250780579632,50.9013689599805],[-1.20286329086781,50.901371378456],[-1.20285944890962,50.9015961644417],[-1.20321493574267,50.9015985818064],[-1.20321109544745,50.9018233677566],[-1.20285560690212,50.9018209504195],[-1.2028517648453,50.9020457363894],[-1.20284792273917,50.9022705223514],[-1.20320341470912,50.9022729396335],[-1.20355890672836,50.9022753558323],[-1.2035550679976,50.9025001417314],[-1.20391056177844,50.9025025568192],[-1.20426605560851,50.9025049708236],[-1.20426222025322,50.9027297566597],[-1.20390672471078,50.9027273426829],[-1.20390288759387,50.9029521285388],[-1.20354739038827,50.902949713506],[-1.20319189323193,50.9029472973899],[-1.20283639612487,50.9029448801903],[-1.20248089906711,50.9029424619073],[-1.20247705505129,50.9031672478653],[-1.20212155633045,50.9031648285264],[-1.20176605765894,50.903162408104],[-1.20176221016892,50.9033871941092],[-1.20140670982607,50.9033847724428],[-1.20140286057478,50.903609558447],[-1.20104735851644,50.9036071342754],[-1.20069185650729,50.9036047090208],[-1.20068800380291,50.9038294950224],[-1.20033250014101,50.9038270686878],[-1.20032864568542,50.9040518546839],[-1.19997314037078,50.9040494272692],[-1.19996928416395,50.9042742132598],[-1.19961377719656,50.904271784765],[-1.19960991923843,50.90449657075],[-1.1992544106183,50.9044941411752],[-1.19925055090885,50.9047189271547],[-1.19889504063598,50.9047164964998],[-1.19853953041242,50.9047140647618],[-1.19853566724953,50.9049388507386],[-1.19818015537326,50.9049364179206],[-1.19782464354636,50.9049339840195],[-1.19746913176885,50.9049315490355],[-1.19747300003792,50.9047067630502],[-1.19711749001187,50.9047043269804],[-1.19712135993355,50.9044795409838],[-1.19747686825756,50.9044819770565],[-1.19748073642778,50.9042571910544],[-1.19748460454858,50.9040324050439],[-1.197840109518,50.9040348400392],[-1.1978439758874,50.9038100540231],[-1.19819947920423,50.9038124879383],[-1.19855498257042,50.9038149207706],[-1.19855111960496,50.904039706781],[-1.19890662472246,50.9040421385275],[-1.19891048598594,50.9038173525199],[-1.1989143472001,50.9035925665039],[-1.19926984896299,50.9035949971732],[-1.19927370842588,50.9033702111516],[-1.19962920853614,50.9033726407408],[-1.19963306624781,50.9031478547138],[-1.19998856470543,50.9031502832229],[-1.19999242066592,50.9029254971903],[-1.19999627657715,50.9027007111493],[-1.20035177168026,50.9027031385813],[-1.20035562584038,50.9024783525348],[-1.20035947995126,50.9022535664799],[-1.20036333401289,50.9020287804166],[-1.20036718802528,50.9018039943449],[-1.20001169972942,50.9018015669014],[-1.20001555539433,50.9015767808185],[-1.19966006884947,50.9015743522893],[-1.19966392616686,50.901349566195],[-1.19930844137299,50.9013471365801],[-1.19931230034281,50.9011223504746],[-1.19895681729995,50.9011199197739],[-1.19896067792215,50.9008951336572],[-1.19896453849503,50.900670347532],[-1.19860905890483,50.9006679157428],[-1.19825357936396,50.9006654828709],[-1.19824971538775,50.9008902690017],[-1.19789423419456,50.9008878350498],[-1.19789036846729,50.901112621175],[-1.19753488562179,50.9011101861431],[-1.19753101814342,50.9013349722627],[-1.19752715061564,50.901559758374],[-1.1971716644161,50.9015573222649],[-1.19716779513715,50.9017821083706],[-1.19681230728527,50.9017796711813],[-1.19680843625512,50.9020044572814],[-1.19680456517551,50.9022292433731],[-1.19644907396951,50.9022268051066],[-1.19644520113862,50.9024515911927],[-1.19608970828027,50.9024491518461],[-1.19608583369806,50.9026739379266],[-1.19573033918737,50.9026714974999],[-1.1957264628538,50.9028962835748],[-1.1957225864707,50.9031210696412],[-1.19536708860578,50.9031186281372],[-1.19536321047126,50.903343414198],[-1.19500771095396,50.9033409716138],[-1.19465221148623,50.9033385279466],[-1.19429671206807,50.9033360831966],[-1.19394121269951,50.9033336373636],[-1.19358571338058,50.9033311904477],[-1.1935818266869,50.9035559765138],[-1.19322632571569,50.9035535285177],[-1.19322243727042,50.9037783145782],[-1.19321854877547,50.9040031006302],[-1.19286304445002,50.9040006515566],[-1.1928591542034,50.904225437603],[-1.19321466023083,50.9042278866739],[-1.1932107716365,50.9044526727091],[-1.19320688299249,50.904677458736],[-1.19356239247361,50.9046799067185],[-1.19391790200438,50.9046823536181],[-1.19427341158478,50.9046847994347],[-1.19426952799722,50.904909585445],[-1.19426564436004,50.9051343714469],[-1.19426176067324,50.9053591574404],[-1.19390624598663,50.905356711632],[-1.19355073134965,50.9053542647406],[-1.19319521676232,50.9053518167662],[-1.19283970222466,50.9053493677088],[-1.19284359271983,50.9051245817045],[-1.19248807993395,50.9051221315614],[-1.19249197208148,50.9048973455459],[-1.19213646104738,50.9048948943171],[-1.19214035484722,50.9046701082906],[-1.19178484556491,50.9046676559762],[-1.19178874101702,50.9044428699385],[-1.19143323348648,50.9044404165384],[-1.19142933633235,50.9046652025787],[-1.19107382714957,50.9046627480984],[-1.1910699282436,50.904887534133],[-1.19071441740858,50.9048850785723],[-1.19071051675073,50.9051098646011],[-1.19035500426347,50.9051074079601],[-1.19035110185369,50.9053321939832],[-1.18999558771419,50.9053297362618],[-1.18999168355244,50.9055545222791],[-1.1896361677607,50.9055520634774],[-1.18928065201886,50.9055496035927],[-1.18928455958482,50.9053248175701],[-1.18892904559499,50.9053223565997],[-1.18857353165509,50.9053198945463],[-1.18857744257529,50.9050951085101],[-1.18858135344551,50.9048703224655],[-1.18893686398126,50.9048727845241],[-1.18894077309947,50.9046479984737],[-1.18929628198312,50.9046504594519],[-1.18930018934936,50.9044256733957],[-1.18965569658091,50.9044281332936],[-1.18965960219523,50.9042033472316],[-1.18966350775964,50.9039785611613],[-1.1900190116371,50.9039810199815],[-1.19002291544966,50.9037562339053],[-1.19002681921235,50.9035314478208],[-1.18967131873877,50.9035289889954],[-1.18967522415348,50.9033042028998],[-1.18931972543169,50.9033017429889],[-1.18931581831508,50.903526529087],[-1.18896031794129,50.9035240680958],[-1.18895640907282,50.9037488541881],[-1.1889525001544,50.9039736402721],[-1.18859699642667,50.9039711782031],[-1.18824149274887,50.9039687150512],[-1.18788598912106,50.9039662508163],[-1.18788207504679,50.9041910368997],[-1.1878781609225,50.9044158229747],[-1.1878742467482,50.9046406090413],[-1.18787033252388,50.9048653950994],[-1.18751482213805,50.9048629297919],[-1.18751090616166,50.9050877158443],[-1.18715539412379,50.9050852494563],[-1.18679988213597,50.9050827819854],[-1.18680380151647,50.9048579959279],[-1.18644829128077,50.9048555273715],[-1.18609278109514,50.904853057732],[-1.18609670382962,50.904628271661],[-1.18574119539614,50.9046258009361],[-1.1857451197825,50.9044010148541],[-1.18574904411872,50.9041762287638],[-1.1857529684048,50.9039514426651],[-1.18575689264073,50.903726656558],[-1.18576081682652,50.9035018704425],[-1.18576474096217,50.9032770843186],[-1.18576866504767,50.9030522981862],[-1.18541316857791,50.9030498263606],[-1.18540924279053,50.9032746124955],[-1.18540531695298,50.9034993986219],[-1.18540139106527,50.9037241847399],[-1.1853974651274,50.9039489708496],[-1.18539353913936,50.9041737569508],[-1.18503803421014,50.9041712840549],[-1.18504196190015,50.9039464979511],[-1.1846864583845,50.9039440231542],[-1.18433095401298,50.9039415450916],[-1.18433488502748,50.9037167589029],[-1.18397938237328,50.9037142796701],[-1.18362387976857,50.9037117993525],[-1.1836278140693,50.9034870129862],[-1.18327231318194,50.9034845314983],[-1.18327624910098,50.9032597450399],[-1.18363174832052,50.9032622266133],[-1.18398724758955,50.9032647071019],[-1.18399118012343,50.903039920808],[-1.18363568252221,50.9030374402339],[-1.18363961667439,50.9028126538479],[-1.18328412079046,50.9028101721035],[-1.18328805656089,50.9025853856255],[-1.18329199228178,50.9023605991409],[-1.18329592795314,50.9021358126497],[-1.18329986357497,50.901911026152],[-1.18330379914726,50.9016862396478],[-1.18330773467001,50.9014614531369],[-1.18366322054767,50.9014639353943],[-1.18401870647482,50.9014664165669],[-1.18437419245145,50.9014688966549],[-1.18437812292176,50.901244110394],[-1.18402263861277,50.9012416302205],[-1.18366715435326,50.9012391489624],[-1.18367108810934,50.9010143625239],[-1.18367502181591,50.9007895760789],[-1.18367895547297,50.9005647896273],[-1.18403443472969,50.900567271142],[-1.18403836497588,50.900342480432],[-1.18404229509474,50.9001176895161],[-1.18439777109821,50.9001201701978],[-1.18440169950678,50.8998953793769],[-1.18475717389858,50.8998978590749],[-1.18476110059689,50.8996730683489],[-1.18476502724591,50.8994482776168],[-1.18512049666977,50.899450752346],[-1.18547596605214,50.8994532257714],[-1.18547988929882,50.899228435165],[-1.18583535706379,50.8992309075953],[-1.18583143548385,50.8994556981121],[-1.18618690496491,50.8994581693681],[-1.18654237449527,50.8994606395393],[-1.18654629274169,50.8992358492018],[-1.1865502109388,50.8990110588577],[-1.18690567718496,50.8990135281235],[-1.18690959366604,50.8987887378626],[-1.18726505829475,50.8987912061333],[-1.18726897305985,50.8985664159556],[-1.18727288777567,50.8983416257714],[-1.18762834912026,50.8983440931367],[-1.18763226212017,50.8981193030356],[-1.18727680244223,50.8981168355807],[-1.18728071705952,50.8978920453835],[-1.18728463162754,50.8976672551799],[-1.18692917533208,50.897664786461],[-1.18693309151742,50.8974399961613],[-1.1872885461463,50.8974424649698],[-1.18729246061579,50.8972176747532],[-1.18764791362734,50.8972201425666],[-1.18765182638102,50.8969953524331],[-1.18800727777524,50.8969978192516],[-1.18836272921866,50.8970002849854],[-1.18871818071125,50.8970027496347],[-1.18907363225299,50.8970052131993],[-1.18907753829134,50.896780423418],[-1.18943298821569,50.8967828859876],[-1.18942908384387,50.8970076756793],[-1.18978453548385,50.8970101370747],[-1.19013998717293,50.8970125973855],[-1.19014388821169,50.8967878078732],[-1.1904993382833,50.896790267189],[-1.19050323760647,50.8965654777599],[-1.19085868606062,50.8965679360809],[-1.19086258366823,50.8963431467351],[-1.1908664812268,50.8961183573827],[-1.19087037873631,50.8958935680238],[-1.19122582224009,50.8958960255294],[-1.19122192639702,50.8961208147985],[-1.19157737161624,50.8961232711298],[-1.19158126579287,50.8958984819503],[-1.19193670939462,50.8959009372867],[-1.19194060185583,50.8956761481906],[-1.19229604384011,50.8956786025321],[-1.19265148587333,50.8956810557892],[-1.19264759674498,50.8959058447059],[-1.19264370756769,50.8961306336161],[-1.1929991529827,50.8961330856091],[-1.19299526542294,50.896357874423],[-1.19263981834146,50.8963554225198],[-1.1922843713089,50.896352969532],[-1.19228048036724,50.896577758519],[-1.19192503171713,50.8965753045363],[-1.19192113905999,50.8968000936066],[-1.19156568879233,50.8967976386291],[-1.19156179441968,50.8970224277825],[-1.19120634253447,50.8970199718102],[-1.19085089069826,50.8970175147532],[-1.1908469929435,50.8972423040796],[-1.19049153948976,50.8972398460278],[-1.19048764001938,50.8974646354374],[-1.19013218494812,50.8974621763906],[-1.18977672992593,50.8974597162592],[-1.18977282707329,50.8976845058418],[-1.1894173704336,50.8976820447154],[-1.18941346586524,50.8979068343811],[-1.18940956124774,50.8981316240404],[-1.18976502122068,50.8981340849874],[-1.18976111822069,50.8983588745505],[-1.19011657990939,50.8983613343231],[-1.19047204164715,50.8983637930111],[-1.19082750343397,50.8983662506144],[-1.1908236053849,50.8985910399019],[-1.19117906888743,50.8985934963308],[-1.19153453243896,50.8985959516751],[-1.19153063767425,50.8988207407766],[-1.19188610294147,50.8988231949465],[-1.19188220979447,50.8990479839518],[-1.19223767677739,50.8990504369473],[-1.19259314380926,50.899052888858],[-1.19258925394676,50.8992776776774],[-1.19294472269431,50.8992801284137],[-1.19330019149076,50.8992825780653],[-1.19365566033609,50.8992850266323],[-1.19365177542496,50.8995098151758],[-1.19400724598592,50.8995122625683],[-1.19436271659574,50.8995147088761],[-1.19471818725437,50.8995171540992],[-1.1950736579618,50.8995195982376],[-1.19542912871801,50.8995220412913],[-1.19578459952298,50.8995244832604],[-1.19614007037668,50.8995269241447],[-1.1964955412791,50.8995293639444],[-1.19649166965347,50.8997541517628],[-1.19613619708425,50.899751712053]]],[[[-1.18765182638102,50.8969953524331],[-1.18729637503601,50.8969928845301],[-1.18729246061579,50.8972176747532],[-1.18693700765348,50.8972152058551],[-1.18693309151742,50.8974399961613],[-1.18657763693781,50.8974375262682],[-1.18657371908588,50.8976623166576],[-1.18621826288897,50.8976598457694],[-1.18621434332113,50.897884636242],[-1.18585888550691,50.8978821643588],[-1.18585496422311,50.8981069549144],[-1.1854995047916,50.8981044820361],[-1.1854955817918,50.8983292726749],[-1.18514012074299,50.8983267988015],[-1.18513619602714,50.8985515895234],[-1.1851322712619,50.8987763802387],[-1.1847768068972,50.8987739053831],[-1.18477288039606,50.8989986961339],[-1.18476895384563,50.8992234868785],[-1.18476502724591,50.8994482776168],[-1.18440955617595,50.8994457977164],[-1.18405408515528,50.8994433167311],[-1.18405015518444,50.8996681076656],[-1.18404622516426,50.899892898594],[-1.18369075087105,50.899890416726],[-1.18368681914058,50.9001152077493],[-1.18333134323575,50.9001127248975],[-1.18332740979494,50.9003375160158],[-1.18297193227849,50.9003350321802],[-1.18261645481141,50.9003325472596],[-1.18261251799923,50.900557338574],[-1.18225703892055,50.9005548526695],[-1.1819015598913,50.90055236568],[-1.18190550002547,50.9003275741633],[-1.18155002270665,50.9003250859876],[-1.18155396445233,50.9001002943635],[-1.18155790614851,50.8998755027332],[-1.18191338014541,50.8998779911112],[-1.18191732013118,50.8996531995758],[-1.18156184779521,50.8996507110967],[-1.18156578939242,50.899425919454],[-1.18121031876681,50.8994234297888],[-1.18085484819068,50.8994209390385],[-1.18085879306018,50.8991961471874],[-1.18050332419443,50.899193655251],[-1.1801478553782,50.8991911622297],[-1.17979238661152,50.8991886681233],[-1.17979633641406,50.8989638759627],[-1.17980028616702,50.8987390837958],[-1.180155751612,50.8987415781043],[-1.18015969965455,50.8985167860323],[-1.17980423587038,50.8985142916227],[-1.17944877213577,50.8985117961282],[-1.17909330845074,50.8985092995486],[-1.17873784481532,50.8985068018841],[-1.17838238122951,50.8985043031347],[-1.17838633752646,50.8982795105511],[-1.17839029377373,50.8980547179614],[-1.17839424997132,50.8978299253654],[-1.17839820611925,50.8976051327633],[-1.17840216221749,50.8973803401549],[-1.17875761749955,50.8973828394097],[-1.17911307283122,50.8973853375795],[-1.17910912005439,50.8976101299857],[-1.17946457709637,50.8976126269695],[-1.1794685282125,50.8973878346644],[-1.17982398364334,50.8973903306644],[-1.17982003418793,50.8976151228684],[-1.17981608468292,50.8978399150663],[-1.18017154348477,50.8978424097792],[-1.18052700233615,50.8978449034071],[-1.18052305610307,50.8980696953966],[-1.18051910982044,50.8982944873799],[-1.18087457204286,50.8982969797207],[-1.18087062737148,50.8985217715967],[-1.1812260913042,50.8985242627514],[-1.1815815552864,50.8985267528211],[-1.18157761388713,50.8987515444887],[-1.18157367243838,50.89897633615],[-1.18192913979169,50.8989788249325],[-1.18192519995432,50.8992036164865],[-1.18228066901793,50.8992061040829],[-1.18263613813096,50.8992085905944],[-1.18299160729338,50.8992110760208],[-1.18299554214816,50.8989862847703],[-1.18299947695353,50.8987614935136],[-1.18300341170951,50.8985367022506],[-1.18300734641609,50.8983119109815],[-1.18301128107327,50.8980871197061],[-1.18301521568106,50.8978623284246],[-1.18301915023945,50.8976375371368],[-1.18302308474845,50.8974127458428],[-1.18266762887236,50.8974102596071],[-1.18231217304566,50.8974077722864],[-1.18195671726837,50.8974052838809],[-1.18196065671005,50.8971804922772],[-1.18160520264288,50.8971780026856],[-1.18124974862516,50.8971755120091],[-1.1808942946569,50.8971730202477],[-1.18089823903114,50.8969482283345],[-1.18054278677305,50.8969457353871],[-1.18018733456447,50.8969432413548],[-1.18019128221048,50.8967184492332],[-1.18019522980693,50.8964936571054],[-1.18055067869424,50.8964961513399],[-1.18055462458053,50.896271359307],[-1.18055857041727,50.8960465672678],[-1.18056251620448,50.8958217752225],[-1.18091796015955,50.8958242686754],[-1.18092190423668,50.895599476725],[-1.18092584826429,50.8953746847683],[-1.18092979224239,50.8951498928055],[-1.18128523126539,50.8951523854768],[-1.18164067033786,50.8951548770634],[-1.18199610945976,50.8951573675651],[-1.18235154863108,50.895159856982],[-1.18270698785181,50.8951623453141],[-1.18270305217621,50.8953871367713],[-1.1826991164512,50.8956119282223],[-1.18305455904232,50.8956144152673],[-1.18341000168281,50.8956169012274],[-1.18376544437263,50.8956193861027],[-1.18376937511606,50.8953945949551],[-1.18377330581016,50.8951698038013],[-1.18412874522826,50.8951722877941],[-1.18412481619468,50.8953970788467],[-1.18448025732258,50.8953995616535],[-1.18483569821933,50.8954020427062],[-1.1848317724792,50.8956268336017],[-1.18518721348032,50.8956293096345],[-1.18519113755406,50.8954045188285],[-1.18519506157841,50.8951797280161],[-1.18555049929613,50.8951822031434],[-1.18555442160475,50.8949574124141],[-1.18555834386401,50.8947326216782],[-1.1859137782984,50.8947350959002],[-1.18591769884199,50.8945103052474],[-1.18627313165939,50.8945127784745],[-1.18626921278211,50.8947375690376],[-1.18662464731511,50.8947400410906],[-1.18698008189738,50.8947425120589],[-1.18697616630343,50.8949673024364],[-1.18733160260128,50.8949697722307],[-1.18768703894836,50.8949722409404],[-1.18804247534465,50.8949747085655],[-1.18839791179013,50.8949771751061],[-1.1883940028123,50.8952019651187],[-1.1887494409733,50.8952044304851],[-1.18910487918344,50.895206894767],[-1.18910878482857,50.8949821049338],[-1.18911269042454,50.8947573150941],[-1.18911659597137,50.8945325252479],[-1.18876116276022,50.894530060697],[-1.18876506992419,50.8943052707547],[-1.18912050146905,50.8943077353952],[-1.18912440691758,50.8940829455361],[-1.18947983684529,50.8940854091817],[-1.18983526682211,50.8940878717429],[-1.18983136470611,50.8943126614227],[-1.18982746254101,50.8945374510961],[-1.19018289589946,50.8945399123934],[-1.19018679639827,50.8943151228097],[-1.190190696848,50.8940903332196],[-1.19019459724864,50.8938655436229],[-1.19055002565734,50.8938680041048],[-1.19054612692294,50.8940927936117],[-1.19090155704693,50.8940952529194],[-1.19125698721992,50.8940977111426],[-1.19161241744191,50.8941001682813],[-1.19161631117756,50.8938753790435],[-1.19197173978227,50.8938778351874],[-1.19197563180269,50.8936530460328],[-1.19197952377413,50.8934282568717],[-1.19162409850186,50.8934258005483],[-1.19162799209053,50.893201011291],[-1.19127256853342,50.8931985537935],[-1.19127646373925,50.89297376444],[-1.19092104189729,50.8929713057683],[-1.19092493872026,50.8927465163186],[-1.1909288354942,50.8925217268624],[-1.19128425400389,50.8925241857135],[-1.19163967256257,50.8925266434802],[-1.19163577912088,50.8927514327569],[-1.19199119939465,50.8927538893494],[-1.19198730757012,50.89297867853],[-1.19234272955898,50.8929811339484],[-1.19269815159676,50.8929835882823],[-1.19269426305559,50.8932083772769],[-1.19304968680845,50.8932108304366],[-1.19304579988454,50.893435619335],[-1.19304191291173,50.8936604082269],[-1.19303802589001,50.8938851971123],[-1.19303413881938,50.8941099859912],[-1.19267870840163,50.8941075331904],[-1.19267481961582,50.8943323221526],[-1.1923193875807,50.8943298683571],[-1.19196395559451,50.8943274134771],[-1.19196006342717,50.8945522026123],[-1.19160462982364,50.8945497467375],[-1.19160073594101,50.8947745359559],[-1.19124530072013,50.8947720790863],[-1.19124140512217,50.8949968683879],[-1.19123750947518,50.895221657683],[-1.19088207097061,50.8952191999083],[-1.19052663251505,50.8952167410491],[-1.19052273348629,50.8954415305172],[-1.19016729341339,50.8954390706631],[-1.19016339266916,50.8956638602144],[-1.19051883440845,50.8956663199787],[-1.19051493528156,50.8958911094337],[-1.19015949187584,50.8958886497591],[-1.18980404851919,50.8958861889999],[-1.18980014601035,50.8961109786278],[-1.18944470103634,50.8961085168737],[-1.18944079681192,50.8963333065848],[-1.18908535022056,50.8963308438358],[-1.18908144428053,50.8965556336301],[-1.18872599607181,50.8965531698862],[-1.18872208841612,50.8967779597637],[-1.18836663859005,50.8967754950248],[-1.18801118881316,50.8967730292013],[-1.18765573908546,50.8967705622932],[-1.18765182638102,50.8969953524331]]],[[[-1.21254869685735,50.8962661801149],[-1.21255249153339,50.8960413933712],[-1.21219704607026,50.8960390040379],[-1.21220084240165,50.8958142172864],[-1.21184539869094,50.8958118268712],[-1.21184160065567,50.896036613622],[-1.21183780257181,50.8962614003643],[-1.21183400443938,50.8964861870982],[-1.21147855566552,50.8964837955984],[-1.21112310694024,50.896481403016],[-1.21076765826357,50.896479009351],[-1.21041220963553,50.8964766146035],[-1.21040840463873,50.896701401326],[-1.21040459959327,50.8969261880401],[-1.21040079449914,50.8971509747457],[-1.21075624823909,50.8971533694954],[-1.2107524448003,50.8973781561932],[-1.21039698935635,50.8973757614428],[-1.21039318416488,50.8976005481314],[-1.21074864131287,50.8976029428825],[-1.21110409850949,50.897605336551],[-1.21110029667747,50.8978301232326],[-1.21109649479682,50.8980549099057],[-1.21145195545019,50.8980573024929],[-1.211448155225,50.8982820891582],[-1.21180361763106,50.8982844806635],[-1.21215908008569,50.8982868710862],[-1.21215528322015,50.8985116577444],[-1.21251074742745,50.8985140470851],[-1.21250695221749,50.8987388337354],[-1.21286241817746,50.8987412219941],[-1.21285862462313,50.8989660086366],[-1.21285483102028,50.8991907952707],[-1.21249936165195,50.8991884070107],[-1.21214389233215,50.899186017668],[-1.21178842306089,50.8991836272426],[-1.21143295383821,50.8991812357346],[-1.21142915336999,50.8994060223574],[-1.21142535285316,50.8996308089718],[-1.21106988027064,50.8996284163797],[-1.2110736824917,50.899403629766],[-1.21107748466413,50.8991788431438],[-1.21108128678793,50.8989540565132],[-1.21072581936664,50.8989516628405],[-1.21072962314597,50.898726876202],[-1.21037415747749,50.8987244814473],[-1.21001869185766,50.89872208561],[-1.21002249899663,50.8984972989645],[-1.2100263060869,50.8982725123106],[-1.21003011312847,50.8980477256481],[-1.21003392012135,50.8978229389771],[-1.20967846136664,50.8978205420601],[-1.20968227001488,50.8975957553814],[-1.20932681301291,50.8975933573824],[-1.20897135605966,50.8975909583008],[-1.20897516806725,50.8973661716151],[-1.20861971286678,50.8973637714517],[-1.20862352652961,50.8971389847583],[-1.2082680730819,50.897136583513],[-1.20791261968298,50.8971341811851],[-1.20791643670501,50.8969093944847],[-1.20756098505887,50.896906991075],[-1.20755716633285,50.8971317777746],[-1.207553347558,50.8973565644657],[-1.20790880261213,50.897358967877],[-1.20790498549245,50.8975837545604],[-1.20826044229941,50.8975861568898],[-1.20825662683497,50.8978109435655],[-1.20825281132172,50.8980357302327],[-1.20824899575967,50.8982605168914],[-1.20789353384049,50.8982581145597],[-1.20788971652553,50.8984829012092],[-1.20788589916173,50.8987076878502],[-1.20753043388312,50.8987052844342],[-1.20752661476634,50.8989300710659],[-1.20788208174911,50.8989324744827],[-1.20787826428766,50.8991572611067],[-1.20787444677738,50.8993820477222],[-1.20787062921827,50.8996068343293],[-1.20786681161033,50.8998316209278],[-1.20822228545877,50.899834023265],[-1.208577759356,50.8998364245195],[-1.20857394510776,50.9000612111111],[-1.20892942075803,50.9000636112836],[-1.2089256081653,50.9002883978675],[-1.20928108556861,50.900290796958],[-1.20927727463143,50.9005155835342],[-1.2089217955238,50.9005131844429],[-1.20891798286287,50.9007379701875],[-1.20856250209302,50.9007355700463],[-1.20820702137211,50.9007331688217],[-1.20821083745483,50.9005083830121],[-1.20785535849353,50.9005059806726],[-1.20785154070017,50.9007307665138],[-1.20749606007721,50.9007283631226],[-1.20749224052554,50.9009531487735],[-1.20748842092484,50.9011779344164],[-1.20748460127512,50.9014027200516],[-1.20712911556449,50.9014003156599],[-1.20712529415347,50.9016251013147],[-1.2071214726934,50.9018498869617],[-1.20676598360725,50.9018474815419],[-1.20676216038581,50.9020722672086],[-1.20640666963641,50.9020698607329],[-1.20641049457015,50.9018450750386],[-1.20605500558214,50.9018426674519],[-1.20605883217908,50.9016178817221],[-1.2060626587269,50.9013930959844],[-1.20641814429036,50.9013955036263],[-1.20642196907683,50.9011707179083],[-1.20606648522561,50.9011683102389],[-1.20571100142349,50.9011659014861],[-1.20570717321254,50.9013906872592],[-1.2053516877473,50.9013882774506],[-1.2049962023312,50.9013858665587],[-1.20500003396664,50.9011610807304],[-1.20464455031194,50.9011586687275],[-1.20428906670643,50.9011562556412],[-1.20429290171713,50.90093146975],[-1.20429673667861,50.9007066838508],[-1.20430057156902,50.9004818977277],[-1.20430440636652,50.9002571111628],[-1.20465988313437,50.9002595243287],[-1.20466371617854,50.9000347377545],[-1.20466754917368,50.8998099511717],[-1.2046713821198,50.8995851645805],[-1.20502685382388,50.8995875766611],[-1.20503068501675,50.8993627900606],[-1.20503451616061,50.8991380034515],[-1.20538998450527,50.8991404144478],[-1.20539381389596,50.8989156278294],[-1.20539764323767,50.8986908412026],[-1.20575310822296,50.8986932511145],[-1.20575693581156,50.8984684644783],[-1.2057607633512,50.8982436778337],[-1.20611622497719,50.8982460866613],[-1.20612005076379,50.8980213000073],[-1.20612387650145,50.8977965133449],[-1.20647933476821,50.8977989210882],[-1.20683479308386,50.8978013277489],[-1.2068386153645,50.8975765410764],[-1.20684243759624,50.8973517543953],[-1.20684625977911,50.8971269677058],[-1.20649080657553,50.8971245610475],[-1.20649463041348,50.8968997743503],[-1.20613917896277,50.8968973666102],[-1.20614300445578,50.8966725799054],[-1.20649845420253,50.8966749876446],[-1.20650227794267,50.8964502009305],[-1.20685772603438,50.8964526075864],[-1.2068615480217,50.8962278208629],[-1.20686536996013,50.896003034131],[-1.20722081469289,50.8960054397027],[-1.20722463487858,50.8957806529614],[-1.20758007795631,50.8957830574498],[-1.2075762594745,50.8960078441918],[-1.20793170430493,50.8960102475984],[-1.20792788747818,50.8962350343327],[-1.2082833340613,50.8962374366575],[-1.20828714918416,50.8960126499224],[-1.20864259411217,50.8960150511639],[-1.20864640748235,50.8957902644196],[-1.20900185075524,50.8957926645777],[-1.2090056623728,50.8955678778241],[-1.20900947394161,50.8953430910621],[-1.20936491385555,50.8953454901362],[-1.2093687236718,50.8951207033649],[-1.20901328546168,50.8951183042916],[-1.20901709693299,50.8948935175125],[-1.20866166047538,50.8948911173574],[-1.20866547360172,50.8946663305707],[-1.20866928667928,50.8944415437754],[-1.20867309970808,50.8942167569717],[-1.20831766841046,50.8942143557364],[-1.20796223716161,50.8942119534185],[-1.20796605354904,50.8939871666079],[-1.20761062405268,50.8939847632083],[-1.20725519460514,50.8939823587263],[-1.20725901435112,50.8937575719087],[-1.20761444209498,50.8937599763899],[-1.20761826008845,50.8935351895631],[-1.20797368617747,50.8935375929611],[-1.20796986988766,50.8937623797887],[-1.20832529772913,50.893764782105],[-1.20868072561937,50.8937671833389],[-1.20867691268811,50.8939919701595],[-1.20903234233078,50.8939943703116],[-1.20938777202217,50.8939967693813],[-1.20974320176228,50.8939991673684],[-1.20973939389335,50.8942239541829],[-1.21009482538584,50.8942263510883],[-1.21045025692699,50.8942287469112],[-1.21080568851678,50.8942311416516],[-1.21080188571034,50.8944559284597],[-1.21079808285525,50.8946807152594],[-1.21115351790114,50.8946831089187],[-1.21150895299563,50.8946855014955],[-1.21150515349945,50.8949102882881],[-1.21150135395468,50.8951350750721],[-1.21185679250531,50.8951374665678],[-1.21185299461576,50.8953622533441],[-1.21184919667764,50.8955870401119],[-1.21220463868449,50.8955894305264],[-1.21256008073987,50.8955918198584],[-1.21256387527032,50.8953670330893],[-1.21256766975223,50.8951422463117],[-1.21257146418562,50.8949174595256],[-1.21292690117806,50.894919847773],[-1.21292310844847,50.8951446345598],[-1.21291931567038,50.8953694213381],[-1.21327475611893,50.8953718085043],[-1.21327096499616,50.8955965952748],[-1.21362640719703,50.8955989813591],[-1.21362261772964,50.8958237681217],[-1.21397806168282,50.8958261531242],[-1.21397427387086,50.8960509398789],[-1.21361882821379,50.8960485548758],[-1.21361503864947,50.8962733416215],[-1.21325959133695,50.8962709555352],[-1.2129041440729,50.8962685683663],[-1.21254869685735,50.8962661801149]]],[[[-1.20892942075803,50.9000636112836],[-1.20893323330199,50.8998388246912],[-1.20893704579719,50.8996140380903],[-1.20894085824363,50.899389251481],[-1.2092963288299,50.8993916505686],[-1.20965179946489,50.8993940485734],[-1.20964799042691,50.8996188351842],[-1.21000346281484,50.8996212321072],[-1.21035893525145,50.8996236279474],[-1.21035512957325,50.8998484145512],[-1.21071060376278,50.8998508093094],[-1.21106607800094,50.8998532029849],[-1.21106227568261,50.9000779895816],[-1.21141775167366,50.9000803821751],[-1.21141395101099,50.9003051687641],[-1.21141015029971,50.9005299553445],[-1.21105467090004,50.9005275627497],[-1.21105086850853,50.9007523482845],[-1.21069538744549,50.9007499546433],[-1.21033990643125,50.9007475599188],[-1.21034371224658,50.9005227743117],[-1.20998823299284,50.9005203784686],[-1.20999204052139,50.9002955918909],[-1.20963656302065,50.9002931949658],[-1.20928108556861,50.900290796958],[-1.20928489645705,50.9000660103734],[-1.20892942075803,50.9000636112836]]],[[[-1.20994634760426,50.9029930183296],[-1.20994253954928,50.9032178037082],[-1.20958703979722,50.9032154071215],[-1.20923154009405,50.9032130094514],[-1.20887604043979,50.9032106106978],[-1.20887985363206,50.9029858252363],[-1.20852435573916,50.9029834253716],[-1.20852817059488,50.9027586398745],[-1.20817267446333,50.9027562388988],[-1.20817649098247,50.9025314533661],[-1.20818030745263,50.9023066678256],[-1.20818412387379,50.9020818822773],[-1.20853961486827,50.9020842833359],[-1.20854342952813,50.9018594978073],[-1.20818794024597,50.901857096721],[-1.20819175656917,50.9016323111569],[-1.20854724413903,50.9016347122709],[-1.20890273175784,50.9016371123015],[-1.20925821942557,50.9016395112487],[-1.20925440823926,50.9018642967298],[-1.20925059700403,50.9020890822031],[-1.20924678571988,50.9023138676685],[-1.20960227857347,50.9023162654493],[-1.20995777147594,50.9023186621467],[-1.20995396356759,50.9025434475489],[-1.21030945823129,50.9025458431352],[-1.21030565198645,50.9027706285018],[-1.20995015561037,50.9027682329432],[-1.20994634760426,50.9029930183296]]]]}}