{"type":"Feature","properties":{"code":"E63005025","name":"Swanscombe"},"geometry":{"type":"MultiPolygon","coordinates":[[[[0.279990842119094,51.4423539571757],[0.279631432063494,51.4423609503428],[0.279272021874814,51.442367942413],[0.278912611553075,51.442374933386],[0.278923784394786,51.4425995430663],[0.278934957369638,51.4428241527319],[0.27894613047763,51.4430487623831],[0.279305545519692,51.443041771041],[0.279316720334312,51.4432663805546],[0.27967613681679,51.4432593879925],[0.279687313338079,51.4434839973685],[0.279327895282101,51.4434909900536],[0.278968477093052,51.4434979816417],[0.278979650600484,51.4437225912491],[0.278990824241068,51.443947200842],[0.279001998014805,51.4441718104204],[0.279361420924491,51.4441648184634],[0.279372596404971,51.4443894279042],[0.279013171921698,51.4443964199842],[0.279024345961749,51.4446210295335],[0.278664919771805,51.4446280206394],[0.278676092371384,51.4448526302971],[0.278316664474764,51.4448596204288],[0.27832783563383,51.445084230195],[0.278339006926019,51.4453088399465],[0.278350178351332,51.4455334496836],[0.278361349909773,51.4457580594061],[0.278001915585377,51.4457650489326],[0.278013085703207,51.4459896587635],[0.278024255954147,51.4462142685799],[0.278035426338202,51.4464388783817],[0.27804659685537,51.4466634881689],[0.278057767505658,51.4468880979417],[0.277698325179326,51.4468950869859],[0.277709494388885,51.447119696867],[0.277720663731546,51.4473443067336],[0.27736121812449,51.4473512949266],[0.277372386026363,51.4475759049016],[0.277012938712425,51.4475828921202],[0.277024105173468,51.4478075022037],[0.277035271767577,51.4480321122726],[0.276675821172814,51.4480390986399],[0.276316370445096,51.4480460839099],[0.275956919584442,51.4480530680826],[0.275968081589738,51.4482776785058],[0.275979243728041,51.4485022889145],[0.275990405999356,51.4487268993086],[0.275630950283828,51.4487338827529],[0.275642111114127,51.4489584932554],[0.275653272077419,51.4491831037434],[0.275664433173708,51.4494077142168],[0.27602389361138,51.4494007304037],[0.276035056414757,51.4496253407397],[0.276394518293589,51.4496183557063],[0.276405682804097,51.4498429659048],[0.276765146124085,51.4498359796511],[0.276776312341765,51.450060589712],[0.277135777102905,51.450053602238],[0.277146945027799,51.4502782121615],[0.277506411230089,51.4502712234671],[0.277517580862238,51.450495833253],[0.277877048505673,51.4504888433383],[0.277888234248608,51.4507134586894],[0.278247703082816,51.4507064674401],[0.278236516016069,51.4504818523262],[0.278225343235595,51.4502572427863],[0.278584809038772,51.4502502507998],[0.278595983393403,51.4504748602167],[0.278607171762669,51.450699475086],[0.278618364064249,51.450924091436],[0.278258893469944,51.4509310837969],[0.277899422721279,51.4509380750531],[0.277910611348296,51.4511626914094],[0.277551138530816,51.4511696815678],[0.277191665559025,51.4511766706215],[0.276832192432948,51.4511836585706],[0.276472719152608,51.4511906454149],[0.27648390027593,51.4514152617912],[0.276124424926838,51.4514222475377],[0.276135604289871,51.4516468639134],[0.27577612687202,51.451653848562],[0.275787304474716,51.4518784649372],[0.275798482231622,51.4521030813051],[0.275439000830413,51.4521100648626],[0.275427824988103,51.4518854484879],[0.275068345347321,51.4518924309338],[0.275079519275033,51.4521170473153],[0.274720037565506,51.4521240286632],[0.274708865552394,51.451899412275],[0.274349385603347,51.4519063925116],[0.273989905500207,51.4519133716434],[0.274001073684109,51.4521379880451],[0.274012242022103,51.4523626044395],[0.273652757935652,51.45236958248],[0.273663924513083,51.4525941988738],[0.27402341051419,51.4525872208265],[0.274034579160375,51.4528118372063],[0.274045747960659,51.4530364535787],[0.274056916915044,51.4532610699439],[0.274416408506184,51.4532540907716],[0.274427579529425,51.4534787071227],[0.274438750706798,51.4537033234665],[0.274798245973349,51.453696343176],[0.274809419219653,51.4539209595058],[0.274820592620118,51.4541455758282],[0.275180091562141,51.4541385944194],[0.275191267031613,51.4543632107277],[0.275202442655275,51.4545878270288],[0.275561945272831,51.4545808445017],[0.275550767734305,51.4543562282074],[0.275539590349994,51.4541316119058],[0.275899088983649,51.4541246282874],[0.276258587463084,51.4541176435643],[0.276247406403361,51.4538930272689],[0.276236225497895,51.4536684109663],[0.276595719993492,51.4536614251519],[0.276955214334823,51.4536544382327],[0.277314708521864,51.4536474502088],[0.277674202554588,51.4536404610801],[0.277663014144356,51.4534158447974],[0.278022506107992,51.4534088545707],[0.278033696432972,51.4536334708466],[0.278393190156991,51.4536264795084],[0.278752683726618,51.4536194870653],[0.279112177141831,51.4536124935175],[0.279471670402602,51.453605498865],[0.279831163508908,51.4535985031076],[0.280190656460723,51.4535915062455],[0.280201858428663,51.453816122473],[0.280561353140716,51.4538091244992],[0.280920847698226,51.4538021254206],[0.281280342101168,51.4537951252373],[0.281639836349517,51.4537881239491],[0.281628626722576,51.4535635077493],[0.281988131473245,51.4535565083969],[0.281999343054493,51.4537811246003],[0.282010554754095,51.4540057407878],[0.282370065746236,51.4539987409384],[0.28272957662001,51.4539917399929],[0.282718362253448,51.4537671240975],[0.283077871675361,51.4537601222019],[0.283437380978878,51.4537531192103],[0.283796890163979,51.4537461151225],[0.284156399230649,51.4537391099387],[0.284515908178872,51.4537321036588],[0.284875417008632,51.4537250962829],[0.285234925719911,51.4537180878108],[0.285594434312693,51.4537110782427],[0.285953942786963,51.4537040675785],[0.285965169154752,51.4539286821592],[0.286324678843952,51.4539216702528],[0.286684188414605,51.4539146572503],[0.287043697866692,51.4539076431518],[0.287054928353472,51.4541322572781],[0.287414439020453,51.4541252419374],[0.287773949568834,51.4541182255006],[0.288133459998599,51.4541112079677],[0.288492970309733,51.4541041893387],[0.288504206249085,51.4543288028643],[0.288863717775055,51.4543217829931],[0.289223229182357,51.4543147620258],[0.289211990576038,51.4540901487925],[0.289571500531178,51.4540831268754],[0.289582740470976,51.4543077399625],[0.289593980529524,51.4545323530335],[0.28995349303294,51.4545253297279],[0.290313005417638,51.4545183053261],[0.290672517683602,51.4545112798283],[0.291032029830816,51.4545042532345],[0.291043275342166,51.4547288657046],[0.291402788704119,51.4547218378684],[0.291762301947287,51.4547148089361],[0.291773550244516,51.4549394210978],[0.292133064702404,51.4549323909232],[0.29214431445204,51.4551570029225],[0.292503830124647,51.4551499715055],[0.292515081326728,51.4553745833425],[0.292874598214052,51.4553675506832],[0.293234114982519,51.4553605169278],[0.293245368970655,51.4555851284562],[0.29360488695382,51.4555780934583],[0.293616142394491,51.4558027048244],[0.293975661592351,51.4557956685842],[0.2943351806713,51.4557886312478],[0.294694699631323,51.4557815928154],[0.294683440189894,51.4555569818883],[0.294672180867486,51.4553323709452],[0.294660921664097,51.455107759986],[0.294649662579724,51.4548831490108],[0.294638403614367,51.4546585380195],[0.294278891322078,51.4546655757203],[0.294267633809225,51.4544409645666],[0.294627144768023,51.4544339270122],[0.29461588604069,51.4542093159888],[0.294256376415365,51.4542163533969],[0.294245119140494,51.4539917422112],[0.294233861984612,51.4537671310094],[0.294222604947717,51.4535425197916],[0.294582110572738,51.4535354828224],[0.29457085232143,51.4533108717349],[0.29493035649413,51.453303833816],[0.294919097028445,51.4530792228587],[0.295278599748831,51.4530721839901],[0.295638102350264,51.4530651440256],[0.295626840336885,51.4528405333449],[0.295986341485994,51.4528334924307],[0.29634584251612,51.4528264504205],[0.296334577955126,51.4526018400165],[0.296694077532919,51.4525947970568],[0.297053576991697,51.452587753001],[0.297413076331444,51.4525807078493],[0.297401807889607,51.4523560978684],[0.297761305776999,51.4523490517671],[0.298120803545327,51.4523420045699],[0.298132074653776,51.452566614258],[0.298143345881404,51.4527912239301],[0.298154617228216,51.4530158335862],[0.298165888694213,51.4532404432261],[0.298525397932069,51.4532333973345],[0.298536671543357,51.4534580070476],[0.298896191204777,51.4534509641089],[0.298884915766272,51.4532263545185],[0.299244433450289,51.453219310605],[0.299603950984094,51.453212265594],[0.299592672041502,51.4529876562344],[0.299952187597888,51.4529806102486],[0.300311703004019,51.4529735631654],[0.300300420557439,51.4527489540366],[0.300289138261236,51.4525243448932],[0.299929626509399,51.452531391731],[0.29991834619068,51.4523067824504],[0.299558836115707,51.4523138280681],[0.299199325890509,51.4523208725883],[0.298839815515111,51.4523279160111],[0.298480304989535,51.4523349583365],[0.298469032129544,51.4521103485506],[0.298828540828021,51.4521033063479],[0.299188049376323,51.4520962630477],[0.299176773012437,51.4518716534926],[0.299536279583471,51.4518646092177],[0.299895786004286,51.4518575638454],[0.299884506136603,51.451632954521],[0.299873226419262,51.451408345182],[0.300232729035774,51.4514012989577],[0.300221447641775,51.4511766897269],[0.299861946852258,51.4511837358285],[0.299850667435589,51.4509591264605],[0.299839388169252,51.4507345170778],[0.30019888530485,51.4507274712215],[0.300187604417376,51.4505028623179],[0.299828109098776,51.4505099079407],[0.299816830898394,51.450285302881],[0.299805552857951,51.4500606978245],[0.299446061338906,51.4500677426501],[0.299086569660055,51.4500747863606],[0.298727077821422,51.4500818289562],[0.298738349922802,51.4503064335359],[0.298378855944721,51.4503134748575],[0.298019370547385,51.4503205216503],[0.297659885083112,51.4503275674028],[0.297671151865463,51.4505521725126],[0.297311664643857,51.4505592174428],[0.296952177303218,51.4505662612772],[0.296940913719358,51.4503416556102],[0.297300399473762,51.4503346120561],[0.297289134865715,51.4501100075592],[0.296929650858686,51.4501170510203],[0.296918388143151,51.4498924464176],[0.297277870402828,51.4498854030494],[0.297637352517457,51.4498783585821],[0.297996834487014,51.4498713130156],[0.297985566674631,51.4496467086791],[0.297626086452399,51.4496537541527],[0.297614820532519,51.4494291497106],[0.297255341912521,51.449436193992],[0.297244077885098,51.4492115894442],[0.296884600867341,51.4492186325335],[0.296873338732328,51.44899402788],[0.296513863316816,51.4490010697772],[0.296154387756309,51.4490081105752],[0.296143129260906,51.4487835057232],[0.295783655302675,51.4487905453291],[0.295772398699572,51.4485659403714],[0.29541292634362,51.4485729787853],[0.295401671632773,51.448348373722],[0.295042200879105,51.4483554109438],[0.294682729980542,51.4483624470665],[0.294323258937104,51.44836948209],[0.294334508406327,51.4485940874321],[0.293975035470825,51.4486011214494],[0.293963787748816,51.4483765160145],[0.293604316415698,51.4483835488397],[0.29361556239049,51.4486081543675],[0.293626808510199,51.4488327598826],[0.293638054774826,51.449057365385],[0.293278578055178,51.4490643973897],[0.293267333537815,51.4488397917944],[0.292907858420642,51.4488468226072],[0.292896615795418,51.4486222169064],[0.292885373315065,51.4483976111929],[0.292525901547596,51.4484046407207],[0.292166429635386,51.4484116691494],[0.292155190794306,51.4481870632375],[0.291795720484587,51.4481940904743],[0.291784483535511,51.4479694844568],[0.291425014828286,51.4479765105016],[0.291413779771168,51.4477519043787],[0.29140254485882,51.4475272982431],[0.291391310091241,51.4473026920948],[0.291031846480778,51.447309716762],[0.291020613605062,51.4470851105082],[0.291009380874087,51.4468605042418],[0.29099814828785,51.4466358979626],[0.290986915846348,51.4464112916708],[0.290627459079515,51.4464183148677],[0.290616228529756,51.4461937084704],[0.29025677336533,51.4462007304754],[0.290245544707269,51.4459761239726],[0.290604998124705,51.4459691020604],[0.290964451397542,51.4459620790491],[0.291323904525758,51.4459550549388],[0.29133513842478,51.4461796611631],[0.291694593155334,51.4461726358609],[0.291705828946114,51.4463972419798],[0.291717064881673,51.446621848086],[0.291728300962013,51.4468464541795],[0.291739537187135,51.4470710602604],[0.291750773557044,51.4472956663285],[0.292110236878167,51.4472886394631],[0.292469700054585,51.4472816114986],[0.292458460190492,51.4470570056161],[0.292817921475097,51.4470499766454],[0.29280668000877,51.4468253708431],[0.293166139401566,51.4468183408661],[0.29315489633305,51.4465937351439],[0.292795438687295,51.4466007650281],[0.292784197510668,51.4463761592004],[0.292772956478889,51.44615155336],[0.292761715591952,51.4459269475069],[0.292750474849857,51.4457023416412],[0.292391024047306,51.4457093700549],[0.292031573100045,51.4457163973695],[0.291672122008097,51.4457234235851],[0.291312670771486,51.4457304487017],[0.291301437161964,51.445505842452],[0.290941987527649,51.4455128663767],[0.29093075580979,51.4452882600214],[0.29091952423665,51.4450636536535],[0.291278970377153,51.4450566299144],[0.29126773720186,51.4448320236266],[0.291256504171306,51.4446074173261],[0.291245271285489,51.444382811013],[0.291234038544404,51.4441582046871],[0.290874599391253,51.444165228055],[0.290863368541681,51.4439406216237],[0.290503930990712,51.4439476437998],[0.290144493295168,51.4439546648769],[0.289785055455067,51.4439616848551],[0.289773829990493,51.4437370781327],[0.289414393752629,51.4437440969192],[0.289054957370259,51.4437511146066],[0.288695520843404,51.4437581311951],[0.288684300763712,51.4435335241818],[0.288324865839149,51.4435405395785],[0.288313647650753,51.4433159324598],[0.287954214328487,51.4433229466649],[0.287942998031342,51.4430983394408],[0.287931781878711,51.442873732204],[0.287572351905438,51.4428807451246],[0.287561137643989,51.4426561377825],[0.287201709273001,51.4426631495115],[0.286842280757653,51.4426701601415],[0.286853491525758,51.4428947676691],[0.286864702438308,51.443119375184],[0.28650527028525,51.4431263849006],[0.286145837987872,51.4431333935181],[0.285786405546198,51.4431404010367],[0.285426972960249,51.4431474074564],[0.285067540230049,51.443154412777],[0.284708107355619,51.4431614169987],[0.284348674336982,51.4431684201215],[0.28398924117416,51.4431754221452],[0.284000438257325,51.4434000303888],[0.283641003203601,51.4434070314062],[0.283281568005737,51.4434140313247],[0.282922132663754,51.4434210301441],[0.282562697177672,51.4434280278646],[0.282573887418041,51.4436526364659],[0.282933324650891,51.4436456386529],[0.282944516782232,51.4438702471489],[0.282955709057781,51.4440948556323],[0.282966901477538,51.444319464103],[0.282978094041507,51.4445440725611],[0.28298928674969,51.4447686810065],[0.282629840782649,51.4447756792826],[0.282641031888143,51.4450002878079],[0.282652223137834,51.4452248963206],[0.282663414531723,51.4454495048206],[0.282674606069813,51.445674113308],[0.282685797752107,51.4458987217827],[0.28232634290621,51.4459057194227],[0.282337532985688,51.4461303279774],[0.282348723209354,51.4463549365194],[0.282359913577208,51.4465795450487],[0.282000453346093,51.4465865418674],[0.282011642111047,51.4468111504766],[0.282022831020171,51.4470357590732],[0.281663369971098,51.4470427556796],[0.281674556626185,51.4472673641929],[0.281315112483324,51.4472743644555],[0.281326297697878,51.4474989730773],[0.28096685184794,51.4475059723658],[0.280978035621919,51.4477305810961],[0.280618588064898,51.4477375794104],[0.28062977039826,51.4479621882492],[0.280270321134151,51.4479691855893],[0.280281502026854,51.4481937945366],[0.279922051055651,51.4482007909024],[0.279910871736886,51.4479761818321],[0.279551422206486,51.4479831769776],[0.279191972542972,51.4479901710259],[0.279203148713852,51.4482147803422],[0.278843697343297,51.4482217734162],[0.278854872073408,51.4484463828411],[0.278495418995807,51.4484533749408],[0.278484245839664,51.448228765393],[0.278473072816675,51.4480041558305],[0.278832522746361,51.4479971639768],[0.278821348282598,51.4477725545229],[0.279180796505285,51.4477655616949],[0.279169620600789,51.4475409523494],[0.279158444829482,51.4473163429893],[0.279517889771294,51.4473093493102],[0.279506712559316,51.4470847400585],[0.279866155794162,51.4470777454051],[0.279854977141552,51.446853136262],[0.280214418669439,51.4468461406344],[0.280203238576241,51.4466215315998],[0.280192058616287,51.4463969225506],[0.280180878789572,51.4461723134868],[0.280540315462946,51.4461653171311],[0.280529134195722,51.4459407081758],[0.280888569162191,51.4459337108459],[0.2808773864545,51.4457091019991],[0.281236819714071,51.4457021036952],[0.281248003995485,51.4459267124189],[0.281607438695584,51.4459197128947],[0.281596252840449,51.445695104294],[0.281585067118633,51.4454704956787],[0.281573881530132,51.4452458870489],[0.281214451551131,51.445252886204],[0.281225635565954,51.4454774949569],[0.280866203880085,51.4454844931378],[0.280855021438943,51.4452598842619],[0.280843839131072,51.4450352753714],[0.280832656956472,51.4448106664664],[0.280473229858417,51.444817663181],[0.280113802627219,51.4448246587985],[0.280102623733127,51.4446000496329],[0.280462049390703,51.4445930541384],[0.280821474915137,51.4445860575468],[0.281180900306408,51.4445790598581],[0.281169716824742,51.444354451047],[0.281158533476357,51.4441298422213],[0.281147350261255,51.4439052333811],[0.28113616717943,51.4436806245263],[0.281124984230882,51.443456015657],[0.280765566707389,51.4434630127305],[0.280754385465607,51.4432384037235],[0.281113801415609,51.443231406773],[0.281473217232442,51.4432244087255],[0.281462032976971,51.4429997999501],[0.281450848854791,51.4427751911601],[0.281091436184876,51.4427821889616],[0.281102618733608,51.4430067978746],[0.280743204357078,51.443013794702],[0.280732023381797,51.442789185666],[0.280720842539762,51.4425645766154],[0.281080253769412,51.442557580034],[0.281069071487212,51.4423329710919],[0.281428481010293,51.4423259735365],[0.281417299844259,51.442101365678],[0.281776711043444,51.4420943680597],[0.281765531670765,51.4418697616052],[0.281406122688705,51.4418767592843],[0.281046716173288,51.4418837565492],[0.281057891710548,51.4421083630425],[0.280698483440906,51.4421153593084],[0.280687309521942,51.4418907527156],[0.280327902734691,51.4418977477836],[0.279968495811554,51.4419047417531],[0.279979666493918,51.4421293485449],[0.279990842119094,51.4423539571757]]],[[[0.300232729035774,51.4514012989577],[0.300244010580135,51.4516259081739],[0.300603514873401,51.4516188607295],[0.300614798395164,51.4518434698085],[0.300974304365178,51.4518364211439],[0.30098558986439,51.4520610300856],[0.300626082067315,51.4520680788729],[0.300266574119947,51.4520751265627],[0.300277856115406,51.4522997357353],[0.300289138261236,51.4525243448932],[0.300648649862798,51.452517296958],[0.300659933986134,51.4527419059786],[0.30067121825987,51.4529665149848],[0.300682502684008,51.4531911239763],[0.300322985600978,51.4531981722797],[0.300334268348318,51.4534227813793],[0.300345551246043,51.4536473904644],[0.300356834294154,51.453871999535],[0.300716356858863,51.4538649508635],[0.301075879273258,51.4538579010945],[0.30106459257065,51.4536332922694],[0.301424113007463,51.4536262415256],[0.301783633293918,51.4536191896844],[0.301794923651012,51.453843798264],[0.302154445614324,51.4538367452026],[0.302513967427227,51.4538296910437],[0.3028734890897,51.4538226357873],[0.303233010601715,51.4538155794334],[0.303592531963252,51.4538085219821],[0.303952053174285,51.4538014634333],[0.303963354645396,51.4540260712617],[0.303974656267134,51.4542506790756],[0.3039859580395,51.4544752868749],[0.303997259962496,51.4546998946596],[0.30435678833213,51.4546928345221],[0.304716316551203,51.4546857732871],[0.304727622279511,51.4549103808116],[0.305087152175335,51.4549033183563],[0.305446681920548,51.4548962548035],[0.305435372537572,51.4546716475246],[0.30579490030482,51.4546645829972],[0.305783589245264,51.4544399758266],[0.305772278336456,51.4542153686414],[0.306131802298464,51.4542083032621],[0.306120489713144,51.4539836961852],[0.30610917727859,51.4537590890937],[0.306468697435437,51.4537520228627],[0.306457383324439,51.4535274158794],[0.306816901503388,51.4535203486738],[0.30680558571599,51.4532957417988],[0.3067942700794,51.4530711349092],[0.3071537844533,51.4530640668518],[0.307513298676467,51.4530569976971],[0.307501979536415,51.4528323910386],[0.3078614917817,51.4528253209093],[0.308221003876207,51.4528182496826],[0.308209681232795,51.4525936432553],[0.308198358740276,51.4523690368135],[0.308557867029806,51.4523619647351],[0.308569191349403,51.4525865710541],[0.308928701315187,51.4525794977555],[0.309288211130127,51.4525724233594],[0.309299539254826,51.452797029418],[0.30931086753049,51.4530216354619],[0.309322195957118,51.4532462414913],[0.309681711102532,51.4532391656291],[0.310041226097045,51.4532320886695],[0.310400740940632,51.4532250106124],[0.310760255633272,51.453217931458],[0.310748919898107,51.4529933259204],[0.311108432612648,51.4529862457915],[0.311097095201438,51.4527616403622],[0.311456605937883,51.4527545592589],[0.311445266850676,51.452529953938],[0.311804775609032,51.4525228718603],[0.311793434845873,51.4522982666478],[0.312152941626145,51.4522911835956],[0.312141599187082,51.4520665784915],[0.312130256899162,51.4518419733727],[0.312489759874353,51.4518348894692],[0.312478415910596,51.4516102844588],[0.312837916907737,51.4516031995809],[0.312826571268191,51.4513785946789],[0.312815225779825,51.4511539897623],[0.313174722971998,51.4511469040331],[0.31316337580791,51.4509222992249],[0.313522871022069,51.4509152125214],[0.313511522182306,51.4506906078216],[0.313871015418456,51.4506835201437],[0.313859663395128,51.450458913625],[0.314219154439405,51.4504518246718],[0.314207796892002,51.4502272132599],[0.313848307827348,51.4502343023717],[0.313488818601844,51.4502413903682],[0.313129329215515,51.4502484772497],[0.312769839668387,51.450255563016],[0.312410349960486,51.4502626476672],[0.312050860091839,51.4502697312032],[0.312039514583,51.4500451207459],[0.311680026533247,51.4500522033255],[0.311320538322802,51.4500592847899],[0.31096104995169,51.4500663651391],[0.310601561419938,51.4500734443733],[0.310242072727573,51.4500805224924],[0.310230737277493,51.4498559128314],[0.310219401988072,51.4496313031736],[0.310208066859306,51.449406693519],[0.310196731891192,51.4491820838677],[0.310556212665304,51.449175005114],[0.310915693278814,51.4491679252454],[0.311275173731695,51.4491608442616],[0.311634654023921,51.4491537621628],[0.311645996910122,51.4493783724487],[0.312005479021182,51.4493712893933],[0.311994134155466,51.4491466789489],[0.312353614126304,51.4491395946199],[0.312713093936411,51.4491325091758],[0.313072573585757,51.4491254226166],[0.31343205307432,51.4491183349424],[0.313420700451446,51.4488937238668],[0.313409347989443,51.4486691127945],[0.313049872459813,51.4486762007859],[0.312690396769404,51.4486832876622],[0.312330920918241,51.4486903734234],[0.311971444906352,51.4486974580696],[0.311611968733762,51.4487045416007],[0.311623311298468,51.4489291518801],[0.311263832985735,51.4489362341376],[0.311252492400496,51.4487116240167],[0.310893015906582,51.4487187053177],[0.31090435451235,51.4489433152799],[0.310544875878339,51.4489503953072],[0.310185397083727,51.4489574742195],[0.31017406243691,51.4487328645745],[0.310533539252044,51.4487257855036],[0.310522202786419,51.4485011757032],[0.31051086648146,51.4482765659059],[0.310499530337164,51.4480519561118],[0.31085900105343,51.4480448754501],[0.310847663090421,51.4478202655006],[0.310836325288093,51.4475956555543],[0.311195791885027,51.4475885734603],[0.311184452264059,51.4473639633586],[0.311173112803791,51.4471393532601],[0.311161773504224,51.4469147431648],[0.31152123400264,51.44690765948],[0.311880694340405,51.4469005746803],[0.311869351243047,51.446675964271],[0.312228809440894,51.4466688781976],[0.312217464525066,51.446444267633],[0.312576920583001,51.4464371802861],[0.312565573848752,51.4462125695661],[0.312206119770004,51.4462196570715],[0.312194775175704,51.4459950465133],[0.312183430742163,51.4457704359582],[0.312172086469381,51.4455458254064],[0.312160742357351,51.4453212148577],[0.312149398406074,51.4450966043123],[0.312508842589264,51.4450895160141],[0.312497496819699,51.4448649053133],[0.312486151210903,51.4446402946156],[0.312474805762876,51.4444156839212],[0.312463460475614,51.44419107323],[0.312452115349115,51.443966462542],[0.312440770383375,51.4437418518572],[0.312800202532024,51.4437347614928],[0.312788855748156,51.4435101506527],[0.312777509125067,51.4432855398157],[0.312766162662753,51.443060928982],[0.313125588714114,51.4430538370272],[0.313114240433766,51.4428292260381],[0.313102892314214,51.4426046150522],[0.313462314247254,51.4425975216656],[0.313450964309739,51.4423729105244],[0.313439614507703,51.4421483003914],[0.313799032336389,51.4421412057779],[0.313787680687339,51.4419165998991],[0.314147096462515,51.4419095041987],[0.314135743071353,51.4416848983288],[0.314124389835929,51.441460292451],[0.314113036756239,51.4412356865653],[0.314472446682332,51.4412285898114],[0.314461091860622,51.4410039839345],[0.314449737194667,51.4407793780498],[0.314809143169585,51.4407722802257],[0.314797786761678,51.4405476743498],[0.314786430509544,51.440323068466],[0.314775074413179,51.4400984625744],[0.314763718472582,51.4398738566748],[0.314404320088327,51.4398809544319],[0.314415674131295,51.4401055603482],[0.314056273693728,51.4401126570184],[0.313696873100502,51.440119752585],[0.313685522852803,51.4398951466352],[0.313326124001583,51.4399022410815],[0.31331477580719,51.4396776351071],[0.312955378697981,51.4396847284331],[0.312966724994756,51.4399093344242],[0.312607325832348,51.4399164266632],[0.312247926514383,51.4399235177987],[0.31223658401285,51.4396989117742],[0.31187718643698,51.4397060017893],[0.311517788705604,51.4397130907008],[0.311158390818748,51.4397201785088],[0.310798992776438,51.4397272652131],[0.310439594578698,51.4397343508139],[0.310080196225552,51.439741435311],[0.309720797717025,51.4397485187045],[0.309361399053142,51.4397556009944],[0.309002000233928,51.4397626821807],[0.308642601259407,51.4397697622634],[0.308283202129605,51.4397768412425],[0.307923802844546,51.439783919118],[0.307564403404253,51.4397909958899],[0.307205003808754,51.4397980715582],[0.306845604058072,51.4398051461229],[0.306486204152231,51.4398122195839],[0.306126804091257,51.4398192919414],[0.305767403875174,51.4398263631952],[0.305408003504007,51.4398334333454],[0.305048602977781,51.4398405023921],[0.304689202296521,51.4398475703351],[0.304329801460251,51.4398546371745],[0.303970400468995,51.4398617029103],[0.303610999322779,51.4398687675424],[0.303251598021628,51.439875831071],[0.302892196565566,51.4398828934959],[0.302903489727973,51.4401074999514],[0.30254408621933,51.4401145612892],[0.302184682555822,51.4401216215233],[0.302195972077759,51.4403462280038],[0.301836566361688,51.4403532871507],[0.3018478541408,51.4405778936397],[0.301488446372161,51.4405849516995],[0.301499732408403,51.440809558197],[0.30114032258719,51.4408166151696],[0.301151606880513,51.4410412216756],[0.300792195006722,51.441048277561],[0.300803477557078,51.4412728840756],[0.300444063630704,51.4412799388736],[0.300455344438044,51.4415045453967],[0.300095928459084,51.4415115991075],[0.300107207523359,51.4417362056391],[0.299747789491808,51.4417432582626],[0.29938837130557,51.4417503097824],[0.299399646728822,51.4419749163389],[0.299040226490011,51.4419819667714],[0.299051499937306,51.4422065732139],[0.298692077531857,51.4422136224856],[0.298332655019542,51.4422206703443],[0.298343921534795,51.4424452749139],[0.297984497505061,51.4424523196103],[0.297995762418883,51.4426769242602],[0.297636336497516,51.4426839679507],[0.297276910431133,51.4426910105422],[0.297288171996854,51.4429156153653],[0.296928744038853,51.4429226569509],[0.296940004003028,51.4431472618542],[0.296580574153403,51.4431543024339],[0.296221144158825,51.4431613419146],[0.296232400774732,51.4433859469911],[0.296243657535679,51.4436105520549],[0.296254914441669,51.443835157106],[0.295895479062056,51.4438421957665],[0.295906734366343,51.4440668008979],[0.295917989815655,51.4442914060165],[0.296277428688785,51.4442843671701],[0.296288686029916,51.4445089721831],[0.296648126504893,51.4445019321448],[0.296659385737889,51.4447265370522],[0.297018827814707,51.4447194958219],[0.297030088939613,51.4449441006236],[0.29738953261827,51.4449370582015],[0.297378269746534,51.4447124534927],[0.297737711533346,51.4447054100645],[0.297726447059929,51.444480805436],[0.297715182731654,51.4442562007948],[0.298074620879847,51.4442491564535],[0.298434059289168,51.4442421109846],[0.298793499664579,51.4442350642575],[0.299152939880282,51.4442280164156],[0.299164211784222,51.4444526212315],[0.299523653819228,51.4444455724336],[0.299883095694472,51.444438522521],[0.299894371716379,51.4446631276577],[0.30025381541089,51.4446560767891],[0.300265093571776,51.4448806820879],[0.300624539085549,51.4448736302633],[0.300635819385462,51.445098235724],[0.30099526671849,51.4450911829434],[0.301006549157481,51.4453157885662],[0.30101783175645,51.4455403941921],[0.300658380465143,51.445547446655],[0.300669661244916,51.4457720521252],[0.300310207814575,51.4457791033144],[0.300321486775104,51.4460037086289],[0.300680942184649,51.4459966575985],[0.300692223284344,51.446221263075],[0.300703504544002,51.4464458685547],[0.300344045175975,51.4464529192673],[0.299984585648106,51.446459968865],[0.299973308346957,51.4462353637031],[0.299613850638535,51.4462424123448],[0.299254392770326,51.4462494598717],[0.299265666112952,51.4464740647158],[0.299276939615447,51.4466986695631],[0.299636401442207,51.4466916223541],[0.299995863109173,51.4466845740301],[0.300007140730159,51.4469091791983],[0.300018418511069,51.4471337843697],[0.29965895288546,51.4471408323759],[0.299299487100053,51.4471478792672],[0.298940021154877,51.4471549250435],[0.298580555049954,51.447161969705],[0.298591825073338,51.4473865742439],[0.298232359141548,51.4473936189734],[0.298243627249142,51.4476182233438],[0.297884162896882,51.4476252690797],[0.297895429402556,51.4478498735304],[0.298254895501935,51.4478428277016],[0.29826616389993,51.4480674320466],[0.29790669605341,51.4480744779685],[0.297917962849447,51.4482990823938],[0.29827743244313,51.448292036379],[0.298636906765196,51.4482849924311],[0.298648177587754,51.4485095969857],[0.298659448570155,51.4487342015435],[0.299018928531169,51.4487271579944],[0.299378408332418,51.4487201133304],[0.299737887973877,51.4487130675513],[0.299749165054739,51.448937672589],[0.299760442295524,51.4491622776298],[0.299771719696235,51.4493868826737],[0.299782997256875,51.4496114877208],[0.299794274977446,51.4498360927711],[0.300153764357001,51.4498290466715],[0.300513253576699,51.449821999457],[0.300872742636514,51.4498149511274],[0.301232231536423,51.4498079016827],[0.301220945897339,51.4495832959969],[0.301580432657692,51.4495762452784],[0.301939919258087,51.4495691934448],[0.302299405698499,51.4495621404962],[0.302658891978902,51.4495550864326],[0.302670185536452,51.4497796927537],[0.303029673636429,51.4497726377339],[0.303389161576343,51.449765581599],[0.303748649356167,51.449758524349],[0.303737349859796,51.4495339175514],[0.304096835499903,51.4495268590276],[0.30445632097987,51.4495197993887],[0.304445017684555,51.4492951922767],[0.304804501024787,51.449288131364],[0.305163984204831,51.4492810693363],[0.305523467224662,51.4492740061935],[0.305882950084252,51.4492669419357],[0.306242432783577,51.4492598765629],[0.306231119750811,51.4490352686602],[0.306590600310312,51.4490282020136],[0.30660191532261,51.4492528100749],[0.306961397701326,51.449245742472],[0.307320879919698,51.449238673754],[0.3076803619777,51.4492316039209],[0.308039843875307,51.4492245329728],[0.308051166966206,51.4494491416722],[0.307691683089053,51.4494562124616],[0.307703004360885,51.4496808210055],[0.307343518343761,51.4496878905212],[0.307354837796475,51.4499124989095],[0.307366157409649,51.4501371073011],[0.307006667272922,51.4501441753842],[0.307017985066906,51.4503687836202],[0.307029302306006,51.4505933914547],[0.307040618110812,51.4508179983819],[0.306681122007187,51.4508250652107],[0.306321625752879,51.4508321309421],[0.306310313601873,51.4506075237692],[0.305950819023809,51.4506145882804],[0.305962129347911,51.4508391955762],[0.305602632792308,51.4508462591129],[0.305243136086094,51.4508533215523],[0.304883639229292,51.4508603828944],[0.304524142221924,51.4508674431391],[0.304535445389021,51.4510920509115],[0.304175946404174,51.4510991101817],[0.303816447268806,51.4511061683544],[0.303456947982943,51.4511132254299],[0.303097448546608,51.4511202814079],[0.303108744556472,51.4513448896569],[0.303120040716885,51.4515694978913],[0.303131337027848,51.4517941061111],[0.302771831960072,51.4518011613601],[0.302412326741863,51.4518082155117],[0.302401034084945,51.4515836070463],[0.30238974157853,51.4513589985664],[0.302378449222616,51.4511343900719],[0.302018949335007,51.4511414427578],[0.30165944929702,51.4511484943464],[0.30129994910868,51.4511555448376],[0.300940448770011,51.4511625942314],[0.300580948281034,51.4511696425278],[0.300592231502025,51.4513942516359],[0.300232729035774,51.4514012989577]]],[[[0.310434743570979,51.4538988275064],[0.310446078083184,51.4541234331085],[0.310457412746438,51.454348038696],[0.310816936575078,51.4543409589268],[0.310805600084578,51.4541163534623],[0.310794263745149,51.4538917479831],[0.31078292755679,51.4536671424893],[0.31042340920982,51.4536742218897],[0.310412074999706,51.4534496162584],[0.310052558328961,51.4534566944383],[0.310063890711897,51.4536813001926],[0.310075223245853,51.4539059059323],[0.310434743570979,51.4538988275064]]],[[[0.302884785079055,51.4540472439841],[0.302525261589326,51.4540542993632],[0.302536555901956,51.4542789076682],[0.302547850365122,51.4545035159586],[0.302559144978825,51.4547281242344],[0.302570439743067,51.4549527324956],[0.302929970542058,51.4549456766254],[0.302918673950466,51.454721068487],[0.302907377509435,51.4544964603339],[0.302896081218966,51.4542718521663],[0.303255606385514,51.4542647955669],[0.303244308418326,51.4540401875075],[0.302884785079055,51.4540472439841]]],[[[0.281192083921361,51.4448036686546],[0.281203267669601,51.4450282774366],[0.281562696074944,51.4450212784046],[0.281922136027998,51.4450142812481],[0.281910948416324,51.4447896725376],[0.281899760948797,51.4445650638144],[0.281888573625418,51.4443404550786],[0.281877386446182,51.4441158463301],[0.281866199411087,51.4438912375689],[0.281506770798622,51.4438982349644],[0.281517955587277,51.4441228436815],[0.281529140509236,51.4443474523841],[0.281540325564498,51.4445720610722],[0.281551510753067,51.4447966697457],[0.281192083921361,51.4448036686546]]]]}}