{"type":"Feature","properties":{"code":"E63005055","name":"Lower Higham"},"geometry":{"type":"MultiPolygon","coordinates":[[[[0.471845101927876,51.4308204245089],[0.471857231283507,51.4310450081529],[0.47186936079392,51.4312695917879],[0.471881490459117,51.4314941754139],[0.472240766117962,51.4314865954118],[0.47260004162202,51.4314790143075],[0.472959316971273,51.4314714321012],[0.473318592165693,51.4314638487927],[0.473306455593871,51.4312392653079],[0.473665728906791,51.4312316809326],[0.473653590763214,51.4310070974742],[0.47364145277453,51.4307825140068],[0.473282182914843,51.4307900983114],[0.473270046807633,51.4305655147997],[0.472910778519688,51.4305730979669],[0.472551510076922,51.430580680032],[0.472563642730959,51.4308052636143],[0.472204372406807,51.4308128446127],[0.471845101927876,51.4308204245089]]],[[[0.459641847285354,51.431302099052],[0.460001127228209,51.4312945546473],[0.460360407015094,51.4312870091421],[0.460348333206135,51.4310624241446],[0.460707611081409,51.4310548775963],[0.460695535672864,51.4308302926459],[0.461054811636532,51.4308227450545],[0.461042734628445,51.4305981601512],[0.460683460420347,51.4306057076849],[0.460671385323858,51.4303811227135],[0.460659310383393,51.4301565377317],[0.460647235598949,51.4299319527394],[0.460635160970525,51.4297073677366],[0.460623086498118,51.4294827827233],[0.460982351928701,51.4294752354774],[0.460994428156566,51.4296998204331],[0.461006504540471,51.4299244053784],[0.461018581080417,51.4301489903131],[0.461030657776407,51.4303735752374],[0.46138993007293,51.4303660266607],[0.461749202213403,51.4303584769834],[0.461737122006369,51.4301338921743],[0.462096392235252,51.430126341454],[0.462084310428813,51.429901756692],[0.462443578746112,51.4298942049288],[0.462431495340313,51.4296696202139],[0.462790761746032,51.4296620674077],[0.462778676740919,51.42943748274],[0.463137941235065,51.429429928891],[0.463125854630682,51.4292053442704],[0.463113768182468,51.4289807596394],[0.463473029009652,51.428973204805],[0.463485117213259,51.4291977893784],[0.463497205573059,51.4294223739413],[0.463509294089053,51.4296469584938],[0.463868560026308,51.429639402386],[0.463880650453959,51.4298639868703],[0.464239917990471,51.4298564296043],[0.464599185370757,51.4298488712378],[0.464587091432196,51.4296242868688],[0.464946356900783,51.4296167274594],[0.464958452594795,51.4298413117708],[0.464970548445097,51.4300658960716],[0.465329815304799,51.4300583369816],[0.465341912963411,51.4302829212952],[0.465354010776391,51.4305075055998],[0.465713280584262,51.4304999456117],[0.466072550237761,51.4304923845215],[0.466431819736866,51.4304848223292],[0.466419716744106,51.43026023813],[0.466407613905782,51.4300356539218],[0.466766879797315,51.4300280906977],[0.46675477538688,51.4298035065158],[0.467114039397439,51.4297959422248],[0.467473303253544,51.4297883768318],[0.467461195544529,51.4295637927112],[0.467820457519645,51.4295562262513],[0.467808348238632,51.429331642157],[0.468167608332765,51.4293240746302],[0.468526868272383,51.4293165060014],[0.468538981006369,51.4295410900253],[0.468898242517933,51.4295335202592],[0.469257503874935,51.4295259493911],[0.469616765077352,51.4295183774209],[0.469628883145408,51.4297429613302],[0.469641001368094,51.4299675452306],[0.469653119745415,51.430192129122],[0.46929385336343,51.4301997011978],[0.469305970168819,51.4304242851155],[0.469318087128826,51.4306488690242],[0.469330204243452,51.4308734529239],[0.469342321512701,51.4310980368147],[0.468983048069711,51.4311056079294],[0.468623774472142,51.4311131779419],[0.468635888442694,51.4313377618942],[0.468648002567828,51.4315623458375],[0.468660116847549,51.4317869297718],[0.469019395625171,51.4317793596536],[0.469031511786207,51.4320039435438],[0.469390792135967,51.4319963722882],[0.469750072331113,51.4319887999304],[0.469737952716627,51.4317642161108],[0.469725833256795,51.4315396322821],[0.470085109843887,51.4315320588927],[0.470072988812031,51.4313074750903],[0.470432263517798,51.4312999006341],[0.470791538068891,51.4312923250757],[0.471150812465291,51.4312847484152],[0.471138686408162,51.4310601647096],[0.471126560505771,51.4308355809951],[0.47076728956264,51.4308431575851],[0.470408018464821,51.4308507330729],[0.470395896170367,51.4306261492789],[0.470755165541583,51.4306185738263],[0.471114434758112,51.4306109972716],[0.471102309165185,51.4303864135392],[0.471461576500429,51.4303788359177],[0.471820843680946,51.4303712571941],[0.471808714789642,51.4301466735233],[0.471796586053109,51.4299220898435],[0.471784457471346,51.4296975061547],[0.471425195470415,51.4297050847724],[0.471065933314765,51.4297126622881],[0.470706671004417,51.4297202387017],[0.470694547756878,51.4294956548981],[0.470335287018346,51.4295032301745],[0.470323165651972,51.4292786463267],[0.469963906485262,51.4292862204657],[0.469951787000009,51.4290616365737],[0.469939667669402,51.4288370526728],[0.469927548493438,51.4286124687628],[0.469915429472114,51.428387884844],[0.469903310605429,51.4281633009161],[0.469544059916132,51.4281708737769],[0.469184809072243,51.4281784455357],[0.468825558073788,51.4281860161925],[0.468466306920785,51.4281935857473],[0.468478418882003,51.428418169816],[0.468119165848102,51.4284257383041],[0.467759912659697,51.42843330569],[0.467400659316811,51.428440871974],[0.467041405819464,51.428448437156],[0.466682152167679,51.428456001236],[0.466322898361478,51.428463564214],[0.46633500011883,51.4286881484848],[0.465975744431824,51.4286957103959],[0.465616488590445,51.428703271205],[0.465628587049342,51.4289278555372],[0.465640685662614,51.4291524398604],[0.465652784430264,51.4293770241747],[0.465664883352292,51.42960160848],[0.46530562045067,51.4296091683276],[0.465293523255147,51.4293845839872],[0.465281426213982,51.4291599996378],[0.465269329327171,51.4289354152794],[0.465257232594714,51.4287108309121],[0.465245136016606,51.4284862465358],[0.465233039592845,51.4282616621506],[0.465220943323428,51.4280370777564],[0.465580194139976,51.4280295181547],[0.465568096298551,51.4278049337867],[0.465927345234407,51.4277973731182],[0.46591524582102,51.4275727887764],[0.466274492876191,51.427565227041],[0.466262391890885,51.4273406427253],[0.465903146562013,51.4273482044256],[0.465891047457386,51.4271236200658],[0.46625029105998,51.4271160584007],[0.466238190383472,51.4268914740672],[0.466597432105436,51.4268839113353],[0.466585329857094,51.426659327028],[0.466944569698432,51.4266517632293],[0.466932465878302,51.4264271789481],[0.467291703839021,51.4264196140827],[0.467279598447145,51.4261950298278],[0.46763883452725,51.4261874638956],[0.467626727563674,51.4259628796669],[0.467267493209724,51.4259704455639],[0.467255388126756,51.425745861291],[0.46689615534451,51.4257534260509],[0.466908258701344,51.425978010359],[0.466549024038554,51.4259855740521],[0.466536922407858,51.4257609897089],[0.466177689316823,51.425768552265],[0.466165589566652,51.4255439678777],[0.465806358047376,51.4255515292968],[0.465794260546645,51.4253269451995],[0.465435030595959,51.4253345054739],[0.465075800490141,51.4253420646461],[0.465087894545833,51.4255666488292],[0.464728661131258,51.4255742080635],[0.464369427256917,51.4255817664349],[0.464010193226378,51.425589323706],[0.463998104419036,51.4253647394153],[0.463986015918845,51.4251401552378],[0.463626785295057,51.4251477113219],[0.463614698750999,51.4249231271039],[0.463255469765337,51.4249306820543],[0.462896240620718,51.4249382359025],[0.462537011317166,51.4249457886487],[0.462177781854702,51.4249533402927],[0.462189861210313,51.4251779246374],[0.462201940724838,51.4254025089733],[0.462214020731515,51.4256270935557],[0.462226101327387,51.425851678459],[0.462238182079345,51.4260762633519],[0.46225026298739,51.4263008482344],[0.462262344051525,51.4265254331063],[0.462274425271752,51.4267500179678],[0.462286506648073,51.4269746028188],[0.462298588180493,51.4271991876593],[0.462310669869012,51.4274237724894],[0.462322751713635,51.427648357309],[0.462334833714364,51.4278729421181],[0.4623469158712,51.4280975269167],[0.462358998184148,51.4283221117049],[0.462718254057541,51.4283145592444],[0.462730338281934,51.4285391439645],[0.462742422662465,51.4287637286741],[0.462383163278386,51.4287712812498],[0.46202390373821,51.428778832725],[0.461664644041956,51.4287863830997],[0.46130538418965,51.4287939323738],[0.460946124181312,51.4288014805475],[0.460586864016966,51.4288090276207],[0.460227603696634,51.4288165735933],[0.459868343220339,51.4288241184654],[0.459509082588105,51.428831662237],[0.459149821799952,51.4288392049081],[0.458790560855904,51.4288467464787],[0.45880262608329,51.4290713318111],[0.458814691466571,51.429295917133],[0.459173955921448,51.4292883754474],[0.459533220220425,51.4292808326612],[0.459545289270497,51.4295054178576],[0.459186023216075,51.4295129607013],[0.459198090666627,51.4297375459448],[0.459210158273102,51.4299621311778],[0.459222226035508,51.4301867164003],[0.459581497356402,51.430179173384],[0.459940768521363,51.4301716292672],[0.460300039530368,51.4301640840497],[0.460312112715304,51.4303886690891],[0.459952839950769,51.4303962143641],[0.459593567030274,51.4304037585386],[0.459605636860103,51.4306283436826],[0.459617706845892,51.4308529288162],[0.45962977698764,51.4310775139393],[0.459641847285354,51.431302099052]]],[[[0.466839509503571,51.4313755956013],[0.466480233252307,51.4313831590364],[0.466468129641781,51.431158574873],[0.466108854962771,51.4311661371708],[0.465749580129358,51.4311736983664],[0.465761680286522,51.4313982826001],[0.46577378059809,51.4316228668248],[0.46613305888489,51.4316153055588],[0.466492337017283,51.4316077431908],[0.466851614995245,51.4316001797205],[0.466839509503571,51.4313755956013]]],[[[0.462775419864514,51.4226923926091],[0.462787501224905,51.4229169769778],[0.463146714196566,51.4229094234146],[0.463505927009295,51.4229018687494],[0.463865139663068,51.4228943129822],[0.463877226573093,51.4231188972471],[0.464236440864783,51.4231113403462],[0.464595654997468,51.4231037823432],[0.464954868971125,51.4230962232382],[0.464942776670424,51.4228716390685],[0.465301987893008,51.422864079916],[0.465289894032651,51.422639495723],[0.464930684528793,51.4226470548901],[0.46491859254623,51.422422470703],[0.464559383963173,51.4224300297128],[0.464547293936496,51.4222054454852],[0.464535204068859,51.4219808612489],[0.464175998920405,51.4219884190932],[0.46381679361296,51.4219959758357],[0.463828879886993,51.4222205601354],[0.463469672623775,51.4222281158075],[0.463481757259974,51.4224527001302],[0.463122548040976,51.422460254732],[0.463134631039295,51.4226848390777],[0.462775419864514,51.4226923926091]]],[[[0.462440367816752,51.4231491138304],[0.462452447698083,51.4233736982132],[0.462093230814786,51.4233812496357],[0.461734013772622,51.423388799956],[0.461374796571613,51.4233963491744],[0.461015579211783,51.4234038972907],[0.460656361693153,51.4234114443049],[0.460668432748598,51.4236360288372],[0.460680503962845,51.4238606133608],[0.460692575335898,51.4240851978756],[0.460704646867758,51.4243097823818],[0.46071671855843,51.4245343668792],[0.460728790407913,51.4247589513678],[0.461088018708681,51.4247514041638],[0.461447246850634,51.4247438558578],[0.46180647483375,51.4247363064496],[0.462165702658003,51.4247287559393],[0.462524930323373,51.4247212043269],[0.462884157829836,51.4247136516125],[0.463243385177368,51.4247060977959],[0.463602612365945,51.4246985428772],[0.46359052613989,51.4244739586418],[0.463578440072834,51.4242493743977],[0.463219216478357,51.4242569292529],[0.462859992724931,51.4242644830061],[0.462847910410903,51.4240398986899],[0.463207132367311,51.4240323449684],[0.463566354164772,51.4240247901448],[0.463554268415703,51.4238002058832],[0.463913488257206,51.4237926499892],[0.46390140087016,51.4235680657505],[0.463889313642123,51.4233434815032],[0.463530097394531,51.4233510373337],[0.463518012122423,51.423126453046],[0.463158797512793,51.4231340077428],[0.462799582744229,51.4231415613376],[0.462440367816752,51.4231491138304]]],[[[0.460381632159548,51.4249910819813],[0.460369561948354,51.4247664974697],[0.460357491895954,51.4245419129494],[0.459998265074713,51.4245494579176],[0.459639038094729,51.4245570017837],[0.459279810956028,51.4245645445477],[0.45892058365863,51.4245720862096],[0.45893264652267,51.4247966708563],[0.458944709545409,51.4250212554943],[0.459303940437019,51.4250137137692],[0.459663171169928,51.425006170942],[0.45967523794565,51.425230755508],[0.460034470316969,51.4252232115472],[0.460022401744112,51.4249986270127],[0.460381632159548,51.4249910819813]]]]}}
